earthquake name,records name,earthquake date,earthquake time,lat,long,depth,mag,stn_code,stn_lat,stn_long,stn_height,rcd_date,rcd_time,frequency,rcd_duration,direction,scale_factor,max_pga,epi_dist,pick_index_manually,pick_index_kalkan,snr_db_kalkan,tc_5sec,tc_4sec,tc_3sec,tc_2sec,tc_1sec,Pd_5sec,Pd_4sec,Pd_3sec,Pd_2sec,Pd_1sec,Pga_5sec,Pga_4sec,Pga_3sec,Pga_2sec,Pga_1sec,Channel,Scale_factor,PGA_ew,Channel.1,Scale_factor.1,PGA_ns
20041005083300.knt,FKI0030410050833.UD,2004-10-05, 08:33:00,35.933,136.377,12,4.8,FKI003,36.0444,136.2279,9,2004-10-05, 08:34:55,100Hz,73,U-D,0.0006340209495401,16.416,18.259130933865237,1540,0.0,0.0,0.3641493488134505,0.3319616571661135,0.3789165233089187,0.3351169366959407,0.3462828671544529,0.0159236003371445,0.0139826466083157,0.0127283015888508,0.0084216044010235,0.0084216044010235,16.364712291724963,16.364712291724963,13.769710335173931,13.769710335173931,13.769710335173931,E-W,0.0006340209495401,30.954,N-S,0.0006340209495401,34.054
20041005083300.knt,FKI0040410050833.UD,2004-10-05, 08:33:00,35.933,136.377,12,4.8,FKI004,35.9789,136.4865,175,2004-10-05, 08:34:54,100Hz,73,U-D,0.0006340209495401,66.658,11.099066044775498,1548,0.0,0.0,0.3859090185888658,0.4098381249795722,0.3949800789409467,0.1989426084483262,0.2219487931051506,0.0422760948047738,0.0422760948047738,0.0422760948047738,0.01261482670878,0.01261482670878,66.78800839909138,66.78800839909138,66.78800839909138,56.62934433851308,56.62934433851308,E-W,0.0006340209495401,336.994,N-S,0.0006340209495401,335.178
20041005083300.knt,FKI0050410050833.UD,2004-10-05, 08:33:00,35.933,136.377,12,4.8,FKI005,35.9067,136.1743,32,2004-10-05, 08:34:55,100Hz,75,U-D,0.0006340209495401,86.832,18.48590081520337,1534,0.0,0.0,0.3568564918066526,0.3251626471170365,0.2952955762104871,0.2790789817132618,0.2921141513826224,0.0326415503630233,0.0326415503630233,0.0299377123475745,0.0118925412139339,0.0118925412139339,86.63212975259731,86.63212975259731,86.63212975259731,30.95657035011998,30.95657035011998,E-W,0.0006340209495401,378.611,N-S,0.0006340209495401,163.733
20041005083300.knt,FKI0060410050833.UD,2004-10-05, 08:33:00,35.933,136.377,12,4.8,FKI006,35.7731,136.1998,127,2004-10-05, 08:34:56,100Hz,63,U-D,0.0006340209495401,26.597,23.89939836998912,1527,0.0,0.0,0.4561571271688676,0.4676835368031594,0.3309443513715261,0.3341690903621473,0.3414763691604784,0.0265169933524064,0.0265169933524064,0.0115533575645749,0.0115533575645749,0.0115533575645749,26.720243810547142,26.720243810547142,21.43313542645905,21.43313542645905,21.43313542645905,E-W,0.0006340209495401,51.131,N-S,0.0006340209495401,30.646
20041005083300.knt,FKI0090410050833.UD,2004-10-05, 08:33:00,35.933,136.377,12,4.8,FKI009,35.4965,135.7519,3,2004-10-05, 08:34:13,100Hz,67,U-D,0.0006340209495401,2.188,74.43622401361122,637,0.0,0.0,1.555252673961364,1.4639585284497472,1.1601212193462531,0.7972675075398006,0.3460131577045937,0.0021233934712126,0.0021233934712126,0.0018892973791419,0.0012457965257179,0.0007605377542397,0.8298468991820277,0.8298468991820277,0.8298468991820277,0.7441226775860864,0.6735238660733963,E-W,0.0006340209495401,7.427,N-S,0.0006340209495401,7.648
20041005083300.knt,FKI0100410050833.UD,2004-10-05, 08:33:00,35.933,136.377,12,4.8,FKI010,35.4904,135.551,2,2004-10-05, 08:34:17,100Hz,60,U-D,0.0006340209495401,1.836,89.35129798965276,478,0.0,0.0,6.476749074460442,5.560738997891246,4.135722602305721,3.3179627013091557,4.022687240186332,0.0100698068555828,0.0095451187932179,0.0077824477038685,0.0077824477038685,0.0077824477038685,0.8212517118904669,0.6252877673315539,0.6237338298675734,0.6237338298675734,0.6237338298675734,E-W,0.0006340209495401,4.876,N-S,0.0006340209495401,4.277
20041005083300.knt,FKI0110410050833.UD,2004-10-05, 08:33:00,35.933,136.377,12,4.8,FKI011,35.9053,136.6706,432,2004-10-05, 08:34:56,100Hz,73,U-D,0.0006340209495401,13.643,26.617691143338423,1563,0.0,0.0,0.5622298931255181,0.5948320863903231,0.4388662748876979,0.4681272230786379,0.4672720544532395,0.0227271847214951,0.0227271847214951,0.0110582111410478,0.0110582111410478,0.0110582111410478,13.602847516704209,9.697959281756727,8.750334041595092,8.750334041595092,8.750334041595092,E-W,0.0006340209495401,38.894,N-S,0.0006340209495401,33.353
20041005083300.knt,GIF0010410050833.UD,2004-10-05, 08:33:00,35.933,136.377,12,4.8,GIF001,36.2742,136.8978,478,2004-10-05, 08:34:10,100Hz,60,U-D,0.0006340209495401,1.068,60.23779503861977,712,0.0,0.0,0.9911850520363354,0.9806494167215688,0.827855761839751,0.8384604177391879,0.9907240054743548,0.0008456449536571,0.000831118768038,0.0007397909239236,0.000738415929946,0.000738415929946,0.375978678464357,0.375978678464357,0.375978678464357,0.304067850372246,0.2621761238614822,E-W,0.0006340209495401,2.956,N-S,0.0006340209495401,3.768
20041005083300.knt,GIF0020410050833.UD,2004-10-05, 08:33:00,35.933,136.377,12,4.8,GIF002,36.2734,137.0253,570,2004-10-05, 08:34:12,100Hz,60,U-D,0.0006340209495401,0.9,69.46203201767386,658,0.0,0.0,0.3962426996560365,0.3830243649515679,0.3750490739533227,0.3173838998603846,0.3268313476167823,0.0007000634509626,0.0007000634509626,0.0007000634509626,0.000605265226132,0.0005526875442596,0.8102968559927848,0.8102968559927848,0.8102968559927848,0.8102968559927848,0.8102968559927848,E-W,0.0006340209495401,2.002,N-S,0.0006340209495401,3.424
20041005083300.knt,GIF0050410050833.UD,2004-10-05, 08:33:00,35.933,136.377,12,4.8,GIF005,36.1536,137.2514,562,2004-10-05, 08:34:15,100Hz,60,U-D,0.0006340209495401,1.558,82.35414915161759,583,0.0,0.0,3.5271658227806304,3.043814230911687,2.3968255511007603,1.517204419474392,0.6655036968499691,0.0055404008794696,0.0054836838058016,0.0054836838058016,0.0046275117285612,0.0030221254542545,1.5585998560273544,1.5585998560273544,1.5585998560273544,1.5585998560273544,1.5585998560273544,E-W,0.0006340209495401,3.76,N-S,0.0006340209495401,5.299
20041005083300.knt,GIF0060410050833.UD,2004-10-05, 08:33:00,35.933,136.377,12,4.8,GIF006,36.0333,136.9528,792,2004-10-05, 08:34:07,100Hz,60,U-D,0.0006340209495401,4.358,52.99595900445091,869,0.0,0.0,1.9201357357080668,1.9312217950061736,1.8859904245535597,1.74746754404046,1.4783733889210369,0.0052140880342334,0.0052140880342334,0.0052140880342334,0.0052140880342334,0.0052140880342334,2.8529270730485523,2.8529270730485523,2.8529270730485523,2.8529270730485523,2.8529270730485523,E-W,0.0006340209495401,9.04,N-S,0.0006340209495401,7.987
20041005083300.knt,GIF0070410050833.UD,2004-10-05, 08:33:00,35.933,136.377,12,4.8,GIF007,36.0378,137.4861,995,2004-10-05, 08:34:09,100Hz,76,U-D,0.0006340209495401,5.779,100.46906853623132,1462,0.0,0.0,0.2296795024573883,0.2422745100506132,0.2470629841665891,0.2880873918242622,0.3231624471593767,0.0010578969878084,0.0010578969878084,0.0010578969878084,0.0010578969878084,0.0006270933858549,1.4551857090087263,1.4551857090087263,1.4551857090087263,1.4551857090087263,0.9593107105548914,E-W,0.0006340209495401,9.956,N-S,0.0006340209495401,9.46
20041005083300.knt,GIF0080410050833.UD,2004-10-05, 08:33:00,35.933,136.377,12,4.8,GIF008,35.9515,137.26,522,2004-10-05, 08:34:18,100Hz,60,U-D,0.0006340209495401,1.262,79.51790069755191,210,0.0,0.0,3.4442640723756277,3.702067195660154,3.958482405925305,4.390848330361021,4.723421383417094,0.005921677866911,0.005921677866911,0.005921677866911,0.005921677866911,0.005921677866911,0.977201951582944,0.977201951582944,0.977201951582944,0.977201951582944,0.7913912880305944,E-W,0.0006340209495401,2.663,N-S,0.0006340209495401,2.299
20041005083300.knt,GIF0090410050833.UD,2004-10-05, 08:33:00,35.933,136.377,12,4.8,GIF009,35.9219,136.8311,450,2004-10-05, 08:34:59,100Hz,62,U-D,0.0006340209495401,4.388,40.90632989085928,1493,0.0,0.0,0.4857230451789997,0.4871753553418128,0.49122888052407,0.5221655925379219,0.5323972580704179,0.0081024345195527,0.0081024345195527,0.0081024345195527,0.0081024345195527,0.0081024345195527,4.2392200573447445,4.2392200573447445,4.2392200573447445,4.2392200573447445,4.2392200573447445,E-W,0.0006340209495401,12.457,N-S,0.0006340209495401,7.627
20041005083300.knt,GIF0110410050833.UD,2004-10-05, 08:33:00,35.933,136.377,12,4.8,GIF011,35.7593,136.9808,245,2004-10-05, 08:34:02,100Hz,68,U-D,0.0006340209495401,8.702,57.74837074186293,1470,0.0,0.0,0.4695099586737138,0.4790162649679607,0.4734923941036324,0.4767937262013914,0.4758841234500715,0.0053135271773296,0.0053135271773296,0.0053135271773296,0.0053135271773296,0.0053135271773296,5.541300841282481,5.541300841282481,5.541300841282481,5.541300841282481,5.541300841282481,E-W,0.0006340209495401,48.193,N-S,0.0006340209495401,55.632
20041005083300.knt,GIF0120410050833.UD,2004-10-05, 08:33:00,35.933,136.377,12,4.8,GIF012,35.6365,136.4882,221,2004-10-05, 08:34:58,100Hz,77,U-D,0.0006340209495401,19.758,34.461389686018,1471,0.0,0.0,0.3697293345650557,0.2400751215376704,0.3168148434340088,0.3440860541162481,0.4099140761136499,0.0189762930328381,0.0026933126188447,0.0019464413493235,0.0019464413493235,0.0019464413493235,14.43514431255586,11.071745332254434,5.895714798162342,4.479472221876405,3.4550603980219474,E-W,0.0006340209495401,76.48,N-S,0.0006340209495401,87.306
20041005083300.knt,GIF0150410050833.UD,2004-10-05, 08:33:00,35.933,136.377,12,4.8,GIF015,35.5454,136.9072,96,2004-10-05, 08:34:10,100Hz,61,U-D,0.0006340209495401,6.306,64.40066613798365,766,0.0,0.0,3.9426182504777216,4.166349990064368,4.148700529926586,3.9199030397245114,3.734684015373076,0.0066677662339405,0.0066677662339405,0.0066677662339405,0.0066677662339405,0.0064362200453922,2.6710494468124786,2.664502780484045,2.664502780484045,2.288020540377695,2.0174195769608607,E-W,0.0006340209495401,8.549,N-S,0.0006340209495401,9.978
20041005083300.knt,GIF0170410050833.UD,2004-10-05, 08:33:00,35.933,136.377,12,4.8,GIF017,35.487,136.5679,42,2004-10-05, 08:34:02,100Hz,65,U-D,0.0006340209495401,7.714,52.50272450429028,1379,0.0,0.0,0.3336652932254116,0.3488966790176208,0.3652905581288303,0.3992154481953282,0.4907999590152836,0.0018373868242821,0.0018373868242821,0.0018373868242821,0.0018373868242821,0.0018373868242821,3.234247789439989,3.234247789439989,3.234247789439989,3.234247789439989,2.2532796680986382,E-W,0.0006340209495401,14.976,N-S,0.0006340209495401,16.026
20041005083300.knt,GIF0180410050833.UD,2004-10-05, 08:33:00,35.933,136.377,12,4.8,GIF018,35.4887,137.5,320,2004-10-05, 08:34:10,100Hz,74,U-D,0.0006340209495401,4.993,112.78725399640446,1555,0.0,0.0,0.3923000498923403,0.400952846517043,0.4088302515453556,0.4324734776074706,0.4283620331953473,0.0051163069036028,0.0051163069036028,0.0051163069036028,0.0051163069036028,0.0051163069036028,4.9908373597171165,4.9908373597171165,4.9908373597171165,4.9908373597171165,4.9908373597171165,E-W,0.0006340209495401,9.365,N-S,0.0006340209495401,7.496
20041005083300.knt,GIF0200410050833.UD,2004-10-05, 08:33:00,35.933,136.377,12,4.8,GIF020,35.4243,136.7553,13,2004-10-05, 08:34:06,100Hz,66,U-D,0.0006340209495401,5.268,66.0841514460849,1207,0.0,0.0,0.266983274136817,0.2666222886548116,0.2241432454615739,0.2633632601535597,0.3019282206513925,0.0010937308614962,0.001085388005103,0.0009229362062384,0.0009229362062384,0.0007676626584506,3.071087334491504,3.071087334491504,3.071087334491504,2.3854389750581486,2.0587382506101464,E-W,0.0006340209495401,10.901,N-S,0.0006340209495401,8.056
20041005083300.knt,GIF0220410050833.UD,2004-10-05, 08:33:00,35.933,136.377,12,4.8,GIF022,35.2834,136.4715,115,2004-10-05, 08:34:13,100Hz,60,U-D,0.0006340209495401,1.752,72.73566655567902,625,0.0,0.0,0.603570852153313,0.6156783047021204,0.6441044382708008,0.6728953935676112,0.7270892088358037,0.002572862041603,0.002572862041603,0.002572862041603,0.002572862041603,0.002572862041603,0.6263603358490866,0.6263603358490866,0.5160994892723261,0.4749207111476047,0.4258653901433072,E-W,0.0006340209495401,4.594,N-S,0.0006340209495401,5.537
20041005083300.knt,GIF0230410050833.UD,2004-10-05, 08:33:00,35.933,136.377,12,4.8,GIF023,35.3882,137.2158,275,2004-10-05, 08:34:09,100Hz,71,U-D,0.0006340209495401,5.329,97.01743325456972,1425,0.0,0.0,0.2502535064053488,0.2485922232432533,0.2543594785618043,0.2617599745834732,0.3234192428518891,0.0028046821115436,0.0028046821115436,0.0028046821115436,0.0028046821115436,0.0014016506396358,5.167634557311777,5.167634557311777,5.167634557311777,5.167634557311777,3.733348390480226,E-W,0.0006340209495401,9.471,N-S,0.0006340209495401,9.239
20041005083300.knt,GIF0240410050833.UD,2004-10-05, 08:33:00,35.933,136.377,12,4.8,GIF024,35.3009,137.387,432,2004-10-05, 08:34:12,100Hz,68,U-D,0.0006340209495401,2.259,115.21763942642217,1406,0.0,0.0,0.5301452125116832,0.5366357049964776,0.5400054619547595,0.5758044222593934,0.7343288111757951,0.0026798593158108,0.0026798593158108,0.0026798593158108,0.0026798593158108,0.0026798593158108,1.3126724820848108,1.3126724820848108,1.3126724820848108,1.3126724820848108,1.3126724820848108,E-W,0.0006340209495401,14.334,N-S,0.0006340209495401,8.642
20041005083300.knt,GIF0260410050833.UD,2004-10-05, 08:33:00,35.933,136.377,12,4.8,GIF026,35.5912,136.7414,145,2004-10-05, 08:34:01,100Hz,72,U-D,0.0006340209495401,9.74,50.2547663670337,1435,0.0,0.0,0.2031490066721767,0.217340743135024,0.2068825315132713,0.2148529688659419,0.3519749445315119,0.0012830541812079,0.001242662367734,0.0011613719304645,0.0011613719304645,0.0007228905065374,4.612810707676768,4.612810707676768,3.837453974466573,3.837453974466573,2.422876724215936,E-W,0.0006340209495401,39.505,N-S,0.0006340209495401,45.408
20041005083300.knt,HYG0050410050833.UD,2004-10-05, 08:33:00,35.933,136.377,12,4.8,HYG005,35.3407,134.8619,75,2004-10-05, 08:34:34,100Hz,60,U-D,0.0006340209495401,1.945,151.9350007531844,1584,0.0,0.0,0.5014473293659779,0.5053432041654318,0.509743382117502,0.5150523016428219,0.5527043218690892,0.003435405850536,0.003435405850536,0.003435405850536,0.003435405850536,0.003435405850536,1.931051863298136,1.931051863298136,1.931051863298136,1.931051863298136,1.931051863298136,E-W,0.0006340209495401,4.54,N-S,0.0006340209495401,4.82
20041005083300.knt,HYG0140410050833.UD,2004-10-05, 08:33:00,35.933,136.377,12,4.8,HYG014,35.0023,134.9999,75,2004-10-05, 08:34:39,100Hz,60,U-D,0.0006340209495401,1.492,162.05611224321942,1340,0.0,0.0,0.7432031220778154,0.7413951037522627,0.7486913354180639,0.7728258685975574,0.7264194881601564,0.0064624042230849,0.0064624042230849,0.0064624042230849,0.0064624042230849,0.0043989220048639,1.4721816420496925,1.4721816420496925,1.4721816420496925,1.4721816420496925,0.7078621620130581,E-W,0.0006340209495401,2.374,N-S,0.0006340209495401,1.673
20041005083300.knt,HYG0150410050833.UD,2004-10-05, 08:33:00,35.933,136.377,12,4.8,HYG015,34.9515,135.2713,195,2004-10-05, 08:34:18,100Hz,71,U-D,0.0006340209495401,1.592,148.1335991723394,1331,0.0,0.0,0.4186533434591787,0.4196351739754203,0.3491464642508746,0.3610150565370915,0.432914631118147,0.0008488125138976,0.0008488125138976,0.0008488125138976,0.0006157788256757,0.0004672581639254,0.8140732466443303,0.8140732466443303,0.8140732466443303,0.6880423177649083,0.2753032955032469,E-W,0.0006340209495401,4.503,N-S,0.0006340209495401,3.92
20041005083300.knt,HYG0170410050833.UD,2004-10-05, 08:33:00,35.933,136.377,12,4.8,HYG017,34.8593,134.5445,24,2004-10-05, 08:34:49,100Hz,60,U-D,0.0006340209495401,0.779,204.5509548786904,1501,0.0,0.0,0.692660591621343,0.6899204848077867,0.6885259274892568,0.7227839252337196,0.7283651486013268,0.0045167080119223,0.0045167080119223,0.0045167080119223,0.0045167080119223,0.0025284018152386,0.7750248726621256,0.7750248726621256,0.7750248726621256,0.6917095520291917,0.3983751598777321,E-W,0.0006340209495401,0.988,N-S,0.0006340209495401,1.344
20041005083300.knt,HYG0240410050833.UD,2004-10-05, 08:33:00,35.933,136.377,12,4.8,HYG024,34.533,134.9904,6,2004-10-05, 08:34:49,100Hz,60,U-D,0.0006340209495401,0.894,200.23071972708493,1512,0.0,0.0,0.7749644029525043,0.7652731369640239,0.7484253786784497,0.751438693094654,0.8066817400982771,0.0091831200296621,0.0091831200296621,0.0091831200296621,0.0091831200296621,0.0079679117667254,0.9266345558184976,0.9266345558184976,0.9266345558184976,0.9266345558184976,0.459839085098998,E-W,0.0006340209495401,3.247,N-S,0.0006340209495401,1.997
20041005083300.knt,ISK0100410050833.UD,2004-10-05, 08:33:00,35.933,136.377,12,4.8,ISK010,36.5419,136.6431,30,2004-10-05, 08:34:04,100Hz,60,U-D,0.0006340209495401,3.753,71.78955061642556,1545,0.0,0.0,0.7228696238470693,0.6815492289875286,0.6808205893545963,0.6342449022868334,0.4549673654409426,0.0056742805523888,0.0056742805523888,0.0056742805523888,0.0056742805523888,0.0041029876131385,3.793659661292852,3.793659661292852,3.793659661292852,3.793659661292852,3.793659661292852,E-W,0.0006340209495401,2.588,N-S,0.0006340209495401,2.757
20041005083300.knt,ISK0120410050833.UD,2004-10-05, 08:33:00,35.933,136.377,12,4.8,ISK012,36.3575,136.6045,177,2004-10-05, 08:34:01,100Hz,67,U-D,0.0006340209495401,4.733,51.432894634808974,1470,0.0,0.0,0.5865100690881362,0.5827152601227847,0.5577311149676586,0.5933874511371063,0.6427131333091196,0.0034411481750109,0.0034411481750109,0.0034411481750109,0.0034411481750109,0.0034411481750109,4.737337374551532,4.737337374551532,4.737337374551532,4.737337374551532,4.737337374551532,E-W,0.0006340209495401,12.351,N-S,0.0006340209495401,10.123
20041005083300.knt,ISK0130410050833.UD,2004-10-05, 08:33:00,35.933,136.377,12,4.8,ISK013,36.1805,136.6247,477,2004-10-05, 08:34:01,100Hz,62,U-D,0.0006340209495401,12.924,35.40049200284394,1207,0.0,0.0,0.354283785229764,0.4099063920362318,0.4143201530955418,0.42293686364044,0.4581447146531722,0.0069698455078772,0.0038612321468771,0.0038612321468771,0.0038612321468771,0.0038612321468771,6.078716023073446,6.078716023073446,6.078716023073446,6.078716023073446,6.078716023073446,E-W,0.0006340209495401,73.137,N-S,0.0006340209495401,34.54
20041005083300.knt,ISK0140410050833.UD,2004-10-05, 08:33:00,35.933,136.377,12,4.8,ISK014,36.3028,136.3154,4,2004-10-05, 08:34:59,100Hz,79,U-D,0.0006340209495401,3.782,41.4904850387367,1513,0.0,0.0,0.719222461098424,0.7231159680178593,0.6847807009455805,0.7263781206225988,0.7888758310376239,0.0047071497224614,0.0047071497224614,0.0047071497224614,0.0047071497224614,0.0047071497224614,2.2634962014780284,2.2634962014780284,2.2634962014780284,2.2634962014780284,2.2634962014780284,E-W,0.0006340209495401,6.026,N-S,0.0006340209495401,8.209
20041005083300.knt,KGW0020410050833.UD,2004-10-05, 08:33:00,35.933,136.377,12,4.8,KGW002,34.4727,134.3139,4,2004-10-05, 08:34:01,100Hz,60,U-D,0.0006340209495401,0.466,247.98928691733963,1479,0.0,0.0,0.5825330592267146,0.5621876469852566,0.5437448265965973,0.5577472865115741,0.4621832199010913,0.0015995553398111,0.0015995553398111,0.0015995553398111,0.0015995553398111,0.0014550474387478,0.4616959956221304,0.4616959956221304,0.4616959956221304,0.4616959956221304,0.3215739897653425,E-W,0.0006340209495401,1.901,N-S,0.0006340209495401,2.112
20041005083300.knt,KYT0010410050833.UD,2004-10-05, 08:33:00,35.933,136.377,12,4.8,KYT001,35.7406,135.1022,11,2004-10-05, 08:34:11,100Hz,64,U-D,0.0006340209495401,1.676,116.88961587217707,1494,0.0,0.0,0.5571842128275347,0.5306212485223003,0.5282395965601394,0.4931361165715909,0.4925598918622676,0.0029780262576676,0.0029780262576676,0.0029780262576676,0.0029780262576676,0.0029780262576676,1.6720112029541847,1.6720112029541847,1.6720112029541847,1.6720112029541847,1.6720112029541847,E-W,0.0006340209495401,2.552,N-S,0.0006340209495401,2.093
20041005083300.knt,KYT0030410050833.UD,2004-10-05, 08:33:00,35.933,136.377,12,4.8,KYT003,35.6767,135.2919,30,2004-10-05, 08:34:21,100Hz,60,U-D,0.0006340209495401,2.443,101.9199685196891,258,0.0,0.0,3.539176107505446,3.666080622886615,3.96346408895288,4.229383179017331,4.212048186226141,0.0088601136094932,0.0088601136094932,0.0088601136094932,0.0088601136094932,0.0088601136094932,1.4945323800182244,1.4503753614717203,1.4503753614717203,1.4503753614717203,1.423184429001592,E-W,0.0006340209495401,6.33,N-S,0.0006340209495401,6.848
