earthquake name,records name,earthquake date,earthquake time,lat,long,depth,mag,stn_code,stn_lat,stn_long,stn_height,rcd_date,rcd_time,frequency,rcd_duration,direction,scale_factor,max_pga,epi_dist,pick_index_manually,pick_index_kalkan,snr_db_kalkan,tc_5sec,tc_4sec,tc_3sec,tc_2sec,tc_1sec,Pd_5sec,Pd_4sec,Pd_3sec,Pd_2sec,Pd_1sec,Pga_5sec,Pga_4sec,Pga_3sec,Pga_2sec,Pga_1sec,Channel,Scale_factor,PGA_ew,Channel.1,Scale_factor.1,PGA_ns
20030121131900.knt,IBR0130301211319.UD,2003-01-21, 13:19:00,36.363,141.029,47,5.0,IBR013,36.1587,140.4892,28,2003-01-21, 13:20:36,100Hz,119,U-D,0.0002384185791015,15.726,53.464678700461,1431.0,1424.0,41.546559535243695,0.6083600103656683,0.6400192567881122,0.6573385503878016,0.6447897458838342,0.6570413667406196,0.0229180745396938,0.0229180745396938,0.0229180745396938,0.0229180745396938,0.0229180745396938,15.720229925347578,15.720229925347578,15.720229925347578,15.720229925347578,15.720229925347578,E-W,0.0002384185791015,25.574,N-S,0.0002384185791015,26.605
20030121131900.knt,IBR0140301211319.UD,2003-01-21, 13:19:00,36.363,141.029,47,5.0,IBR014,36.0729,140.1947,11,2003-01-21, 13:20:39,100Hz,119,U-D,0.0002384185791015,5.817,81.49960970713943,1427.0,1432.0,22.73492607020684,0.7488107788835248,0.7749022445541031,0.7812934872618428,0.8129090268253891,0.9047983818029688,0.0068319149670602,0.0068319149670602,0.0068319149670602,0.0068319149670602,0.0068319149670602,5.819725221041726,5.819725221041726,5.819725221041726,5.819725221041726,5.819725221041726,E-W,0.0002384185791015,9.855,N-S,0.0002384185791015,8.671
20030121131900.knt,IBR0160301211319.UD,2003-01-21, 13:19:00,36.363,141.029,47,5.0,IBR016,35.9112,140.0494,20,2003-01-21, 13:20:54,100Hz,119,U-D,0.0002384185791015,6.497,101.30345541246194,189.0,188.0,19.469121694044656,7.442836425459645,8.07907984105283,9.016334076378865,9.549018829259916,10.27947188153413,0.0360041795959091,0.0360041795959091,0.0360041795959091,0.0360041795959091,0.0360041795959091,4.276582138069829,4.276582138069829,4.276582138069829,4.276582138069829,1.5539575961797862,E-W,0.0002384185791015,6.965,N-S,0.0002384185791015,7.826
20030121131900.knt,IBR0170301211319.UD,2003-01-21, 13:19:00,36.363,141.029,47,5.0,IBR017,35.9537,140.3194,17,2003-01-21, 13:20:44,100Hz,119,U-D,0.0002384185791015,6.681,78.29281905008983,892.0,907.0,24.359378516250736,0.8559337772261862,0.9159829027006068,0.9134769633733316,0.9751633278338,0.8756253588909579,0.00503361773446,0.00503361773446,0.00503361773446,0.00503361773446,0.00503361773446,2.770694921870236,2.770694921870236,2.770694921870236,2.770694921870236,2.4090967478552017,E-W,0.0002384185791015,7.373,N-S,0.0002384185791015,10.456
20030121131900.knt,IBR0180301211319.UD,2003-01-21, 13:19:00,36.363,141.029,47,5.0,IBR018,35.977,140.6322,39,2003-01-21, 13:20:37,100Hz,119,U-D,0.0002384185791015,8.85,55.77538422803259,1376.0,387.0,23.576475475665617,0.6347310288033341,0.6903231865347219,0.7137673348671235,0.7649929068320609,0.8387590827726851,0.0069493289673097,0.0069493289673097,0.0069493289673097,0.0069493289673097,0.0069493289673097,8.17606732512047,6.012938468209393,4.3700584774817095,4.3700584774817095,4.3700584774817095,E-W,0.0002384185791015,19.429,N-S,0.0002384185791015,14.796
20030121131900.knt,TCG0010301211319.UD,2003-01-21, 13:19:00,36.363,141.029,47,5.0,TCG001,36.9417,140.0828,255,2003-01-21, 13:20:56,100Hz,119,U-D,0.0002384185791015,1.99,106.13869831056076,80.0,75.0,28.6124530917086,1.3196267134030235,1.3387353112634135,1.33653345633309,1.2804943483234397,1.1423556176867231,0.0114486319018346,0.0114486319018346,0.0114486319018346,0.0114486319018346,0.0114486319018346,1.87611624469094,1.87611624469094,1.87611624469094,1.87611624469094,1.87611624469094,E-W,0.0002384185791015,3.884,N-S,0.0002384185791015,2.921
20030121131900.knt,TCG0060301211319.UD,2003-01-21, 13:19:00,36.363,141.029,47,5.0,TCG006,36.7639,140.1297,122,2003-01-21, 13:20:41,100Hz,119,U-D,0.0002384185791015,4.358,91.85880570525951,1390.0,1416.0,18.03983436701041,0.9913327649557964,0.9981720699307391,0.9946894452369202,0.9621595563484892,1.0207504427924057,0.01444913719487,0.01444913719487,0.01444913719487,0.01444913719487,0.01444913719487,4.299821567773119,4.299821567773119,4.299821567773119,4.299821567773119,4.299821567773119,E-W,0.0002384185791015,6.227,N-S,0.0002384185791015,5.339
20030121131900.knt,TCG0120301211319.UD,2003-01-21, 13:19:00,36.363,141.029,47,5.0,TCG012,36.2859,139.8047,33,2003-01-21, 13:20:45,100Hz,119,U-D,0.0002384185791015,3.156,110.01520192118753,1235.0,874.0,18.146465064545065,0.8959360805917268,0.9525852286994926,0.8841355978323706,0.9591260160752896,1.0271265481439311,0.0059880237243503,0.0059880237243503,0.0059880237243503,0.0059880237243503,0.0059880237243503,2.950149139070586,2.950149139070586,2.950149139070586,2.29067235813052,1.556266816114011,E-W,0.0002384185791015,5.861,N-S,0.0002384185791015,5.007
20030121131900.knt,TCG0130301211319.UD,2003-01-21, 13:19:00,36.363,141.029,47,5.0,TCG013,36.4368,140.0225,67,2003-01-21, 13:20:41,100Hz,119,U-D,0.0002384185791015,7.406,90.45455748187976,1374.0,1381.0,30.58342109332569,1.0481868482606302,1.075112905010216,1.0256965661335,1.0309598580251085,1.1296873239577336,0.0142290890609344,0.0142290890609344,0.0142290890609344,0.0142290890609344,0.0142290890609344,7.3802070697141025,7.3802070697141025,7.3802070697141025,7.3802070697141025,6.958821325681752,E-W,0.0002384185791015,7.423,N-S,0.0002384185791015,7.556
20030121131900.knt,TCG0140301211319.UD,2003-01-21, 13:19:00,36.363,141.029,47,5.0,TCG014,36.545,140.1742,130,2003-01-21, 13:20:39,100Hz,119,U-D,0.0002384185791015,16.077,79.08435824382349,1423.0,1432.0,26.69346930140728,0.7019099596836851,0.6211802705223289,0.4900777932523266,0.382608597642042,0.3697820408296798,0.0141760858900198,0.0141760858900198,0.0141760858900198,0.0141203087384976,0.0141203087384976,16.104377667755777,16.104377667755777,16.104377667755777,16.104377667755777,16.104377667755777,E-W,0.0002384185791015,23.121,N-S,0.0002384185791015,28.231
20030123214200.knt,AIC0160301232142.UD,2003-01-23, 21:42:00,33.903,137.27,35,4.5,AIC016,34.7788,136.9087,6,2003-01-23, 21:43:08,100Hz,119,U-D,0.0002384185791015,1.52,102.87895800752206,153.0,4.0,16.974702930137806,1.39954735154991,1.5008873100277973,1.5743501755045666,1.476434045436854,0.9533547693671804,0.0018907259921652,0.0018907259921652,0.0018907259921652,0.0018907259921652,0.001538306299373,0.3519523056076377,0.3519523056076377,0.3519523056076377,0.3519523056076377,0.2697065998843061,E-W,0.0002384185791015,3.608,N-S,0.0002384185791015,2.822
20030123214200.knt,AIC0170301232142.UD,2003-01-23, 21:42:00,33.903,137.27,35,4.5,AIC017,34.6694,137.2633,10,2003-01-23, 21:43:03,100Hz,119,U-D,0.0002384185791015,1.619,85.22201475264121,355.0,353.0,19.551237374778,3.3286987916350967,3.3179998314595043,3.2772811433943065,3.5190960065844443,3.9792724893580567,0.0039577648108025,0.0039577648108025,0.0039577648108025,0.0039577648108025,0.0039577648108025,0.7012845204521974,0.7012845204521974,0.7012845204521974,0.7012845204521974,0.7012845204521974,E-W,0.0002384185791015,2.3,N-S,0.0002384185791015,2.655
20030123214200.knt,MIE0070301232142.UD,2003-01-23, 21:42:00,33.903,137.27,35,4.5,MIE007,34.651,136.3404,82,2003-01-23, 21:43:11,100Hz,119,U-D,0.0002384185791015,3.866,119.21922115277428,70.0,104.0,14.175564122203522,3.278819618867204,3.426815553626353,1.4418265149831209,0.9570049414482688,1.1935556003644523,0.0082000902092046,0.0082000902092046,0.005441814786064,0.0022401329788943,0.002195956148709,0.8061463283097545,0.8061463283097545,0.8061463283097545,0.8061463283097545,0.5929166843753645,E-W,0.0002384185791015,12.192,N-S,0.0002384185791015,13.0
20030123214200.knt,MIE0090301232142.UD,2003-01-23, 21:42:00,33.903,137.27,35,4.5,MIE009,34.5788,136.5276,8,2003-01-23, 21:43:07,100Hz,119,U-D,0.0002384185791015,1.633,101.5078658271134,202.0,-100.0,,2.113458292975563,1.534025264472766,0.8653223399712502,0.8950491268760425,1.186965906652133,0.001508767265677,0.0011630503386107,0.0005959407930899,0.0005959407930899,0.0005959407930899,0.2330408176356594,0.2330408176356594,0.2330408176356594,0.2330408176356594,0.2330408176356594,E-W,0.0002384185791015,3.52,N-S,0.0002384185791015,4.482
20030123214200.knt,MIE0100301232142.UD,2003-01-23, 21:42:00,33.903,137.27,35,4.5,MIE010,34.4908,136.7334,19,2003-01-23, 21:43:02,100Hz,119,U-D,0.0002384185791015,2.615,81.89922202826284,438.0,447.0,5.8866409009657925,9.468070920512456,7.422442683372464,6.05667513843306,6.314889673717016,8.603340914386662,0.138065900210657,0.138065900210657,0.138065900210657,0.138065900210657,0.138065900210657,0.7122222435503122,0.7122222435503122,0.7122222435503122,0.7122222435503122,0.5323388652524702,E-W,0.0002384185791015,8.193,N-S,0.0002384185791015,8.571
20030123214200.knt,MIE0110301232142.UD,2003-01-23, 21:42:00,33.903,137.27,35,4.5,MIE011,34.4283,136.3329,143,2003-01-23, 21:43:08,100Hz,119,U-D,0.0002384185791015,1.828,104.13978593454893,152.0,163.0,23.64750977809908,2.682136721770794,2.5973293126277457,2.8356609928988354,2.8426159955241044,2.6220837890051443,0.0020729282654652,0.0020729282654652,0.0020729282654652,0.0020729282654652,0.0017696499486302,0.4623441287743964,0.4623441287743964,0.4623441287743964,0.4623441287743964,0.4623441287743964,E-W,0.0002384185791015,6.779,N-S,0.0002384185791015,6.03
20030123214200.knt,MIE0130301232142.UD,2003-01-23, 21:42:00,33.903,137.27,35,4.5,MIE013,34.2777,136.4996,2,2003-01-23, 21:43:02,100Hz,119,U-D,0.0002384185791015,4.069,82.27312639453837,459.0,15.0,14.144309948733213,5.812007743684244,5.827538909415123,5.219140515284214,3.157117106148445,1.5189083880022518,0.0103824544716373,0.0103824544716373,0.0103824544716373,0.0087343358017901,0.0039832253278509,0.7430842634561055,0.7430842634561055,0.7430842634561055,0.7430842634561055,0.7430842634561055,E-W,0.0002384185791015,7.745,N-S,0.0002384185791015,6.504
20030123214200.knt,MIE0170301232142.UD,2003-01-23, 21:42:00,33.903,137.27,35,4.5,MIE017,34.3624,136.3348,118,2003-01-23, 21:43:07,100Hz,119,U-D,0.0002384185791015,1.086,100.09220254399874,199.0,206.0,16.42840045435433,1.4220512107781182,1.477024788145702,1.5840339376937749,1.0505644663742133,0.6565512729768037,0.0011317218134366,0.0011317218134366,0.0011317218134366,0.0010012366234587,0.0006835696774292,0.3744599327419557,0.3744599327419557,0.3744599327419557,0.3744599327419557,0.3462082442622453,E-W,0.0002384185791015,2.704,N-S,0.0002384185791015,4.066
20030124221000.knt,GIF0070301242210.UD,2003-01-24, 22:10:00,35.938,137.524,9,2.9,GIF007,36.0378,137.4861,995,2003-01-24, 22:10:48,100Hz,119,U-D,0.0002384185791015,6.408,11.60934166541422,1250.0,1250.0,30.03559871274753,1.5406190861874105,1.44753954486438,0.9152456536834233,0.2632898333872426,0.3907268523117492,0.0065746864028328,0.0065746864028328,0.0061604765738057,0.0031646708929693,0.0008991502800216,6.393640283146953,6.393640283146953,6.393640283146953,6.393640283146953,1.329191040942603,E-W,0.0002384185791015,6.809,N-S,0.0002384185791015,5.906
20030124221000.knt,NGN0180301242210.UD,2003-01-24, 22:10:00,35.938,137.524,9,2.9,NGN018,35.8132,137.5295,1050,2003-01-24, 22:10:48,100Hz,119,U-D,0.0002384185791015,5.578,13.885972078134325,1288.0,1285.0,29.925613633221595,0.8839836568752205,0.8014688394747639,0.3987755023686812,0.1555291730491345,0.1667798322706062,0.0025251532194514,0.0025251532194514,0.0021078781687878,0.0010188851476717,0.0007264221789934,5.578748894538268,5.578748894538268,5.578748894538268,5.578748894538268,3.679603966410386,E-W,0.0002384185791015,16.872,N-S,0.0002384185791015,8.864
20030124221000.knt,NGN0190301242210.UD,2003-01-24, 22:10:00,35.938,137.524,9,2.9,NGN019,35.8562,137.7078,788,2003-01-24, 22:10:50,100Hz,119,U-D,0.0002384185791015,3.885,18.889981180756514,1165.0,1164.0,24.769780671407432,1.0851472791000982,0.9810093171472306,1.027120022935962,2.825853647500323,2.828208805081602,0.0033358859917133,0.0033358859917133,0.0033358859917133,0.0033358859917133,0.0033358859917133,3.9084934347600666,3.9084934347600666,3.9084934347600666,1.227783383825767,1.227783383825767,E-W,0.0002384185791015,5.335,N-S,0.0002384185791015,6.195
20030126031800.knt,GIF0070301260318.UD,2003-01-26, 03:18:00,35.938,137.522,8,2.9,GIF007,36.0378,137.4861,995,2003-01-26, 03:18:50,100Hz,119,U-D,0.0002384185791015,5.072,11.557767442113636,1250.0,1254.0,23.495497043116984,1.261904486597723,1.067471783064882,0.5843805797175384,0.1815786306363838,0.1570279328343469,0.0044571424709978,0.0044571424709978,0.0034364680443474,0.0019984925340288,0.0004658180376182,5.0761719201712925,5.0761719201712925,5.0761719201712925,5.0761719201712925,1.0174663098379613,E-W,0.0002384185791015,6.208,N-S,0.0002384185791015,4.437
20030126031800.knt,NGN0180301260318.UD,2003-01-26, 03:18:00,35.938,137.522,8,2.9,NGN018,35.8132,137.5295,1050,2003-01-26, 03:18:48,100Hz,119,U-D,0.0002384185791015,5.492,13.893570092226884,1483.0,1480.0,30.152158053982248,0.7995941965892643,0.7355752910003096,0.4394893305977122,0.3162270725957721,0.4837057729473721,0.0028383673840282,0.0028383673840282,0.0026531461907626,0.001463180152808,0.0011899350452717,5.4729063385392855,5.4729063385392855,5.4729063385392855,4.774718504731398,3.5802036328312203,E-W,0.0002384185791015,13.341,N-S,0.0002384185791015,12.793
20030126031800.knt,NGN0190301260318.UD,2003-01-26, 03:18:00,35.938,137.522,8,2.9,NGN019,35.8562,137.7078,788,2003-01-26, 03:18:52,100Hz,119,U-D,0.0002384185791015,10.767,19.048070649720803,1162.0,1165.0,24.089108739696734,1.2167172023140709,1.123773379136005,1.1533858239643406,4.402777465183099,2.7304752862986303,0.0050168953341365,0.0050168953341365,0.0050168953341365,0.0045032864333794,0.0038732123369519,10.787272276173674,10.787272276173674,10.787272276173674,1.92060131492542,1.92060131492542,E-W,0.0002384185791015,10.414,N-S,0.0002384185791015,9.155
20030126110800.knt,MIE0160301261108.UD,2003-01-26, 11:08:00,33.853,135.407,47,3.5,MIE016,33.8764,135.9188,63,2003-01-26, 11:09:15,100Hz,119,U-D,0.0002384185791015,7.14,47.32671433247985,694.0,714.0,20.04816881283991,3.691460591104682,3.857712283122405,3.8195147590107306,3.4117334028162065,3.201175735895848,0.0015988106392107,0.0015988106392107,0.0015988106392107,0.0013100685933061,0.0012320390234751,0.7331608336757114,0.7331608336757114,0.7331608336757114,0.7331608336757114,0.7331608336757114,E-W,0.0002384185791015,16.338,N-S,0.0002384185791015,24.443
20030126110800.knt,NAR0080301261108.UD,2003-01-26, 11:08:00,33.853,135.407,47,3.5,NAR008,34.1352,136.0046,330,2003-01-26, 11:09:18,100Hz,119,U-D,0.0002384185791015,1.907,63.40283417360356,567.0,583.0,23.96735069510454,7.155124460838096,5.610357335490878,4.101761312793212,2.133640740180467,0.5839374429658569,0.0039907633321737,0.0037116095773471,0.0029271023385147,0.0022949127979009,0.0005402474655883,1.0175012329084825,1.0175012329084825,1.0175012329084825,1.0175012329084825,1.0175012329084825,E-W,0.0002384185791015,3.164,N-S,0.0002384185791015,3.844
20030126110800.knt,WKY0050301261108.UD,2003-01-26, 11:08:00,33.853,135.407,47,3.5,WKY005,33.8938,135.4883,316,2003-01-26, 11:09:10,100Hz,119,U-D,0.0002384185791015,3.75,8.770333842643394,926.0,924.0,8.240969149456783,27.111304274347965,30.5355325195554,37.175033184066606,52.75948422100901,93.76283119346895,0.1767205546454507,0.1767205546454507,0.1767205546454507,0.1767205546454507,0.1767205546454507,3.680747584395527,3.680747584395527,3.680747584395527,3.680747584395527,3.680747584395527,E-W,0.0002384185791015,15.53,N-S,0.0002384185791015,7.808
20030126110800.knt,WKY0060301261108.UD,2003-01-26, 11:08:00,33.853,135.407,47,3.5,WKY006,33.8908,135.1524,3,2003-01-26, 11:09:12,100Hz,119,U-D,0.0002384185791015,2.498,23.87841098175188,797.0,797.0,19.356910051060083,9.6760123996919,9.920931756016198,10.196750996357476,9.401294254501783,7.960607349335399,0.0073429811247646,0.0073429811247646,0.0073429811247646,0.0073429811247646,0.0073429811247646,2.138777695734865,2.138777695734865,2.138777695734865,2.138777695734865,2.138777695734865,E-W,0.0002384185791015,7.917,N-S,0.0002384185791015,5.723
20030126110800.knt,WKY0070301261108.UD,2003-01-26, 11:08:00,33.853,135.407,47,3.5,WKY007,33.8375,135.7735,59,2003-01-26, 11:09:13,100Hz,119,U-D,0.0002384185791015,3.67,33.890980692979454,766.0,768.0,21.54202011416937,6.010575972329923,6.756787694232028,8.201735873503136,8.688983288675661,8.331822412325097,0.0057044577978555,0.0057044577978555,0.0057044577978555,0.0057044577978555,0.0057044577978555,1.323529983854551,1.323529983854551,1.0881827095153591,1.0881827095153591,1.0881827095153591,E-W,0.0002384185791015,7.465,N-S,0.0002384185791015,7.816
20030126110800.knt,WKY0100301261108.UD,2003-01-26, 11:08:00,33.853,135.407,47,3.5,WKY010,33.5503,135.4972,6,2003-01-26, 11:09:13,100Hz,119,U-D,0.0002384185791015,2.015,34.677557209379266,784.0,791.0,17.616448320258318,6.418574200100005,5.652250089579165,4.835503684555986,3.1113532038591623,1.5624807882899223,0.0068786540236137,0.0068786540236137,0.0068786540236137,0.0061350525218791,0.0031269576809441,1.879155310215976,1.879155310215976,1.879155310215976,1.879155310215976,1.879155310215976,E-W,0.0002384185791015,4.294,N-S,0.0002384185791015,2.951
20030127022200.knt,IWT0080301270222.UD,2003-01-27, 02:22:00,38.856,142.051,46,4.3,IWT008,39.0815,141.7083,50,2003-01-27, 02:23:07,100Hz,119,U-D,0.0002384185791015,1.438,38.81373629662085,770.0,770.0,22.26520062472297,11.1513446171398,11.693132043275153,11.09585412795406,9.704287668468048,7.13580221960505,0.0051905364045537,0.0051905364045537,0.0049718187783019,0.0045179012334852,0.0034791749724625,0.7443274486823885,0.7443274486823885,0.7443274486823885,0.6745008124856643,0.6745008124856643,E-W,0.0002384185791015,2.973,N-S,0.0002384185791015,4.595
20030127022200.knt,IWT0130301270222.UD,2003-01-27, 02:22:00,38.856,142.051,46,4.3,IWT013,39.3367,141.5378,272,2003-01-27, 02:23:13,100Hz,119,U-D,0.0002384185791015,1.695,69.41470400827292,509.0,-100.0,,11.184794226010409,8.795552776246176,5.992587549005379,3.7065726570370967,3.871768415675466,0.5197484296069438,0.5145516194458388,0.4375255275104688,0.3352344565403655,0.3352344565403655,1.5761351692809726,1.5761351692809726,1.5761351692809726,1.5761351692809726,1.5761351692809726,E-W,0.0002384185791015,4.181,N-S,0.0002384185791015,3.918
20030127022200.knt,MYG0010301270222.UD,2003-01-27, 02:22:00,38.856,142.051,46,4.3,MYG001,38.9015,141.5684,48,2003-01-27, 02:23:07,100Hz,119,U-D,0.0002384185791015,13.759,42.08030420843755,804.0,804.0000000000001,37.73366118388071,1.330929564021403,1.4481820930100593,1.5998898695727533,1.7202707634592922,1.401427743452686,0.0026230684905171,0.0026230684905171,0.0026230684905171,0.0026230684905171,0.0026230684905171,2.036592301091781,2.036592301091781,2.036592301091781,2.036592301091781,2.036592301091781,E-W,0.0002384185791015,19.874,N-S,0.0002384185791015,13.136
20030127022200.knt,MYG0020301270222.UD,2003-01-27, 02:22:00,38.856,142.051,46,4.3,MYG002,38.7262,141.5109,79,2003-01-27, 02:23:02,100Hz,119,U-D,0.0002384185791015,12.442,48.98456063780028,1391.0,1394.0,28.401121774175813,1.0639736085909672,0.8393577388139178,0.5460720563607795,0.2049828073007878,0.1046948935003824,0.0022453667695286,0.0021862436369799,0.0018893481101799,0.0009927448760955,0.0009927448760955,5.692566277807052,5.692566277807052,5.692566277807052,5.692566277807052,5.692566277807052,E-W,0.0002384185791015,25.665,N-S,0.0002384185791015,34.344
20030127022200.knt,MYG0030301270222.UD,2003-01-27, 02:22:00,38.856,142.051,46,4.3,MYG003,38.7348,141.3106,28,2003-01-27, 02:23:12,100Hz,119,U-D,0.0002384185791015,3.594,65.56583478067492,567.0,577.0,25.621988542059924,5.70878373362982,5.476546546947812,5.308087920441062,3.8009997998331335,1.8472864496070296,0.0053018699894123,0.0053018699894123,0.0053018699894123,0.0048802628814438,0.0031858196315542,1.5384341346227202,1.5384341346227202,1.5384341346227202,1.5384341346227202,1.5384341346227202,E-W,0.0002384185791015,6.423,N-S,0.0002384185791015,7.588
