earthquake name,records name,earthquake date,earthquake time,lat,long,depth,mag,stn_code,stn_lat,stn_long,stn_height,rcd_date,rcd_time,frequency,rcd_duration,direction,scale_factor,max_pga,epi_dist,pick_index_manually,pick_index_kalkan,snr_db_kalkan,tc_5sec,tc_4sec,tc_3sec,tc_2sec,tc_1sec,Pd_5sec,Pd_4sec,Pd_3sec,Pd_2sec,Pd_1sec,Pga_5sec,Pga_4sec,Pga_3sec,Pga_2sec,Pga_1sec,Channel,Scale_factor,PGA_ew,Channel.1,Scale_factor.1,PGA_ns
20041005083300.knt,KYT0040410050833.UD,2004-10-05, 08:33:00,35.933,136.377,12,4.8,KYT004,35.5354,135.196,20,2004-10-05, 08:34:11,100Hz,70,U-D,0.0006340209495401,5.545,115.40150729374508,1475,0.0,0.0,0.3461034209123182,0.3385320561432471,0.3230838946626828,0.3286545127220752,0.35732172528202,0.0014374360915239,0.0014374360915239,0.0014374360915239,0.0014374360915239,0.0014374360915239,2.196159884719869,2.196159884719869,2.196159884719869,2.196159884719869,2.196159884719869,E-W,0.0006340209495401,17.125,N-S,0.0006340209495401,12.457
20041005083300.knt,KYT0070410050833.UD,2004-10-05, 08:33:00,35.933,136.377,12,4.8,KYT007,35.3057,135.713,402,2004-10-05, 08:34:07,100Hz,62,U-D,0.0006340209495401,3.2,92.01987518646854,1539,0.0,0.0,0.3461503503949469,0.321810673020469,0.3071592380918618,0.3163444816451375,0.3188072510060279,0.0019910232583905,0.0019910232583905,0.0019910232583905,0.0019910232583905,0.0019910232583905,3.20213761674262,3.20213761674262,3.20213761674262,3.20213761674262,3.20213761674262,E-W,0.0006340209495401,4.037,N-S,0.0006340209495401,3.106
20041005083300.knt,KYT0100410050833.UD,2004-10-05, 08:33:00,35.933,136.377,12,4.8,KYT010,35.2098,135.7738,402,2004-10-05, 08:34:19,100Hz,60,U-D,0.0006340209495401,1.556,97.1753728566044,422,0.0,0.0,0.8510360263881319,0.7760188057159076,0.7781039914064516,0.8886504744750153,0.90624491139957,0.0016184137618033,0.0016184137618033,0.0016184137618033,0.0016184137618033,0.0016184137618033,0.6295753132549166,0.6295753132549166,0.6295753132549166,0.6295753132549166,0.6295753132549166,E-W,0.0006340209495401,3.98,N-S,0.0006340209495401,5.886
20041005083300.knt,KYT0130410050833.UD,2004-10-05, 08:33:00,35.933,136.377,12,4.8,KYT013,34.8784,135.8047,82,2004-10-05, 08:34:13,100Hz,71,U-D,0.0006340209495401,2.24,128.22440308908978,1547,0.0,0.0,0.43169500192981,0.4356605084060858,0.4334534983856778,0.4553770603686226,0.470765777882502,0.0084380197989019,0.0084380197989019,0.0084380197989019,0.0084380197989019,0.0084380197989019,1.9176408492538508,1.9176408492538508,1.9176408492538508,1.9176408492538508,1.9176408492538508,E-W,0.0006340209495401,3.252,N-S,0.0006340209495401,3.333
20041005083300.knt,MIE0010410050833.UD,2004-10-05, 08:33:00,35.933,136.377,12,4.8,MIE001,35.1718,136.4943,128,2004-10-05, 08:34:16,100Hz,60,U-D,0.0006340209495401,3.166,85.30416734932176,547,0.0,0.0,1.662671918013836,1.3789212593340427,1.10610868874761,0.7842486856763884,0.4226838989719018,0.0060778474717517,0.006068280048613,0.0057940016697959,0.0049031619767738,0.0015083942280355,1.5242832067503818,1.5242832067503818,1.5242832067503818,1.5242832067503818,0.80803237373846,E-W,0.0006340209495401,6.458,N-S,0.0006340209495401,10.846
20041005083300.knt,MIE0040410050833.UD,2004-10-05, 08:33:00,35.933,136.377,12,4.8,MIE004,34.8569,136.4493,79,2004-10-05, 08:34:12,100Hz,79,U-D,0.0006340209495401,6.367,119.83617998242642,1536,0.0,0.0,0.5460535250042649,0.5379020276959859,0.5364831703115752,0.5656822105568426,0.6383390808595791,0.0059035719705717,0.0059035719705717,0.0059035719705717,0.0059035719705717,0.0059035719705717,2.741125235508935,2.741125235508935,2.741125235508935,2.741125235508935,2.741125235508935,E-W,0.0006340209495401,11.856,N-S,0.0006340209495401,11.775
20041005083300.knt,MIE0070410050833.UD,2004-10-05, 08:33:00,35.933,136.377,12,4.8,MIE007,34.651,136.3404,82,2004-10-05, 08:34:15,100Hz,83,U-D,0.0006340209495401,3.595,142.5905894073286,1560,0.0,0.0,0.3850034135989584,0.3900151798116806,0.4004092638822349,0.4228414305321576,0.5158201192547636,0.003756485522926,0.003756485522926,0.003756485522926,0.003756485522926,0.003756485522926,2.2509750603249805,2.2509750603249805,2.2509750603249805,2.2509750603249805,2.2509750603249805,E-W,0.0006340209495401,15.296,N-S,0.0006340209495401,11.976
20041005083300.knt,NAR0020410050833.UD,2004-10-05, 08:33:00,35.933,136.377,12,4.8,NAR002,34.6683,135.8352,90,2004-10-05, 08:34:17,100Hz,70,U-D,0.0006340209495401,2.27,148.97500614635683,1505,0.0,0.0,0.5077862069459534,0.5045567229654585,0.4541479810758727,0.4582200301105426,0.4255759974806393,0.0072034558030673,0.0072034558030673,0.0072034558030673,0.0072034558030673,0.0072034558030673,2.287562807665149,2.287562807665149,2.287562807665149,2.287562807665149,2.287562807665149,E-W,0.0006340209495401,2.601,N-S,0.0006340209495401,3.285
20041005083300.knt,NGN0180410050833.UD,2004-10-05, 08:33:00,35.933,136.377,12,4.8,NGN018,35.8132,137.5295,1050,2004-10-05, 08:34:10,100Hz,65,U-D,0.0006340209495401,2.686,104.69414062954864,1413,0.0,0.0,0.3208905051069428,0.3301657963221004,0.3121575498726185,0.3135619252124833,0.7082825944689821,0.0018511343479705,0.0018511343479705,0.0018511343479705,0.0018511343479705,0.0018511343479705,1.660396192022794,1.660396192022794,1.660396192022794,1.660396192022794,1.3016434525076297,E-W,0.0006340209495401,4.73,N-S,0.0006340209495401,4.083
20041005083300.knt,NGN0190410050833.UD,2004-10-05, 08:33:00,35.933,136.377,12,4.8,NGN019,35.8562,137.7078,788,2004-10-05, 08:34:26,100Hz,60,U-D,0.0006340209495401,4.913,120.17953402601198,128,0.0,0.0,3.60915270851276,3.976125917372164,4.252921200479129,3.898767907467641,2.872121048888177,0.0055779774412454,0.0055779774412454,0.0055779774412454,0.0054542572388273,0.0048565939399032,0.8057698862616601,0.7930436691570896,0.7885234052224119,0.6464553952559523,0.6366634102050568,E-W,0.0006340209495401,5.971,N-S,0.0006340209495401,6.42
20041005083300.knt,NGN0220410050833.UD,2004-10-05, 08:33:00,35.933,136.377,12,4.8,NGN022,35.6079,137.6125,451,2004-10-05, 08:34:25,100Hz,60,U-D,0.0006340209495401,2.407,117.1806555084471,125,0.0,0.0,1.1926343141010491,1.204164719383746,1.1980294061504178,1.076214399692235,1.1108840742303032,0.0069522673567914,0.0069522673567914,0.0069522673567914,0.0069522673567914,0.0052045857364323,2.29742140845284,2.29742140845284,2.29742140845284,2.29742140845284,1.7358365069178732,E-W,0.0006340209495401,7.465,N-S,0.0006340209495401,7.263
20041005083300.knt,NGN0230410050833.UD,2004-10-05, 08:33:00,35.933,136.377,12,4.8,NGN023,35.5787,138.0338,674,2004-10-05, 08:34:18,100Hz,71,U-D,0.0006340209495401,1.413,154.60480149968896,1381,0.0,0.0,0.503452695502085,0.5022703268066252,0.5084843108671845,0.5102160686693582,0.729665018575565,0.001480293347754,0.001480293347754,0.001480293347754,0.001480293347754,0.0012371769282545,0.9474105959753136,0.9474105959753136,0.9474105959753136,0.9474105959753136,0.5697292849168103,E-W,0.0006340209495401,6.835,N-S,0.0006340209495401,6.37
20041005083300.knt,NGN0240410050833.UD,2004-10-05, 08:33:00,35.933,136.377,12,4.8,NGN024,35.5232,137.8374,538,2004-10-05, 08:34:15,100Hz,77,U-D,0.0006340209495401,5.998,139.47853377815335,1478,0.0,0.0,0.4961787386506807,0.4852437654903113,0.4980965740386602,0.5011292733309395,0.5735896737768222,0.0080059101742149,0.0080059101742149,0.0080059101742149,0.0080059101742149,0.0080059101742149,3.269242519587829,3.269242519587829,3.269242519587829,3.269242519587829,1.5297585969370635,E-W,0.0006340209495401,12.335,N-S,0.0006340209495401,11.19
20041005083300.knt,NGN0250410050833.UD,2004-10-05, 08:33:00,35.933,136.377,12,4.8,NGN025,35.2807,137.8567,400,2004-10-05, 08:34:17,100Hz,74,U-D,0.0006340209495401,2.792,152.16808922228282,1398,0.0,0.0,0.5305848500957588,0.5291515556233389,0.5267494483597176,0.5062367287243609,0.583046185518485,0.0045717921689119,0.0045717921689119,0.0045717921689119,0.0045717921689119,0.0002681908675518,1.4006242058328424,1.4006242058328424,1.4006242058328424,1.4006242058328424,0.1855237994953944,E-W,0.0006340209495401,7.974,N-S,0.0006340209495401,5.892
20041005083300.knt,OKY0030410050833.UD,2004-10-05, 08:33:00,35.933,136.377,12,4.8,OKY003,35.1737,134.3386,323,2004-10-05, 08:34:49,100Hz,60,U-D,0.0006340209495401,0.862,202.80791484401504,1466,0.0,0.0,0.51217421182071,0.4541194636984483,0.4432021211547729,0.3848245893687595,0.3487538456964368,0.0013138997772474,0.0013138997772474,0.0013138997772474,0.0013138997772474,0.0012615848516359,0.863811805890273,0.863811805890273,0.863811805890273,0.863811805890273,0.863811805890273,E-W,0.0006340209495401,1.595,N-S,0.0006340209495401,1.916
20041005083300.knt,OKY0050410050833.UD,2004-10-05, 08:33:00,35.933,136.377,12,4.8,OKY005,35.0098,133.7317,134,2004-10-05, 08:34:05,100Hz,60,U-D,0.0006340209495401,0.763,260.6086285984319,1510,0.0,0.0,0.3928830360287837,0.3862914058483444,0.3725154100954643,0.3605056732060313,0.3664848479200049,0.0012210193592603,0.0012210193592603,0.0012210193592603,0.0012210193592603,0.0012210193592603,0.761752876001286,0.761752876001286,0.761752876001286,0.761752876001286,0.761752876001286,E-W,0.0006340209495401,1.328,N-S,0.0006340209495401,2.061
20041005083300.knt,OSK0010410050833.UD,2004-10-05, 08:33:00,35.933,136.377,12,4.8,OSK001,34.9707,135.39,224,2004-10-05, 08:34:16,100Hz,68,U-D,0.0006340209495401,2.087,139.4339665190158,1397,0.0,0.0,0.2682871225646832,0.2746839360673996,0.2525993515589627,0.2601148312881702,0.4593050734890307,0.0010505347109661,0.0010505347109661,0.0010505347109661,0.0010505347109661,0.0007408304667235,2.080924392150755,2.080924392150755,2.080924392150755,2.080924392150755,0.4748390929849124,E-W,0.0006340209495401,2.996,N-S,0.0006340209495401,3.083
20041005083300.knt,OSK0040410050833.UD,2004-10-05, 08:33:00,35.933,136.377,12,4.8,OSK004,34.7405,135.6394,15,2004-10-05, 08:34:18,100Hz,74,U-D,0.0006340209495401,1.135,148.52230268797356,1404,0.0,0.0,0.653985684757135,0.6447197959636366,0.680405669422365,0.6732600574234496,0.6870247968208795,0.0053626058751175,0.0053626058751175,0.0053626058751175,0.0053626058751175,0.0053626058751175,0.9833886616793244,0.9833886616793244,0.9833886616793244,0.9833886616793244,0.9833886616793244,E-W,0.0006340209495401,3.694,N-S,0.0006340209495401,3.307
20041005083300.knt,SIG0010410050833.UD,2004-10-05, 08:33:00,35.933,136.377,12,4.8,SIG001,35.5398,136.2065,141,2004-10-05, 08:34:00,100Hz,62,U-D,0.0006340209495401,5.085,46.35105189437041,1478,0.0,0.0,0.4283057158876204,0.4460267750413317,0.4554859289497193,0.4603145007742569,0.472140933183676,0.0043091241459971,0.0043091241459971,0.0043091241459971,0.0043091241459971,0.0043091241459971,5.069869332979732,5.069869332979732,5.069869332979732,5.069869332979732,5.069869332979732,E-W,0.0006340209495401,5.478,N-S,0.0006340209495401,8.606
20041005083300.knt,SIG0040410050833.UD,2004-10-05, 08:33:00,35.933,136.377,12,4.8,SIG004,35.3476,135.9184,187,2004-10-05, 08:34:05,100Hz,69,U-D,0.0006340209495401,3.626,77.1660131952798,1508,0.0,0.0,0.3866136424263769,0.3807610010919484,0.3988827601655044,0.4221172739578892,0.4440189674114381,0.0032088703858354,0.0032088703858354,0.0032088703858354,0.0032088703858354,0.0032088703858354,3.3121715005672434,3.3121715005672434,3.3121715005672434,3.3121715005672434,2.7264029587568936,E-W,0.0006340209495401,11.253,N-S,0.0006340209495401,9.469
20041005083300.knt,SIG0060410050833.UD,2004-10-05, 08:33:00,35.933,136.377,12,4.8,SIG006,35.2001,135.921,106,2004-10-05, 08:34:19,100Hz,60,U-D,0.0006340209495401,2.092,91.33738537610444,350,0.0,0.0,1.914539226265466,1.8491903770554603,1.9336800574386468,2.0535837344863785,2.3283107213036063,0.0061935666847905,0.0061935666847905,0.0061935666847905,0.0061935666847905,0.0061935666847905,1.4140010345696117,1.4140010345696117,1.4140010345696117,1.4140010345696117,1.4140010345696117,E-W,0.0006340209495401,2.557,N-S,0.0006340209495401,3.012
20041005083300.knt,SIG0070410050833.UD,2004-10-05, 08:33:00,35.933,136.377,12,4.8,SIG007,35.1339,136.0957,90,2004-10-05, 08:34:07,100Hz,69,U-D,0.0006340209495401,2.643,92.42973084786104,1547,0.0,0.0,0.4757820244454532,0.4591816831414795,0.4723353288263734,0.4789905505494947,0.4868881554236249,0.0033003585623533,0.0033003585623533,0.0033003585623533,0.0033003585623533,0.0032626206729056,2.2221696908857598,2.2221696908857598,2.2221696908857598,2.2221696908857598,2.2221696908857598,E-W,0.0006340209495401,4.324,N-S,0.0006340209495401,8.109
20041005083300.knt,SIG0090410050833.UD,2004-10-05, 08:33:00,35.933,136.377,12,4.8,SIG009,35.0051,136.0854,136,2004-10-05, 08:34:22,100Hz,61,U-D,0.0006340209495401,2.387,106.50335643739336,275,0.0,0.0,3.1195684878402266,3.0820463682999324,3.237882734602492,3.4437218147151603,3.622020752084672,0.0133631534795353,0.0133631534795353,0.0133631534795353,0.0133631534795353,0.0133631534795353,1.8312959191315348,1.8312959191315348,1.8312959191315348,1.8312959191315348,1.3247519079588006,E-W,0.0006340209495401,6.827,N-S,0.0006340209495401,6.428
20041005083300.knt,SIG0100410050833.UD,2004-10-05, 08:33:00,35.933,136.377,12,4.8,SIG010,34.9718,135.8965,110,2004-10-05, 08:34:11,100Hz,66,U-D,0.0006340209495401,1.627,115.40196813509156,1532,0.0,0.0,0.5907306396643728,0.5868669229058873,0.6016314487630205,0.6062758929344162,0.591452297605099,0.0054728395549781,0.0054728395549781,0.0054728395549781,0.0054728395549781,0.0054728395549781,1.597795168076372,1.597795168076372,1.597795168076372,1.597795168076372,1.597795168076372,E-W,0.0006340209495401,3.692,N-S,0.0006340209495401,1.826
20041005083300.knt,SIG0110410050833.UD,2004-10-05, 08:33:00,35.933,136.377,12,4.8,SIG011,34.8779,136.0587,283,2004-10-05, 08:34:14,100Hz,71,U-D,0.0006340209495401,3.845,120.81619451107252,1313,0.0,0.0,0.3939990527079484,0.3975049036453739,0.396114846861033,0.4155330786191662,0.5129620402857356,0.0030888560413805,0.0030888560413805,0.0030888560413805,0.0030888560413805,0.0030888560413805,2.547302159466026,2.547302159466026,2.547302159466026,2.547302159466026,2.324759320520174,E-W,0.0006340209495401,7.89,N-S,0.0006340209495401,10.162
20041005083300.knt,SIG0120410050833.UD,2004-10-05, 08:33:00,35.933,136.377,12,4.8,SIG012,34.9043,136.2307,230,2004-10-05, 08:34:12,100Hz,74,U-D,0.0006340209495401,3.76,115.1518613873044,1420,0.0,0.0,0.461151504749229,0.477660052718672,0.4812488153192187,0.5135158554826227,0.5618791794643386,0.0043051508949636,0.0043051508949636,0.0043051508949636,0.0043051508949636,0.0043051508949636,2.5363561179689564,2.5363561179689564,2.5363561179689564,2.5363561179689564,1.3390647133053095,E-W,0.0006340209495401,10.635,N-S,0.0006340209495401,8.045
20041005083300.knt,SZO0210410050833.UD,2004-10-05, 08:33:00,35.933,136.377,12,4.8,SZO021,35.0969,138.1332,441,2004-10-05, 08:34:44,100Hz,60,U-D,0.0006340209495401,0.781,184.138955958597,1486,0.0,0.0,0.7175542984522567,0.7006779433638386,0.6843125608791014,0.427229794836916,0.4175122922906143,0.0026381500841739,0.0026381500841739,0.0026381500841739,0.0021741101623377,0.0021741101623377,0.7872371903452654,0.7872371903452654,0.7872371903452654,0.7872371903452654,0.7872371903452654,E-W,0.0006340209495401,1.445,N-S,0.0006340209495401,1.563
20041005083300.knt,TYM0100410050833.UD,2004-10-05, 08:33:00,35.933,136.377,12,4.8,TYM010,36.56,136.8872,78,2004-10-05, 08:34:17,100Hz,119,U-D,0.0002384185791015,1.858,83.3909202459867,405,0.0,0.0,2.487790901485336,2.516383004974691,2.596005192586363,2.78266085422839,3.8761841389628255,0.0082537011355224,0.0082537011355224,0.0082537011355224,0.0082537011355224,0.0081031220409895,1.2947269568671522,1.2947269568671522,1.2947269568671522,1.2947269568671522,1.2503398088096906,E-W,0.0002384185791015,6.62,N-S,0.0002384185791015,5.819
20041005083300.knt,TYM0120410050833.UD,2004-10-05, 08:33:00,35.933,136.377,12,4.8,TYM012,36.4411,137.0353,681,2004-10-05, 08:34:16,100Hz,119,U-D,0.0002384185791015,2.263,81.7452775045791,454,0.0,0.0,1.156826629144784,1.1915095858953897,1.2146493658829536,1.2335078833323363,1.1012356571721411,0.0009843254557053,0.0009843254557053,0.0009843254557053,0.0009843254557053,0.0003899238447337,0.349840897205388,0.349840897205388,0.349840897205388,0.349840897205388,0.2456112580690865,E-W,0.0002384185791015,4.425,N-S,0.0002384185791015,3.906
20041005083500.knt,FKI0010410050835.UD,2004-10-05, 08:35:00,35.923,136.385,11,3.4,FKI001,36.2161,136.1571,20,2004-10-05, 08:35:45,100Hz,60,U-D,0.0006340209495401,1.74,38.49361329004193,1053,0.0,0.0,0.4896810472344915,0.6636937777134115,0.699271970073279,0.438570812221871,0.5167195520098177,0.0006993290132612,0.0004506233101324,0.0004506233101324,0.0003143303968317,0.0002293262062579,1.2721914494256,0.4169167485278128,0.4169167485278128,0.359283770752377,0.1948180070289279,E-W,0.0006340209495401,3.057,N-S,0.0006340209495401,4.56
20041005083500.knt,FKI0020410050835.UD,2004-10-05, 08:35:00,35.923,136.385,11,3.4,FKI002,36.0386,136.0137,21,2004-10-05, 08:35:40,100Hz,60,U-D,0.0006340209495401,7.857,35.7971789586813,1512,0.0,0.0,0.212461517613132,0.2021463599721904,0.2028869654717488,0.2002903545409547,0.1960757263227005,0.0014153389972972,0.0014153389972972,0.0014153389972972,0.0014153389972972,0.0014153389972972,7.876060293154763,7.876060293154763,7.876060293154763,7.876060293154763,7.876060293154763,E-W,0.0006340209495401,6.149,N-S,0.0006340209495401,7.43
20041005083500.knt,FKI0030410050835.UD,2004-10-05, 08:35:00,35.923,136.385,11,3.4,FKI003,36.0444,136.2279,9,2004-10-05, 08:35:38,100Hz,60,U-D,0.0006340209495401,9.263,19.54570111162989,1452,0.0,0.0,0.1849880304303239,0.1753774722821605,0.1917666369936577,0.2104948395588038,0.1988748239435801,0.0030709136814997,0.0030709136814997,0.0030709136814997,0.0030709136814997,0.0030709136814997,9.314712531212672,9.314712531212672,7.845387561451601,6.880993959710783,6.880993959710783,E-W,0.0006340209495401,13.066,N-S,0.0006340209495401,15.391
20041005083500.knt,FKI0040410050835.UD,2004-10-05, 08:35:00,35.923,136.385,11,3.4,FKI004,35.9789,136.4865,175,2004-10-05, 08:35:36,100Hz,60,U-D,0.0006340209495401,11.006,11.050394811550316,1544,0.0,0.0,0.1533798049805429,0.1392664578385025,0.128510168250809,0.0870171859731229,0.0933826105151887,0.0024736578941131,0.0024736578941131,0.0024736578941131,0.0010418457981366,0.0010418457981366,11.030011843485257,11.030011843485257,11.030011843485257,8.349936832551903,6.296878525722399,E-W,0.0006340209495401,45.056,N-S,0.0006340209495401,36.518
20041005083500.knt,FKI0050410050835.UD,2004-10-05, 08:35:00,35.923,136.385,11,3.4,FKI005,35.9067,136.1743,32,2004-10-05, 08:35:40,100Hz,60,U-D,0.0006340209495401,9.738,19.06108297147448,1232,0.0,0.0,0.2238293023753256,0.1869729922886084,0.1616715370023341,0.1968399186295502,0.184317564767225,0.0022735933279318,0.0022735933279318,0.0019419431817899,0.0011428461877902,0.0011428461877902,9.751823815513772,9.751823815513772,9.751823815513772,7.229381510637538,7.229381510637538,E-W,0.0006340209495401,48.22,N-S,0.0006340209495401,47.047
20041005083500.knt,FKI0110410050835.UD,2004-10-05, 08:35:00,35.923,136.385,11,3.4,FKI011,35.9053,136.6706,432,2004-10-05, 08:35:42,100Hz,60,U-D,0.0006340209495401,7.749,25.79529621053149,1147,0.0,0.0,0.5525752716602639,0.5955390870309548,1.4177910098867783,1.7548471039169873,2.2008575327903075,0.0020735998127548,0.0020735998127548,0.0019532494885543,0.0019532494885543,0.0019532494885543,7.752231211739275,7.752231211739275,2.255186455775551,2.114762185057019,1.5629105475943317,E-W,0.0006340209495401,16.764,N-S,0.0006340209495401,19.424
20041005083500.knt,GIF0060410050835.UD,2004-10-05, 08:35:00,35.923,136.385,11,3.4,GIF006,36.0333,136.9528,792,2004-10-05, 08:35:49,100Hz,60,U-D,0.0006340209495401,1.112,52.54401069231197,872,0.0,0.0,1.0543179479666565,0.9901222996572676,0.835260381312528,0.7041985093766442,0.4083513866718039,0.0003150401888641,0.0003097192149608,0.0002568862988776,0.0002568862988776,0.0001841103145272,0.3617623432448131,0.3513655695726576,0.3513655695726576,0.3513655695726576,0.2841087360146602,E-W,0.0006340209495401,3.261,N-S,0.0006340209495401,2.654
