earthquake name,records name,earthquake date,earthquake time,lat,long,depth,mag,stn_code,stn_lat,stn_long,stn_height,rcd_date,rcd_time,frequency,rcd_duration,direction,scale_factor,max_pga,epi_dist,pick_index_manually,pick_index_kalkan,snr_db_kalkan,tc_5sec,tc_4sec,tc_3sec,tc_2sec,tc_1sec,Pd_5sec,Pd_4sec,Pd_3sec,Pd_2sec,Pd_1sec,Pga_5sec,Pga_4sec,Pga_3sec,Pga_2sec,Pga_1sec,Channel,Scale_factor,PGA_ew,Channel.1,Scale_factor.1,PGA_ns
20030110170600.knt,TTR0080301101706.UD,2003-01-10, 17:06:00,35.405,133.252,9,3.3,TTR008,35.4258,133.3301,2,2003-01-10, 17:06:57,100Hz,119,U-D,0.0002384185791015,3.923,7.445806420581813,1244.0,110.0,13.690807717521594,0.5261907098516087,0.5236440988756975,0.3857378837844948,0.2578478238664312,0.2008275439446181,0.0063758833054431,0.0063758833054431,0.0063758833054431,0.0027055918164223,0.0014026845698737,3.919759140903228,3.919759140903228,3.919759140903228,3.919759140903228,3.764896565886331,E-W,0.0002384185791015,9.404,N-S,0.0002384185791015,7.071
20030113133800.knt,AOM0010301131338.UD,2003-01-13, 13:38:00,41.555,141.823,71,4.3,AOM001,41.5267,140.9244,39,2003-01-13, 13:39:20,100Hz,119,U-D,0.0002384185791015,0.643,74.85408760484763,311.0,308.0,15.493180960313737,2.964619591741573,2.091084679025274,1.411735226590448,1.3995003521305804,1.374449913467705,0.0024868976774922,0.0020666689618549,0.0016679897213002,0.0016679897213002,0.0016679897213002,0.4419219449385295,0.4419219449385295,0.4419219449385295,0.4419219449385295,0.4419219449385295,E-W,0.0002384185791015,2.407,N-S,0.0002384185791015,2.965
20030113133800.knt,AOM0020301131338.UD,2003-01-13, 13:38:00,41.555,141.823,71,4.3,AOM002,41.328,140.8132,10,2003-01-13, 13:39:24,100Hz,119,U-D,0.0002384185791015,0.72,87.87467793593643,68.0,57.99999999999999,15.751289885959745,2.2514676160088687,2.3708117617070243,2.198009683187755,1.515360689801788,0.7117629415005607,0.0017464526077884,0.0017464526077884,0.001742737338332,0.0017189285482035,0.0010646612645891,0.5991898631591839,0.5991898631591839,0.5991898631591839,0.5991898631591839,0.5991898631591839,E-W,0.0002384185791015,1.7,N-S,0.0002384185791015,3.295
20030113133800.knt,AOM0040301131338.UD,2003-01-13, 13:38:00,41.555,141.823,71,4.3,AOM004,41.4087,141.4486,30,2003-01-13, 13:39:15,100Hz,119,U-D,0.0002384185791015,1.601,35.17640834611406,483.0,481.00000000000006,20.144850701585742,2.3576935210926964,1.595680500285636,1.189056190804554,0.9501164606511115,0.9682615113225383,0.0041362624697449,0.0029831302174086,0.0029831302174086,0.0029831302174086,0.0029831302174086,1.5932552476957529,1.5932552476957529,1.5932552476957529,1.5932552476957529,1.5932552476957529,E-W,0.0002384185791015,2.87,N-S,0.0002384185791015,5.209
20030113133800.knt,AOM0050301131338.UD,2003-01-13, 13:38:00,41.555,141.823,71,4.3,AOM005,41.2948,141.1972,10,2003-01-13, 13:39:18,100Hz,119,U-D,0.0002384185791015,2.506,59.66181696588398,418.0,389.0,23.569559427557188,2.9708971809462987,2.542452611550038,1.956647771171775,1.6262225170433984,1.7045595972271872,0.0056840397616636,0.0056840397616636,0.0056840397616636,0.0056840397616636,0.0056840397616636,1.893009422274552,1.893009422274552,1.893009422274552,1.893009422274552,1.893009422274552,E-W,0.0002384185791015,15.636,N-S,0.0002384185791015,5.409
20030113133800.knt,AOM0060301131338.UD,2003-01-13, 13:38:00,41.555,141.823,71,4.3,AOM006,41.1976,140.9972,2,2003-01-13, 13:39:22,100Hz,119,U-D,0.0002384185791015,2.657,79.54251192041573,177.0,175.0,13.692719954114,13.153083558338263,15.016973616049116,19.52676135112546,25.81454421105992,20.648735442760824,0.0416477689613211,0.0416477689613211,0.0416477689613211,0.0416477689613211,0.0413032225061332,0.5989073626843526,0.5989073626843526,0.5989073626843526,0.5989073626843526,0.4366811003846096,E-W,0.0002384185791015,8.545,N-S,0.0002384185791015,6.385
20030113133800.knt,AOM0070301131338.UD,2003-01-13, 13:38:00,41.555,141.823,71,4.3,AOM007,41.2256,141.3958,10,2003-01-13, 13:39:07,100Hz,119,U-D,0.0002384185791015,10.382,51.10376926217448,1406.0,1426.0,35.38857306644627,0.2948836254408589,0.2800477722167135,0.2157851730206333,0.2173071266043583,0.2172636668528845,0.0018811306633716,0.0018811306633716,0.0018811306633716,0.0018811306633716,0.0018811306633716,3.214694344282159,3.214694344282159,3.214694344282159,3.214694344282159,3.214694344282159,E-W,0.0002384185791015,15.118,N-S,0.0002384185791015,14.765
20030113133800.knt,AOM0090301131338.UD,2003-01-13, 13:38:00,41.555,141.823,71,4.3,AOM009,40.9665,141.3733,10,2003-01-13, 13:39:20,100Hz,119,U-D,0.0002384185791015,1.877,75.46558566716081,308.0,313.0,19.49670534876674,3.022992096675494,3.378930404582712,3.529892858872348,3.458979081228217,3.362717710787436,0.0027258060129064,0.0027258060129064,0.0027258060129064,0.0027258060129064,0.0026714617364702,0.6955365270274556,0.6367253881525681,0.6367253881525681,0.6367253881525681,0.6367253881525681,E-W,0.0002384185791015,3.286,N-S,0.0002384185791015,3.126
20030113133800.knt,AOM0110301131338.UD,2003-01-13, 13:38:00,41.555,141.823,71,4.3,AOM011,40.6803,141.3669,41,2003-01-13, 13:39:26,100Hz,119,U-D,0.0002384185791015,3.329,104.49712441146264,71.0,78.0,13.307735488987497,2.8721753070622427,3.0739556621530006,3.500821613229265,4.039505592302442,3.41142346925846,0.0055649626186804,0.0055649626186804,0.0055649626186804,0.0055649626186804,0.0051606710287919,1.0481108543913449,1.0481108543913449,1.0481108543913449,0.7678523569420309,0.5725408534178181,E-W,0.0002384185791015,4.483,N-S,0.0002384185791015,5.927
20030113133800.knt,HKD1580301131338.UD,2003-01-13, 13:38:00,41.555,141.823,71,4.3,HKD158,41.8345,141.1411,6,2003-01-13, 13:39:18,100Hz,119,U-D,0.0002384185791015,3.622,64.58649533958263,378.0,389.0,22.749341631450672,6.204355951236129,5.795848853641616,5.902237758347909,6.913932898304169,8.643361720465423,0.0142238398144709,0.0142238398144709,0.0142238398144709,0.0142238398144709,0.0142238398144709,0.9084205957517072,0.7492579998052025,0.7492579998052025,0.7492579998052025,0.7492579998052025,E-W,0.0002384185791015,3.115,N-S,0.0002384185791015,4.383
20030113133800.knt,HKD1590301131338.UD,2003-01-13, 13:38:00,41.555,141.823,71,4.3,HKD159,41.7162,141.0025,35,2003-01-13, 13:39:19,100Hz,120,U-D,0.0002384185791015,6.378,70.50429009524986,360.0,365.0,19.45197183143574,2.432955963579878,2.276732919500541,2.163964610306227,2.3897982188022056,2.913818166468233,0.0046671469556252,0.0046671469556252,0.0046671469556252,0.0046671469556252,0.0046671469556252,1.218735104824603,1.218735104824603,1.218735104824603,1.20252875710333,1.1261757372072498,E-W,0.0002384185791015,9.084,N-S,0.0002384185791015,6.438
20030115180200.knt,HKD1080301151802.UD,2003-01-15, 18:02:00,41.971,142.554,62,4.5,HKD108,42.2528,142.5643,42,2003-01-15, 18:03:50,100Hz,119,U-D,0.0002384185791015,2.479,31.34624687077958,669.0,692.0,27.23272784266015,2.5011537811623974,2.759230570760261,2.853740246396668,2.869422261153616,2.2505671997331067,0.0049090174472505,0.0049090174472505,0.0049090174472505,0.0044406125800988,0.0030710395670507,0.9919156431900916,0.9321730183343958,0.9321730183343958,0.9321730183343958,0.7208021693206355,E-W,0.0002384185791015,6.978,N-S,0.0002384185791015,6.842
20030115180200.knt,HKD1090301151802.UD,2003-01-15, 18:02:00,41.971,142.554,62,4.5,HKD109,42.1678,142.7673,4,2003-01-15, 18:03:51,100Hz,119,U-D,0.0002384185791015,3.634,28.08671011779121,612.0,610.0,16.048240344879755,9.276425866693163,8.578601494759996,6.97791444146884,4.759895529735167,2.0814856018798897,0.0595832816184368,0.0595832816184368,0.0591433267424411,0.0486950473125525,0.0330948940928977,3.631974847081934,3.631974847081934,3.631974847081934,3.631974847081934,3.631974847081934,E-W,0.0002384185791015,9.74,N-S,0.0002384185791015,8.314
20030115180200.knt,HKD1100301151802.UD,2003-01-15, 18:02:00,41.971,142.554,62,4.5,HKD110,42.1306,142.9353,5,2003-01-15, 18:03:43,100Hz,119,U-D,0.0002384185791015,2.845,36.14043167084879,1428.0,1427.0,31.47073107251878,0.7244112151846727,0.6286355325577944,0.4588235158066428,0.4506863206674139,0.3221224903559996,0.003710854736284,0.003710854736284,0.0033050529285956,0.0033050529285956,0.0023841566008631,2.851781744599444,2.851781744599444,2.851781744599444,2.851781744599444,2.851781744599444,E-W,0.0002384185791015,4.204,N-S,0.0002384185791015,4.098
20030115180200.knt,HKD1120301151802.UD,2003-01-15, 18:02:00,41.971,142.554,62,4.5,HKD112,41.937,143.2403,15,2003-01-15, 18:03:58,100Hz,119,U-D,0.0002384185791015,1.329,56.87827857556327,111.0,134.0,15.2625382491421,7.763552592695363,8.583387968951556,9.079819170303374,7.869140537917107,6.4099194768166265,0.0143634645616524,0.0143634645616524,0.0143634645616524,0.0143634645616524,0.0113391717882947,1.33165130549862,1.33165130549862,1.33165130549862,1.33165130549862,1.0241047856214052,E-W,0.0002384185791015,4.878,N-S,0.0002384185791015,3.672
20030115180200.knt,HKD1130301151802.UD,2003-01-15, 18:02:00,41.971,142.554,62,4.5,HKD113,42.1287,143.3153,15,2003-01-15, 18:03:56,100Hz,119,U-D,0.0002384185791015,1.096,65.25967356512035,394.0,414.0,20.25627141077297,0.48453241430853,0.4664415706413378,0.4195725398116777,0.5167751716831291,0.6009992893759738,0.0011966850524915,0.0011966850524915,0.0011966850524915,0.0011966850524915,0.0011966850524915,1.08786811978015,1.08786811978015,1.08786811978015,0.7039479203846256,0.5651604525621295,E-W,0.0002384185791015,4.858,N-S,0.0002384185791015,3.217
20030116124200.knt,KGS0330301161242.UD,2003-01-16, 12:42:00,27.322,128.886,27,5.1,KGS033,27.6882,128.9427,135,2003-01-16, 12:43:35,100Hz,119,U-D,0.0002384185791015,6.84,41.1017765062126,1359.0,1374.0,23.00722526318944,2.7654624544594824,2.83948623048246,3.0992681453288067,2.906752034076088,1.6774986286933942,0.0152635276056372,0.0152635276056372,0.0152635276056372,0.0152635276056372,0.0082746497507818,3.326572237408046,3.326572237408046,3.326572237408046,3.326572237408046,2.2428341483107967,E-W,0.0002384185791015,9.141,N-S,0.0002384185791015,11.285
20030116124200.knt,KGS0350301161242.UD,2003-01-16, 12:42:00,27.322,128.886,27,5.1,KGS035,27.0522,128.4241,44,2003-01-16, 12:43:37,100Hz,119,U-D,0.0002384185791015,10.058,54.65596379096926,1338.0,1359.0,26.19341357080357,2.2678657210179183,2.32724338252897,2.091598805289341,1.6121320675884985,2.008239105132289,0.0088664323677563,0.0088664323677563,0.0088664323677563,0.0071106243151257,0.0071106243151257,3.932467713093454,3.932467713093454,3.932467713093454,3.932467713093454,2.2336145582946427,E-W,0.0002384185791015,20.951,N-S,0.0002384185791015,14.301
20030119003100.knt,KGS0020301190031.UD,2003-01-19, 00:31:00,31.97,130.451,8,3.7,KGS002,32.0909,130.3532,12,2003-01-19, 00:31:33,100Hz,120,U-D,0.0002384185791015,3.677,16.301012766395313,1441.0,1441.0,27.622356446215623,1.1065746239343484,1.1513501374177286,1.1076488520073244,0.8101637271648773,0.5900048469381061,0.0050998106059012,0.0050998106059012,0.0050998106059012,0.0050998106059012,0.0050998106059012,3.655757079605457,3.655757079605457,3.655757079605457,3.655757079605457,3.655757079605457,E-W,0.0002384185791015,5.117,N-S,0.0002384185791015,5.868
20030119003100.knt,KGS0030301190031.UD,2003-01-19, 00:31:00,31.97,130.451,8,3.7,KGS003,32.0559,130.5874,176,2003-01-19, 00:31:33,100Hz,120,U-D,0.0002384185791015,13.33,16.01957398254157,1460.0,1466.0,22.806948185669057,0.3498746921871488,0.3353785193547045,0.364590006840443,0.339651227906276,0.2982516368370181,0.0049730646396733,0.0049730646396733,0.0049730646396733,0.0049730646396733,0.0049730646396733,13.381908078381748,13.381908078381748,13.381908078381748,13.381908078381748,13.381908078381748,E-W,0.0002384185791015,7.602,N-S,0.0002384185791015,8.116
20030119003100.knt,KGS0040301190031.UD,2003-01-19, 00:31:00,31.97,130.451,8,3.7,KGS004,32.0145,130.1927,3,2003-01-19, 00:31:38,100Hz,119,U-D,0.0002384185791015,2.635,24.85687807340761,1094.0,1100.0,22.088625883730693,1.006421942592335,1.9867129962976584,3.0999350326052584,3.718029084778877,3.748159585099142,0.0067329150583344,0.005244644156232,0.005244644156232,0.005244644156232,0.005244644156232,2.61899677607674,1.5696104456106643,1.5696104456106643,1.5696104456106643,1.5696104456106643,E-W,0.0002384185791015,2.937,N-S,0.0002384185791015,5.769
20030119003100.knt,KGS0050301190031.UD,2003-01-19, 00:31:00,31.97,130.451,8,3.7,KGS005,31.9006,130.4513,42,2003-01-19, 00:31:32,100Hz,119,U-D,0.0002384185791015,24.679,7.716979835766176,1413.0,1418.0,30.440910006372064,0.7354085851990784,0.6262190066828016,0.4426226603686091,0.375267073800278,0.5335353693233607,0.0267730015411377,0.0267730015411377,0.0258881549216122,0.0145025733140475,0.0094915988354148,24.76789372459877,24.76789372459877,24.76789372459877,24.76789372459877,14.341421704133111,E-W,0.0002384185791015,92.07,N-S,0.0002384185791015,83.803
20030119003100.knt,KGS0060301190031.UD,2003-01-19, 00:31:00,31.97,130.451,8,3.7,KGS006,31.906,130.7021,188,2003-01-19, 00:31:38,100Hz,119,U-D,0.0002384185791015,5.518,24.740004227538808,1098.0,1109.0,27.56260792155249,0.2337095698836147,0.2429738211734856,0.2179411079699855,0.2737167970437943,0.1944989592865054,0.0055208522912686,0.0021164589252002,0.0005812341606113,0.0005108693730883,0.000318349088156,5.478105984449853,1.9632954853528672,1.5911264989730012,1.0422394278646292,1.0422394278646292,E-W,0.0002384185791015,6.705,N-S,0.0002384185791015,6.103
20030119003100.knt,KGS0080301190031.UD,2003-01-19, 00:31:00,31.97,130.451,8,3.7,KGS008,31.7621,130.5699,15,2003-01-19, 00:31:39,100Hz,119,U-D,0.0002384185791015,1.981,25.700064218061318,1007.0,1001.0,23.622881394392348,1.8668467891291745,1.9188193146314656,1.559730518312539,0.8472708639641727,0.8685947217469473,0.0052268237854131,0.0052268237854131,0.0045304144193925,0.003335417663812,0.003335417663812,1.9983840598926643,1.9983840598926643,1.9983840598926643,1.932599226212212,1.932599226212212,E-W,0.0002384185791015,4.839,N-S,0.0002384185791015,4.54
20030119003100.knt,KGS0090301190031.UD,2003-01-19, 00:31:00,31.97,130.451,8,3.7,KGS009,31.7368,130.7613,4,2003-01-19, 00:31:43,100Hz,119,U-D,0.0002384185791015,1.191,39.132195405489725,840.0,844.9999999999999,18.81261329181629,2.658730887301932,2.804802659927096,2.9577255169817107,3.113811333966519,2.566536123662988,0.0055644657592565,0.0055644657592565,0.0055644657592565,0.0055644657592565,0.0055644657592565,1.191949676330639,1.191949676330639,1.191949676330639,1.191949676330639,1.191949676330639,E-W,0.0002384185791015,2.754,N-S,0.0002384185791015,2.69
20030119003100.knt,KGS0100301190031.UD,2003-01-19, 00:31:00,31.97,130.451,8,3.7,KGS010,31.7123,130.2735,16,2003-01-19, 00:31:41,100Hz,119,U-D,0.0002384185791015,1.83,33.19991627394793,927.0,931.0,18.715661874267507,1.7782675901832472,3.266236909565114,3.4554408865002304,3.939977827130439,3.754041648183719,0.00240912053865,0.00240912053865,0.00240912053865,0.0023932592411751,0.0023932592411751,1.285343898159493,0.8294380808878764,0.8294380808878764,0.6664246431941018,0.6664246431941018,E-W,0.0002384185791015,3.553,N-S,0.0002384185791015,3.791
20030119003100.knt,KMM0150301190031.UD,2003-01-19, 00:31:00,31.97,130.451,8,3.7,KMM015,32.2161,130.4046,5,2003-01-19, 00:31:39,100Hz,119,U-D,0.0002384185791015,1.465,27.711961488526605,1034.0,1034.0,23.03973622005248,1.374726030932426,2.0361056975127343,2.116390820875744,2.0349059787025765,2.0131874717158142,0.0042948980682566,0.0042948980682566,0.0042948980682566,0.0042948980682566,0.0042948980682566,1.4807038392717424,1.4807038392717424,1.4807038392717424,1.4807038392717424,1.4807038392717424,E-W,0.0002384185791015,3.157,N-S,0.0002384185791015,2.625
20030119045000.knt,AIC0140301190450.UD,2003-01-19, 04:50:00,33.875,137.24,45,5.3,AIC014,34.8263,137.22,4,2003-01-19, 04:51:58,100Hz,119,U-D,0.0002384185791015,1.051,105.7956660719872,63.0,49.0,25.817599950328216,1.8598837370888448,1.9133381439096355,2.137101507639216,2.303680918851686,2.032993662734736,0.0041302172243537,0.0041302172243537,0.0041302172243537,0.0041302172243537,0.0036828503401411,1.0316452576609954,1.0316452576609954,1.0316452576609954,1.0316452576609954,0.8788970255071126,E-W,0.0002384185791015,3.301,N-S,0.0002384185791015,2.399
20030119045000.knt,AIC0160301190450.UD,2003-01-19, 04:50:00,33.875,137.24,45,5.3,AIC016,34.7788,136.9087,6,2003-01-19, 04:51:58,100Hz,119,U-D,0.0002384185791015,2.876,105.00162823335673,99.0,98.0,24.926452728946565,5.857798588310508,6.4326147626478765,6.333349342328548,7.424739423936637,5.305321956717977,0.0221888074279453,0.0221888074279453,0.0221888074279453,0.0221888074279453,0.0201524912356131,2.462948034936836,2.462948034936836,2.462948034936836,2.462948034936836,2.462948034936836,E-W,0.0002384185791015,10.12,N-S,0.0002384185791015,7.686
20030119045000.knt,MIE0070301190450.UD,2003-01-19, 04:50:00,33.875,137.24,45,5.3,MIE007,34.651,136.3404,82,2003-01-19, 04:51:47,100Hz,120,U-D,0.0002384185791015,3.281,119.49820805702502,1381.0,1393.0,23.60534299754056,4.450559145918491,4.165056254911925,4.915581227793315,4.4033259927944055,2.9135286873568487,0.0327887039943584,0.0249187306450998,0.0249187306450998,0.0249187306450998,0.0201479801141216,3.2911805155772758,3.2911805155772758,3.2911805155772758,3.2911805155772758,3.2911805155772758,E-W,0.0002384185791015,9.301,N-S,0.0002384185791015,9.051
20030119045000.knt,MIE0100301190450.UD,2003-01-19, 04:50:00,33.875,137.24,45,5.3,MIE010,34.4908,136.7334,19,2003-01-19, 04:51:41,100Hz,119,U-D,0.0002384185791015,7.067,82.82616194386637,1487.0,1487.0,33.341932044231065,0.9509913057520226,0.942401696533378,0.9360498083420464,0.7035724062210885,0.3652593606337408,0.0091513781484636,0.0091513781484636,0.0091513781484636,0.0080536546182839,0.0070029857744704,7.08335586377986,7.08335586377986,7.08335586377986,7.08335586377986,7.08335586377986,E-W,0.0002384185791015,5.302,N-S,0.0002384185791015,6.003
20030119045000.knt,MIE0110301190450.UD,2003-01-19, 04:50:00,33.875,137.24,45,5.3,MIE011,34.4283,136.3329,143,2003-01-19, 04:51:45,100Hz,119,U-D,0.0002384185791015,1.67,103.69422544445813,1394.0,1393.0,26.874525820900622,1.3689287835604955,0.9580378516860174,0.9689057848060952,0.7223116109685462,0.6843728666432838,0.0038541768210271,0.0026478480137117,0.0026478480137117,0.0021780903833348,0.0021780903833348,1.6670344578926537,1.6670344578926537,1.6670344578926537,1.6670344578926537,1.6670344578926537,E-W,0.0002384185791015,6.207,N-S,0.0002384185791015,3.919
20030119045000.knt,MIE0170301190450.UD,2003-01-19, 04:50:00,33.875,137.24,45,5.3,MIE017,34.3624,136.3348,118,2003-01-19, 04:51:58,100Hz,119,U-D,0.0002384185791015,1.177,99.40224515700096,1.0,23.0,24.6242029692812,2.56631462916128,2.0090336777498115,1.429495569676373,1.2176064366424169,1.0599155586748277,0.0048020730443895,0.0042586989466819,0.0030356280169431,0.0025193388371394,0.0022321684078264,1.178704261550619,1.178704261550619,1.178704261550619,1.178704261550619,1.0187057863097249,E-W,0.0002384185791015,2.761,N-S,0.0002384185791015,3.281
20030120220500.knt,IBR0010301202205.UD,2003-01-20, 22:05:00,36.456,141.21,45,4.4,IBR001,36.7761,140.3569,105,2003-01-20, 22:06:13,100Hz,119,U-D,0.0002384185791015,1.489,84.048068922583,309.0,323.0,18.28229645408257,2.5984591898331275,2.40052465438877,1.74204202469615,0.9359167250239816,1.074220072617922,0.0037864397750985,0.0037864397750985,0.0034309597199053,0.0021367851354502,0.0018778342955596,1.4944996693190358,1.4944996693190358,1.4944996693190358,1.4944996693190358,1.4944996693190358,E-W,0.0002384185791015,2.743,N-S,0.0002384185791015,2.581
20030120220500.knt,IBR0020301202205.UD,2003-01-20, 22:05:00,36.456,141.21,45,4.4,IBR002,36.7061,140.7068,9,2003-01-20, 22:06:05,100Hz,119,U-D,0.0002384185791015,2.743,52.8412447173616,715.0,723.0,21.126536209964726,0.5278838233613588,0.3963336946773104,0.354986406726194,0.3521611125499423,0.3966339636708375,0.0011384056908606,0.0011152132941228,0.0011152132941228,0.0011152132941228,0.0011152132941228,1.073025221096542,1.073025221096542,1.073025221096542,1.073025221096542,0.8261154181226495,E-W,0.0002384185791015,3.722,N-S,0.0002384185791015,5.604
