earthquake name,records name,earthquake date,earthquake time,lat,long,depth,mag,stn_code,stn_lat,stn_long,stn_height,rcd_date,rcd_time,frequency,rcd_duration,direction,scale_factor,max_pga,epi_dist,pick_index_manually,pick_index_kalkan,snr_db_kalkan,tc_5sec,tc_4sec,tc_3sec,tc_2sec,tc_1sec,Pd_5sec,Pd_4sec,Pd_3sec,Pd_2sec,Pd_1sec,Pga_5sec,Pga_4sec,Pga_3sec,Pga_2sec,Pga_1sec,Channel,Scale_factor,PGA_ew,Channel.1,Scale_factor.1,PGA_ns
20030120220500.knt,IBR0030301202205.UD,2003-01-20, 22:05:00,36.456,141.21,45,4.4,IBR003,36.5915,140.6453,58,2003-01-20, 22:06:04,100Hz,119,U-D,0.0002384185791015,6.693,52.66141269711164,799.0,788.0,30.8516143653058,8.625192649763674,8.928542316612925,7.965883682549176,6.581304467809804,5.347673493165147,0.0156592322194545,0.0156592322194545,0.0156592322194545,0.0137107482444864,0.0118251784043391,2.427576865446778,2.427576865446778,2.427576865446778,2.427576865446778,1.8864413827067443,E-W,0.0002384185791015,10.392,N-S,0.0002384185791015,12.576
20030120220500.knt,IBR0040301202205.UD,2003-01-20, 22:05:00,36.456,141.21,45,4.4,IBR004,36.5273,140.4094,51,2003-01-20, 22:06:10,100Hz,119,U-D,0.0002384185791015,2.474,72.00676490834726,458.0,468.0,26.756259832306178,4.655705234031587,4.199433655382116,3.043760894974828,2.0165630114713613,2.5210834553295154,0.0057734933977432,0.0057682996191714,0.0052330087289279,0.0040692792777815,0.0040692792777815,1.463424805102559,1.463424805102559,1.463424805102559,1.463424805102559,1.2524668149440976,E-W,0.0002384185791015,10.489,N-S,0.0002384185791015,8.837
20030120220500.knt,IBR0050301202205.UD,2003-01-20, 22:05:00,36.456,141.21,45,4.4,IBR005,36.3851,140.2372,63,2003-01-20, 22:06:12,100Hz,119,U-D,0.0002384185791015,4.672,87.39859086342767,426.0,432.0,21.985211806348843,6.682007457845621,5.56509099154386,4.416933240032408,4.605753679809241,6.632969208787141,0.0154435345889225,0.0154435345889225,0.0154435345889225,0.0154435345889225,0.0154435345889225,1.4200597876411112,1.4200597876411112,1.4200597876411112,1.4200597876411112,1.4200597876411112,E-W,0.0002384185791015,6.433,N-S,0.0002384185791015,8.122
20030120220500.knt,IBR0060301202205.UD,2003-01-20, 22:05:00,36.456,141.21,45,4.4,IBR006,36.369,140.4528,20,2003-01-20, 22:06:06,100Hz,119,U-D,0.0002384185791015,4.222,68.44548637696876,836.0,836.0,28.558451490929087,0.5975665920900762,0.6058226463848799,0.6134446528887108,0.4935537802611404,0.3382212561462228,0.0015339942887533,0.0015339942887533,0.0015339942887533,0.0013337930135112,0.0013114267956318,2.5227444830080072,2.5227444830080072,2.4963157861275724,2.4963157861275724,2.157016516428343,E-W,0.0002384185791015,6.763,N-S,0.0002384185791015,8.305
20030120220500.knt,IBR0070301202205.UD,2003-01-20, 22:05:00,36.456,141.21,45,4.4,IBR007,36.3523,140.5955,24,2003-01-20, 22:06:06,100Hz,119,U-D,0.0002384185791015,4.188,56.19062426941841,663.0,661.0,28.948949711354565,1.5520930734341816,1.5795051443606407,1.728798111743356,1.584898920043726,1.1168613081782155,0.0031445559877892,0.0031445559877892,0.0031445559877892,0.0031445559877892,0.002720520560193,1.6069662326042835,1.6069662326042835,1.6069662326042835,1.6069662326042835,1.6069662326042835,E-W,0.0002384185791015,10.084,N-S,0.0002384185791015,12.272
20030120220500.knt,IBR0130301202205.UD,2003-01-20, 22:05:00,36.456,141.21,45,4.4,IBR013,36.1587,140.4892,28,2003-01-20, 22:06:11,100Hz,119,U-D,0.0002384185791015,4.943,72.55672873194332,377.0,396.0,26.67383176362115,4.972926553241965,4.551892547252682,4.434682376565792,6.375103691440442,9.466629093068748,0.015115424503609,0.015115424503609,0.015115424503609,0.015115424503609,0.015115424503609,1.595142452903048,1.595142452903048,1.595142452903048,1.122182807541583,0.9454669691452272,E-W,0.0002384185791015,10.813,N-S,0.0002384185791015,10.187
20030120220500.knt,IBR0140301202205.UD,2003-01-20, 22:05:00,36.456,141.21,45,4.4,IBR014,36.0729,140.1947,11,2003-01-20, 22:06:16,100Hz,119,U-D,0.0002384185791015,1.734,100.5014491501382,188.0,197.0,17.983361048720173,2.202726583007302,2.32589833006791,2.1341454874411587,1.5195208103183266,1.4944766079622285,0.0011206326158463,0.0011206326158463,0.0011206326158463,0.0009300471956042,0.0006251334348814,0.5526381357854468,0.5526381357854468,0.5526381357854468,0.4066416703649376,0.4066416703649376,E-W,0.0002384185791015,3.881,N-S,0.0002384185791015,4.649
20030120220500.knt,IBR0180301202205.UD,2003-01-20, 22:05:00,36.456,141.21,45,4.4,IBR018,35.977,140.6322,39,2003-01-20, 22:06:11,100Hz,119,U-D,0.0002384185791015,1.329,74.32158996375722,420.0,450.0,18.477949812605534,7.265970536308191,6.528093011127555,4.613381960519285,2.3311595719231546,2.692758078015748,0.0084679214008992,0.0083673948557003,0.0068207748128576,0.0038481767033154,0.0022582079202575,1.0115543563791658,0.9386444330582346,0.9386444330582346,0.9386444330582346,0.5544071120362029,E-W,0.0002384185791015,5.047,N-S,0.0002384185791015,3.8
20030120220500.knt,TCG0130301202205.UD,2003-01-20, 22:05:00,36.456,141.21,45,4.4,TCG013,36.4368,140.0225,67,2003-01-20, 22:06:17,100Hz,119,U-D,0.0002384185791015,1.776,106.23866704687242,202.0,202.0,19.331314391405023,11.354726936903392,12.869118215516014,16.224876888793144,20.060977303107563,18.864116285310804,0.0248539603737102,0.0248539603737102,0.0248539603737102,0.0248539603737102,0.0248147161068277,1.7830101081920076,1.7830101081920076,1.7830101081920076,1.7830101081920076,1.7830101081920076,E-W,0.0002384185791015,4.855,N-S,0.0002384185791015,2.692
20030120220500.knt,TCG0140301202205.UD,2003-01-20, 22:05:00,36.456,141.21,45,4.4,TCG014,36.545,140.1742,130,2003-01-20, 22:06:14,100Hz,119,U-D,0.0002384185791015,4.183,93.11112425572144,323.0,321.0,32.982153764340765,3.788251198728736,3.9864629642521248,4.059453314018988,3.862322462760392,3.9412913899979234,0.009466698726004,0.009466698726004,0.009466698726004,0.009466698726004,0.009466698726004,1.7853311894513375,1.7853311894513375,1.7853311894513375,1.7853311894513375,1.4590273612075773,E-W,0.0002384185791015,11.089,N-S,0.0002384185791015,8.64
20030121060700.knt,WKY0010301210607.UD,2003-01-21, 06:07:00,34.23,135.169,6,3.5,WKY001,34.2288,135.1694,8,2003-01-21, 06:07:37,100Hz,119,U-D,0.0002384185791015,32.165,0.1384085970599455,1482.0,1480.0,33.158329461739655,0.3774704111317983,0.3767207895330982,0.3406878741679081,0.2835550178952253,0.2366366592081623,0.0164631757112815,0.0164631757112815,0.0164631757112815,0.0164631757112815,0.0113677129696229,32.09789300411896,32.09789300411896,32.09789300411896,32.09789300411896,32.09789300411896,E-W,0.0002384185791015,136.555,N-S,0.0002384185791015,90.216
20030121131900.knt,CHB0040301211319.UD,2003-01-21, 13:19:00,36.363,141.029,47,5.0,CHB004,35.9007,140.4905,14,2003-01-21, 13:20:48,100Hz,119,U-D,0.0002384185791015,5.074,70.57846574631222,441.0,473.00000000000006,22.210599566046486,8.685144569563526,7.008748416396601,5.610920077510407,5.9445826875260055,7.696472587807892,0.0600988216323013,0.0600988216323013,0.0600988216323013,0.0600988216323013,0.0600988216323013,2.000017906838101,1.846861057242569,1.8462977523573576,1.5738451757164258,1.172872237437672,E-W,0.0002384185791015,8.084,N-S,0.0002384185791015,6.544
20030121131900.knt,CHB0100301211319.UD,2003-01-21, 13:19:00,36.363,141.029,47,5.0,CHB010,35.7077,140.568,8,2003-01-21, 13:20:50,100Hz,119,U-D,0.0002384185791015,3.103,83.83138714321616,363.0,362.0,16.70720181881731,7.321928042163168,6.5810495817820165,6.930268340810445,8.40340901413588,11.669967138876288,0.0248178635252413,0.0248178635252413,0.0248178635252413,0.0248178635252413,0.0248178635252413,2.171663627285397,2.171663627285397,2.171663627285397,1.9420706697792844,1.312859089418122,E-W,0.0002384185791015,7.025,N-S,0.0002384185791015,6.903
20030121131900.knt,FKS0070301211319.UD,2003-01-21, 13:19:00,36.363,141.029,47,5.0,FKS007,37.4061,140.9632,70,2003-01-21, 13:20:55,100Hz,119,U-D,0.0002384185791015,2.858,116.13495982349014,189.0,-100.0,,13.388127254777244,15.622686997850048,21.077784990919334,29.31448526684817,23.26545497781901,0.3831625472487991,0.3831625472487991,0.3831625472487991,0.3831625472487991,0.381615499611486,1.5494795180484453,1.417380446145309,1.2044326625769688,1.2044326625769688,1.2044326625769688,E-W,0.0002384185791015,6.407,N-S,0.0002384185791015,6.3
20030121131900.knt,FKS0080301211319.UD,2003-01-21, 13:19:00,36.363,141.029,47,5.0,FKS008,37.4363,140.5668,430,2003-01-21, 13:20:58,100Hz,119,U-D,0.0002384185791015,3.674,126.22352318251916,56.0,75.0,5.519491921409188,13.160867618053452,14.761989466102014,13.87171760198104,9.581821748451508,5.190559293632253,0.2324270254564686,0.2324270254564686,0.2324270254564686,0.2223819843501482,0.1441240039485457,2.385211847478353,2.385211847478353,2.385211847478353,2.385211847478353,1.6482948390542471,E-W,0.0002384185791015,11.063,N-S,0.0002384185791015,13.078
20030121131900.knt,FKS0090301211319.UD,2003-01-21, 13:19:00,36.363,141.029,47,5.0,FKS009,37.2778,140.6349,440,2003-01-21, 13:20:54,100Hz,119,U-D,0.0002384185791015,4.127,107.59989442712244,210.0,218.00000000000003,19.755554431423707,12.512629964386532,14.177896636537024,18.33415436095872,25.45792096143208,22.62074146333622,0.0516355675448573,0.0516355675448573,0.0516355675448573,0.0516355675448573,0.0516355675448573,2.0206404925674724,2.0206404925674724,2.0206404925674724,1.54121879945546,1.54121879945546,E-W,0.0002384185791015,4.084,N-S,0.0002384185791015,5.583
20030121131900.knt,FKS0100301211319.UD,2003-01-21, 13:19:00,36.363,141.029,47,5.0,FKS010,37.2342,141.0016,50,2003-01-21, 13:20:52,100Hz,119,U-D,0.0002384185791015,2.771,96.90373410402287,293.0,312.0,19.165952286657834,6.029400230896004,6.629384591867812,7.358204554031707,8.644768610315003,8.917548625201308,0.0182681348787062,0.0182681348787062,0.0182681348787062,0.0182681348787062,0.0182681348787062,1.101898632044645,1.020407278786788,0.9158817733176186,0.9158817733176186,0.5402748835727572,E-W,0.0002384185791015,6.021,N-S,0.0002384185791015,4.879
20030121131900.knt,FKS0120301211319.UD,2003-01-21, 13:19:00,36.363,141.029,47,5.0,FKS012,36.9069,140.7929,2,2003-01-21, 13:20:44,100Hz,119,U-D,0.0002384185791015,3.898,64.04299795317075,669.0,661.0,27.187790531894112,1.2438058729918615,1.3071900910634848,1.2662607049196035,1.124182561044145,1.131231031696711,0.0106881874878732,0.0106881874878732,0.0106881874878732,0.0106881874878732,0.0106881874878732,2.134195771860922,1.695436063371527,1.695436063371527,1.695436063371527,1.695436063371527,E-W,0.0002384185791015,6.264,N-S,0.0002384185791015,6.419
20030121131900.knt,FKS0140301211319.UD,2003-01-21, 13:19:00,36.363,141.029,47,5.0,FKS014,36.8683,140.43,178,2003-01-21, 13:20:48,100Hz,119,U-D,0.0002384185791015,2.937,77.55656665368524,491.0,491.0,23.270328077857556,4.805855453666944,3.908519666721333,2.9604728876012345,2.221276276561312,2.151227184411239,0.0283325194087777,0.0274250740598917,0.0259661931809594,0.0259661931809594,0.0259661931809594,2.933325980027049,2.933325980027049,2.933325980027049,2.933325980027049,2.933325980027049,E-W,0.0002384185791015,4.803,N-S,0.0002384185791015,6.038
20030121131900.knt,FKS0150301211319.UD,2003-01-21, 13:19:00,36.363,141.029,47,5.0,FKS015,37.0217,140.3775,315,2003-01-21, 13:20:52,100Hz,119,U-D,0.0002384185791015,1.676,93.48230921993964,298.0,293.0,29.310183302542963,1.0785039353179693,1.1091487146816108,1.1407232224040726,1.17842580139317,1.1846284535142604,0.0084524683763538,0.0084524683763538,0.0084524683763538,0.0084524683763538,0.0084524683763538,1.7087524311361728,1.7087524311361728,1.7087524311361728,1.7087524311361728,1.7087524311361728,E-W,0.0002384185791015,3.818,N-S,0.0002384185791015,5.169
20030121131900.knt,FKS0160301211319.UD,2003-01-21, 13:19:00,36.363,141.029,47,5.0,FKS016,37.1228,140.1914,375,2003-01-21, 13:20:47,100Hz,119,U-D,0.0002384185791015,4.336,112.72854904118896,1076.0,1101.0,20.512327198309173,3.3788624760397123,2.929183673740497,2.10666074722335,1.507129022114884,1.1953806556315474,0.0287842432553005,0.0274717771298851,0.0211245166335562,0.0205888479806743,0.0126688554950873,2.9924332547188928,2.9924332547188928,2.9924332547188928,2.9924332547188928,1.589033086218689,E-W,0.0002384185791015,9.012,N-S,0.0002384185791015,12.758
20030121131900.knt,FKS0170301211319.UD,2003-01-21, 13:19:00,36.363,141.029,47,5.0,FKS017,37.2842,140.3689,263,2003-01-21, 13:20:58,100Hz,119,U-D,0.0002384185791015,2.898,118.08663608288144,0.0,52.0,14.119069430055324,0.0,0.0,0.0,0.0,0.0,0.0,0.0,0.0,0.0,0.0,0.0,0.0,0.0,0.0,0.0,E-W,0.0002384185791015,5.707,N-S,0.0002384185791015,5.199
20030121131900.knt,FKS0180301211319.UD,2003-01-21, 13:19:00,36.363,141.029,47,5.0,FKS018,37.3961,140.3622,245,2003-01-21, 13:20:46,100Hz,119,U-D,0.0002384185791015,4.989,129.2810219988819,1371.0,1370.0,23.661710105025307,0.5853989131273891,0.5460003799764922,0.5470738417213321,0.5546033050416315,0.6570429187417841,0.0066312231975551,0.0066312231975551,0.0066312231975551,0.0066312231975551,0.0066312231975551,4.4639154758525255,4.4639154758525255,4.4639154758525255,4.4639154758525255,4.039634281800458,E-W,0.0002384185791015,7.938,N-S,0.0002384185791015,7.624
20030121131900.knt,FKS0310301211319.UD,2003-01-21, 13:19:00,36.363,141.029,47,5.0,FKS031,37.3364,140.8132,399,2003-01-21, 13:20:54,100Hz,119,U-D,0.0002384185791015,2.3,109.92707892440394,222.0,221.0,31.378012029327277,2.035089483371787,2.2374976572823555,2.543172012652593,2.9068756895356818,2.923764704867949,0.0057187638915136,0.0057187638915136,0.0057187638915136,0.0057187638915136,0.0057187638915136,1.9757034969561051,1.9757034969561051,1.9757034969561051,1.9757034969561051,1.0294626933078692,E-W,0.0002384185791015,3.085,N-S,0.0002384185791015,3.183
20030121131900.knt,GNM0030301211319.UD,2003-01-21, 13:19:00,36.363,141.029,47,5.0,GNM003,36.6578,139.0784,462,2003-01-21, 13:20:54,100Hz,119,U-D,0.0002384185791015,1.326,177.38229929357465,0.0,1046.0,21.97700162706288,0.0,0.0,0.0,0.0,0.0,0.0,0.0,0.0,0.0,0.0,0.0,0.0,0.0,0.0,0.0,E-W,0.0002384185791015,1.82,N-S,0.0002384185791015,2.441
20030121131900.knt,IBR0010301211319.UD,2003-01-21, 13:19:00,36.363,141.029,47,5.0,IBR001,36.7761,140.3569,105,2003-01-21, 13:20:38,100Hz,120,U-D,0.0002384185791015,8.556,75.58119308007446,1472.0,1481.0,28.877569809516373,0.9532602751297776,0.9816183383194206,0.9684872783287172,0.8438076763962444,0.8695430840164129,0.0139109278882169,0.0139109278882169,0.0139109278882169,0.0139109278882169,0.0139109278882169,8.612044302223588,8.612044302223588,8.612044302223588,8.612044302223588,8.612044302223588,E-W,0.0002384185791015,13.356,N-S,0.0002384185791015,7.904
20030121131900.knt,IBR0020301211319.UD,2003-01-21, 13:19:00,36.363,141.029,47,5.0,IBR002,36.7061,140.7068,9,2003-01-21, 13:20:35,100Hz,119,U-D,0.0002384185791015,13.484,47.793065732169865,1412.0,1411.0,39.08370470548695,1.0197716295660575,1.0560865618626782,1.0682475767338626,1.0611459607609324,1.114547538897207,0.0177944488238742,0.0177944488238742,0.0177944488238742,0.0177944488238742,0.0177944488238742,4.698825424172151,4.698825424172151,4.698825424172151,4.698825424172151,3.597610578787446,E-W,0.0002384185791015,16.308,N-S,0.0002384185791015,20.535
20030121131900.knt,IBR0030301211319.UD,2003-01-21, 13:19:00,36.363,141.029,47,5.0,IBR003,36.5915,140.6453,58,2003-01-21, 13:20:34,100Hz,119,U-D,0.0002384185791015,30.746,42.69115521041662,1451.0,1459.0,28.718447022410636,1.5242612500024428,1.494281266362636,1.1908851524456725,0.8694344041572937,0.8567854549838163,0.0194883013889224,0.0194883013889224,0.0181823641305919,0.0181823641305919,0.0181823641305919,11.657972061726316,10.672552792969864,10.672552792969864,10.672552792969864,10.672552792969864,E-W,0.0002384185791015,53.027,N-S,0.0002384185791015,73.32
20030121131900.knt,IBR0040301211319.UD,2003-01-21, 13:19:00,36.363,141.029,47,5.0,IBR004,36.5273,140.4094,51,2003-01-21, 13:20:37,100Hz,119,U-D,0.0002384185791015,12.144,58.355408799376406,1368.0,1367.0,44.20475654945527,0.934699931161299,0.9592474634070596,0.9736288698255816,1.0560669533423075,1.0617826994273716,0.0207542101966915,0.0207542101966915,0.0207542101966915,0.0207542101966915,0.0207542101966915,9.959366106418717,9.959366106418717,9.959366106418717,9.959366106418717,8.885881769545819,E-W,0.0002384185791015,26.944,N-S,0.0002384185791015,33.428
20030121131900.knt,IBR0050301211319.UD,2003-01-21, 13:19:00,36.363,141.029,47,5.0,IBR005,36.3851,140.2372,63,2003-01-21, 13:20:38,100Hz,119,U-D,0.0002384185791015,19.143,70.93222162110102,1397.0,1406.0,32.31128828343734,0.2770476135412513,0.2682354594711651,0.2727723466121337,0.2694228683853741,0.2968397575675092,0.0103912148451875,0.0103912148451875,0.0103912148451875,0.0103912148451875,0.0103912148451875,19.08770262087786,19.08770262087786,19.08770262087786,19.08770262087786,19.08770262087786,E-W,0.0002384185791015,16.77,N-S,0.0002384185791015,20.127
20030121131900.knt,IBR0060301211319.UD,2003-01-21, 13:19:00,36.363,141.029,47,5.0,IBR006,36.369,140.4528,20,2003-01-21, 13:20:36,100Hz,119,U-D,0.0002384185791015,17.996,51.59675142608601,1419.0,1424.0,22.861288586710263,0.8011368284876332,0.8085215926978019,0.8178293969732703,0.8203878785572906,0.8831280765903732,0.0275559314911739,0.0275559314911739,0.0275559314911739,0.0275559314911739,0.0275559314911739,17.94043720140121,17.94043720140121,17.94043720140121,17.94043720140121,14.492772689186058,E-W,0.0002384185791015,18.376,N-S,0.0002384185791015,19.908
20030121131900.knt,IBR0070301211319.UD,2003-01-21, 13:19:00,36.363,141.029,47,5.0,IBR007,36.3523,140.5955,24,2003-01-21, 13:20:34,100Hz,119,U-D,0.0002384185791015,12.149,38.83762471507188,1447.0,1447.0,34.695350005592466,0.8542562028042855,0.8822025954622588,0.9051165644552932,0.9281525671526576,0.9372410044887314,0.025376482821007,0.025376482821007,0.025376482821007,0.025376482821007,0.025376482821007,10.561144184485295,10.561144184485295,10.561144184485295,10.561144184485295,10.561144184485295,E-W,0.0002384185791015,27.438,N-S,0.0002384185791015,27.761
20030121131900.knt,IBR0100301211319.UD,2003-01-21, 13:19:00,36.363,141.029,47,5.0,IBR010,36.1843,139.9653,23,2003-01-21, 13:20:52,100Hz,119,U-D,0.0002384185791015,2.795,97.40358562832012,344.0,93.0,17.25337265244303,3.397138356545604,3.301900156374389,3.354959332470956,3.6889326362810415,3.660585495906068,0.0176371779050042,0.0176371779050042,0.0176371779050042,0.0176371779050042,0.0176371779050042,1.5134177744789157,1.455593255333003,1.455593255333003,1.455593255333003,1.0667454979510271,E-W,0.0002384185791015,4.272,N-S,0.0002384185791015,4.745
20030121131900.knt,IBR0110301211319.UD,2003-01-21, 13:19:00,36.363,141.029,47,5.0,IBR011,36.1251,140.0903,26,2003-01-21, 13:20:40,100Hz,119,U-D,0.0002384185791015,3.262,88.24005831037127,1412.0,1409.0,25.81239889099298,1.1739628654990648,1.0474217557731451,0.8676841404578239,0.7199859014813449,0.8153913187778357,0.006953981078704,0.006953981078704,0.006953981078704,0.0065467803802565,0.0065467803802565,3.2801921172044115,3.2801921172044115,3.2801921172044115,3.2801921172044115,3.2801921172044115,E-W,0.0002384185791015,6.812,N-S,0.0002384185791015,6.087
20030121131900.knt,IBR0120301211319.UD,2003-01-21, 13:19:00,36.363,141.029,47,5.0,IBR012,36.1901,140.2869,24,2003-01-21, 13:20:41,100Hz,120,U-D,0.0002384185791015,5.421,69.24560331365397,1071.0,1071.0,22.24173768008889,5.001689484232054,5.0230253663776105,4.685698856531604,4.199016006861799,3.96584199951536,0.0197964369292779,0.0197964369292779,0.0197964369292779,0.0197964369292779,0.0197964369292779,4.727344152521695,4.727344152521695,4.353957100664526,3.5718562683248023,3.1597107203929333,E-W,0.0002384185791015,12.93,N-S,0.0002384185791015,7.707
