earthquake name,records name,earthquake date,earthquake time,lat,long,depth,mag,stn_code,stn_lat,stn_long,stn_height,rcd_date,rcd_time,frequency,rcd_duration,direction,scale_factor,max_pga,epi_dist,pick_index_manually,pick_index_kalkan,snr_db_kalkan,tc_5sec,tc_4sec,tc_3sec,tc_2sec,tc_1sec,Pd_5sec,Pd_4sec,Pd_3sec,Pd_2sec,Pd_1sec,Pga_5sec,Pga_4sec,Pga_3sec,Pga_2sec,Pga_1sec,Channel,Scale_factor,PGA_ew,Channel.1,Scale_factor.1,PGA_ns
20030127022200.knt,MYG0040301270222.UD,2003-01-27, 02:22:00,38.856,142.051,46,4.3,MYG004,38.7292,141.0217,40,2003-01-27, 02:23:18,100Hz,119,U-D,0.0002384185791015,0.596,90.3136351676309,308.0,303.0,20.04669601300886,2.3892290152758666,2.0494158959403097,1.3790810616360538,0.7270261145918155,0.8121654794051988,0.0011062780543863,0.0011062780543863,0.0008961943866277,0.0006563092398652,0.0006563092398652,0.5717746160088122,0.5717746160088122,0.5717746160088122,0.5717746160088122,0.5717746160088122,E-W,0.0002384185791015,2.019,N-S,0.0002384185791015,2.617
20030127022200.knt,MYG0080301270222.UD,2003-01-27, 02:22:00,38.856,142.051,46,4.3,MYG008,38.5769,141.4514,5,2003-01-27, 02:23:11,100Hz,119,U-D,0.0002384185791015,2.003,60.57496556824695,594.0,606.0,22.58979137616885,2.7230466602512973,2.690293825302194,3.28613868650126,2.215341575395326,1.3292599992983676,0.0016120175949209,0.0014151483562516,0.0014151483562516,0.0012883383375829,0.0006306209323785,0.9594804982231002,0.9594804982231002,0.462457203204642,0.462457203204642,0.4475919418318028,E-W,0.0002384185791015,4.048,N-S,0.0002384185791015,5.969
20030127022200.knt,MYG0110301270222.UD,2003-01-27, 02:22:00,38.856,142.051,46,4.3,MYG011,38.2972,141.5043,30,2003-01-27, 02:23:14,100Hz,119,U-D,0.0002384185791015,3.163,78.22627983085202,497.0,515.0,24.79895056755736,4.672101024118971,4.079532202013184,3.486520373807813,3.9673188139107514,5.526196414570867,0.0030109405477254,0.0030109405477254,0.0030109405477254,0.0030109405477254,0.0030109405477254,0.8379604565323866,0.6953988082708649,0.6584645682467632,0.5299256082450551,0.4759216728108573,E-W,0.0002384185791015,7.733,N-S,0.0002384185791015,6.181
20030127161600.knt,IWT0060301271616.UD,2003-01-27, 16:16:00,38.773,142.279,36,4.7,IWT006,39.4806,141.9652,4,2003-01-27, 16:17:07,100Hz,119,U-D,0.0002384185791015,1.899,83.20724536094394,318.0,342.0,16.37012166783488,7.277141920932671,7.447301866449161,7.959011691196998,9.43359160597766,16.67214040844528,0.0063024485803436,0.0063024485803436,0.0063024485803436,0.0063024485803436,0.0063024485803436,0.7426735047743718,0.7426735047743718,0.5947269742980164,0.5947269742980164,0.3348621453578213,E-W,0.0002384185791015,3.045,N-S,0.0002384185791015,2.521
20030127161600.knt,IWT0080301271616.UD,2003-01-27, 16:16:00,38.773,142.279,36,4.7,IWT008,39.0815,141.7083,50,2003-01-27, 16:17:00,100Hz,119,U-D,0.0002384185791015,2.773,60.11544790389681,749.0,749.0,24.634340138211535,7.6743062160955455,7.965155310098569,7.920074266808341,6.651266736122632,4.42677684109099,0.0073681221955146,0.0073681221955146,0.0073681221955146,0.0073681221955146,0.0067522277203675,1.9781404876209516,1.9781404876209516,1.9781404876209516,1.9781404876209516,1.9781404876209516,E-W,0.0002384185791015,5.955,N-S,0.0002384185791015,6.177
20030127161600.knt,IWT0100301271616.UD,2003-01-27, 16:16:00,38.773,142.279,36,4.7,IWT010,38.9334,141.1173,37,2003-01-27, 16:17:12,100Hz,120,U-D,0.0002384185791015,1.585,102.16403239230024,138.0,128.0,19.09204553206184,2.5600921567186816,2.990895387497271,3.208663191845208,3.4605663487092464,2.6036266753103186,0.0025383055343598,0.0025383055343598,0.0025383055343598,0.0025383055343598,0.0019307916841049,0.6076637391747536,0.6076637391747536,0.6076637391747536,0.6076637391747536,0.6076637391747536,E-W,0.0002384185791015,3.791,N-S,0.0002384185791015,4.054
20030127161600.knt,IWT0120301271616.UD,2003-01-27, 16:16:00,38.773,142.279,36,4.7,IWT012,39.3209,141.1378,64,2003-01-27, 16:17:14,100Hz,119,U-D,0.0002384185791015,4.878,115.860448754717,129.0,187.0,15.644180671837628,5.577602371880567,6.386741613848528,7.78413116554693,10.235596986784117,9.101469583540068,0.0048478096746646,0.0048478096746646,0.0048478096746646,0.0048478096746646,0.0047467499613923,0.4990883855390617,0.4990883855390617,0.4711004627385975,0.3242755235381161,0.2808216875872434,E-W,0.0002384185791015,6.086,N-S,0.0002384185791015,8.91
20030127161600.knt,IWT0130301271616.UD,2003-01-27, 16:16:00,38.773,142.279,36,4.7,IWT013,39.3367,141.5378,272,2003-01-27, 16:17:07,100Hz,119,U-D,0.0002384185791015,4.403,89.58151242250626,441.0,-100.0,,9.564684757670316,7.497068931951947,5.89750356421824,5.954294677951751,8.153044609161558,0.5401312825506186,0.5401312825506186,0.5401312825506186,0.5401312825506186,0.5401312825506186,1.6155541651294691,1.6155541651294691,1.6155541651294691,1.6155541651294691,1.6155541651294691,E-W,0.0002384185791015,4.849,N-S,0.0002384185791015,5.816
20030127161600.knt,IWT0160301271616.UD,2003-01-27, 16:16:00,38.773,142.279,36,4.7,IWT016,39.5997,141.6789,198,2003-01-27, 16:17:13,100Hz,119,U-D,0.0002384185791015,1.055,105.47534826464812,28.0,36.0,15.95302723612798,11.714070851432345,12.307575258509749,10.072263510671757,6.762562911486263,3.2664914061156742,0.0117060257178551,0.0117060257178551,0.0117060257178551,0.0098532843228909,0.0051109608270877,0.7044719240922633,0.7044719240922633,0.7044719240922633,0.7044719240922633,0.4183380027327478,E-W,0.0002384185791015,2.762,N-S,0.0002384185791015,2.389
20030127161600.knt,MYG0010301271616.UD,2003-01-27, 16:16:00,38.773,142.279,36,4.7,MYG001,38.9015,141.5684,48,2003-01-27, 16:17:54,100Hz,119,U-D,0.0002384185791015,14.109,63.183907159738006,1404.0,1400.0,36.3522322269735,0.2873452945221728,0.2223803617996022,0.1800873560206198,0.1737359788179568,0.1814487704795931,0.0049342658171813,0.0049342658171813,0.0049342658171813,0.0049342658171813,0.0049342658171813,14.159706512892896,14.159706512892896,14.159706512892896,14.159706512892896,14.159706512892896,E-W,0.0002384185791015,26.165,N-S,0.0002384185791015,17.425
20030127161600.knt,MYG0020301271616.UD,2003-01-27, 16:16:00,38.773,142.279,36,4.7,MYG002,38.7262,141.5109,79,2003-01-27, 16:17:54,100Hz,119,U-D,0.0002384185791015,3.835,66.81216036135538,1445.0,1437.0,34.40514278977969,0.7162584081242583,0.6689561322127674,0.5096039478380174,0.5201163071582795,0.564459810286831,0.0015584855477014,0.0015584855477014,0.0015584855477014,0.0015584855477014,0.0015584855477014,2.5577694832479887,2.5577694832479887,2.5577694832479887,2.5577694832479887,2.5577694832479887,E-W,0.0002384185791015,11.147,N-S,0.0002384185791015,13.575
20030127161600.knt,MYG0030301271616.UD,2003-01-27, 16:16:00,38.773,142.279,36,4.7,MYG003,38.7348,141.3106,28,2003-01-27, 16:17:06,100Hz,119,U-D,0.0002384185791015,2.834,84.08124761213547,470.0,478.0,28.120925523333508,5.208162725179344,4.240792137678399,2.8799486505495566,2.3770295219059974,2.810647210780172,0.0049367268720739,0.0048896050734827,0.003280847743462,0.003280847743462,0.003280847743462,1.2041930552825957,1.2041930552825957,1.2041930552825957,1.2041930552825957,1.2041930552825957,E-W,0.0002384185791015,5.107,N-S,0.0002384185791015,5.048
20030127161600.knt,MYG0040301271616.UD,2003-01-27, 16:16:00,38.773,142.279,36,4.7,MYG004,38.7292,141.0217,40,2003-01-27, 16:17:14,100Hz,119,U-D,0.0002384185791015,1.807,109.13822711164316,54.0,54.0,22.951632890366792,4.844460498355145,5.157515827998589,4.89799866126907,3.8389118269363087,2.5132934469491928,0.00466072342705,0.00466072342705,0.00466072342705,0.00466072342705,0.0031748771587636,0.5649971589244179,0.5649971589244179,0.5649971589244179,0.5649971589244179,0.5228700323395047,E-W,0.0002384185791015,4.243,N-S,0.0002384185791015,6.121
20030127161600.knt,MYG0080301271616.UD,2003-01-27, 16:16:00,38.773,142.279,36,4.7,MYG008,38.5769,141.4514,5,2003-01-27, 16:17:04,100Hz,119,U-D,0.0002384185791015,2.266,75.08003000581814,537.0,537.0,29.648278905806883,3.4226973939928667,2.617335356001563,1.7475632523301057,1.2618890917235777,1.5979921807546549,0.0041875503009258,0.0035155592307569,0.002763616892813,0.0025129586074441,0.0025129586074441,0.9624496600656534,0.9624496600656534,0.9624496600656534,0.9624496600656534,0.9595048510448536,E-W,0.0002384185791015,3.264,N-S,0.0002384185791015,5.152
20030127161600.knt,MYG0110301271616.UD,2003-01-27, 16:16:00,38.773,142.279,36,4.7,MYG011,38.2972,141.5043,30,2003-01-27, 16:17:06,100Hz,119,U-D,0.0002384185791015,6.073,85.67079624778789,463.0,481.00000000000006,25.795640900481875,5.714685739703088,6.716357103365628,6.326946772181759,7.016377944942187,6.955255025003263,0.0060092693095918,0.0060092693095918,0.0060092693095918,0.0060092693095918,0.0060092693095918,1.192242286432215,1.192242286432215,1.192242286432215,1.169585394846226,0.9776103114740324,E-W,0.0002384185791015,14.202,N-S,0.0002384185791015,11.647
20030128200900.knt,AOM0040301282009.UD,2003-01-28, 20:09:00,41.331,142.071,25,4.5,AOM004,41.4087,141.4486,30,2003-01-28, 20:10:02,100Hz,119,U-D,0.0002384185791015,2.193,52.65115023510994,784.0,794.0,25.56799801400438,6.525070769627267,6.678402729837514,6.279170757002164,5.6122695487187215,4.233021889652757,0.0091934444166946,0.0091934444166946,0.0091934444166946,0.0085078152835511,0.0073463779876468,1.7290746927911789,1.7290746927911789,1.7290746927911789,1.3372998899406916,0.8829832490540036,E-W,0.0002384185791015,6.185,N-S,0.0002384185791015,9.71
20030128200900.knt,AOM0060301282009.UD,2003-01-28, 20:09:00,41.331,142.071,25,4.5,AOM006,41.1976,140.9972,2,2003-01-28, 20:10:13,100Hz,119,U-D,0.0002384185791015,3.549,90.96775089361132,269.0,299.0,18.57423738348464,10.9296947637899,11.585577845069016,14.780961376800652,21.72058880068325,47.38201598726179,0.0571202369215036,0.0571202369215036,0.0571202369215036,0.0571202369215036,0.0571202369215036,1.6082503419660368,1.0064871060488223,0.9223253716676628,0.9223253716676628,0.4406158426480291,E-W,0.0002384185791015,6.078,N-S,0.0002384185791015,6.522
20030128200900.knt,AOM0070301282009.UD,2003-01-28, 20:09:00,41.331,142.071,25,4.5,AOM007,41.2256,141.3958,10,2003-01-28, 20:10:04,100Hz,119,U-D,0.0002384185791015,9.384,57.626978267551856,678.0,693.0,29.635958091339106,7.409776602608701,7.996365708839639,7.586441306150482,6.894654907937451,6.453947815485467,0.0231294275895273,0.0231294275895273,0.0231294275895273,0.0222588188933196,0.0174000716437329,3.151912602792589,3.151912602792589,3.151912602792589,3.151912602792589,1.8656071722769805,E-W,0.0002384185791015,18.504,N-S,0.0002384185791015,17.225
20030128200900.knt,AOM0090301282009.UD,2003-01-28, 20:09:00,41.331,142.071,25,4.5,AOM009,40.9665,141.3733,10,2003-01-28, 20:10:08,100Hz,119,U-D,0.0002384185791015,2.987,71.10132030850811,479.0,496.0,20.383607654794886,2.9982079561374544,2.605899370719241,2.255910947101568,2.647349502112456,4.539695402905972,0.009503119789434,0.0083244905765187,0.0080839400236914,0.0080839400236914,0.0080839400236914,2.201871956340839,2.201871956340839,2.201871956340839,1.862566194687528,1.0605262112677771,E-W,0.0002384185791015,4.182,N-S,0.0002384185791015,5.066
20030128200900.knt,AOM0100301282009.UD,2003-01-28, 20:09:00,41.331,142.071,25,4.5,AOM010,40.8721,141.1416,15,2003-01-28, 20:10:15,100Hz,120,U-D,0.0002384185791015,3.246,93.10272763007067,150.0,195.0,20.05638989085549,8.74444989820662,10.911672160993334,13.145046116557005,15.37582597941244,12.77959353738169,0.0295320033737152,0.0295320033737152,0.0295320033737152,0.0295320033737152,0.0275453776983689,1.9837840936858504,1.802476774006224,1.802476774006224,1.802476774006224,1.120139283349297,E-W,0.0002384185791015,11.553,N-S,0.0002384185791015,12.147
20030128200900.knt,AOM0110301282009.UD,2003-01-28, 20:09:00,41.331,142.071,25,4.5,AOM011,40.6803,141.3669,41,2003-01-28, 20:10:06,100Hz,119,U-D,0.0002384185791015,4.672,93.41214666427176,1047.0,1060.0,24.412747524390586,1.0473133382540396,1.0164446196805468,1.258329419566722,0.6264707598575556,0.386193257230798,0.0051734598043734,0.0051734598043734,0.0037708039152899,0.0018573394487928,0.000763502279415,2.7503462034204693,2.7503462034204693,1.0989829126609223,1.0989829126609223,1.0448171445064756,E-W,0.0002384185791015,5.467,N-S,0.0002384185791015,4.748
20030128200900.knt,HKD1580301282009.UD,2003-01-28, 20:09:00,41.331,142.071,25,4.5,HKD158,41.8345,141.1411,6,2003-01-28, 20:10:02,100Hz,120,U-D,0.0002384185791015,3.88,95.47917942858702,1436.0,1448.0,30.093655153272994,0.3742309390393162,0.3719777041309633,0.3584651750084349,0.3201548031467244,0.312291736778469,0.0049146158351915,0.0049146158351915,0.0049146158351915,0.0049146158351915,0.0049146158351915,3.8656284394764913,3.8656284394764913,3.8656284394764913,3.8656284394764913,3.8656284394764913,E-W,0.0002384185791015,4.062,N-S,0.0002384185791015,5.391
20030130092800.knt,MYG0110301300928.UD,2003-01-30, 09:28:00,38.366,141.222,13,3.0,MYG011,38.2972,141.5043,30,2003-01-30, 09:29:04,100Hz,119,U-D,0.0002384185791015,2.123,25.78467324414646,947.0,961.0,16.93448742363712,1.9272313140352677,2.079714075812853,3.200295389437542,3.41287369423674,4.009799835794977,0.0017065100327023,0.0011989422048751,0.0007826979088722,0.0007102098623221,0.0005768105143504,2.1185532576901007,1.5400482245601652,0.4018814145241437,0.3893123281631393,0.1483415018322764,E-W,0.0002384185791015,4.466,N-S,0.0002384185791015,2.586
20030130145700.knt,TKY0100301301457.UD,2003-01-30, 14:57:00,34.203,139.252,13,3.7,TKY010,34.3775,139.2557,13,2003-01-30, 14:57:20,100Hz,120,U-D,0.0002384185791015,8.857,19.40649179742305,1364.0,1379.0,23.11382252054952,0.6444117154955817,0.8503515885688744,0.8554047473377518,1.1826280931409607,1.0655570995311,0.0149192803224343,0.0134201595041537,0.0058287715014198,0.0058287715014198,0.0049787196180878,8.79188736262969,6.502640245627622,3.8682835843444847,2.982414645793783,2.982414645793783,E-W,0.0002384185791015,13.762,N-S,0.0002384185791015,15.235
20030131071800.knt,MYG0020301310718.UD,2003-01-31, 07:18:00,38.365,141.222,13,3.5,MYG002,38.7262,141.5109,79,2003-01-31, 07:18:17,100Hz,119,U-D,0.0002384185791015,2.107,47.37469541671963,806.0,831.0,25.031848783086726,8.735811802110796,9.336420765562732,9.846000230156667,9.061300596309083,10.506245881344206,0.0035417195846668,0.0035417195846668,0.0035417195846668,0.0035417195846668,0.0033662011354294,0.901241390945775,0.901241390945775,0.901241390945775,0.901241390945775,0.5817655818456529,E-W,0.0002384185791015,5.656,N-S,0.0002384185791015,6.955
20030131071800.knt,MYG0100301310718.UD,2003-01-31, 07:18:00,38.365,141.222,13,3.5,MYG010,38.4282,141.2809,2,2003-01-31, 07:18:06,100Hz,119,U-D,0.0002384185791015,4.073,8.70248130848411,1318.0,1317.0,18.71044842903149,1.1238130241446052,1.10497132161722,0.8193661978872738,0.5512084091727886,1.1364278198765685,0.0037820932100206,0.0037820932100206,0.0037820932100206,0.0021453486552602,0.0015406022636649,4.076792078549876,4.076792078549876,4.076792078549876,4.076792078549876,1.4462565221231576,E-W,0.0002384185791015,14.138,N-S,0.0002384185791015,18.695
20030131071800.knt,MYG0110301310718.UD,2003-01-31, 07:18:00,38.365,141.222,13,3.5,MYG011,38.2972,141.5043,30,2003-01-31, 07:18:11,100Hz,120,U-D,0.0002384185791015,4.891,25.752063650915925,1103.0,1153.0,18.813254399850077,0.6014744275634165,0.9538759662876092,1.1272554656954432,1.3843330518597696,2.1012658912315567,0.0019502842298724,0.0014279029194827,0.0010306934295913,0.0010306934295913,0.0010306934295913,4.880634767110116,2.24569429767568,0.9310689643277118,0.6128942769891239,0.5649790129869594,E-W,0.0002384185791015,14.587,N-S,0.0002384185791015,8.757
20030131092800.knt,CHB0100301310928.UD,2003-01-31, 09:28:00,35.41,140.439,63,3.8,CHB010,35.7077,140.568,8,2003-01-31, 09:29:06,100Hz,119,U-D,0.0002384185791015,3.282,35.099299664943246,658.0,664.0,12.517458355724312,5.161473108614659,5.222049503607357,5.025747446466871,4.0355533878539696,2.464677524044862,0.0069797858968902,0.0069797858968902,0.0069797858968902,0.006720400421003,0.0049350816448922,3.2916969431543,3.2916969431543,3.2916969431543,3.2916969431543,3.2916969431543,E-W,0.0002384185791015,3.259,N-S,0.0002384185791015,3.812
20030131092800.knt,CHB0110301310928.UD,2003-01-31, 09:28:00,35.41,140.439,63,3.8,CHB011,35.6021,140.5014,2,2003-01-31, 09:29:05,100Hz,119,U-D,0.0002384185791015,1.872,22.09472492656305,684.0,102.0,16.4765394266322,2.092878384808235,1.4972305018364174,1.2532131780214977,1.1131244258397135,0.5715143504322195,0.0031966750769785,0.0028723707950974,0.0013990896799678,0.0013990896799678,0.0009313140069404,0.9195473125501092,0.9195473125501092,0.9195473125501092,0.9195473125501092,0.9195473125501092,E-W,0.0002384185791015,5.803,N-S,0.0002384185791015,4.276
20030131092800.knt,CHB0120301310928.UD,2003-01-31, 09:28:00,35.41,140.439,63,3.8,CHB012,35.5727,140.3333,62,2003-01-31, 09:29:00,100Hz,119,U-D,0.0002384185791015,3.92,20.46645855702201,1164.0,1187.0,23.82958155369728,0.6805251515570141,0.7230914837458644,0.8527960543681556,0.4464833639109322,0.2560295153796243,0.004817493778819,0.004817493778819,0.0037034909929277,0.0025493381192572,0.0018158408981104,3.927052255712875,3.927052255712875,2.3639560331986544,2.3639560331986544,2.3639560331986544,E-W,0.0002384185791015,9.814,N-S,0.0002384185791015,7.813
20030131092800.knt,CHB0130301310928.UD,2003-01-31, 09:28:00,35.41,140.439,63,3.8,CHB013,35.4327,140.2905,13,2003-01-31, 09:29:05,100Hz,119,U-D,0.0002384185791015,3.926,13.690879714774107,666.0,664.0,22.52362935035445,3.891745054582712,3.806706439363911,3.719645767613959,2.879193967436294,1.719897284506949,0.0059419160594434,0.0059419160594434,0.00568344097571,0.0047657407078593,0.0035284962773074,0.9456031768814886,0.9456031768814886,0.675670095086758,0.675670095086758,0.675670095086758,E-W,0.0002384185791015,8.512,N-S,0.0002384185791015,4.997
20030131092800.knt,CHB0160301310928.UD,2003-01-31, 09:28:00,35.41,140.439,63,3.8,CHB016,35.2999,140.3867,8,2003-01-31, 09:29:04,100Hz,120,U-D,0.0002384185791015,2.337,13.1292238332014,741.0,746.0,17.238115865480154,3.36125563615489,3.727198004845515,4.5801547342034645,4.324956092025653,3.147462478509051,0.0058499210381162,0.0058499210381162,0.0058499210381162,0.0058499210381162,0.0058499210381162,1.8215066366088568,1.8215066366088568,1.8215066366088568,1.8215066366088568,1.8215066366088568,E-W,0.0002384185791015,3.542,N-S,0.0002384185791015,5.44
20030131092800.knt,CHB0180301310928.UD,2003-01-31, 09:28:00,35.41,140.439,63,3.8,CHB018,35.1577,140.3222,56,2003-01-31, 09:29:05,100Hz,119,U-D,0.0002384185791015,2.072,29.99084246179697,711.0,711.0,17.528411286329295,12.196250308660913,12.758794545444758,12.088278354804864,10.180068258287688,7.312463149697356,0.0157552831445398,0.0157552831445398,0.0157552831445398,0.0156259647769595,0.0145814031230454,1.4068761197906077,1.4068761197906077,1.4068761197906077,1.4068761197906077,1.4068761197906077,E-W,0.0002384185791015,3.714,N-S,0.0002384185791015,5.413
20030131092800.knt,CHB0260301310928.UD,2003-01-31, 09:28:00,35.41,140.439,63,3.8,CHB026,35.3872,140.237,-9999,2003-01-31, 09:29:05,200Hz,180,U-D,0.0002384185791015,3.385,18.48389776093853,1344.0,1351.0,23.076212247095317,1.0396823376555202,1.0220866072770862,0.96657163712416,1.043008126022604,1.4256258438742608,0.0083055224298887,0.0083055224298887,0.0083055224298887,0.0083055224298887,0.0083055224298887,1.7720086776271846,1.7720086776271846,1.7720086776271846,1.7720086776271846,1.7720086776271846,E-W,0.0002384185791015,5.239,N-S,0.0002384185791015,6.139
20030131175300.knt,CHB0030301311753.UD,2003-01-31, 17:53:00,36.043,140.102,66,4.4,CHB003,35.7943,140.0564,28,2003-01-31, 17:54:02,100Hz,119,U-D,0.0002384185791015,6.552,27.95738768388166,642.0,-100.0,,19.68711270504281,18.119225931120845,14.74884887472656,10.243362960732112,5.76798530725989,0.5703845389019879,0.5703845389019879,0.5700407547994895,0.5208375090103763,0.3614232342256735,4.374460639102228,4.374460639102228,4.374460639102228,4.374460639102228,3.0900245370937527,E-W,0.0002384185791015,9.781,N-S,0.0002384185791015,10.541
