earthquake name,records name,earthquake date,earthquake time,lat,long,depth,mag,stn_code,stn_lat,stn_long,stn_height,rcd_date,rcd_time,frequency,rcd_duration,direction,scale_factor,max_pga,epi_dist,pick_index_manually,pick_index_kalkan,snr_db_kalkan,tc_5sec,tc_4sec,tc_3sec,tc_2sec,tc_1sec,Pd_5sec,Pd_4sec,Pd_3sec,Pd_2sec,Pd_1sec,Pga_5sec,Pga_4sec,Pga_3sec,Pga_2sec,Pga_1sec,Channel,Scale_factor,PGA_ew,Channel.1,Scale_factor.1,PGA_ns
20041001095900.knt,MYG0020410010959.UD,2004-10-01, 09:59:00,37.32,140.83,74,4.2,MYG002,38.7262,141.5109,79,2004-10-01, 09:59:59,100Hz,76,U-D,0.0006340209495401,1.444,167.349943371796,1499,0.0,0.0,0.2366827139987599,0.243443271250071,0.2418254415955358,0.1963254391545724,0.2016385690189676,0.0002993952278365,0.0002993952278365,0.0002993952278365,0.0002993952278365,0.0002993952278365,0.9061949097423418,0.9061949097423418,0.9061949097423418,0.8813433341361266,0.6905111572775596,E-W,0.0006340209495401,3.756,N-S,0.0006340209495401,4.671
20041001095900.knt,MYG0150410010959.UD,2004-10-01, 09:59:00,37.32,140.83,74,4.2,MYG015,38.1049,140.8699,3,2004-10-01, 09:59:02,100Hz,60,U-D,0.0006340209495401,1.836,87.34743938738022,330,0.0,0.0,2.1076551037217883,1.8808881250484444,1.9110294761539888,2.1218962063154425,2.671099711590029,0.0020291502678494,0.0020291502678494,0.0020291502678494,0.0020291502678494,0.0020291502678494,1.0708103610758957,1.0708103610758957,1.0708103610758957,1.0708103610758957,0.9221165240314532,E-W,0.0006340209495401,4.412,N-S,0.0006340209495401,4.384
20041001095900.knt,TCG0140410010959.UD,2004-10-01, 09:59:00,37.32,140.83,74,4.2,TCG014,36.545,140.1742,130,2004-10-01, 09:59:53,100Hz,119,U-D,0.0002384185791015,3.311,104.03760657801304,1368,0.0,0.0,1.2421721792027252,1.1462845575129914,0.888377379577979,0.435287883724627,0.1507658317863585,0.0046213543475131,0.0046213543475131,0.0045288996792401,0.0030972102101466,0.0013263007117611,3.29858088287026,3.29858088287026,3.29858088287026,3.29858088287026,3.29858088287026,E-W,0.0002384185791015,7.07,N-S,0.0002384185791015,6.388
20041001132500.knt,HYG0260410011325.UD,2004-10-01, 13:25:00,33.878,134.87,40,3.5,HYG026,34.4149,134.7925,70,2004-10-01, 13:25:38,100Hz,60,U-D,0.0006340209495401,2.042,60.12504170342733,1560,0.0,0.0,0.182380337882871,0.1824905345821621,0.1823309807766242,0.1811705170426674,0.1814040070113829,0.0012612553913311,0.0012612553913311,0.0012612553913311,0.0012612553913311,0.0012612553913311,2.02903095575126,2.02903095575126,2.02903095575126,2.02903095575126,2.02903095575126,E-W,0.0006340209495401,3.375,N-S,0.0006340209495401,3.428
20041001132500.knt,TKS0010410011325.UD,2004-10-01, 13:25:00,33.878,134.87,40,3.5,TKS001,34.203,134.6098,2,2004-10-01, 13:25:43,100Hz,60,U-D,0.0006340209495401,1.667,43.36794651869077,857,0.0,0.0,2.1586757853796907,2.2975864903141505,2.392557124817627,3.060215361912624,5.120101839410489,0.0014141602611216,0.0014141602611216,0.0014141602611216,0.0014141602611216,0.0013229784047472,0.5296310710732899,0.5296310710732899,0.5296310710732899,0.5296310710732899,0.3334216249623264,E-W,0.0006340209495401,4.043,N-S,0.0006340209495401,3.686
20041001132500.knt,TKS0040410011325.UD,2004-10-01, 13:25:00,33.878,134.87,40,3.5,TKS004,33.7749,134.5914,5,2004-10-01, 13:25:35,100Hz,60,U-D,0.0006340209495401,3.236,28.17301638170538,1494,0.0,0.0,0.14596004645703,0.1440128700884323,0.1439033346865073,0.1416111067361035,0.143948495328426,0.0010861474379295,0.0010861474379295,0.0010861474379295,0.0010861474379295,0.0010861474379295,2.948717815111853,2.948717815111853,2.948717815111853,2.948717815111853,2.948717815111853,E-W,0.0006340209495401,5.671,N-S,0.0006340209495401,3.731
20041001132500.knt,TKS0050410011325.UD,2004-10-01, 13:25:00,33.878,134.87,40,3.5,TKS005,33.8788,134.3889,280,2004-10-01, 13:25:43,100Hz,60,U-D,0.0006340209495401,1.345,44.41353063950486,863,0.0,0.0,7.274362631089829,7.196484352187169,6.802279183740663,5.964565704155402,4.450107317434023,0.0047532502613517,0.0047532502613517,0.0047532502613517,0.0047532502613517,0.0047532502613517,1.3453099733462714,1.3453099733462714,1.3453099733462714,1.3453099733462714,1.3453099733462714,E-W,0.0006340209495401,1.937,N-S,0.0006340209495401,1.788
20041001132500.knt,TKS0080410011325.UD,2004-10-01, 13:25:00,33.878,134.87,40,3.5,TKS008,33.9344,134.212,332,2004-10-01, 13:25:39,100Hz,60,U-D,0.0006340209495401,1.868,61.04735476622289,1463,0.0,0.0,0.2266858980128241,0.224116376979403,0.2188319165909213,0.1987833474048442,0.1611306237730219,0.0006434679257425,0.0006434679257425,0.0006434679257425,0.0006434679257425,0.0006434679257425,1.8778079679192248,1.8778079679192248,1.8778079679192248,1.8778079679192248,1.8778079679192248,E-W,0.0006340209495401,3.26,N-S,0.0006340209495401,1.83
20041001132500.knt,WKY0050410011325.UD,2004-10-01, 13:25:00,33.878,134.87,40,3.5,WKY005,33.8938,135.4883,316,2004-10-01, 13:25:38,100Hz,60,U-D,0.0006340209495401,1.63,57.10124027951448,1497,0.0,0.0,0.2144207225665642,0.1951695207370631,0.1910916461469304,0.1926855206957407,0.2045929577073214,0.0004324619979304,0.0004324619979304,0.0004324619979304,0.0004324619979304,0.0004324619979304,1.156184984403957,1.156184984403957,1.156184984403957,1.156184984403957,1.0679456877972904,E-W,0.0006340209495401,4.505,N-S,0.0006340209495401,5.111
20041001132500.knt,WKY0060410011325.UD,2004-10-01, 13:25:00,33.878,134.87,40,3.5,WKY006,33.8908,135.1524,3,2004-10-01, 13:25:39,100Hz,60,U-D,0.0006340209495401,4.288,26.107172323135863,1074,0.0,0.0,0.7577353779730516,0.8007823955122649,0.868046081622016,0.9845287549804668,1.2508395933822205,0.0010774188649617,0.0010774188649617,0.0010774188649617,0.0010774188649617,0.0010774188649617,1.9513009612805636,1.9513009612805636,1.9513009612805636,1.9513009612805636,1.9513009612805636,E-W,0.0006340209495401,14.014,N-S,0.0006340209495401,4.902
20041001132500.knt,WKY0100410011325.UD,2004-10-01, 13:25:00,33.878,134.87,40,3.5,WKY010,33.5503,135.4972,6,2004-10-01, 13:25:49,100Hz,60,U-D,0.0006340209495401,0.911,68.50653970012837,539,0.0,0.0,0.7515328266335264,0.6742091408361415,0.6574630256816051,0.7226723523135128,0.7861701930261564,0.0004223713161972,0.0004223713161972,0.0004223713161972,0.0004223713161972,0.0004223713161972,0.5972568857595372,0.5972568857595372,0.5972568857595372,0.5972568857595372,0.5972568857595372,E-W,0.0006340209495401,3.02,N-S,0.0006340209495401,1.188
20041001132500.knt,WKY0140410011325.UD,2004-10-01, 13:25:00,33.878,134.87,40,3.5,WKY014,33.7053,135.6397,430,2004-10-01, 13:25:50,100Hz,60,U-D,0.0006340209495401,0.612,73.67465943428574,503,0.0,0.0,2.828982616476796,2.27473190894224,1.734685965390095,1.4192447066250269,1.5521606024643606,0.0011651665272926,0.0010504445781717,0.0010504445781717,0.0010504445781717,0.0010504445781717,0.6152754779210285,0.6152754779210285,0.6152754779210285,0.6152754779210285,0.6152754779210285,E-W,0.0006340209495401,1.615,N-S,0.0006340209495401,1.312
20041001154200.knt,EHM0010410011542.UD,2004-10-01, 15:42:00,34.04,133.712,8,3.4,EHM001,33.981,133.549,63,2004-10-01, 15:43:04,100Hz,60,U-D,0.0006340209495401,3.34,16.39415960695669,1326,0.0,0.0,0.4112351493898852,0.3714365429239768,0.2626756640799186,0.3147631684475528,0.2651330978720301,0.0013218395408277,0.0013218395408277,0.0009042211150586,0.0006534494418194,0.000593368264827,3.350293640203452,3.350293640203452,3.350293640203452,2.956304951085368,2.956304951085368,E-W,0.0006340209495401,2.926,N-S,0.0006340209495401,4.74
20041001154200.knt,KGW0030410011542.UD,2004-10-01, 15:42:00,34.04,133.712,8,3.4,KGW003,34.2652,133.7896,12,2004-10-01, 15:43:04,100Hz,60,U-D,0.0006340209495401,8.797,26.03930598252712,1506,0.0,0.0,0.2134876386312576,0.1595194539603115,0.1291124912837118,0.1261949075904894,0.118278661324841,0.0013712729871499,0.0010398741066303,0.0010398741066303,0.0010398741066303,0.0010398741066303,8.808429876774765,8.808429876774765,8.808429876774765,8.808429876774765,8.808429876774765,E-W,0.0006340209495401,13.365,N-S,0.0006340209495401,4.821
20041001154200.knt,KGW0050410011542.UD,2004-10-01, 15:42:00,34.04,133.712,8,3.4,KGW005,34.1138,133.6354,2,2004-10-01, 15:43:03,100Hz,60,U-D,0.0006340209495401,4.946,10.821915128723708,1358,0.0,0.0,0.2833111435521124,0.2164210803564542,0.1806078702114858,0.1434364217271653,0.1243550401706831,0.0019905657193788,0.0019905657193788,0.001578806682827,0.0009071792313051,0.0005037911872451,4.930788464287807,4.930788464287807,4.930788464287807,4.930788464287807,4.42639873143258,E-W,0.0006340209495401,12.369,N-S,0.0006340209495401,9.508
20041001154200.knt,KGW0080410011542.UD,2004-10-01, 15:42:00,34.04,133.712,8,3.4,KGW008,34.1644,133.9243,2,2004-10-01, 15:43:06,100Hz,60,U-D,0.0006340209495401,1.408,23.946537256851872,1271,0.0,0.0,0.2709839035626737,0.2669864221609857,0.2907037151731292,0.2883758645237217,0.2647892725620993,0.0010806011448961,0.0010806011448961,0.0002846463776803,0.0002846463776803,0.0002846463776803,1.4051984160244022,1.4051984160244022,1.3521154622435907,1.3521154622435907,1.3521154622435907,E-W,0.0006340209495401,2.893,N-S,0.0006340209495401,4.678
20041001154200.knt,KOC0080410011542.UD,2004-10-01, 15:42:00,34.04,133.712,8,3.4,KOC008,33.7758,133.3465,560,2004-10-01, 15:43:11,100Hz,60,U-D,0.0006340209495401,0.64,44.729830086287,1078,0.0,0.0,1.2124566740578724,2.242204809595488,2.240938252641393,1.8571134182136797,1.4265284116435537,0.0004088959982208,0.0004086912649102,0.0004086912649102,0.0004041855408657,0.0002861904395259,0.6386108634513733,0.4383348357043471,0.4383348357043471,0.4383348357043471,0.4383348357043471,E-W,0.0006340209495401,4.616,N-S,0.0006340209495401,2.942
20041001154200.knt,OKY0040410011542.UD,2004-10-01, 15:42:00,34.04,133.712,8,3.4,OKY004,34.9579,133.5018,168,2004-10-01, 15:43:29,100Hz,60,U-D,0.0006340209495401,1.079,103.86753129477368,230,0.0,0.0,5.426055056003301,4.501701798039366,4.100771633888687,4.47331523609181,5.22701075211314,0.0009833121257057,0.0008378694159106,0.0008378694159106,0.0008378694159106,0.0008378694159106,0.144565172501194,0.144565172501194,0.144565172501194,0.144565172501194,0.144565172501194,E-W,0.0006340209495401,1.927,N-S,0.0006340209495401,1.99
20041001154200.knt,OKY0130410011542.UD,2004-10-01, 15:42:00,34.04,133.712,8,3.4,OKY013,34.5095,133.5099,6,2004-10-01, 15:43:16,100Hz,60,U-D,0.0006340209495401,1.207,55.41038745980894,792,0.0,0.0,2.6437345394785705,2.5619994812708224,2.419357097956825,2.1151878025410853,1.6270197416310452,0.0015248580513658,0.0015248580513658,0.0015248580513658,0.0015248580513658,0.0015248580513658,1.2090764580926885,1.2090764580926885,1.2090764580926885,1.2090764580926885,1.2090764580926885,E-W,0.0006340209495401,2.846,N-S,0.0006340209495401,3.795
20041001154200.knt,TKS0080410011542.UD,2004-10-01, 15:42:00,34.04,133.712,8,3.4,TKS008,33.9344,134.212,332,2004-10-01, 15:43:13,100Hz,60,U-D,0.0006340209495401,2.003,47.571225726582746,938,0.0,0.0,1.346100000478885,1.3315446721316484,1.2249898695750558,1.0164902035606889,0.7561866477710663,0.0007597758186945,0.0007597758186945,0.0007597758186945,0.0007597758186945,0.0007597758186945,0.8285083083618385,0.8285083083618385,0.8285083083618385,0.8285083083618385,0.8285083083618385,E-W,0.0006340209495401,1.823,N-S,0.0006340209495401,1.403
20041001154200.knt,TKS0100410011542.UD,2004-10-01, 15:42:00,34.04,133.712,8,3.4,TKS010,34.038,134.0614,54,2004-10-01, 15:43:04,100Hz,60,U-D,0.0006340209495401,1.837,32.195316285459555,1565,0.0,0.0,0.1751043112867894,0.164184139098713,0.1609035690030167,0.1578201432448504,0.1502955773223475,0.0006600475690451,0.0004746532629108,0.0004746532629108,0.0004746532629108,0.0004746532629108,1.837280538526481,1.837280538526481,1.837280538526481,1.837280538526481,1.837280538526481,E-W,0.0006340209495401,1.535,N-S,0.0006340209495401,1.244
20041001154200.knt,TKS0110410011542.UD,2004-10-01, 15:42:00,34.04,133.712,8,3.4,TKS011,33.8746,133.9218,555,2004-10-01, 15:43:07,100Hz,60,U-D,0.0006340209495401,1.526,26.696017997664395,1204,0.0,0.0,0.3282897657684148,0.2866077578644817,0.6722282565143439,0.7809012320571854,0.6637194906139503,0.001323182301562,0.001323182301562,0.0002394834599794,0.0002394834599794,0.0002394834599794,1.5244680103936028,1.5244680103936028,0.2368687888966298,0.2211757667721638,0.2211757667721638,E-W,0.0006340209495401,2.488,N-S,0.0006340209495401,1.675
20041004084100.knt,HKD1080410040841.UD,2004-10-04, 08:41:00,41.981,142.559,62,4.2,HKD108,42.2528,142.5643,42,2004-10-04, 08:41:40,100Hz,119,U-D,0.0002384185791015,2.923,30.22594246388184,794,0.0,0.0,5.844471788160077,6.646713172656456,6.957684582589949,6.746277055808274,7.151306899416561,0.0115466398807787,0.0115466398807787,0.0115466398807787,0.0115466398807787,0.0097146632145433,1.6432383417304028,1.2056612404201197,1.2056612404201197,1.2056612404201197,0.997920299195554,E-W,0.0002384185791015,10.418,N-S,0.0002384185791015,10.573
20041004084100.knt,HKD1090410040841.UD,2004-10-04, 08:41:00,41.981,142.559,62,4.2,HKD109,42.1678,142.7673,4,2004-10-04, 08:41:34,100Hz,119,U-D,0.0002384185791015,9.906,26.963393319016827,1433,0.0,0.0,0.6415811292371231,0.6339078096849695,0.5590928534410774,0.4974227455342553,0.5307388725496905,0.008596756796871,0.008596756796871,0.008596756796871,0.008596756796871,0.008596756796871,9.905509111356782,9.905509111356782,9.905509111356782,9.905509111356782,9.905509111356782,E-W,0.0002384185791015,9.789,N-S,0.0002384185791015,7.404
20041004084100.knt,HKD1100410040841.UD,2004-10-04, 08:41:00,41.981,142.559,62,4.2,HKD110,42.1306,142.9353,5,2004-10-04, 08:41:34,100Hz,119,U-D,0.0002384185791015,3.96,35.24094522676658,1449,0.0,0.0,0.3946820874627156,0.4128547038647495,0.4103914529179892,0.424376790015499,0.3777043537402411,0.0031991427889354,0.0031991427889354,0.0031991427889354,0.0031991427889354,0.0031991427889354,3.946030202092335,3.946030202092335,3.946030202092335,3.946030202092335,3.946030202092335,E-W,0.0002384185791015,3.675,N-S,0.0002384185791015,4.226
20041004084100.knt,HKD1120410040841.UD,2004-10-04, 08:41:00,41.981,142.559,62,4.2,HKD112,41.937,143.2403,15,2004-10-04, 08:41:48,100Hz,119,U-D,0.0002384185791015,1.636,56.54666334654674,233,0.0,0.0,3.136413894405666,3.352119908154312,3.297920188855162,3.118907198483486,3.650111097074314,0.0047095283737479,0.0047095283737479,0.0047095283737479,0.0046605674780283,0.0041352139563995,1.636013656002287,1.636013656002287,1.636013656002287,1.5271183464368572,0.9880582295700844,E-W,0.0002384185791015,5.659,N-S,0.0002384185791015,4.092
20041004084100.knt,HKD1130410040841.UD,2004-10-04, 08:41:00,41.981,142.559,62,4.2,HKD113,42.1287,143.3153,15,2004-10-04, 08:41:47,100Hz,119,U-D,0.0002384185791015,0.971,64.56562434468356,412,0.0,0.0,0.83633107521535,0.8671738397346999,0.8919383550916488,1.0759281809060008,0.8483895379722299,0.0016370732137028,0.0016370732137028,0.0016370732137028,0.0016370732137028,0.0016370732137028,0.9790922379812608,0.9790922379812608,0.9790922379812608,0.6237007480398921,0.4418462910759509,E-W,0.0002384185791015,4.737,N-S,0.0002384185791015,4.264
20041005015300.knt,WKY0030410050153.UD,2004-10-05, 01:53:00,34.131,135.055,10,2.6,WKY003,34.0996,135.116,3,2004-10-05, 01:53:54,100Hz,60,U-D,0.0006340209495401,4.705,6.612562268935858,1407,0.0,0.0,0.1902443351960321,0.1817743068688462,0.1796888307721355,0.1845671419150377,0.2246407152560045,0.0020329811612174,0.0020329811612174,0.0020329811612174,0.0020329811612174,0.0004731475650982,4.689818026532016,4.689818026532016,4.689818026532016,4.689818026532016,1.3730887456090732,E-W,0.0006340209495401,10.913,N-S,0.0006340209495401,8.544
20041005083300.knt,AIC0010410050833.UD,2004-10-05, 08:33:00,35.933,136.377,12,4.8,AIC001,35.2976,136.75,6,2004-10-05, 08:34:14,100Hz,60,U-D,0.0006340209495401,5.107,78.2861431595008,633,0.0,0.0,8.988592341212641,8.94330196298035,8.300409435848556,6.513908412806193,3.918170332396291,0.0212640141925932,0.0212640141925932,0.0212640141925932,0.0183708294170565,0.0120380613644718,2.000750458686247,1.7995652464055767,1.7555323713585902,1.6755419965745146,1.2772448454898426,E-W,0.0006340209495401,9.265,N-S,0.0006340209495401,9.032
20041005083300.knt,AIC0020410050833.UD,2004-10-05, 08:33:00,35.933,136.377,12,4.8,AIC002,35.2979,136.9153,20,2004-10-05, 08:34:14,100Hz,63,U-D,0.0006340209495401,2.463,85.76055954226567,742,0.0,0.0,4.726165184442813,5.239781165761797,5.075216947200645,4.934186710158701,6.406669967780283,0.0072121749849731,0.0072121749849731,0.0072121749849731,0.007182184184494,0.0063738964526306,1.914413956195843,1.5369474127751563,1.5369474127751563,1.5369474127751563,0.7642561171516702,E-W,0.0006340209495401,5.576,N-S,0.0006340209495401,5.448
20041005083300.knt,AIC0030410050833.UD,2004-10-05, 08:33:00,35.933,136.377,12,4.8,AIC003,35.1732,136.7404,-2,2004-10-05, 08:34:18,100Hz,60,U-D,0.0006340209495401,6.393,90.656529685571,462,0.0,0.0,3.066262447419309,2.469765365004949,1.937185270138672,2.0565592607009884,2.826706716169296,0.0090259675873479,0.0076905591784857,0.0076905591784857,0.0076905591784857,0.0076905591784857,1.225072528947776,1.225072528947776,1.225072528947776,1.0218637004498177,0.7764531205090827,E-W,0.0006340209495401,7.827,N-S,0.0006340209495401,7.477
20041005083300.knt,AIC0040410050833.UD,2004-10-05, 08:33:00,35.933,136.377,12,4.8,AIC004,35.0634,136.9736,30,2004-10-05, 08:34:13,100Hz,74,U-D,0.0006340209495401,7.348,110.75530153548677,1275,0.0,0.0,0.2782513846126883,0.2997257647922522,0.3176512458870101,0.3608751100219808,0.3375822366383512,0.0016624820224304,0.0016624820224304,0.0016624820224304,0.0016624820224304,0.0008460348012153,2.756394130443657,2.756394130443657,2.756394130443657,2.569763543267448,1.0858205640874212,E-W,0.0006340209495401,9.376,N-S,0.0006340209495401,13.848
20041005083300.knt,AIC0090410050833.UD,2004-10-05, 08:33:00,35.933,136.377,12,4.8,AIC009,35.0812,137.1464,60,2004-10-05, 08:34:15,100Hz,73,U-D,0.0006340209495401,11.414,117.56339040907665,1149,0.0,0.0,0.2886320194023783,0.2818031396730641,0.2829467395776352,0.2830459669965681,0.3316578465869851,0.0014896421891674,0.0014896421891674,0.0014896421891674,0.0014896421891674,0.0014896421891674,1.4046371181091295,1.4046371181091295,1.4046371181091295,1.3881840201579745,1.2409362492706468,E-W,0.0006340209495401,17.013,N-S,0.0006340209495401,11.753
20041005083300.knt,AIC0100410050833.UD,2004-10-05, 08:33:00,35.933,136.377,12,4.8,AIC010,34.976,137.4236,525,2004-10-05, 08:34:16,100Hz,82,U-D,0.0006340209495401,10.831,142.51254167445066,1377,0.0,0.0,0.3108131941681649,0.3135181839087844,0.308917603873557,0.302978936585802,0.3087187433986733,0.0010818816657068,0.0010736962049285,0.0009963774451952,0.0008562514498187,0.0005631485979795,1.4233596127243051,1.4233596127243051,1.4233596127243051,1.4233596127243051,0.8535415988226239,E-W,0.0006340209495401,20.651,N-S,0.0006340209495401,21.815
20041005083300.knt,FKI0010410050833.UD,2004-10-05, 08:33:00,35.933,136.377,12,4.8,FKI001,36.2161,136.1571,20,2004-10-05, 08:34:59,100Hz,73,U-D,0.0006340209495401,3.98,37.16888739093895,1427,0.0,0.0,0.3737354233870688,0.3421118080890027,0.3446333097007213,0.2659248536405833,0.2724758283598471,0.0024600255981014,0.0016114276227222,0.0012957551162236,0.0012957551162236,0.0007945940640723,2.7977737913515277,1.3664514493089854,1.3664514493089854,1.3664514493089854,0.7750076136374147,E-W,0.0006340209495401,6.766,N-S,0.0006340209495401,8.724
20041005083300.knt,FKI0020410050833.UD,2004-10-05, 08:33:00,35.933,136.377,12,4.8,FKI002,36.0386,136.0137,21,2004-10-05, 08:34:58,100Hz,69,U-D,0.0006340209495401,28.062,34.73286081261093,1502,0.0,0.0,0.3358753639156384,0.3148845593762254,0.3010939488653664,0.2958100824719106,0.28026605733326,0.0094480083311968,0.0094480083311968,0.0094480083311968,0.0094480083311968,0.0094480083311968,28.28496975342069,28.28496975342069,28.28496975342069,28.28496975342069,28.28496975342069,E-W,0.0006340209495401,14.992,N-S,0.0006340209495401,17.978
