earthquake name,records name,earthquake date,earthquake time,lat,long,depth,mag,stn_code,stn_lat,stn_long,stn_height,rcd_date,rcd_time,frequency,rcd_duration,direction,scale_factor,max_pga,epi_dist,pick_index_manually,pick_index_kalkan,snr_db_kalkan,tc_5sec,tc_4sec,tc_3sec,tc_2sec,tc_1sec,Pd_5sec,Pd_4sec,Pd_3sec,Pd_2sec,Pd_1sec,Pga_5sec,Pga_4sec,Pga_3sec,Pga_2sec,Pga_1sec,Channel,Scale_factor,PGA_ew,Channel.1,Scale_factor.1,PGA_ns
20040103120300.knt,FKS0090401031203.UD,2004-01-03, 12:03:00,37.536,140.912,73,3.5,FKS009,37.2778,140.6349,440,2004-01-03, 12:03:30,100Hz,119,U-D,0.0002384185791015,5.395,37.72709350228678,545,564.0,14.36685867875062,5.689313326294084,4.027214066795364,2.6247754038487563,1.8722154423299,2.1017886645488835,0.0038393288056456,0.0028771851333038,0.0018562991540792,0.0014243697364496,0.0014243697364496,0.8587016411026024,0.8587016411026024,0.8587016411026024,0.8587016411026024,0.8587016411026024,E-W,0.0002384185791015,11.159,N-S,0.0002384185791015,12.334
20040103120300.knt,FKS0130401031203.UD,2004-01-03, 12:03:00,37.536,140.912,73,3.5,FKS013,37.09,140.5563,320,2004-01-03, 12:03:33,100Hz,119,U-D,0.0002384185791015,1.987,58.728163925960246,396,414.0,19.708200465546813,4.35035212723206,3.8141723225676873,3.3270367422184903,3.0540678009704645,3.7773285303310895,0.0019974518458256,0.0019974518458256,0.0019974518458256,0.0019974518458256,0.0019974518458256,0.4908963571994775,0.4908963571994775,0.4727350912834024,0.3338392494981344,0.2570352648350118,E-W,0.0002384185791015,2.754,N-S,0.0002384185791015,3.674
20040103120300.knt,IBR0190401031203.UD,2004-01-03, 12:03:00,37.536,140.912,73,3.5,IBR019,36.8808,140.6544,-9999,2004-01-03, 12:03:36,200Hz,135,U-D,0.0002384185791015,5.359,76.34304937022051,561,613.0,24.39219409057639,2.036770937740195,1.1927581081958107,0.7398760950494226,0.8632522794526079,1.4672852725832777,0.0030559622730978,0.0024705889417281,0.0014536290735786,0.0014536290735786,0.0014536290735786,0.6374332306727094,0.6374332306727094,0.6374332306727094,0.4435496455503723,0.4435496455503723,E-W,0.0002384185791015,6.545,N-S,0.0002384185791015,5.983
20040104183200.knt,HKD0960401041832.UD,2004-01-04, 18:32:00,42.323,143.014,51,3.8,HKD096,42.6975,143.1356,192,2004-01-04, 18:33:09,100Hz,119,U-D,0.0002384185791015,1.776,42.81873344688746,568,564.0,21.737413305415625,11.126411938873652,9.519735875978368,7.074988309187103,4.179470120169934,1.698598519717912,0.0148132916467487,0.0148132916467487,0.0137747856300463,0.0103133800583755,0.004622514197005,0.9904690195819146,0.9904690195819146,0.9904690195819146,0.8931861184722977,0.7987187715682603,E-W,0.0002384185791015,3.932,N-S,0.0002384185791015,3.097
20040104183200.knt,HKD0970401041832.UD,2004-01-04, 18:32:00,42.323,143.014,51,3.8,HKD097,42.6181,143.4209,33,2004-01-04, 18:33:10,100Hz,119,U-D,0.0002384185791015,1.45,46.80326429087722,557,550.0,18.372277439792636,1.91453791582595,1.427488801418267,0.9905909606630708,0.5808242376454096,0.3651172222597575,0.0018265397031033,0.001586688864056,0.0012314038835347,0.0007214130835833,0.0007214130835833,0.6557310763977183,0.6557310763977183,0.6557310763977183,0.6557310763977183,0.4895550523823542,E-W,0.0002384185791015,5.887,N-S,0.0002384185791015,5.695
20040104183200.knt,HKD0980401041832.UD,2004-01-04, 18:32:00,42.323,143.014,51,3.8,HKD098,42.4984,143.2787,83,2004-01-04, 18:33:08,100Hz,119,U-D,0.0002384185791015,1.491,29.200087028347507,644,641.0,26.732429782623925,2.2062296927723133,2.0117427056677206,1.472681680189407,1.036651186596545,0.5715064736157879,0.0049107377186132,0.0049107377186132,0.0044198120917878,0.0027685806878915,0.0022321305553056,1.4894173736332712,1.4894173736332712,1.4894173736332712,1.4894173736332712,1.4894173736332712,E-W,0.0002384185791015,3.589,N-S,0.0002384185791015,4.676
20040104183200.knt,HKD1090401041832.UD,2004-01-04, 18:32:00,42.323,143.014,51,3.8,HKD109,42.1678,142.7673,4,2004-01-04, 18:33:08,100Hz,119,U-D,0.0002384185791015,2.346,26.649432626787277,571,576.0,8.811094982980645,14.067733189898703,11.89761436329655,8.709410730686047,5.123179901555422,1.8605803368860108,0.0875475222472412,0.0875475222472412,0.0840316111654199,0.0649466358768249,0.0283898216121355,2.375247068836454,2.375247068836454,2.375247068836454,2.375247068836454,2.375247068836454,E-W,0.0002384185791015,5.227,N-S,0.0002384185791015,3.537
20040106074700.knt,HKD1060401060747.UD,2004-01-06, 07:47:00,41.883,142.489,63,4.0,HKD106,42.3414,142.3688,4,2004-01-06, 07:47:24,100Hz,119,U-D,0.0002384185791015,1.735,51.927126446515125,420,437.0,17.857891345730017,1.202886082414968,1.1145094045119102,1.0597250390563098,1.138466547882374,1.2596312587035077,0.0023704080769311,0.0023704080769311,0.0023704080769311,0.0023704080769311,0.0023704080769311,0.8103937509583923,0.8103937509583923,0.8103937509583923,0.8103937509583923,0.6101278499918815,E-W,0.0002384185791015,5.553,N-S,0.0002384185791015,4.715
20040106145000.knt,AIC0010401061450.UD,2004-01-06, 14:50:00,34.215,136.714,37,5.4,AIC001,35.2976,136.75,6,2004-01-06, 14:51:12,100Hz,119,U-D,0.0002384185791015,7.67,120.42454177553412,1447,1444.0,19.649331490369157,0.7249824073695559,0.7580810207276946,0.7062542213930081,0.5857597283744519,0.3240189532553892,0.006932475266724,0.006932475266724,0.006932475266724,0.0065224961679185,0.0058383596723288,7.663741546568694,7.663741546568694,7.663741546568694,7.663741546568694,7.663741546568694,E-W,0.0002384185791015,15.062,N-S,0.0002384185791015,11.653
20040106145000.knt,AIC0040401061450.UD,2004-01-06, 14:50:00,34.215,136.714,37,5.4,AIC004,35.0634,136.9736,30,2004-01-06, 14:51:09,100Hz,119,U-D,0.0002384185791015,10.765,97.28121157946606,1423,1451.0,24.67618062618666,0.4282278339255385,0.4018400626340578,0.3935426968260587,0.4078567485652735,0.3122828437241546,0.0042356966679828,0.003636879233503,0.003636879233503,0.003636879233503,0.0029277277815456,5.493182097921663,5.493182097921663,5.493182097921663,5.493182097921663,5.493182097921663,E-W,0.0002384185791015,16.836,N-S,0.0002384185791015,22.793
20040106145000.knt,AIC0050401061450.UD,2004-01-06, 14:50:00,34.215,136.714,37,5.4,AIC005,35.1979,137.2056,150,2004-01-06, 14:51:24,100Hz,120,U-D,0.0002384185791015,2.56,118.17081005927837,137,146.0,21.85426062317144,5.884954810179038,7.145748586202932,8.319147336588996,7.7364235467414835,6.75080949853148,0.0085636789182361,0.0085636789182361,0.0085636789182361,0.0085636789182361,0.0085636789182361,2.0211201256481277,2.0211201256481277,2.0211201256481277,2.0211201256481277,1.836923920469815,E-W,0.0002384185791015,8.663,N-S,0.0002384185791015,4.954
20040106145000.knt,AIC0090401061450.UD,2004-01-06, 14:50:00,34.215,136.714,37,5.4,AIC009,35.0812,137.1464,60,2004-01-06, 14:51:10,100Hz,119,U-D,0.0002384185791015,6.58,104.12213701325656,1367,1378.0,24.36398702873799,0.3691214376018778,0.380440179444286,0.3794250630259884,0.3848786925659905,0.4248915610951563,0.0032669604913464,0.0032669604913464,0.0032669604913464,0.0032669604913464,0.0032669604913464,3.450113830098624,3.450113830098624,3.450113830098624,3.450113830098624,3.450113830098624,E-W,0.0002384185791015,13.621,N-S,0.0002384185791015,16.882
20040106145000.knt,AIC0100401061450.UD,2004-01-06, 14:50:00,34.215,136.714,37,5.4,AIC010,34.976,137.4236,525,2004-01-06, 14:51:11,100Hz,119,U-D,0.0002384185791015,6.932,106.67264674857503,1304,1317.0,24.11057097283993,1.0324866302531923,0.853366025935628,0.9011374636525092,1.0033211727985696,0.524458560987972,0.0067541676466854,0.0060483702175471,0.0060483702175471,0.0060483702175471,0.0040105376616474,2.864850249828484,2.864850249828484,2.864850249828484,2.864850249828484,2.864850249828484,E-W,0.0002384185791015,7.187,N-S,0.0002384185791015,9.311
20040106145000.knt,AIC0120401061450.UD,2004-01-06, 14:50:00,34.215,136.714,37,5.4,AIC012,34.9119,137.0447,6,2004-01-06, 14:51:07,100Hz,119,U-D,0.0002384185791015,7.017,83.19814143810147,1411,1435.0,25.449879291654437,0.6584917241743294,0.574481862725072,0.5540800546514131,0.4793154256047686,0.4657732902388635,0.0050701627557935,0.0041414149804423,0.0041414149804423,0.0041414149804423,0.0041414149804423,3.991722623020853,3.991722623020853,3.991722623020853,3.991722623020853,3.991722623020853,E-W,0.0002384185791015,12.183,N-S,0.0002384185791015,15.262
20040106145000.knt,AIC0140401061450.UD,2004-01-06, 14:50:00,34.215,136.714,37,5.4,AIC014,34.8263,137.22,4,2004-01-06, 14:51:07,100Hz,119,U-D,0.0002384185791015,8.973,82.27618561990529,1392,1411.0,25.7380910570022,0.6760936247979257,0.6562685992083801,0.6464338316519017,0.554805759138688,0.5215320440719705,0.0094835095767825,0.0094835095767825,0.0094835095767825,0.0094835095767825,0.0094835095767825,5.999709422415504,5.999709422415504,5.999709422415504,5.999709422415504,5.985820257590195,E-W,0.0002384185791015,30.657,N-S,0.0002384185791015,26.572
20040106145000.knt,AIC0160401061450.UD,2004-01-06, 14:50:00,34.215,136.714,37,5.4,AIC016,34.7788,136.9087,6,2004-01-06, 14:51:05,100Hz,119,U-D,0.0002384185791015,15.661,65.18132520083921,1410,1409.0,34.015476784670035,0.7734288991079172,0.878339744578898,0.9568482588474028,1.049189986575363,0.7706482855421327,0.0105586862263636,0.0105586862263636,0.0105586862263636,0.0105586862263636,0.0073413895103929,6.034760999243817,6.034760999243817,6.034760999243817,6.034760999243817,6.034760999243817,E-W,0.0002384185791015,53.302,N-S,0.0002384185791015,51.577
20040106145000.knt,AIC0170401061450.UD,2004-01-06, 14:50:00,34.215,136.714,37,5.4,AIC017,34.6694,137.2633,10,2004-01-06, 14:51:05,100Hz,120,U-D,0.0002384185791015,8.688,71.34615492916124,1454,1461.0,32.23822290141261,1.3566482059622251,1.4404977250732751,1.467158070619644,1.4923836022016723,1.6040935010126685,0.0304407969722012,0.0304407969722012,0.0304407969722012,0.0304407969722012,0.0304407969722012,7.838691609827791,7.838691609827791,7.838691609827791,7.838691609827791,7.838691609827791,E-W,0.0002384185791015,11.457,N-S,0.0002384185791015,24.398
20040106145000.knt,AIC0180401061450.UD,2004-01-06, 14:50:00,34.215,136.714,37,5.4,AIC018,34.6221,137.1078,10,2004-01-06, 14:51:02,100Hz,119,U-D,0.0002384185791015,5.78,57.91341988703961,1453,1452.0,35.75285015736854,0.7673227390085918,0.8070975121163484,0.7876942515143915,0.77152889957271,0.7794072806615552,0.0129459344207973,0.0129459344207973,0.0129459344207973,0.0129459344207973,0.0129459344207973,5.781770832277666,5.781770832277666,5.781770832277666,5.781770832277666,5.781770832277666,E-W,0.0002384185791015,19.992,N-S,0.0002384185791015,8.067
20040106145000.knt,GIF0120401061450.UD,2004-01-06, 14:50:00,34.215,136.714,37,5.4,GIF012,35.6365,136.4882,221,2004-01-06, 14:51:17,100Hz,119,U-D,0.0002384185791015,4.093,159.398299372407,1392,1406.0,24.85531788017904,0.5622066527917045,0.5420682374477476,0.4656957926320365,0.3216177917220507,0.3955622871729234,0.0022228201846831,0.0022228201846831,0.0022228201846831,0.0019878595299627,0.0019878595299627,4.097884042775225,4.097884042775225,4.097884042775225,4.097884042775225,4.097884042775225,E-W,0.0002384185791015,8.603,N-S,0.0002384185791015,10.431
20040106145000.knt,GIF0170401061450.UD,2004-01-06, 14:50:00,34.215,136.714,37,5.4,GIF017,35.487,136.5679,42,2004-01-06, 14:51:16,100Hz,119,U-D,0.0002384185791015,3.718,142.0668050234831,1285,1124.0,23.796572524587884,0.8549601555290329,0.6051574339008343,0.5932810984803499,0.3679096870092873,0.3163769709750848,0.0037805199038805,0.0032525584545267,0.0032525584545267,0.0017268229811554,0.0015356312896191,3.715708282551731,3.715708282551731,3.715708282551731,3.715708282551731,2.5769707097228736,E-W,0.0002384185791015,4.481,N-S,0.0002384185791015,5.854
20040106145000.knt,GIF0200401061450.UD,2004-01-06, 14:50:00,34.215,136.714,37,5.4,GIF020,35.4243,136.7553,13,2004-01-06, 14:51:14,100Hz,119,U-D,0.0002384185791015,11.266,134.52086119224228,1396,1405.0,19.80155403334067,4.694829045170755,4.489209914945606,3.496417808794812,1.91389428588189,0.4666314022005424,0.025510043539066,0.025510043539066,0.025510043539066,0.0196833345783914,0.0068947956315115,11.25446771298976,11.25446771298976,11.25446771298976,11.25446771298976,11.25446771298976,E-W,0.0002384185791015,9.154,N-S,0.0002384185791015,7.689
20040106145000.knt,GIF0260401061450.UD,2004-01-06, 14:50:00,34.215,136.714,37,5.4,GIF026,35.5912,136.7414,145,2004-01-06, 14:51:16,100Hz,119,U-D,0.0002384185791015,2.733,153.04685428331524,1417,1429.0,26.21034857458604,1.0081390726049286,0.9337892757426194,0.8820777079046285,0.7359594707922638,0.6996538813675989,0.0022383251968275,0.0022383251968275,0.0022383251968275,0.0019152656246264,0.0019095889407069,2.300369035365457,2.300369035365457,2.300369035365457,2.300369035365457,2.300369035365457,E-W,0.0002384185791015,5.017,N-S,0.0002384185791015,6.996
20040106145000.knt,KYT0130401061450.UD,2004-01-06, 14:50:00,34.215,136.714,37,5.4,KYT013,34.8784,135.8047,82,2004-01-06, 14:51:23,100Hz,119,U-D,0.0002384185791015,5.179,111.25154058691204,179,192.0,22.72247318983179,4.896141302349615,5.408120788931996,6.133886162255782,6.040953785227475,5.256985216234054,0.0176745662508228,0.0176745662508228,0.0176745662508228,0.0176745662508228,0.0176745662508228,1.5885696962022344,1.5885696962022344,1.5885696962022344,1.3754626290139738,1.3303932041654418,E-W,0.0002384185791015,6.491,N-S,0.0002384185791015,6.454
20040106145000.knt,KYT0140401061450.UD,2004-01-06, 14:50:00,34.215,136.714,37,5.4,KYT014,34.7732,135.9921,68,2004-01-06, 14:51:19,100Hz,119,U-D,0.0002384185791015,2.915,90.71616739984506,286,1.0,4.787226612141089,4.358967754788495,4.612680120088533,4.917746672762511,4.953400083700045,4.506370973194656,0.0249628509321144,0.0249628509321144,0.0249628509321144,0.0249628509321144,0.0249628509321144,2.547844763111317,2.547844763111317,2.547844763111317,2.547844763111317,2.547844763111317,E-W,0.0002384185791015,10.89,N-S,0.0002384185791015,5.495
20040106145000.knt,MIE0020401061450.UD,2004-01-06, 14:50:00,34.215,136.714,37,5.4,MIE002,35.0279,136.5073,79,2004-01-06, 14:51:09,100Hz,119,U-D,0.0002384185791015,11.025,92.34794983002335,1359,838.0000000000001,24.806017848832862,1.109361296175557,1.0308625046202995,1.1545935615843697,1.3475847503779743,1.266610481054086,0.0120693571535587,0.0108734659455401,0.0108734659455401,0.0108734659455401,0.0108734659455401,5.553183781852602,4.350034005255765,4.350034005255765,3.976063397737327,2.983892971966065,E-W,0.0002384185791015,20.405,N-S,0.0002384185791015,17.991
20040106145000.knt,MIE0030401061450.UD,2004-01-06, 14:50:00,34.215,136.714,37,5.4,MIE003,34.9704,136.6357,2,2004-01-06, 14:51:08,100Hz,119,U-D,0.0002384185791015,7.55,84.30187096963587,1371,1368.0,23.298128467722464,4.652974931931191,4.295607285857277,3.871176588511045,3.319104223325497,1.7136215969021291,0.0369102522188537,0.0368420307431053,0.0285551554504395,0.0272077723522477,0.0264950876315107,5.210577752776762,5.210577752776762,5.210577752776762,5.210577752776762,3.89689392461226,E-W,0.0002384185791015,17.995,N-S,0.0002384185791015,16.854
20040106145000.knt,MIE0040401061450.UD,2004-01-06, 14:50:00,34.215,136.714,37,5.4,MIE004,34.8569,136.4493,79,2004-01-06, 14:51:06,100Hz,119,U-D,0.0002384185791015,15.524,75.38172109909067,1436,1435.0,40.70104393074163,1.1459193475354994,1.0905826410893695,0.9881536506718186,0.9885458790432492,0.785900831911729,0.0243241132240934,0.0236642783821102,0.0231809638221827,0.0231809638221827,0.0231809638221827,15.39034320955196,15.39034320955196,15.39034320955196,15.39034320955196,15.39034320955196,E-W,0.0002384185791015,29.149,N-S,0.0002384185791015,40.824
20040106145000.knt,MIE0050401061450.UD,2004-01-06, 14:50:00,34.215,136.714,37,5.4,MIE005,34.7677,136.1151,134,2004-01-06, 14:51:07,100Hz,119,U-D,0.0002384185791015,11.788,82.39934918504933,1384,1384.0,32.69038835228197,0.722270917636396,0.7124499474016248,0.6480298178249863,0.5703451019173117,0.621776887380503,0.0111647467522733,0.0111647467522733,0.0111647467522733,0.0111647467522733,0.0111647467522733,11.730627759349764,11.730627759349764,11.730627759349764,11.730627759349764,11.730627759349764,E-W,0.0002384185791015,25.846,N-S,0.0002384185791015,20.586
20040106145000.knt,MIE0060401061450.UD,2004-01-06, 14:50:00,34.215,136.714,37,5.4,MIE006,34.7174,136.5054,3,2004-01-06, 14:51:04,100Hz,119,U-D,0.0002384185791015,26.913,59.04683417047042,1421,1420.0,28.525203268606187,0.783724569098101,0.8003957383470157,0.8034877301840377,0.8090411478049221,0.7201124142620207,0.03982746151685,0.03982746151685,0.03982746151685,0.03982746151685,0.03982746151685,26.73114886444855,26.73114886444855,26.73114886444855,26.73114886444855,26.73114886444855,E-W,0.0002384185791015,44.583,N-S,0.0002384185791015,17.77
20040106145000.knt,MIE0070401061450.UD,2004-01-06, 14:50:00,34.215,136.714,37,5.4,MIE007,34.651,136.3404,82,2004-01-06, 14:51:04,100Hz,119,U-D,0.0002384185791015,65.457,59.36658817362252,1396,1410.0,26.75516149023481,0.7998453807497273,0.7142182457740089,0.7252388887463738,0.7592906371334984,0.8339846872413573,0.0391626095288373,0.0391626095288373,0.0391626095288373,0.0391626095288373,0.0391626095288373,25.008835071566335,25.008835071566335,25.008835071566335,25.008835071566335,25.008835071566335,E-W,0.0002384185791015,119.9,N-S,0.0002384185791015,95.881
20040106145000.knt,MIE0080401061450.UD,2004-01-06, 14:50:00,34.215,136.714,37,5.4,MIE008,34.6285,136.1073,221,2004-01-06, 14:51:05,100Hz,119,U-D,0.0002384185791015,35.891,72.1864332759169,1383,1397.0,25.21640282337944,0.6254791175992771,0.6079705794308894,0.6036396509298335,0.5835771323496659,0.5638824870516068,0.0194765072899003,0.0194765072899003,0.0194765072899003,0.0194765072899003,0.0194765072899003,18.13069129263007,18.13069129263007,18.13069129263007,18.13069129263007,18.13069129263007,E-W,0.0002384185791015,71.823,N-S,0.0002384185791015,89.402
20040106145000.knt,MIE0090401061450.UD,2004-01-06, 14:50:00,34.215,136.714,37,5.4,MIE009,34.5788,136.5276,8,2004-01-06, 14:51:02,100Hz,119,U-D,0.0002384185791015,23.454,43.919432883709966,1408,1408.0,40.36037946298467,0.8460394916517207,0.848821457503249,0.8512790346690977,0.9122377640431996,0.9679328928707686,0.029983408861388,0.029983408861388,0.029983408861388,0.029983408861388,0.029983408861388,23.252249211266736,23.252249211266736,23.252249211266736,23.252249211266736,23.252249211266736,E-W,0.0002384185791015,45.724,N-S,0.0002384185791015,47.131
20040106145000.knt,MIE0100401061450.UD,2004-01-06, 14:50:00,34.215,136.714,37,5.4,MIE010,34.4908,136.7334,19,2004-01-06, 14:51:00,100Hz,119,U-D,0.0002384185791015,57.4,30.719227660018376,1480,1481.0,42.49276524671389,1.363357017970993,1.2899610558989592,1.067887903044184,0.7725940001644711,0.490502451194245,0.058606833028247,0.058606833028247,0.0501127142963503,0.0462708873781662,0.0462708873781662,57.52670959466077,57.52670959466077,57.52670959466077,57.52670959466077,57.52670959466077,E-W,0.0002384185791015,128.681,N-S,0.0002384185791015,168.315
20040106145000.knt,MIE0110401061450.UD,2004-01-06, 14:50:00,34.215,136.714,37,5.4,MIE011,34.4283,136.3329,143,2004-01-06, 14:51:02,100Hz,119,U-D,0.0002384185791015,41.75,42.27759848586539,1415,1413.0,43.634446507347526,0.3271368441811689,0.319559857289642,0.3176335547181399,0.3116923168937761,0.3245928655343496,0.015701038463221,0.015701038463221,0.015701038463221,0.015701038463221,0.015701038463221,41.57870364665105,41.57870364665105,41.57870364665105,41.57870364665105,41.57870364665105,E-W,0.0002384185791015,216.816,N-S,0.0002384185791015,123.947
20040106145000.knt,MIE0120401061450.UD,2004-01-06, 14:50:00,34.215,136.714,37,5.4,MIE012,34.2544,136.8232,8,2004-01-06, 14:51:59,100Hz,119,U-D,0.0002384185791015,22.683,10.953032422563568,1427,1435.0,25.36122952710945,4.39034434929984,5.005060981326479,4.002848564954998,2.2168770014444235,0.582049345508113,0.0537945720506571,0.0537945720506571,0.0529205017787626,0.0398353148488546,0.0135983605963331,22.74009718280911,22.74009718280911,22.74009718280911,22.74009718280911,22.74009718280911,E-W,0.0002384185791015,72.603,N-S,0.0002384185791015,44.202
