earthquake name,records name,earthquake date,earthquake time,lat,long,depth,mag,stn_code,stn_lat,stn_long,stn_height,rcd_date,rcd_time,frequency,rcd_duration,direction,scale_factor,max_pga,epi_dist,pick_index_manually,pick_index_kalkan,snr_db_kalkan,tc_5sec,tc_4sec,tc_3sec,tc_2sec,tc_1sec,Pd_5sec,Pd_4sec,Pd_3sec,Pd_2sec,Pd_1sec,Pga_5sec,Pga_4sec,Pga_3sec,Pga_2sec,Pga_1sec,Channel,Scale_factor,PGA_ew,Channel.1,Scale_factor.1,PGA_ns
20041005083500.knt,GIF0110410050835.UD,2004-10-05, 08:35:00,35.923,136.385,11,3.4,GIF011,35.7593,136.9808,245,2004-10-05, 08:35:50,100Hz,60,U-D,0.0006340209495401,0.856,56.70587904091894,850,0.0,0.0,2.1077278651074773,2.23834365098162,2.15554534197628,1.8322875977252489,1.4790266085430557,0.0007720618025849,0.0007720618025849,0.0007720618025849,0.0007173753435577,0.0005814944447479,0.5218568319560138,0.5218568319560138,0.5218568319560138,0.5218568319560138,0.5218568319560138,E-W,0.0006340209495401,7.493,N-S,0.0006340209495401,7.072
20041005083500.knt,GIF0260410050835.UD,2004-10-05, 08:35:00,35.923,136.385,11,3.4,GIF026,35.5912,136.7414,145,2004-10-05, 08:35:48,100Hz,60,U-D,0.0006340209495401,0.742,48.943236623300514,912,0.0,0.0,0.8314974296161538,0.924802285188508,0.9489170877859674,1.0375797762506644,1.6925056913351326,0.0002616349108443,0.0002616349108443,0.0002616349108443,0.0002616349108443,0.0002616349108443,0.4027657913385447,0.3713834006973421,0.3713834006973421,0.3713834006973421,0.3315810393149546,E-W,0.0006340209495401,2.239,N-S,0.0006340209495401,2.675
20041006071000.knt,OKN0070410060710.UD,2004-10-06, 07:10:00,24.794,125.379,50,4.5,OKN007,24.853,125.2964,14,2004-10-06, 07:10:09,100Hz,119,U-D,0.0002384185791015,5.605,10.6080370710625,1394,0.0,0.0,0.7003576746863738,0.6681817432222554,0.4378852467957679,0.3930000006609047,0.3802491086927855,0.0069603453135271,0.0053034163449839,0.0050459862345184,0.0050459862345184,0.0027300108876042,5.149464448980268,5.149464448980268,5.149464448980268,5.149464448980268,3.270552696055812,E-W,0.0002384185791015,10.522,N-S,0.0002384185791015,15.403
20041006071000.knt,OKN0080410060710.UD,2004-10-06, 07:10:00,24.794,125.379,50,4.5,OKN008,24.7558,125.3864,70,2004-10-06, 07:10:08,100Hz,119,U-D,0.0002384185791015,11.41,4.312849407104406,1487,0.0,0.0,0.3905143911649876,0.4044127998816281,0.4102033155763015,0.4055025405063935,0.4109583530294045,0.0124315935869439,0.0124315935869439,0.0124315935869439,0.0124315935869439,0.0124315935869439,11.429684306735789,11.429684306735789,11.429684306735789,11.429684306735789,11.429684306735789,E-W,0.0002384185791015,12.392,N-S,0.0002384185791015,9.579
20041006234000.knt,CHB0010410062340.UD,2004-10-06, 23:40:00,35.988,140.089,66,5.7,CHB001,35.9595,139.8733,13,2004-10-06, 23:41:52,100Hz,119,U-D,0.0002384185791015,20.982,19.66751562509244,1380,0.0,0.0,0.835331185880086,0.8619876905775467,0.902554355178642,0.9083988553692022,1.0710882036260987,0.0401550945317332,0.0268104482511334,0.0266778884817324,0.0258097945850119,0.0258097945850119,17.33577650066901,17.33577650066901,14.750098799089406,13.018002181892928,6.7680881586217785,E-W,0.0002384185791015,55.706,N-S,0.0002384185791015,82.754
20041006234000.knt,CHB0020410062340.UD,2004-10-06, 23:40:00,35.988,140.089,66,5.7,CHB002,35.7868,139.9031,14,2004-10-06, 23:41:53,100Hz,119,U-D,0.0002384185791015,12.484,27.94622052542257,1348,0.0,0.0,1.4826201378556882,1.4815320475420048,1.4613437991693967,1.4446459905300395,1.4762532460861784,0.0453406450716265,0.0439064372027123,0.0370192866513427,0.0370192866513427,0.0370192866513427,9.661088248303995,9.661088248303995,7.8489130548883805,7.8489130548883805,5.149755656046759,E-W,0.0002384185791015,29.362,N-S,0.0002384185791015,34.244
20041006234000.knt,CHB0030410062340.UD,2004-10-06, 23:40:00,35.988,140.089,66,5.7,CHB003,35.7943,140.0564,28,2004-10-06, 23:41:52,100Hz,119,U-D,0.0002384185791015,25.746,21.7377387025445,1390,0.0,0.0,1.352972305451675,1.463163894299934,1.5830003149833674,1.398052120829271,1.5040702193974722,0.0675178723939618,0.0675178723939618,0.0675178723939618,0.0675178723939618,0.0675178723939618,14.44538038826246,13.07737602656279,13.07737602656279,13.07737602656279,13.061910935558076,E-W,0.0002384185791015,61.437,N-S,0.0002384185791015,40.07
20041006234000.knt,CHB0040410062340.UD,2004-10-06, 23:40:00,35.988,140.089,66,5.7,CHB004,35.9007,140.4905,14,2004-10-06, 23:41:53,100Hz,119,U-D,0.0002384185791015,20.539,37.42468276181224,1367,0.0,0.0,1.554838831592111,1.57867883252932,1.6681074669386158,1.59879498029217,1.556387061221656,0.1272468137956967,0.1272468137956967,0.1272468137956967,0.1272468137956967,0.1272468137956967,20.86694077350922,20.86694077350922,20.86694077350922,20.86694077350922,20.86694077350922,E-W,0.0002384185791015,34.667,N-S,0.0002384185791015,33.35
20041006234000.knt,CHB0060410062340.UD,2004-10-06, 23:40:00,35.988,140.089,66,5.7,CHB006,35.7801,140.3067,27,2004-10-06, 23:41:52,100Hz,119,U-D,0.0002384185791015,40.083,30.31622694231392,1439,0.0,0.0,1.068563440527762,1.1084774273465765,1.096263903324205,1.0904358217673038,1.0312794404164427,0.1515265278834075,0.1515265278834075,0.1515265278834075,0.1515265278834075,0.1515265278834075,40.2001771991325,40.2001771991325,40.2001771991325,40.2001771991325,40.2001771991325,E-W,0.0002384185791015,56.573,N-S,0.0002384185791015,46.891
20041006234000.knt,CHB0070410062340.UD,2004-10-06, 23:40:00,35.988,140.089,66,5.7,CHB007,35.7234,140.2267,24,2004-10-06, 23:41:53,100Hz,119,U-D,0.0002384185791015,26.739,31.93227247540728,1352,0.0,0.0,1.167686092716758,1.212994497544012,1.2590594560391748,1.1155344136318002,1.183027329332827,0.1329324403768269,0.1329324403768269,0.1329324403768269,0.1329324403768269,0.1329324403768269,23.276569758208744,23.276569758208744,20.369227188082743,17.92709439015465,17.92709439015465,E-W,0.0002384185791015,71.359,N-S,0.0002384185791015,65.375
20041006234000.knt,CHB0090410062340.UD,2004-10-06, 23:40:00,35.988,140.089,66,5.7,CHB009,35.6082,140.1022,4,2004-10-06, 23:41:54,100Hz,119,U-D,0.0002384185791015,7.992,42.24860913840447,1373,0.0,0.0,1.3556813339545672,1.372033377670238,1.4515409320146735,1.2229774289526507,1.1818560391945965,0.0641785800214365,0.0641785800214365,0.0641785800214365,0.0641785800214365,0.0641785800214365,6.723822838588296,6.723822838588296,6.723822838588296,6.723822838588296,6.723822838588296,E-W,0.0002384185791015,23.462,N-S,0.0002384185791015,14.952
20041006234000.knt,CHB0100410062340.UD,2004-10-06, 23:40:00,35.988,140.089,66,5.7,CHB010,35.7077,140.568,8,2004-10-06, 23:41:54,100Hz,130,U-D,0.0002384185791015,9.147,53.24798257664686,1391,0.0,0.0,1.7417268829927106,1.8417136985728688,1.7833917110316342,1.7281646015876797,2.1504792582315995,0.1171333788817138,0.1171333788817138,0.1171333788817138,0.0565716635209022,0.051275750804844,9.119515381845783,9.119515381845783,6.666172462048192,6.666172462048192,5.242148373975533,E-W,0.0002384185791015,18.946,N-S,0.0002384185791015,20.248
20041006234000.knt,CHB0110410062340.UD,2004-10-06, 23:40:00,35.988,140.089,66,5.7,CHB011,35.6021,140.5014,2,2004-10-06, 23:41:55,100Hz,136,U-D,0.0002384185791015,6.746,56.7867812359151,1362,0.0,0.0,2.3961315973113555,2.5494002583496904,2.4791204661958237,1.9735049867734415,2.642834420319526,0.1046189592531697,0.1046189592531697,0.1046189592531697,0.0795145187628795,0.0465582802545247,3.1107627496063266,3.1107627496063266,3.1107627496063266,2.6391656501277203,2.5452823539553324,E-W,0.0002384185791015,17.109,N-S,0.0002384185791015,13.612
20041006234000.knt,CHB0120410062340.UD,2004-10-06, 23:40:00,35.988,140.089,66,5.7,CHB012,35.5727,140.3333,62,2004-10-06, 23:41:55,100Hz,141,U-D,0.0002384185791015,14.801,51.16823423186867,1351,0.0,0.0,1.3688715928919668,1.450268814959986,1.5230532791793674,1.1241848701705568,1.1153823564250718,0.1009961564194546,0.1009961564194546,0.1009961564194546,0.1009961564194546,0.1009961564194546,14.773489095571586,13.868489662820632,13.868489662820632,13.868489662820632,11.006251320218428,E-W,0.0002384185791015,20.089,N-S,0.0002384185791015,27.625
20041006234000.knt,CHB0130410062340.UD,2004-10-06, 23:40:00,35.988,140.089,66,5.7,CHB013,35.4327,140.2905,13,2004-10-06, 23:41:57,100Hz,120,U-D,0.0002384185791015,4.872,64.37091035915505,1257,0.0,0.0,1.3833668528814218,1.4142881138082877,1.4369020636989185,1.0397502950477622,2.6289090464144262,0.0426878092978664,0.0426878092978664,0.0426878092978664,0.0419415963710178,0.0155240736583998,4.1565446434144695,4.1565446434144695,4.1565446434144695,4.1565446434144695,0.705099245476276,E-W,0.0002384185791015,10.172,N-S,0.0002384185791015,10.917
20041006234000.knt,CHB0140410062340.UD,2004-10-06, 23:40:00,35.988,140.089,66,5.7,CHB014,35.4769,140.0489,7,2004-10-06, 23:41:59,100Hz,151,U-D,0.0002384185791015,18.335,56.9468702512805,981,0.0,0.0,1.4540303792392113,1.4180311806080446,1.807609103496652,1.7606557650004664,1.964917509705568,0.0215591466468505,0.0215591466468505,0.0215591466468505,0.0128639913583217,0.0128639913583217,2.9467271757771045,1.8773707366513832,1.4707818069235308,1.405001753052944,0.908189441623508,E-W,0.0002384185791015,28.061,N-S,0.0002384185791015,25.844
20041006234000.knt,CHB0150410062340.UD,2004-10-06, 23:40:00,35.988,140.089,66,5.7,CHB015,35.3738,139.9159,2,2004-10-06, 23:41:02,100Hz,132,U-D,0.0002384185791015,12.62,70.06259970122589,763,0.0,0.0,3.302171377343496,3.5005222998879377,4.290764373234305,8.229544874268113,13.564621781027574,0.0255764471396655,0.0255764471396655,0.0255764471396655,0.0211927588022341,0.0186149438636399,2.793476296715087,2.793476296715087,1.93874376651762,1.1449845657800517,0.8645228820895575,E-W,0.0002384185791015,25.009,N-S,0.0002384185791015,20.805
20041006234000.knt,CHB0160410062340.UD,2004-10-06, 23:40:00,35.988,140.089,66,5.7,CHB016,35.2999,140.3867,8,2004-10-06, 23:41:59,100Hz,139,U-D,0.0002384185791015,6.099,81.1043702024304,1187,0.0,0.0,1.1199948195036875,0.9658303503405034,1.120402760245212,1.798058525777544,2.859224295517825,0.0161264965150115,0.0161264965150115,0.0161264965150115,0.0138370544139184,0.0103552393714826,2.628671241691029,2.628671241691029,2.628671241691029,0.5659326130767747,0.5659326130767747,E-W,0.0002384185791015,12.434,N-S,0.0002384185791015,10.187
20041006234000.knt,CHB0170410062340.UD,2004-10-06, 23:40:00,35.988,140.089,66,5.7,CHB017,35.2988,140.0755,31,2004-10-06, 23:41:01,100Hz,134,U-D,0.0002384185791015,7.832,76.64525197942608,941,0.0,0.0,1.3058929648054065,1.2601557827869057,1.3030978203279242,1.4658784970633438,1.6812293020828342,0.0232538587243807,0.0145217047792065,0.0081871778675671,0.0081871778675671,0.0081871778675671,2.6774514681985946,1.571838059681744,1.3530982238482012,0.9576030047198044,0.9576030047198044,E-W,0.0002384185791015,15.855,N-S,0.0002384185791015,17.663
20041006234000.knt,CHB0190410062340.UD,2004-10-06, 23:40:00,35.988,140.089,66,5.7,CHB019,35.1105,139.8351,4,2004-10-06, 23:41:07,100Hz,143,U-D,0.0002384185791015,7.193,100.24074437465234,541,0.0,0.0,1.263449085455989,1.389383464494691,1.504232983748642,1.606706588101574,1.171652172383825,0.0039596059863909,0.0039596059863909,0.0039596059863909,0.0039596059863909,0.0018680613997165,0.6257291434202273,0.5157601192048008,0.5157601192048008,0.5157601192048008,0.3211720159065805,E-W,0.0002384185791015,13.642,N-S,0.0002384185791015,15.155
20041006234000.knt,CHB0220410062340.UD,2004-10-06, 23:40:00,35.988,140.089,66,5.7,CHB022,35.3083,139.8598,7,2004-10-06, 23:41:03,100Hz,119,U-D,0.0002384185791015,9.962,78.36523414878056,770,0.0,0.0,1.5082133717301154,1.1677876283516953,1.264535122735051,1.7920079237354225,2.173513443546728,0.015266804800936,0.0090414996290605,0.005014058587873,0.0041592911916066,0.0041592911916066,1.2955789432129412,1.1533847920263476,1.010573768771285,0.9028545153980404,0.5351255327649845,E-W,0.0002384185791015,28.382,N-S,0.0002384185791015,31.438
20041006234000.knt,CHB0260410062340.UD,2004-10-06, 23:40:00,35.988,140.089,66,5.7,CHB026,35.3872,140.237,-9999,2004-10-06, 23:41:58,200Hz,208,U-D,0.0002384185791015,6.279,68.12992507435246,2520,0.0,0.0,3.003133680711572,1.4103338830600352,2.254860074209807,2.414533731124601,3.496462314763435,0.0929332362952762,0.0621926520143191,0.0318208263456362,0.0318208263456362,0.0318208263456362,2.229818813603982,2.229818813603982,1.019102035472541,1.019102035472541,0.6005023357748162,E-W,0.0002384185791015,10.321,N-S,0.0002384185791015,8.865
20041006234000.knt,CHB0280410062340.UD,2004-10-06, 23:40:00,35.988,140.089,66,5.7,CHB028,35.766,139.9665,-9999,2004-10-06, 23:41:53,200Hz,180,U-D,0.0002384185791015,17.069,27.04033410186204,2694,0.0,0.0,1.9275305724313696,2.1084530315073464,1.7140221232109525,1.6040325436910614,1.3022701439100877,0.153547261443088,0.153547261443088,0.153547261443088,0.153547261443088,0.0648139729089457,16.585083296748007,16.585083296748007,16.585083296748007,16.585083296748007,3.6378519819436,E-W,0.0002384185791015,45.564,N-S,0.0002384185791015,40.108
20041006234000.knt,CHB0290410062340.UD,2004-10-06, 23:40:00,35.988,140.089,66,5.7,CHB029,35.6947,139.9176,-9999,2004-10-06, 23:41:54,200Hz,232,U-D,0.0002384185791015,10.296,36.08788415058325,2654,0.0,0.0,2.400450711871141,2.4239253453143226,2.408092593826071,2.151264418321437,2.9243573829089717,0.1367264073219108,0.1367264073219108,0.1367264073219108,0.1194033713395724,0.0342517552727165,5.065608619238012,5.065608619238012,5.065608619238012,5.065608619238012,0.853601559870252,E-W,0.0002384185791015,25.702,N-S,0.0002384185791015,53.324
20041006234000.knt,FKS0080410062340.UD,2004-10-06, 23:40:00,35.988,140.089,66,5.7,FKS008,37.4363,140.5668,430,2004-10-06, 23:41:11,100Hz,119,U-D,0.0002384185791015,2.871,166.57957794988968,942,0.0,0.0,1.798023944125653,2.107988918303468,2.843323263269957,3.3182917486035524,8.761667206400155,0.0035182184056977,0.0035182184056977,0.0035182184056977,0.0030026789748614,0.0030026789748614,1.6547508456079467,1.5183329318146437,0.9390041059625834,0.5138224909317018,0.1986380269795428,E-W,0.0002384185791015,10.301,N-S,0.0002384185791015,8.934
20041006234000.knt,FKS0090410062340.UD,2004-10-06, 23:40:00,35.988,140.089,66,5.7,FKS009,37.2778,140.6349,440,2004-10-06, 23:41:13,100Hz,119,U-D,0.0002384185791015,2.911,151.464807548736,550,0.0,0.0,1.904843637052818,2.186911825536303,2.300292688599733,2.9011514021781517,1.4016963914154354,0.0062427777458265,0.0062427777458265,0.0062427777458265,0.0062427777458265,0.0007058647291208,1.1382922130245547,1.0213619080156413,0.7865910656839744,0.5807460927751815,0.1833977133833852,E-W,0.0002384185791015,7.201,N-S,0.0002384185791015,7.92
20041006234000.knt,FKS0120410062340.UD,2004-10-06, 23:40:00,35.988,140.089,66,5.7,FKS012,36.9069,140.7929,2,2004-10-06, 23:41:11,100Hz,119,U-D,0.0002384185791015,4.0,120.01642960051404,366,0.0,0.0,1.3633120663169669,1.4262171404671182,1.5621607968801146,1.8880031137175315,2.0345751261650293,0.0147747747494129,0.0147747747494129,0.0147747747494129,0.0147747747494129,0.0128497852364307,1.5479848778095562,1.4689762428421245,1.4689762428421245,1.4689762428421245,0.8914826201232247,E-W,0.0002384185791015,10.936,N-S,0.0002384185791015,11.471
20041006234000.knt,FKS0130410062340.UD,2004-10-06, 23:40:00,35.988,140.089,66,5.7,FKS013,37.09,140.5563,320,2004-10-06, 23:41:03,100Hz,119,U-D,0.0002384185791015,4.816,129.4529211086196,1278,0.0,0.0,1.0471052306594066,1.0183730809172138,1.0445594843708308,1.0780753908360028,1.7542466999816717,0.0078032283009706,0.0078032283009706,0.0078032283009706,0.00585913914,0.0046993524320326,2.6171765687482167,2.6171765687482167,1.8033871204726784,1.3584482232940105,0.6555379327528748,E-W,0.0002384185791015,12.603,N-S,0.0002384185791015,12.488
20041006234000.knt,FKS0140410062340.UD,2004-10-06, 23:40:00,35.988,140.089,66,5.7,FKS014,36.8683,140.43,178,2004-10-06, 23:41:11,100Hz,119,U-D,0.0002384185791015,5.06,102.52887631238092,141,0.0,0.0,2.2590519178539803,1.8608380921906216,2.100959095708,1.7290166752116234,2.327969841057181,0.0122829724944226,0.0121692524213531,0.0105493916913548,0.0069875307332985,0.0069875307332985,1.4114546809651247,1.4114546809651247,1.25314048205007,0.8020916298773084,0.6788719765009761,E-W,0.0002384185791015,8.962,N-S,0.0002384185791015,6.843
20041006234000.knt,FKS0160410062340.UD,2004-10-06, 23:40:00,35.988,140.089,66,5.7,FKS016,37.1228,140.1914,375,2004-10-06, 23:41:06,100Hz,119,U-D,0.0002384185791015,6.904,126.5150301876308,957,0.0,0.0,0.7779960782119338,0.6455055576405363,0.6936282571886058,0.9010973879279612,0.8688100830443837,0.0076500734221992,0.0053198138392744,0.003127612720053,0.0026045748430258,0.0018670626061105,1.7383219094423337,1.6921544065575411,1.6921544065575411,0.7344689420768546,0.4350980052500778,E-W,0.0002384185791015,14.776,N-S,0.0002384185791015,17.502
20041006234000.knt,FKS0290410062340.UD,2004-10-06, 23:40:00,35.988,140.089,66,5.7,FKS029,37.0159,139.3801,957,2004-10-06, 23:41:08,100Hz,119,U-D,0.0002384185791015,2.274,130.68461610411435,864,0.0,0.0,1.9483200260877305,1.8154093074762665,1.8539400046338697,1.67457046278739,2.1910841723786656,0.0038754397389269,0.003442066631969,0.003442066631969,0.0032494606629443,0.0032494606629443,1.14179097689138,0.8759531294674519,0.8759531294674519,0.6847464892202714,0.2230181972703942,E-W,0.0002384185791015,18.585,N-S,0.0002384185791015,19.512
20041006234000.knt,GIF0070410062340.UD,2004-10-06, 23:40:00,35.988,140.089,66,5.7,GIF007,36.0378,137.4861,995,2004-10-06, 23:41:16,100Hz,78,U-D,0.0006340209495401,1.353,234.17339555585525,1405,0.0,0.0,0.920541730987794,0.9190292732324424,0.9456442331306768,0.871785382193568,1.959451914144593,0.003131833544127,0.003131833544127,0.003131833544127,0.003131833544127,0.003131833544127,1.349357377048381,1.349357377048381,1.349357377048381,1.349357377048381,0.2775321684272778,E-W,0.0006340209495401,4.154,N-S,0.0006340209495401,2.746
20041006234000.knt,GNM0020410062340.UD,2004-10-06, 23:40:00,35.988,140.089,66,5.7,GNM002,36.7819,138.9695,494,2004-10-06, 23:41:03,100Hz,119,U-D,0.0002384185791015,2.639,133.5492759478666,1334,0.0,0.0,2.336574172970264,2.427778976322109,2.484027369680139,2.0885031220848616,2.4226579709317906,0.008847942591453,0.008847942591453,0.008847942591453,0.008847942591453,0.0088108438070374,1.9091428421975,1.9091428421975,1.9091428421975,1.795701971083741,0.7974134358507716,E-W,0.0002384185791015,11.522,N-S,0.0002384185791015,13.358
20041006234000.knt,GNM0030410062340.UD,2004-10-06, 23:40:00,35.988,140.089,66,5.7,GNM003,36.6578,139.0784,462,2004-10-06, 23:41:01,100Hz,119,U-D,0.0002384185791015,7.264,117.23446522930844,1359,0.0,0.0,1.3818982396330188,1.462801728985761,1.4891800641024702,1.5520204871959455,2.697788601300648,0.0498469560493125,0.0498469560493125,0.0498469560493125,0.0498469560493125,0.0489025414474938,5.56295046900251,5.56295046900251,5.56295046900251,5.56295046900251,1.7323913077092987,E-W,0.0002384185791015,16.352,N-S,0.0002384185791015,12.697
20041006234000.knt,GNM0060410062340.UD,2004-10-06, 23:40:00,35.988,140.089,66,5.7,GNM006,36.5103,138.7523,549,2004-10-06, 23:41:03,100Hz,119,U-D,0.0002384185791015,3.388,133.1933354132533,1294,0.0,0.0,1.328022532642697,1.4225009714861427,1.4361841749013458,1.640969122688179,2.7557799555528364,0.0085167142610347,0.0085167142610347,0.0077677602956704,0.0068405395600495,0.005205600954257,3.3871706600363902,3.3871706600363902,3.3871706600363902,1.928806199661476,0.5228259046006273,E-W,0.0002384185791015,6.165,N-S,0.0002384185791015,5.536
20041006234000.knt,GNM0090410062340.UD,2004-10-06, 23:40:00,35.988,140.089,66,5.7,GNM009,36.4106,139.3251,114,2004-10-06, 23:41:57,100Hz,119,U-D,0.0002384185791015,13.582,83.10551816375025,1368,0.0,0.0,1.1758412322851512,1.2092222935956756,1.1895638229084482,1.025074349492569,1.1785993119734062,0.0364192762205117,0.0364192762205117,0.0364192762205117,0.0364192762205117,0.0364192762205117,9.115932380321397,8.788124817625674,8.788124817625674,8.788124817625674,4.309778617064337,E-W,0.0002384185791015,38.711,N-S,0.0002384185791015,31.368
