earthquake name,records name,earthquake date,earthquake time,lat,long,depth,mag,stn_code,stn_lat,stn_long,stn_height,rcd_date,rcd_time,frequency,rcd_duration,direction,scale_factor,max_pga,epi_dist,pick_index_manually,pick_index_kalkan,snr_db_kalkan,tc_5sec,tc_4sec,tc_3sec,tc_2sec,tc_1sec,Pd_5sec,Pd_4sec,Pd_3sec,Pd_2sec,Pd_1sec,Pga_5sec,Pga_4sec,Pga_3sec,Pga_2sec,Pga_1sec,Channel,Scale_factor,PGA_ew,Channel.1,Scale_factor.1,PGA_ns
20030101072900.knt,HKD0700301010729.UD,2003-01-01, 07:29:00,44.719,146.289,203,5.1,HKD070,43.3852,145.284,6,2003-01-01, 07:31:21,100Hz,119,U-D,0.0002384185791015,5.531,168.6591192797171,1477.0,1472.0,32.99463430163079,0.49533767448668,0.4626800271520168,0.4243762002319706,0.4208053068139966,0.4198852845181091,0.0111569727006901,0.0111569727006901,0.0111569727006901,0.0111569727006901,0.0111569727006901,5.527586831617596,5.527586831617596,5.527586831617596,5.527586831617596,5.527586831617596,E-W,0.0002384185791015,8.128,N-S,0.0002384185791015,7.791
20030101072900.knt,HKD0720301010729.UD,2003-01-01, 07:29:00,44.719,146.289,203,5.1,HKD072,43.1948,145.5209,46,2003-01-01, 07:31:22,100Hz,119,U-D,0.0002384185791015,2.346,180.2881772260776,1395.0,1394.0,28.506411269735715,1.172627037726734,1.1221953179258668,1.1298478699411785,0.9023292457587008,0.5076520916299834,0.0057604038576443,0.0057604038576443,0.0057604038576443,0.0057604038576443,0.0057604038576443,2.3427756090183887,2.3427756090183887,2.3427756090183887,2.3427756090183887,2.3427756090183887,E-W,0.0002384185791015,5.854,N-S,0.0002384185791015,6.303
20030101072900.knt,HKD0730301010729.UD,2003-01-01, 07:29:00,44.719,146.289,203,5.1,HKD073,43.3327,145.6003,36,2003-01-01, 07:31:20,100Hz,119,U-D,0.0002384185791015,5.066,163.68698817175132,1449.0,146.0,18.802423547494826,1.360434333786591,1.3127994288616534,1.097567450408334,0.7235343685481754,0.4254154251233371,0.0061482933412562,0.0061482933412562,0.0061482933412562,0.0048016541518502,0.0036645007986727,5.048482990849351,5.048482990849351,5.048482990849351,5.048482990849351,5.048482990849351,E-W,0.0002384185791015,5.714,N-S,0.0002384185791015,7.923
20030101072900.knt,HKD0780301010729.UD,2003-01-01, 07:29:00,44.719,146.289,203,5.1,HKD078,43.1486,144.4976,21,2003-01-01, 07:31:26,100Hz,119,U-D,0.0002384185791015,5.642,225.9736223762603,1467.0,1459.0,30.93034770251302,0.292490340590623,0.2946098201722295,0.3075785775706826,0.3173564850608967,0.3418831927266588,0.011051527987884,0.011051527987884,0.011051527987884,0.011051527987884,0.011051527987884,5.659675531917915,5.659675531917915,5.659675531917915,5.659675531917915,5.659675531917915,E-W,0.0002384185791015,3.507,N-S,0.0002384185791015,2.735
20030101072900.knt,HKD0850301010729.UD,2003-01-01, 07:29:00,44.719,146.289,203,5.1,HKD085,42.9581,144.0697,5,2003-01-01, 07:31:30,100Hz,120,U-D,0.0002384185791015,3.613,264.5952273473878,1429.0,1428.0,30.66666006079165,0.4940199282046728,0.4637268056915692,0.4293974860880118,0.4097122225841492,0.4236874127849556,0.0045410593746054,0.0045410593746054,0.0045410593746054,0.0045410593746054,0.0045410593746054,3.6261825902036526,3.6261825902036526,3.6261825902036526,3.6261825902036526,3.6261825902036526,E-W,0.0002384185791015,1.852,N-S,0.0002384185791015,2.645
20030101194900.knt,MYG0020301011949.UD,2003-01-01, 19:49:00,38.73,141.155,5,3.2,MYG002,38.7262,141.5109,79,2003-01-01, 19:49:19,100Hz,119,U-D,0.0002384185791015,0.794,30.875700190920483,988.0,983.0,20.339670068534645,1.4578388625436454,2.430363181499094,2.613577177035471,2.7329191496144625,2.81441038542561,0.0007206916604383,0.0007206916604383,0.0005497874591369,0.0005497874591369,0.0005497874591369,0.7882655418833076,0.3488000759484085,0.2991487722137232,0.2991487722137232,0.2694521251063563,E-W,0.0002384185791015,4.331,N-S,0.0002384185791015,3.945
20030101194900.knt,MYG0030301011949.UD,2003-01-01, 19:49:00,38.73,141.155,5,3.2,MYG003,38.7348,141.3106,28,2003-01-01, 19:49:14,100Hz,119,U-D,0.0002384185791015,1.622,13.507380793371036,1196.0,1195.0,24.02329236723251,1.7567961200574649,1.332362998876985,1.2441338371952968,2.216560126641042,3.212327064093311,0.0025302439627974,0.0021365619511462,0.0021365619511462,0.0021365619511462,0.0021365619511462,1.6172863841435516,1.6172863841435516,1.6172863841435516,1.1717373672030114,0.8978536160289412,E-W,0.0002384185791015,3.762,N-S,0.0002384185791015,6.196
20030101194900.knt,MYG0040301011949.UD,2003-01-01, 19:49:00,38.73,141.155,5,3.2,MYG004,38.7292,141.0217,40,2003-01-01, 19:49:14,100Hz,119,U-D,0.0002384185791015,2.028,11.563312765035558,1178.0,1177.0,23.408851931071272,0.6265945077832877,0.6271089035583313,0.6800186228136565,0.8428750396689689,1.0208051516238907,0.0015083266462714,0.0015083266462714,0.0015083266462714,0.0015083266462714,0.0015083266462714,2.0226201337758294,2.0226201337758294,2.0226201337758294,2.0226201337758294,2.0226201337758294,E-W,0.0002384185791015,3.294,N-S,0.0002384185791015,4.146
20030101194900.knt,MYG0110301011949.UD,2003-01-01, 19:49:00,38.73,141.155,5,3.2,MYG011,38.2972,141.5043,30,2003-01-01, 19:49:26,100Hz,119,U-D,0.0002384185791015,0.989,56.917786151470736,711.0,710.0,18.57747009101599,9.779013073523704,7.773756890139689,5.150327529494831,3.5305938589233428,5.241938133276708,0.0029414955571401,0.0028285685738918,0.0023631633269144,0.0011743206021139,0.0011743206021139,0.2840929864104477,0.2840929864104477,0.2840929864104477,0.1821351831151663,0.1821351831151663,E-W,0.0002384185791015,3.443,N-S,0.0002384185791015,5.498
20030101231800.knt,IBR0010301012318.UD,2003-01-01, 23:18:00,36.43,140.63,55,4.0,IBR001,36.7761,140.3569,105,2003-01-01, 23:19:16,100Hz,119,U-D,0.0002384185791015,1.656,45.55618434286596,642.0,642.0,21.503257644241074,2.3904653984054494,2.363473923386696,2.201691995432217,1.686225253492858,1.0022516958876164,0.001782922198483,0.001782922198483,0.001782922198483,0.0017808890411933,0.0011824482611783,1.5653505087652535,1.5653505087652535,1.5653505087652535,1.5653505087652535,1.5653505087652535,E-W,0.0002384185791015,3.035,N-S,0.0002384185791015,5.554
20030101231800.knt,IBR0030301012318.UD,2003-01-01, 23:18:00,36.43,140.63,55,4.0,IBR003,36.5915,140.6453,58,2003-01-01, 23:19:11,100Hz,119,U-D,0.0002384185791015,7.687,18.0099650780084,910.0,910.0,28.03797769949336,16.450666482431046,18.618274363854464,19.998420732186705,21.23651739911032,16.841158020053143,0.0302787438987871,0.0302787438987871,0.0302787438987871,0.0302787438987871,0.0301435917540852,3.073911093394203,3.073911093394203,3.073911093394203,3.073911093394203,2.604174645111848,E-W,0.0002384185791015,17.388,N-S,0.0002384185791015,17.443
20030101231800.knt,IBR0040301012318.UD,2003-01-01, 23:18:00,36.43,140.63,55,4.0,IBR004,36.5273,140.4094,51,2003-01-01, 23:19:13,100Hz,119,U-D,0.0002384185791015,5.818,22.496252468072,791.0,796.0,27.534351624781145,3.125610209035243,3.273839749653131,3.2529390367677493,3.0402347554409035,2.5157917961019267,0.0060150237773999,0.0060150237773999,0.0060150237773999,0.0060150237773999,0.0060150237773999,4.963014410282454,4.963014410282454,4.963014410282454,4.963014410282454,4.963014410282454,E-W,0.0002384185791015,9.836,N-S,0.0002384185791015,16.141
20030101231800.knt,IBR0050301012318.UD,2003-01-01, 23:18:00,36.43,140.63,55,4.0,IBR005,36.3851,140.2372,63,2003-01-01, 23:19:14,100Hz,119,U-D,0.0002384185791015,4.699,35.50498152625211,769.0,773.0,22.022555245576186,1.566123323286297,2.001581119990507,2.142293904218017,2.2518221915662657,2.164425875831562,0.0028999379747523,0.0028999379747523,0.0028999379747523,0.0028999379747523,0.0028999379747523,1.888506358005141,1.6601454762808807,1.6601454762808807,1.6601454762808807,1.6601454762808807,E-W,0.0002384185791015,11.661,N-S,0.0002384185791015,10.52
20030101231800.knt,IBR0060301012318.UD,2003-01-01, 23:18:00,36.43,140.63,55,4.0,IBR006,36.369,140.4528,20,2003-01-01, 23:19:12,100Hz,119,U-D,0.0002384185791015,4.344,17.24911231452654,873.0,873.0,28.28677872085012,1.1736085190368597,1.5087642769370362,2.2451974082115447,3.216475897911925,3.801573302753501,0.0032458709921364,0.0032458709921364,0.0032458709921364,0.0032458709921364,0.0032458709921364,2.6915999487983284,2.6915999487983284,1.586554546061209,1.4110853582893204,1.4110853582893204,E-W,0.0002384185791015,6.138,N-S,0.0002384185791015,8.3
20030101231800.knt,IBR0120301012318.UD,2003-01-01, 23:18:00,36.43,140.63,55,4.0,IBR012,36.1901,140.2869,24,2003-01-01, 23:19:15,100Hz,119,U-D,0.0002384185791015,2.719,40.702799456470345,695.0,714.0,19.23556666033489,2.628367374648488,3.354523399303218,3.80586320707036,3.7982232114102783,4.118215578132315,0.0014760475788151,0.0014760475788151,0.0014760475788151,0.0014760475788151,0.0014760475788151,1.146385995111804,0.6437050604744895,0.6437050604744895,0.6437050604744895,0.6437050604744895,E-W,0.0002384185791015,4.466,N-S,0.0002384185791015,1.812
20030101231800.knt,IBR0130301012318.UD,2003-01-01, 23:18:00,36.43,140.63,55,4.0,IBR013,36.1587,140.4892,28,2003-01-01, 23:19:15,100Hz,119,U-D,0.0002384185791015,2.671,32.70000585376148,631.0,631.0,30.418537834705145,2.24489386622442,2.3789488146945046,2.28916636103973,1.836213157698896,1.087600876054835,0.0027878500406432,0.0027878500406432,0.0027878500406432,0.0027291562275538,0.0017158134515902,1.9349667466729892,1.9349667466729892,1.9349667466729892,1.9349667466729892,1.9349667466729892,E-W,0.0002384185791015,5.775,N-S,0.0002384185791015,6.526
20030101231800.knt,TCG0130301012318.UD,2003-01-01, 23:18:00,36.43,140.63,55,4.0,TCG013,36.4368,140.0225,67,2003-01-01, 23:19:09,100Hz,119,U-D,0.0002384185791015,8.773,54.35310763564604,1468.0,1465.0,33.44812062318205,1.0788666313766555,1.088572096242029,1.0985757222949315,0.9498915475121764,0.5167048197851647,0.0028723385605416,0.0028723385605416,0.0028723385605416,0.0028723385605416,0.0022682179853047,8.765524960779377,8.765524960779377,8.765524960779377,8.765524960779377,8.765524960779377,E-W,0.0002384185791015,3.658,N-S,0.0002384185791015,3.93
20030101231800.knt,TCG0140301012318.UD,2003-01-01, 23:18:00,36.43,140.63,55,4.0,TCG014,36.545,140.1742,130,2003-01-01, 23:19:15,100Hz,119,U-D,0.0002384185791015,2.805,42.70745624786557,741.0,746.0,26.23700347648544,2.005040725895773,1.786847001356355,1.400308269810109,1.071000490911121,0.7602530153140825,0.0029231540513197,0.0028765828522725,0.0021073078251483,0.0017074009036923,0.0016343017422485,1.2757109232566868,1.2757109232566868,1.2757109232566868,1.2757109232566868,1.2757109232566868,E-W,0.0002384185791015,8.969,N-S,0.0002384185791015,4.607
20030104212200.knt,TKY0100301042122.UD,2003-01-04, 21:22:00,34.186,139.28,15,3.4,TKY010,34.3775,139.2557,13,2003-01-04, 21:22:08,100Hz,119,U-D,0.0002384185791015,2.636,21.410552732680728,1144.0,322.0,15.945162155300691,1.845069183612512,1.867705851359232,2.053619514390944,3.02807526173858,4.988218941855104,0.01054786190888,0.0087041054152031,0.0066404903313551,0.0066404903313551,0.0066404903313551,2.551531810007953,2.551531810007953,1.4406575873748415,1.316292434009899,0.8599346081630523,E-W,0.0002384185791015,6.2,N-S,0.0002384185791015,5.15
20030105113300.knt,KGS0130301051133.UD,2003-01-05, 11:33:00,31.891,131.076,9,3.7,KGS013,31.5973,130.9938,118,2003-01-05, 11:33:33,100Hz,119,U-D,0.0002384185791015,1.85,33.570215702480844,762.0,167.0,10.982286721305409,11.31708267497602,11.54908441589713,10.412022248588462,8.962498535284222,5.915370014031292,0.0152575744086053,0.0152575744086053,0.0152575744086053,0.0152575744086053,0.0127264833631984,1.889848052853081,1.889848052853081,1.889848052853081,1.889848052853081,1.889848052853081,E-W,0.0002384185791015,2.69,N-S,0.0002384185791015,2.577
20030105113300.knt,KMM0140301051133.UD,2003-01-05, 11:33:00,31.891,131.076,9,3.7,KMM014,32.3961,130.8268,300,2003-01-05, 11:33:38,100Hz,119,U-D,0.0002384185791015,1.885,60.8681508457082,735.0,734.0,13.331037356418411,4.007298734607913,3.8060281856907294,3.4439216767233045,2.6055580277967607,1.8365915177474716,0.0040729209147969,0.0040729209147969,0.0040729209147969,0.0039831524012461,0.0029598635525659,1.8899675798557427,1.8899675798557427,1.8899675798557427,1.8899675798557427,1.8899675798557427,E-W,0.0002384185791015,2.565,N-S,0.0002384185791015,3.883
20030105113300.knt,MYZ0150301051133.UD,2003-01-05, 11:33:00,31.891,131.076,9,3.7,MYZ015,31.7185,131.0621,159,2003-01-05, 11:33:24,100Hz,119,U-D,0.0002384185791015,9.524,19.2260479794205,1433.0,1433.0,23.446563987096933,0.3618896741164388,0.3087612049529122,0.2380391275684897,0.234630553897445,0.2378640446279073,0.0076450836758786,0.0076450836758786,0.0076450836758786,0.0076450836758786,0.0076450836758786,9.545929036694169,9.545929036694169,9.545929036694169,9.545929036694169,9.545929036694169,E-W,0.0002384185791015,3.088,N-S,0.0002384185791015,4.132
20030105185100.knt,IWT0060301051851.UD,2003-01-05, 18:51:00,38.793,141.819,99,4.4,IWT006,39.4806,141.9652,4,2003-01-05, 18:52:24,100Hz,119,U-D,0.0002384185791015,6.315,77.49038498543173,1.0,190.0,18.39518298654006,12.961824313584517,13.4855470046248,10.986461350841433,6.664668734440801,2.8679967545340883,0.0787676276205112,0.0787676276205112,0.0787676276205112,0.0656862231005152,0.0280092955462186,2.806493876564987,2.806493876564987,2.806493876564987,0.6370816609615759,0.1046531723823292,E-W,0.0002384185791015,12.299,N-S,0.0002384185791015,12.309
20030105185100.knt,IWT0070301051851.UD,2003-01-05, 18:51:00,38.793,141.819,99,4.4,IWT007,39.2701,141.8561,11,2003-01-05, 18:52:11,100Hz,119,U-D,0.0002384185791015,13.759,53.14779538059303,1324.0,1342.0,31.305097446847967,1.1304402946298604,1.2675345100257396,1.3594408179608908,0.9969269149403398,0.2117944863443452,0.0038160397811826,0.0038160397811826,0.0038160397811826,0.0038160397811826,0.0007721896981485,4.6482373093668325,4.6482373093668325,4.6482373093668325,4.6482373093668325,4.6482373093668325,E-W,0.0002384185791015,31.636,N-S,0.0002384185791015,42.283
20030105185100.knt,IWT0080301051851.UD,2003-01-05, 18:51:00,38.793,141.819,99,4.4,IWT008,39.0815,141.7083,50,2003-01-05, 18:52:19,100Hz,119,U-D,0.0002384185791015,4.968,33.47807582051118,436.0,447.0,23.210598890378684,8.08637616147731,6.506198768263388,5.177497897341725,5.169289344517703,6.997311627369869,0.0340214457936904,0.0340214457936904,0.0340214457936904,0.0340214457936904,0.0340214457936904,2.69319257462171,2.69319257462171,2.69319257462171,2.69319257462171,2.69319257462171,E-W,0.0002384185791015,28.125,N-S,0.0002384185791015,13.911
20030105185100.knt,IWT0090301051851.UD,2003-01-05, 18:51:00,38.793,141.819,99,4.4,IWT009,39.0187,141.4031,150,2003-01-05, 18:52:10,100Hz,119,U-D,0.0002384185791015,9.12,43.87422280695732,1389.0,1400.0,36.62255951487368,7.657738868830163,7.552569276198916,6.560801106177671,4.180030420313694,1.9107939351243772,0.0249891207277999,0.0249891207277999,0.0249891207277999,0.0221400784242628,0.0080438538716175,4.813799188445163,4.813799188445163,4.813799188445163,4.813799188445163,3.760537188274324,E-W,0.0002384185791015,28.164,N-S,0.0002384185791015,58.77
20030105185100.knt,IWT0100301051851.UD,2003-01-05, 18:51:00,38.793,141.819,99,4.4,IWT010,38.9334,141.1173,37,2003-01-05, 18:52:24,100Hz,119,U-D,0.0002384185791015,2.166,62.72784784805964,96.0,127.0,13.666929585122425,3.2068324945931237,3.049139826592046,2.668732913194986,2.1596622772898155,2.3018285231964373,0.0056334812263318,0.0056334812263318,0.0056334812263318,0.0051782146777625,0.00428499932641,1.815419496675108,1.815419496675108,1.815419496675108,1.815419496675108,0.9913848580151678,E-W,0.0002384185791015,3.738,N-S,0.0002384185791015,4.93
20030105185100.knt,IWT0110301051851.UD,2003-01-05, 18:51:00,38.793,141.819,99,4.4,IWT011,39.1454,141.152,45,2003-01-05, 18:52:24,100Hz,119,U-D,0.0002384185791015,2.199,69.71746870481236,172.0,182.0,17.76845571044159,12.108347790690148,13.99659424765479,16.444572240551924,16.708046984298022,12.858835214047636,0.0419121204661592,0.0419121204661592,0.0419121204661592,0.0419121204661592,0.0392828626494514,2.215077385272545,2.215077385272545,2.215077385272545,2.215077385272545,2.215077385272545,E-W,0.0002384185791015,2.91,N-S,0.0002384185791015,3.194
20030105185100.knt,IWT0120301051851.UD,2003-01-05, 18:51:00,38.793,141.819,99,4.4,IWT012,39.3209,141.1378,64,2003-01-05, 18:52:13,100Hz,119,U-D,0.0002384185791015,5.445,83.0973362350723,1359.0,1370.0,36.708066325028085,1.3398225636894157,0.9989205188726212,0.584299977594632,0.3092595534102778,0.3045290949552918,0.0054210935739376,0.0047401340247181,0.0032227995650229,0.0026082982503982,0.0026082982503982,2.727384351060753,2.727384351060753,2.727384351060753,2.727384351060753,2.727384351060753,E-W,0.0002384185791015,10.942,N-S,0.0002384185791015,13.882
20030105185100.knt,IWT0130301051851.UD,2003-01-05, 18:51:00,38.793,141.819,99,4.4,IWT013,39.3367,141.5378,272,2003-01-05, 18:52:11,100Hz,119,U-D,0.0002384185791015,11.313,65.14902016685154,1428.0,1438.0,37.10862902859547,0.4573827007222513,0.3448466333086622,0.2944328008197079,0.2678299014704696,0.1452106061864929,0.0026048787035931,0.0022179520840326,0.0022179520840326,0.0022179520840326,0.0022179520840326,9.428816321886774,9.428816321886774,9.428816321886774,9.428816321886774,9.428816321886774,E-W,0.0002384185791015,25.874,N-S,0.0002384185791015,23.772
20030105185100.knt,IWT0160301051851.UD,2003-01-05, 18:51:00,38.793,141.819,99,4.4,IWT016,39.5997,141.6789,198,2003-01-05, 18:52:26,100Hz,119,U-D,0.0002384185791015,5.045,90.50972739717574,124.0,140.0,8.365421177048109,13.377352433571197,15.891824826322049,18.629712660518503,16.618004353674092,10.408839850536491,0.1772557359745351,0.1772557359745351,0.1772557359745351,0.1772557359745351,0.1578010278854281,2.9530863500367275,2.9530863500367275,2.9530863500367275,2.9530863500367275,2.9530863500367275,E-W,0.0002384185791015,7.233,N-S,0.0002384185791015,8.505
20030105185100.knt,MYG0010301051851.UD,2003-01-05, 18:51:00,38.793,141.819,99,4.4,MYG001,38.9015,141.5684,48,2003-01-05, 18:52:09,100Hz,119,U-D,0.0002384185791015,14.464,24.830230473066123,1413.0,1425.0,32.474348387190524,0.5299248685770078,0.5319349926726672,0.4661105951405091,0.3007930244037813,0.1589208844143001,0.0078758293433855,0.0078758293433855,0.0078758293433855,0.0078758293433855,0.0036002280050084,13.281211255719835,13.281211255719835,13.281211255719835,13.281211255719835,8.522468090806528,E-W,0.0002384185791015,26.006,N-S,0.0002384185791015,20.226
20030105185100.knt,MYG0020301051851.UD,2003-01-05, 18:51:00,38.793,141.819,99,4.4,MYG002,38.7262,141.5109,79,2003-01-05, 18:52:09,100Hz,119,U-D,0.0002384185791015,9.318,27.72798259076277,1427.0,1439.0,33.33279004174351,0.3752607459115082,0.3174623398477473,0.2639248023157534,0.2620696841554498,0.2966014721597512,0.002715381640979,0.002715381640979,0.002715381640979,0.002715381640979,0.002188303020774,7.247646841695749,7.247646841695749,7.247646841695749,7.247646841695749,4.322930619378617,E-W,0.0002384185791015,42.363,N-S,0.0002384185791015,43.941
20030105185100.knt,MYG0030301051851.UD,2003-01-05, 18:51:00,38.793,141.819,99,4.4,MYG003,38.7348,141.3106,28,2003-01-05, 18:52:10,100Hz,119,U-D,0.0002384185791015,9.954,44.55192166098323,1406.0,1420.0,34.71948073679826,0.9045663559880718,0.8139763651434607,0.6054966055085365,0.4206443476072061,0.3826856556529589,0.0053709757109487,0.0053709757109487,0.0053709757109487,0.0053709757109487,0.0053709757109487,8.257095462083761,8.257095462083761,8.257095462083761,8.257095462083761,8.133356514508542,E-W,0.0002384185791015,14.379,N-S,0.0002384185791015,13.029
20030105185100.knt,MYG0040301051851.UD,2003-01-05, 18:51:00,38.793,141.819,99,4.4,MYG004,38.7292,141.0217,40,2003-01-05, 18:52:12,100Hz,120,U-D,0.0002384185791015,6.766,69.49329219370347,1375.0,1399.0,28.298306947263185,0.3368557445685471,0.3387967049722814,0.3281987027388457,0.2882956566379436,0.268752035327883,0.0049998419834827,0.0049998419834827,0.0049998419834827,0.0049998419834827,0.0049998419834827,6.7247313621423634,6.7247313621423634,6.7247313621423634,6.7247313621423634,6.7247313621423634,E-W,0.0002384185791015,14.346,N-S,0.0002384185791015,21.994
