earthquake name,records name,earthquake date,earthquake time,lat,long,depth,mag,stn_code,stn_lat,stn_long,stn_height,rcd_date,rcd_time,frequency,rcd_duration,direction,scale_factor,max_pga,epi_dist,pick_index_manually,pick_index_kalkan,snr_db_kalkan,tc_5sec,tc_4sec,tc_3sec,tc_2sec,tc_1sec,Pd_5sec,Pd_4sec,Pd_3sec,Pd_2sec,Pd_1sec,Pga_5sec,Pga_4sec,Pga_3sec,Pga_2sec,Pga_1sec,Channel,Scale_factor,PGA_ew,Channel.1,Scale_factor.1,PGA_ns
20030107032700.knt,HKD1010301070327.UD,2003-01-07, 03:27:00,42.348,143.053,52,4.6,HKD101,43.3338,142.9473,360,2003-01-07, 03:28:09,100Hz,119,U-D,0.0002384185791015,0.951,109.954183952558,68.0,68.0,15.833716255148593,2.586022043838581,2.674843066650121,2.597628966404768,2.5002064287286774,1.730293320574613,0.0044082569259192,0.0044082569259192,0.0044082569259192,0.0044082569259192,0.0036332179407259,0.7701280520799704,0.7701280520799704,0.7701280520799704,0.7155634348447106,0.7155634348447106,E-W,0.0002384185791015,1.738,N-S,0.0002384185791015,2.821
20030107032700.knt,HKD1020301070327.UD,2003-01-07, 03:27:00,42.348,143.053,52,4.6,HKD102,42.8775,142.4484,283,2003-01-07, 03:28:04,100Hz,119,U-D,0.0002384185791015,1.056,76.90540405373469,193.0,199.0,16.471943751074246,1.119777670894064,1.1530972608608063,1.2351464367985137,1.1895236925395891,2.303370141047131,0.0052418075129474,0.0052418075129474,0.0052418075129474,0.0052418075129474,0.0052418075129474,1.0364759379023898,1.0364759379023898,1.0364759379023898,1.0364759379023898,0.4234257016956574,E-W,0.0002384185791015,2.586,N-S,0.0002384185791015,2.055
20030107032700.knt,HKD1030301070327.UD,2003-01-07, 03:27:00,42.348,143.053,52,4.6,HKD103,42.7275,142.2973,86,2003-01-07, 03:28:05,100Hz,119,U-D,0.0002384185791015,2.943,74.92815072475466,120.0,107.0,26.85782001373956,2.267129324659324,2.3396342465342004,2.4118465912108973,2.2898000544461428,1.4001905646628807,0.0154242892557805,0.0154242892557805,0.0154242892557805,0.0154242892557805,0.014212873136276,1.574992260236882,1.574992260236882,1.574992260236882,1.574992260236882,1.574992260236882,E-W,0.0002384185791015,6.248,N-S,0.0002384185791015,7.368
20030107032700.knt,HKD1050301070327.UD,2003-01-07, 03:27:00,42.348,143.053,52,4.6,HKD105,42.4825,142.0543,6,2003-01-07, 03:28:07,100Hz,119,U-D,0.0002384185791015,1.288,83.33821391730027,65.0,64.0,22.499333537242304,1.1491153488719414,1.1682122524540102,1.24119302724436,1.1440549834042206,0.6175438612101837,0.0063828533762518,0.0063828533762518,0.0063828533762518,0.0063828533762518,0.0061170046993871,1.304910628682299,1.304910628682299,1.304910628682299,1.304910628682299,1.304910628682299,E-W,0.0002384185791015,3.243,N-S,0.0002384185791015,1.869
20030107032700.knt,HKD1070301070327.UD,2003-01-07, 03:27:00,42.348,143.053,52,4.6,HKD107,42.4194,142.4992,45,2003-01-07, 03:28:59,100Hz,119,U-D,0.0002384185791015,0.928,46.17330416993045,318.0,318.0,13.895094333518918,8.630525597518306,8.463493006539606,9.293763099738207,11.232128989279683,15.872078896276848,0.0520197499403747,0.0520197499403747,0.0520197499403747,0.0520197499403747,0.0520197499403747,0.8815147659372258,0.8815147659372258,0.8815147659372258,0.8815147659372258,0.6720234512115537,E-W,0.0002384185791015,3.715,N-S,0.0002384185791015,2.728
20030107032700.knt,HKD1080301070327.UD,2003-01-07, 03:27:00,42.348,143.053,52,4.6,HKD108,42.2528,142.5643,42,2003-01-07, 03:28:57,100Hz,119,U-D,0.0002384185791015,1.443,41.56260459475738,485.0,466.0,28.620110550654736,0.9795125264473492,1.0353988437451866,0.957264757304085,0.8233623425330906,0.8645492666911511,0.0030004261481279,0.0030004261481279,0.0030004261481279,0.0023213792043777,0.0023213792043777,0.6777896871034406,0.633470163982433,0.633470163982433,0.563149152067091,0.563149152067091,E-W,0.0002384185791015,3.993,N-S,0.0002384185791015,4.372
20030107032700.knt,HKD1090301070327.UD,2003-01-07, 03:27:00,42.348,143.053,52,4.6,HKD109,42.1678,142.7673,4,2003-01-07, 03:28:55,100Hz,119,U-D,0.0002384185791015,3.766,30.892302617297677,608.0,632.0,19.40914692286296,12.485643077236478,11.219846098075696,9.188771555265877,6.296886370810309,3.205980522727872,0.0572591299779696,0.0572591299779696,0.0543769016278068,0.0457714392633292,0.0307285511177064,3.149283661065302,3.149283661065302,3.149283661065302,3.149283661065302,3.149283661065302,E-W,0.0002384185791015,9.908,N-S,0.0002384185791015,10.679
20030107032700.knt,HKD1100301070327.UD,2003-01-07, 03:27:00,42.348,143.053,52,4.6,HKD110,42.1306,142.9353,5,2003-01-07, 03:28:54,100Hz,119,U-D,0.0002384185791015,2.223,26.04332285662897,656.0,683.0,17.414929139672175,0.7538144722153832,0.797827360458525,0.7379012960512148,0.7006971943764982,0.6396432412161754,0.0049776059952677,0.0049776059952677,0.0049776059952677,0.0049776059952677,0.0049000134612799,2.236770082660122,2.236770082660122,2.236770082660122,2.236770082660122,2.236770082660122,E-W,0.0002384185791015,6.108,N-S,0.0002384185791015,4.909
20030107032700.knt,HKD1120301070327.UD,2003-01-07, 03:27:00,42.348,143.053,52,4.6,HKD112,41.937,143.2403,15,2003-01-07, 03:28:58,100Hz,119,U-D,0.0002384185791015,1.797,48.23964175525248,452.0,487.0,19.96112589635398,3.411793872113851,3.013283767270283,2.4945124774745477,2.7939986596063684,3.4388823017359758,0.0125203054140002,0.0098829032329661,0.0091415110276652,0.0091415110276652,0.0091415110276652,1.786779067369728,1.3465070077765038,1.3465070077765038,1.3465070077765038,0.7983720249470773,E-W,0.0002384185791015,4.221,N-S,0.0002384185791015,5.136
20030107032700.knt,HKD1130301070327.UD,2003-01-07, 03:27:00,42.348,143.053,52,4.6,HKD113,42.1287,143.3153,15,2003-01-07, 03:28:47,100Hz,119,U-D,0.0002384185791015,3.467,32.57157842291749,1400.0,1397.0,32.77008741652348,0.7800609056279749,0.764428978214906,0.7076837901485771,0.6838094723999805,0.7001493235717677,0.0093219084217404,0.0093219084217404,0.0093219084217404,0.0093219084217404,0.0093219084217404,3.4652422233361286,3.4652422233361286,3.4652422233361286,3.4652422233361286,3.4652422233361286,E-W,0.0002384185791015,10.762,N-S,0.0002384185791015,7.564
20030107032700.knt,HKD1280301070327.UD,2003-01-07, 03:27:00,42.348,143.053,52,4.6,HKD128,42.7655,141.8221,33,2003-01-07, 03:28:02,100Hz,119,U-D,0.0002384185791015,2.984,110.99274241889034,843.0,861.0,26.09182347357961,0.4898839109531912,0.5877102954625003,0.6782710708100489,0.8938107490336016,0.8829124993998609,0.0023097950935372,0.002302029705643,0.002302029705643,0.002302029705643,0.002302029705643,2.0358896210601567,1.046494387477388,1.046494387477388,1.0365940626065624,1.0365940626065624,E-W,0.0002384185791015,3.198,N-S,0.0002384185791015,4.072
20030107204400.knt,IWT0060301072044.UD,2003-01-07, 20:44:00,38.981,142.501,33,4.6,IWT006,39.4806,141.9652,4,2003-01-07, 20:44:41,100Hz,119,U-D,0.0002384185791015,2.937,72.22098970967414,578.0,596.0,25.894690665654533,3.2894908164717385,3.1157158265694576,2.9721736028722274,3.552781314747251,3.3443154581222068,0.0019990598722279,0.0019990598722279,0.0019990598722279,0.0019990598722279,0.0019304419544606,0.8571500017855082,0.8571500017855082,0.8571500017855082,0.8571500017855082,0.8571500017855082,E-W,0.0002384185791015,4.012,N-S,0.0002384185791015,4.286
20030107204400.knt,IWT0130301072044.UD,2003-01-07, 20:44:00,38.981,142.501,33,4.6,IWT013,39.3367,141.5378,272,2003-01-07, 20:44:47,100Hz,119,U-D,0.0002384185791015,1.962,91.98428992861425,267.0,309.0,11.12797255362926,12.08762806129175,12.791340482005536,15.883862197842271,24.3362997723217,58.65248635401849,0.072395792601025,0.072395792601025,0.072395792601025,0.072395792601025,0.072395792601025,0.5906066003732502,0.4189104016819476,0.4080144849291427,0.401428016336109,0.2176638393807,E-W,0.0002384185791015,4.041,N-S,0.0002384185791015,3.167
20030107204400.knt,IWT0160301072044.UD,2003-01-07, 20:44:00,38.981,142.501,33,4.6,IWT016,39.5997,141.6789,198,2003-01-07, 20:44:48,100Hz,119,U-D,0.0002384185791015,1.731,98.68222757786562,258.0,260.0,20.270182977457225,10.553409171898531,11.44152963310602,15.607850035977926,22.64066178738729,30.809604995288183,0.008063018123151,0.008063018123151,0.008063018123151,0.008063018123151,0.008063018123151,0.5009467955210052,0.5009467955210052,0.5009467955210052,0.5009467955210052,0.3492679038464596,E-W,0.0002384185791015,4.77,N-S,0.0002384185791015,2.497
20030107204400.knt,IWT0170301072044.UD,2003-01-07, 20:44:00,38.981,142.501,33,4.6,IWT017,39.6336,141.4376,630,2003-01-07, 20:44:53,100Hz,119,U-D,0.0002384185791015,2.061,116.77494358500827,1.0,194.0,10.186210649692786,10.32437206291504,11.925389358166928,10.7590847324493,6.762218988664546,2.675921308547605,0.0078472341855949,0.0078472341855949,0.0078472341855949,0.0070775332026731,0.0033563998901054,0.3440405565817223,0.3172065171078602,0.2294449963085391,0.2251237823298128,0.0823407697873502,E-W,0.0002384185791015,2.902,N-S,0.0002384185791015,2.766
20030107204400.knt,MYG0010301072044.UD,2003-01-07, 20:44:00,38.981,142.501,33,4.6,MYG001,38.9015,141.5684,48,2003-01-07, 20:44:43,100Hz,119,U-D,0.0002384185791015,2.74,81.13982816365295,514.0,524.0,28.55514544467155,1.349102670680405,0.8804155553298096,0.8294558864508522,1.0400277656585937,1.277937158912967,0.0022773823495306,0.0011794329406362,0.0008894975872936,0.0008894975872936,0.0008894975872936,0.9028693086420768,0.9028693086420768,0.9028693086420768,0.559474960069102,0.559474960069102,E-W,0.0002384185791015,3.752,N-S,0.0002384185791015,4.976
20030107204400.knt,MYG0020301072044.UD,2003-01-07, 20:44:00,38.981,142.501,33,4.6,MYG002,38.7262,141.5109,79,2003-01-07, 20:44:45,100Hz,119,U-D,0.0002384185791015,2.377,90.29546937248487,431.0,440.00000000000006,24.17601977906481,4.554874618582551,3.454007283213774,3.00036638735884,3.3992911887891477,4.891081190314009,0.0047612005852349,0.0043448355375586,0.0043448355375586,0.0043448355375586,0.0043448355375586,1.210103898862682,1.210103898862682,1.210103898862682,1.210103898862682,0.7983089828002088,E-W,0.0002384185791015,7.214,N-S,0.0002384185791015,11.832
20030107204400.knt,MYG0110301072044.UD,2003-01-07, 20:44:00,38.981,142.501,33,4.6,MYG011,38.2972,141.5043,30,2003-01-07, 20:44:50,100Hz,119,U-D,0.0002384185791015,1.814,115.21662357245437,222.0,221.0,25.60552153141659,5.087942103269978,5.139517952641972,6.020131108397282,8.208299493528857,9.697799984690558,0.0049349601577423,0.0049349601577423,0.0049349601577423,0.0049349601577423,0.0049089384868934,0.8749952106304542,0.8749952106304542,0.8749952106304542,0.6219956533572478,0.4210798266124765,E-W,0.0002384185791015,3.501,N-S,0.0002384185791015,4.745
20030109131400.knt,CHB0040301091314.UD,2003-01-09, 13:14:00,36.42,141.129,47,4.7,CHB004,35.9007,140.4905,14,2003-01-09, 13:15:47,100Hz,119,U-D,0.0002384185791015,5.177,81.36340310053701,377.0,424.0,21.128574587993874,8.304706628237998,7.194147985505455,7.212828152413043,9.347281336898032,13.444235437085975,0.0466126686497834,0.0466126686497834,0.0466126686497834,0.0466126686497834,0.0466126686497834,1.3798773776995683,1.3798773776995683,1.3798773776995683,1.1101724860443878,0.7412175269573028,E-W,0.0002384185791015,9.341,N-S,0.0002384185791015,7.141
20030109131400.knt,CHB0070301091314.UD,2003-01-09, 13:14:00,36.42,141.129,47,4.7,CHB007,35.7234,140.2267,24,2003-01-09, 13:15:54,100Hz,119,U-D,0.0002384185791015,4.413,112.14307016298989,1.0,72.0,10.476263321573429,12.642889838995568,13.332311377614964,11.040415706166684,6.659211515568014,2.894283455838687,0.0963442200658812,0.0963442200658812,0.0963442200658812,0.0796644363631465,0.0344767239858343,1.4929485490538283,1.4929485490538283,1.1227770618323245,0.6442399892716512,0.5219625781082374,E-W,0.0002384185791015,11.593,N-S,0.0002384185791015,9.864
20030109131400.knt,CHB0100301091314.UD,2003-01-09, 13:14:00,36.42,141.129,47,4.7,CHB010,35.7077,140.568,8,2003-01-09, 13:15:49,100Hz,119,U-D,0.0002384185791015,2.202,93.89341670461184,297.0,297.0,20.40544876868484,4.436029561766929,4.579841333608121,5.694457603294371,7.19693958463266,10.545035545274066,0.0090433393155053,0.0090433393155053,0.0090433393155053,0.0090433393155053,0.0090433393155053,1.4199997462376572,1.3352838696655676,1.0943910087612942,1.0943910087612942,0.7372729192704294,E-W,0.0002384185791015,6.369,N-S,0.0002384185791015,5.506
20030109131400.knt,CHB0110301091314.UD,2003-01-09, 13:14:00,36.42,141.129,47,4.7,CHB011,35.6021,140.5014,2,2003-01-09, 13:15:53,100Hz,119,U-D,0.0002384185791015,1.363,107.04063481625056,86.0,92.0,19.04475939302449,3.728034286270104,4.850955503329142,6.515669781919986,6.791329515995822,3.754009604570584,0.0043166493638104,0.0043166493638104,0.0043166493638104,0.0041577613318521,0.0031792609636406,0.5551952352386024,0.5551952352386024,0.2967869911713967,0.174259133895609,0.1326994737466623,E-W,0.0002384185791015,3.725,N-S,0.0002384185791015,2.894
20030109131400.knt,FKS0060301091314.UD,2003-01-09, 13:14:00,36.42,141.129,47,4.7,FKS006,37.5031,140.7588,472,2003-01-09, 13:15:55,100Hz,119,U-D,0.0002384185791015,4.766,124.84564368000731,53.0,70.0,18.79830464342714,8.074815998187082,8.933080667821942,8.986083595146026,6.809406618183218,3.956434944898372,0.0166990271019143,0.0166990271019143,0.0166990271019143,0.0156672349894811,0.0107124168425037,1.4723230343078513,1.4723230343078513,0.9543517494004206,0.8882199353980295,0.7673832182838903,E-W,0.0002384185791015,12.288,N-S,0.0002384185791015,8.499
20030109131400.knt,FKS0070301091314.UD,2003-01-09, 13:14:00,36.42,141.129,47,4.7,FKS007,37.4061,140.9632,70,2003-01-09, 13:15:52,100Hz,119,U-D,0.0002384185791015,4.72,110.63562879858104,162.0,161.0,27.6577631797705,5.094618223483838,5.593156968384046,5.674565260886776,5.53187437095057,4.215750982553604,0.0179542504765237,0.0179542504765237,0.0179542504765237,0.0179542504765237,0.0170949075660252,1.3913818208253368,1.3913818208253368,1.3913818208253368,1.2141854545144766,1.2141854545144766,E-W,0.0002384185791015,8.705,N-S,0.0002384185791015,7.653
20030109131400.knt,FKS0090301091314.UD,2003-01-09, 13:14:00,36.42,141.129,47,4.7,FKS009,37.2778,140.6349,440,2003-01-09, 13:15:51,100Hz,119,U-D,0.0002384185791015,2.343,105.02740853708862,213.0,205.0,23.830699369052372,9.039826092384088,9.13215025382666,10.18233580919532,13.710731536000138,19.18907045167681,0.0229045035205858,0.0229045035205858,0.0229045035205858,0.0229045035205858,0.0229045035205858,1.2511641798177664,1.2511641798177664,1.2511641798177664,1.2511641798177664,1.226718768492169,E-W,0.0002384185791015,4.062,N-S,0.0002384185791015,5.545
20030109131400.knt,FKS0100301091314.UD,2003-01-09, 13:14:00,36.42,141.129,47,4.7,FKS010,37.2342,141.0016,50,2003-01-09, 13:15:48,100Hz,119,U-D,0.0002384185791015,3.645,91.24222948303624,363.0,364.0,26.28747778832008,3.475537586949534,3.041485639408141,3.0958495087163427,3.338376435182441,4.117709410636647,0.0126970133937492,0.0126970133937492,0.0126970133937492,0.0126970133937492,0.0126970133937492,1.6378114809043776,1.6378114809043776,1.6378114809043776,1.6378114809043776,1.6378114809043776,E-W,0.0002384185791015,7.931,N-S,0.0002384185791015,8.827
20030109131400.knt,FKS0120301091314.UD,2003-01-09, 13:14:00,36.42,141.129,47,4.7,FKS012,36.9069,140.7929,2,2003-01-09, 13:15:42,100Hz,119,U-D,0.0002384185791015,2.777,61.88646104888914,580.0,578.0,20.89421997790544,0.735341839124694,0.716386974743552,0.6155672537110732,0.5133328034532946,0.4530246224997972,0.0078915651126527,0.0078915651126527,0.0078915651126527,0.0078915651126527,0.0078915651126527,2.561403732404142,2.233950525445175,2.233950525445175,2.233950525445175,2.233950525445175,E-W,0.0002384185791015,5.802,N-S,0.0002384185791015,6.044
20030109131400.knt,FKS0130301091314.UD,2003-01-09, 13:14:00,36.42,141.129,47,4.7,FKS013,37.09,140.5563,320,2003-01-09, 13:15:48,100Hz,119,U-D,0.0002384185791015,5.16,90.2964826694027,345.0,343.0,22.674150413196237,8.873318049331964,8.005521136513886,8.417976963710409,10.6344837638846,15.49870955941047,0.0666379628544969,0.0666379628544969,0.0666379628544969,0.0666379628544969,0.0666379628544969,1.9871782457887075,1.9871782457887075,1.9871782457887075,1.9871782457887075,1.4827974852216603,E-W,0.0002384185791015,11.046,N-S,0.0002384185791015,10.264
20030109131400.knt,FKS0140301091314.UD,2003-01-09, 13:14:00,36.42,141.129,47,4.7,FKS014,36.8683,140.43,178,2003-01-09, 13:15:46,100Hz,119,U-D,0.0002384185791015,1.78,79.83747970044278,442.0,434.0,25.288876883725028,4.11900113827571,3.1762052666043585,2.1815153846299964,1.5934221893778573,1.8542339831301025,0.0146050294561205,0.0129045243952281,0.0102816502992352,0.0102816502992352,0.0102816502992352,1.7284479385459424,1.7284479385459424,1.7284479385459424,1.7284479385459424,1.682757026230223,E-W,0.0002384185791015,4.81,N-S,0.0002384185791015,6.273
20030109131400.knt,FKS0150301091314.UD,2003-01-09, 13:14:00,36.42,141.129,47,4.7,FKS015,37.0217,140.3775,315,2003-01-09, 13:15:49,100Hz,119,U-D,0.0002384185791015,2.059,94.67141918098515,338.0,337.0,28.593718429943834,0.7148289962375186,0.7347739111091095,0.7434487832521937,0.777615485503243,0.985949540912549,0.0060352255491095,0.0060352255491095,0.0060352255491095,0.0060352255491095,0.0060352255491095,2.0733967008896377,2.0733967008896377,2.0733967008896377,1.5683526777242232,1.5683526777242232,E-W,0.0002384185791015,3.488,N-S,0.0002384185791015,5.667
20030109131400.knt,FKS0160301091314.UD,2003-01-09, 13:14:00,36.42,141.129,47,4.7,FKS016,37.1228,140.1914,375,2003-01-09, 13:15:42,100Hz,119,U-D,0.0002384185791015,4.317,114.3727519053274,1330.0,1329.0,25.878052362195664,0.5372067768152959,0.5232991573979294,0.4265647407842762,0.4122862554008225,0.5851975687840161,0.004769946989838,0.004769946989838,0.0042551810870321,0.0042551810870321,0.0041873020892825,3.770953730265516,3.770953730265516,3.770953730265516,3.770953730265516,2.170127193527428,E-W,0.0002384185791015,14.685,N-S,0.0002384185791015,12.341
20030109131400.knt,FKS0170301091314.UD,2003-01-09, 13:14:00,36.42,141.129,47,4.7,FKS017,37.2842,140.3689,263,2003-01-09, 13:15:43,100Hz,119,U-D,0.0002384185791015,4.39,117.50701964665352,1238.0,1233.0,21.454727483663305,0.4467029247643734,0.3459563423830293,0.3285905205067759,0.4006770956261465,0.6001413334372787,0.0042265331698886,0.0034833077795318,0.0034833077795318,0.0034833077795318,0.0034833077795318,3.0252286821493684,3.0252286821493684,3.0252286821493684,2.9239058163597904,2.1078158204644524,E-W,0.0002384185791015,6.971,N-S,0.0002384185791015,6.552
20030109131400.knt,FKS0180301091314.UD,2003-01-09, 13:14:00,36.42,141.129,47,4.7,FKS018,37.3961,140.3622,245,2003-01-09, 13:15:43,100Hz,119,U-D,0.0002384185791015,7.119,128.1724680169328,1388.0,1386.0,27.229457636251947,0.4009834460703345,0.3785181842837212,0.3477654089269971,0.296499088934025,0.2823297367185483,0.0052894022460927,0.0052894022460927,0.0052894022460927,0.0052894022460927,0.0050180453836288,4.314478634739826,4.314478634739826,4.314478634739826,4.314478634739826,3.9220075594200954,E-W,0.0002384185791015,20.281,N-S,0.0002384185791015,11.836
20030109131400.knt,FKS0190301091314.UD,2003-01-09, 13:14:00,36.42,141.129,47,4.7,FKS019,37.603,140.4368,235,2003-01-09, 13:15:59,100Hz,119,U-D,0.0002384185791015,4.994,145.19225426930848,2.0,24.0,2.5994393841695933,13.463586816228185,13.96655428911428,11.14682244790018,6.627855463917977,2.8613809726285457,0.3053205485438153,0.3053205485438153,0.3050657700688577,0.2499224371005785,0.1056210171429228,1.599051696511925,1.599051696511925,1.599051696511925,1.599051696511925,0.914741544676571,E-W,0.0002384185791015,11.065,N-S,0.0002384185791015,12.838
20030109131400.knt,FKS0240301091314.UD,2003-01-09, 13:14:00,36.42,141.129,47,4.7,FKS024,37.3957,140.1325,527,2003-01-09, 13:15:46,100Hz,119,U-D,0.0002384185791015,3.263,140.07205426367938,1225.0,1285.0,29.314882960470037,0.352128091893604,0.3364011845041787,0.3194909223160964,0.4221396621630141,0.3823031752517248,0.0036454193070741,0.0036454193070741,0.0032648388435585,0.0032648388435585,0.002122479012556,3.0420578328832253,3.0420578328832253,3.0420578328832253,1.9721812612561127,1.9721812612561127,E-W,0.0002384185791015,9.362,N-S,0.0002384185791015,12.532
