earthquake name,records name,earthquake date,earthquake time,lat,long,depth,mag,stn_code,stn_lat,stn_long,stn_height,rcd_date,rcd_time,frequency,rcd_duration,direction,scale_factor,max_pga,epi_dist,pick_index_manually,pick_index_kalkan,snr_db_kalkan,tc_5sec,tc_4sec,tc_3sec,tc_2sec,tc_1sec,Pd_5sec,Pd_4sec,Pd_3sec,Pd_2sec,Pd_1sec,Pga_5sec,Pga_4sec,Pga_3sec,Pga_2sec,Pga_1sec,Channel,Scale_factor,PGA_ew,Channel.1,Scale_factor.1,PGA_ns
20040106145000.knt,MIE0130401061450.UD,2004-01-06, 14:50:00,34.215,136.714,37,5.4,MIE013,34.2777,136.4996,2,2004-01-06, 14:51:59,100Hz,119,U-D,0.0002384185791015,128.323,20.90382474474312,1486,1490.0,34.536870735618194,0.5069769115796233,1.0157502845262854,0.817246973865968,0.4997026852321784,0.2909672274749508,0.0816247796714976,0.0314478733680688,0.0244011719287043,0.0173545551961097,0.0163775538667735,128.7964747770173,29.26310730190892,29.26310730190892,29.26310730190892,29.26310730190892,E-W,0.0002384185791015,219.687,N-S,0.0002384185791015,288.104
20040106145000.knt,MIE0140401061450.UD,2004-01-06, 14:50:00,34.215,136.714,37,5.4,MIE014,34.0638,136.1687,85,2004-01-06, 14:51:03,100Hz,119,U-D,0.0002384185791015,60.054,52.92695293861788,1419,1419.0,45.65895434405616,0.8313949616694964,0.6727675212042864,0.5154917661533474,0.4815702279309289,0.4734083341708686,0.0266859618183193,0.0266859618183193,0.0266859618183193,0.0266859618183193,0.0266859618183193,59.96185743393104,59.96185743393104,59.96185743393104,59.96185743393104,59.96185743393104,E-W,0.0002384185791015,48.392,N-S,0.0002384185791015,58.394
20040106145000.knt,MIE0150401061450.UD,2004-01-06, 14:50:00,34.215,136.714,37,5.4,MIE015,33.8783,136.0822,6,2004-01-06, 14:51:05,100Hz,119,U-D,0.0002384185791015,13.532,69.2106399642684,1420,1424.0,39.60001005846358,0.6819978993447645,0.6971402329871695,0.6448845347981305,0.5531831133957495,0.5820653078266687,0.0176013263247068,0.0176013263247068,0.0176013263247068,0.0176013263247068,0.0176013263247068,13.501838886988258,13.501838886988258,13.501838886988258,13.501838886988258,13.501838886988258,E-W,0.0002384185791015,43.445,N-S,0.0002384185791015,32.568
20040106145000.knt,MIE0160401061450.UD,2004-01-06, 14:50:00,34.215,136.714,37,5.4,MIE016,33.8764,135.9188,63,2004-01-06, 14:51:07,100Hz,119,U-D,0.0002384185791015,12.389,82.37348734873633,1395,1395.0,23.24864891752824,0.7931870928753548,0.8116387948896556,0.7900108093413297,0.8300926609033032,0.8973814796814341,0.012082734996245,0.012082734996245,0.012082734996245,0.012082734996245,0.012082734996245,6.631119436399816,6.631119436399816,6.631119436399816,6.631119436399816,6.631119436399816,E-W,0.0002384185791015,19.205,N-S,0.0002384185791015,31.834
20040106145000.knt,MIE0170401061450.UD,2004-01-06, 14:50:00,34.215,136.714,37,5.4,MIE017,34.3624,136.3348,118,2004-01-06, 14:51:01,100Hz,119,U-D,0.0002384185791015,61.878,38.50019546348647,1462,1481.0,25.717529071010503,1.0740531262874229,1.1244326544294194,0.8634059911283823,0.3975512504694371,0.3692348578296343,0.0179346598025407,0.0179346598025407,0.0179346598025407,0.0095932194970098,0.0072257546056488,18.95097509755596,18.95097509755596,18.95097509755596,18.95097509755596,18.95097509755596,E-W,0.0002384185791015,387.767,N-S,0.0002384185791015,165.675
20040106145000.knt,NAR0010401061450.UD,2004-01-06, 14:50:00,34.215,136.714,37,5.4,NAR001,34.7154,135.7272,150,2004-01-06, 14:51:10,100Hz,119,U-D,0.0002384185791015,16.656,106.20766744090048,1411,1451.0,30.871767265947923,0.5062870760701891,0.4934181916491287,0.4990994780035681,0.5027393277229383,0.5086581632839587,0.0050732086902744,0.0050732086902744,0.0050732086902744,0.0050732086902744,0.0050732086902744,3.0913273619413224,3.0913273619413224,3.0913273619413224,3.0913273619413224,3.0913273619413224,E-W,0.0002384185791015,17.747,N-S,0.0002384185791015,18.837
20040106145000.knt,NAR0020401061450.UD,2004-01-06, 14:50:00,34.215,136.714,37,5.4,NAR002,34.6683,135.8352,90,2004-01-06, 14:51:13,100Hz,119,U-D,0.0002384185791015,8.898,95.05258003553246,980,997.0,28.83312247242769,1.096061080814423,1.12975585885153,0.9806272252970843,1.001346379747442,1.2025923405258905,0.0114375327807531,0.0114375327807531,0.0073869506373834,0.0073869506373834,0.0073869506373834,1.9376038724216276,1.9376038724216276,1.9376038724216276,1.9376038724216276,1.8793338621195956,E-W,0.0002384185791015,13.857,N-S,0.0002384185791015,24.397
20040106145000.knt,NAR0030401061450.UD,2004-01-06, 14:50:00,34.215,136.714,37,5.4,NAR003,34.5169,135.7191,68,2004-01-06, 14:51:18,100Hz,119,U-D,0.0002384185791015,6.512,97.29196886330816,443,451.0,26.478240090614044,5.525954890080283,4.545914599298293,3.892829173643355,3.920404723360412,5.005456915811693,0.0266734800506078,0.0266734800506078,0.0266734800506078,0.0266734800506078,0.0266734800506078,2.6400940321396056,2.6400940321396056,2.6400940321396056,2.6400940321396056,2.6400940321396056,E-W,0.0002384185791015,35.853,N-S,0.0002384185791015,20.615
20040106145000.knt,NAR0040401061450.UD,2004-01-06, 14:50:00,34.215,136.714,37,5.4,NAR004,34.528,135.9512,311,2004-01-06, 14:51:07,100Hz,119,U-D,0.0002384185791015,7.831,78.1831293895761,1339,1366.0,27.594811878352942,1.937117127296388,1.8850013713790188,1.5378862764733396,1.1218486999381696,0.5904380182020778,0.0094894180014594,0.0094894180014594,0.0081662884538855,0.0060504276363821,0.0050180236942365,4.214384621845221,4.214384621845221,4.214384621845221,3.370182980806275,3.336757433849263,E-W,0.0002384185791015,25.85,N-S,0.0002384185791015,28.274
20040106145000.knt,NAR0050401061450.UD,2004-01-06, 14:50:00,34.215,136.714,37,5.4,NAR005,34.3408,135.6883,105,2004-01-06, 14:51:09,100Hz,119,U-D,0.0002384185791015,14.586,95.27550250151477,1395,1394.0,39.51440204475415,0.6040038234880988,0.6092477059142348,0.5591572742996935,0.4111225915043029,0.3422879831654262,0.0082128284868509,0.0082128284868509,0.0082128284868509,0.0082128284868509,0.0082128284868509,5.018528222097629,5.018528222097629,5.018528222097629,5.018528222097629,5.018528222097629,E-W,0.0002384185791015,24.316,N-S,0.0002384185791015,45.64
20040106145000.knt,NAR0060401061450.UD,2004-01-06, 14:50:00,34.215,136.714,37,5.4,NAR006,34.3383,135.9541,330,2004-01-06, 14:51:05,100Hz,120,U-D,0.0002384185791015,26.766,71.15540983493051,1451,1455.0,46.96905556422077,1.579676568104365,1.401821949611315,1.019798251488507,0.47957020376145,0.2651368068084911,0.017787479876564,0.017787479876564,0.0158336328990599,0.0088863520593575,0.0057753793615094,9.982762861762255,9.982762861762255,9.982762861762255,9.982762861762255,9.982762861762255,E-W,0.0002384185791015,52.456,N-S,0.0002384185791015,71.235
20040106145000.knt,NAR0070401061450.UD,2004-01-06, 14:50:00,34.215,136.714,37,5.4,NAR007,34.2213,135.7369,760,2004-01-06, 14:51:08,100Hz,119,U-D,0.0002384185791015,7.91,89.8441524930486,1408,1407.0,40.78464573436081,1.7348170147012771,1.6610384303185557,1.3681096273639268,1.118390472049892,0.5129894841985125,0.0142715296216694,0.0142715296216694,0.0142715296216694,0.0116541562966908,0.0073907051242694,5.556000845481118,5.556000845481118,5.556000845481118,5.556000845481118,5.556000845481118,E-W,0.0002384185791015,26.253,N-S,0.0002384185791015,17.161
20040106145000.knt,NAR0080401061450.UD,2004-01-06, 14:50:00,34.215,136.714,37,5.4,NAR008,34.1352,136.0046,330,2004-01-06, 14:51:04,100Hz,119,U-D,0.0002384185791015,22.102,65.86110794037809,1473,1483.0,26.18960827365061,0.7108438288548028,0.671894794606971,0.6487291330882836,0.5888092065940459,0.4795933361635645,0.0122295970941973,0.0122295970941973,0.0122295970941973,0.0122295970941973,0.0122295970941973,20.306731320356523,20.306731320356523,20.306731320356523,20.306731320356523,20.306731320356523,E-W,0.0002384185791015,44.516,N-S,0.0002384185791015,55.927
20040106145000.knt,NAR0090401061450.UD,2004-01-06, 14:50:00,34.215,136.714,37,5.4,NAR009,33.938,135.7552,200,2004-01-06, 14:51:08,100Hz,119,U-D,0.0002384185791015,9.446,93.52405354737832,1437,1450.0,21.15121460953757,0.5462178009602845,0.5435585958920781,0.5525991882675585,0.5372393677353353,0.5230232124474936,0.0113454800127383,0.0113454800127383,0.0113454800127383,0.0113454800127383,0.0113454800127383,9.38531339997452,9.38531339997452,9.38531339997452,9.38531339997452,9.38531339997452,E-W,0.0002384185791015,18.379,N-S,0.0002384185791015,24.058
20040106145000.knt,OSK0070401061450.UD,2004-01-06, 14:50:00,34.215,136.714,37,5.4,OSK007,34.5577,135.6058,29,2004-01-06, 14:51:17,100Hz,119,U-D,0.0002384185791015,3.551,108.59664678949986,787,800.0,22.31396608454434,4.118469943229552,4.145757677849805,4.253140253878493,3.642428275417976,2.958244067062948,0.0222210006675587,0.0222210006675587,0.0222210006675587,0.0222210006675587,0.0222210006675587,2.227186876134471,2.227186876134471,2.227186876134471,2.227186876134471,2.227186876134471,E-W,0.0002384185791015,8.522,N-S,0.0002384185791015,9.04
20040106145000.knt,OSK0090401061450.UD,2004-01-06, 14:50:00,34.215,136.714,37,5.4,OSK009,34.4366,135.5816,209,2004-01-06, 14:51:23,100Hz,119,U-D,0.0002384185791015,2.135,106.86684258800712,136,176.0,13.326031221249576,2.268293183232829,2.2047171373078207,2.53238530783537,2.5878198057794486,2.347982141238373,0.0047162439751335,0.0047162439751335,0.0047162439751335,0.0047162439751335,0.0047162439751335,0.7116085349888892,0.7116085349888892,0.6233779722734583,0.6233779722734583,0.6233779722734583,E-W,0.0002384185791015,5.425,N-S,0.0002384185791015,7.242
20040106145000.knt,SIG0010401061450.UD,2004-01-06, 14:50:00,34.215,136.714,37,5.4,SIG001,35.5398,136.2065,141,2004-01-06, 14:51:16,100Hz,119,U-D,0.0002384185791015,5.017,154.413524400493,1403,1419.0,21.32764388447404,1.000549195703568,0.8747464908752587,0.7055546297717886,0.3555364125720986,0.299612754821652,0.006638363353558,0.006638363353558,0.006638363353558,0.0039653794607055,0.0039653794607055,5.032421316327672,5.032421316327672,5.032421316327672,5.032421316327672,5.032421316327672,E-W,0.0002384185791015,3.876,N-S,0.0002384185791015,3.809
20040106145000.knt,SIG0020401061450.UD,2004-01-06, 14:50:00,34.215,136.714,37,5.4,SIG002,35.4215,136.0243,95,2004-01-06, 14:51:16,100Hz,119,U-D,0.0002384185791015,3.981,148.19486486570764,1398,1396.0,27.26126463126065,1.13047715967197,1.1594046223355456,1.0692587757066363,1.0942262297807592,1.465417491856508,0.0070389783856921,0.0070389783856921,0.0070389783856921,0.0070389783856921,0.0070389783856921,3.9692698886794218,3.9692698886794218,3.9692698886794218,3.9692698886794218,3.9692698886794218,E-W,0.0002384185791015,4.626,N-S,0.0002384185791015,6.415
20040106145000.knt,SIG0040401061450.UD,2004-01-06, 14:50:00,34.215,136.714,37,5.4,SIG004,35.3476,135.9184,187,2004-01-06, 14:51:22,100Hz,119,U-D,0.0002384185791015,2.045,145.39557288741528,724,723.0,24.89906643493231,12.168485006657614,11.90010618482553,10.810773946602785,9.288529297321809,8.356595654976976,0.0201682184242022,0.0201682184242022,0.0201682184242022,0.0197352081144051,0.0149542104348111,2.047015496539238,2.047015496539238,2.047015496539238,2.047015496539238,1.3011723546016851,E-W,0.0002384185791015,3.576,N-S,0.0002384185791015,2.732
20040106145000.knt,SIG0050401061450.UD,2004-01-06, 14:50:00,34.215,136.714,37,5.4,SIG005,35.2493,136.2421,93,2004-01-06, 14:51:13,100Hz,119,U-D,0.0002384185791015,3.918,122.82735718671144,1373,1396.0,20.568375217726903,1.1235350468469816,1.1882612255838132,1.1817899412871882,1.2806741049206505,0.889803300244629,0.0126103602154977,0.0126103602154977,0.0126103602154977,0.0126103602154977,0.0083025441208162,3.884934723963702,3.884934723963702,3.884934723963702,3.884934723963702,3.19216771992728,E-W,0.0002384185791015,7.694,N-S,0.0002384185791015,7.888
20040106145000.knt,SIG0070401061450.UD,2004-01-06, 14:50:00,34.215,136.714,37,5.4,SIG007,35.1339,136.0957,90,2004-01-06, 14:51:18,100Hz,119,U-D,0.0002384185791015,2.343,116.77709653368868,770,797.0,24.30815409210907,1.2450893569680814,1.2803484586223903,1.2526559488962787,1.2208903616270774,2.200022962237393,0.0139130988299704,0.0139130988299704,0.0139130988299704,0.0139130988299704,0.0139130988299704,2.347608344237384,2.347608344237384,2.347608344237384,2.347608344237384,1.4608287068411203,E-W,0.0002384185791015,6.81,N-S,0.0002384185791015,7.141
20040106145000.knt,SIG0080401061450.UD,2004-01-06, 14:50:00,34.215,136.714,37,5.4,SIG008,35.0701,136.2946,218,2004-01-06, 14:51:11,100Hz,119,U-D,0.0002384185791015,3.599,102.53158146984106,1284,1316.0,27.56408717092395,1.480322544343622,1.517115866517292,1.355171843155775,1.418383610893717,1.2169739329883955,0.0112057402396392,0.0112057402396392,0.0112057402396392,0.0112057402396392,0.0112057402396392,3.59897229095736,3.59897229095736,3.59897229095736,3.59897229095736,2.5350007841753235,E-W,0.0002384185791015,8.68,N-S,0.0002384185791015,10.183
20040106145000.knt,SIG0090401061450.UD,2004-01-06, 14:50:00,34.215,136.714,37,5.4,SIG009,35.0051,136.0854,136,2004-01-06, 14:51:10,100Hz,119,U-D,0.0002384185791015,3.871,105.0135357808244,1391,1390.0,28.13498259217594,1.0835606121159804,1.141093888568166,1.1860655343539834,1.2845385228972517,1.8850484485958985,0.0109498469888959,0.0109498469888959,0.0109498469888959,0.0109498469888959,0.0109498469888959,2.88590289452853,2.88590289452853,2.88590289452853,2.88590289452853,2.88590289452853,E-W,0.0002384185791015,7.565,N-S,0.0002384185791015,7.526
20040106145000.knt,SIG0110401061450.UD,2004-01-06, 14:50:00,34.215,136.714,37,5.4,SIG011,34.8779,136.0587,283,2004-01-06, 14:51:08,100Hz,119,U-D,0.0002384185791015,12.448,95.05418767037864,1387,1413.0,31.20559171684033,0.4772707990127462,0.4573137391414543,0.4758318457136891,0.5372275785776917,0.4479170377929764,0.0075512105933359,0.0075512105933359,0.0075512105933359,0.0075512105933359,0.0068165965597305,9.498323579056422,9.498323579056422,9.498323579056422,9.498323579056422,9.498323579056422,E-W,0.0002384185791015,23.843,N-S,0.0002384185791015,28.658
20040106145000.knt,SIG0120401061450.UD,2004-01-06, 14:50:00,34.215,136.714,37,5.4,SIG012,34.9043,136.2307,230,2004-01-06, 14:51:08,100Hz,119,U-D,0.0002384185791015,6.538,88.50623599815196,1379,1376.0,36.86292453071725,1.1080322236666702,1.2067289457138513,1.2269874523353432,1.127691186113066,0.923075311979011,0.010259517948168,0.010259517948168,0.010259517948168,0.010259517948168,0.010259517948168,3.494308115523403,3.494308115523403,3.494308115523403,3.494308115523403,3.494308115523403,E-W,0.0002384185791015,14.449,N-S,0.0002384185791015,12.126
20040106145000.knt,SZO0250401061450.UD,2004-01-06, 14:50:00,34.215,136.714,37,5.4,SZO025,34.7194,137.5314,4,2004-01-06, 14:51:19,100Hz,119,U-D,0.0002384185791015,3.551,93.59936077195005,302,319.0,25.633086700008416,1.4179023337054188,1.843732887190502,1.999872499281564,2.250162074108061,2.981636721404372,0.0098131233786539,0.0098131233786539,0.0098131233786539,0.0098131233786539,0.0098131233786539,1.8463109744377249,1.4464634242617935,1.4464634242617935,1.4464634242617935,1.4283646344774397,E-W,0.0002384185791015,4.614,N-S,0.0002384185791015,6.64
20040106145000.knt,WKY0020401061450.UD,2004-01-06, 14:50:00,34.215,136.714,37,5.4,WKY002,34.2755,135.4305,59,2004-01-06, 14:51:12,100Hz,119,U-D,0.0002384185791015,3.371,118.167317711806,1404,1396.0,31.83679986433671,3.778989138138296,3.2198848243797924,2.1144255516743744,0.94639161312503,0.4021742050619136,0.0230909176284067,0.0230909176284067,0.019874239401266,0.0133369535556418,0.006209788648877,2.016489443196478,2.016489443196478,2.016489443196478,2.016489443196478,2.016489443196478,E-W,0.0002384185791015,7.84,N-S,0.0002384185791015,5.147
20040106145000.knt,WKY0040401061450.UD,2004-01-06, 14:50:00,34.215,136.714,37,5.4,WKY004,34.0838,135.4313,238,2004-01-06, 14:51:12,100Hz,120,U-D,0.0002384185791015,2.407,118.93433610405326,1392,428.0,9.73952506535359,1.411340052979752,1.267059724512649,1.1872057529890236,1.2152522068642198,1.2627241795190114,0.0078640999361124,0.0078640999361124,0.0078640999361124,0.0078640999361124,0.0078640999361124,2.4032449277769974,2.4032449277769974,2.4032449277769974,2.4032449277769974,2.4032449277769974,E-W,0.0002384185791015,4.725,N-S,0.0002384185791015,4.197
20040106145000.knt,WKY0050401061450.UD,2004-01-06, 14:50:00,34.215,136.714,37,5.4,WKY005,33.8938,135.4883,316,2004-01-06, 14:51:12,100Hz,119,U-D,0.0002384185791015,7.588,118.43127420286848,1367,1382.0,26.559506357945875,0.656278304574502,0.618139645239495,0.5928967760939239,0.5633584793262406,0.5628640258283772,0.0048208726492674,0.0048208726492674,0.0048208726492674,0.0048208726492674,0.0048208726492674,7.598234656629806,7.598234656629806,7.598234656629806,7.598234656629806,7.598234656629806,E-W,0.0002384185791015,17.834,N-S,0.0002384185791015,13.842
20040106145000.knt,WKY0070401061450.UD,2004-01-06, 14:50:00,34.215,136.714,37,5.4,WKY007,33.8375,135.7735,59,2004-01-06, 14:51:08,100Hz,119,U-D,0.0002384185791015,7.947,96.30202184134244,1469,1478.0,27.731969053005518,0.7139884567661409,0.7145497132521988,0.6879063944931799,0.6466439029565801,0.5072536030922558,0.0090406068576622,0.0090406068576622,0.0090406068576622,0.0090406068576622,0.0090406068576622,7.978432400846257,7.978432400846257,7.978432400846257,7.978432400846257,7.978432400846257,E-W,0.0002384185791015,17.47,N-S,0.0002384185791015,15.486
20040106145000.knt,WKY0090401061450.UD,2004-01-06, 14:50:00,34.215,136.714,37,5.4,WKY009,33.7209,135.9813,9,2004-01-06, 14:51:08,100Hz,119,U-D,0.0002384185791015,7.627,87.08660675840358,1363,1362.0,34.33107155506165,2.616352758474785,2.734232233818128,2.534367292091724,1.6244421287129738,0.8202251848212814,0.0167925189334084,0.0167925189334084,0.0167925189334084,0.0134694034696145,0.0072427193836416,4.152866359551294,4.152866359551294,4.152866359551294,4.152866359551294,4.152866359551294,E-W,0.0002384185791015,9.176,N-S,0.0002384185791015,8.793
20040106145000.knt,WKY0110401061450.UD,2004-01-06, 14:50:00,34.215,136.714,37,5.4,WKY011,33.5947,135.946,10,2004-01-06, 14:51:09,100Hz,119,U-D,0.0002384185791015,3.088,98.898270814259,1409,1423.0,21.88321594520061,0.9680621219165716,0.9309297795944644,0.8416659488058433,0.6888576300424705,0.4737586363776375,0.0045062903178418,0.0045062903178418,0.0045062903178418,0.0045062903178418,0.0033632610622817,3.0539277792444537,3.0539277792444537,3.0539277792444537,3.0539277792444537,3.0539277792444537,E-W,0.0002384185791015,2.354,N-S,0.0002384185791015,3.342
20040106145000.knt,WKY0130401061450.UD,2004-01-06, 14:50:00,34.215,136.714,37,5.4,WKY013,34.216,135.586,823,2004-01-06, 14:51:22,100Hz,119,U-D,0.0002384185791015,2.071,103.71941457911304,203,203.00000000000003,26.615189826433472,2.942958930305805,3.0312729561962946,3.045571536621303,2.784778880441103,2.633112997459989,0.014573301849743,0.014573301849743,0.014573301849743,0.014573301849743,0.014573301849743,2.062317353868871,2.062317353868871,2.062317353868871,2.062317353868871,2.062317353868871,E-W,0.0002384185791015,5.375,N-S,0.0002384185791015,8.158
20040106145000.knt,WKY0140401061450.UD,2004-01-06, 14:50:00,34.215,136.714,37,5.4,WKY014,33.7053,135.6397,430,2004-01-06, 14:51:11,100Hz,119,U-D,0.0002384185791015,9.059,114.14414236865868,1406,1418.0,20.31102940914212,0.526236693796988,0.4310815468208419,0.3502203089008998,0.3307650990836562,0.2944897685741297,0.0059298239401272,0.0059298239401272,0.0059298239401272,0.0059298239401272,0.0059298239401272,9.10583831893788,9.10583831893788,9.10583831893788,9.10583831893788,9.10583831893788,E-W,0.0002384185791015,14.385,N-S,0.0002384185791015,13.393
20040926203500.knt,WKY0010409262035.UD,2004-09-26, 20:35:00,34.151,135.244,3,3.1,WKY001,34.2288,135.1694,8,2004-09-26, 20:35:20,100Hz,60,U-D,0.0006340209495401,3.44,11.041755045132946,1413,0.0,0.0,0.2356637624981324,0.2347949116576595,0.2252918161438928,0.22679092629273,0.29032305146549,0.0022299217809177,0.0022299217809177,0.0022299217809177,0.0022299217809177,0.0005050129620842,3.416795833191249,3.416795833191249,3.416795833191249,3.416795833191249,1.4672279611909946,E-W,0.0006340209495401,6.599,N-S,0.0006340209495401,2.522
