earthquake name,records name,earthquake date,earthquake time,lat,long,depth,mag,stn_code,stn_lat,stn_long,stn_height,rcd_date,rcd_time,frequency,rcd_duration,direction,scale_factor,max_pga,epi_dist,pick_index_manually,pick_index_kalkan,snr_db_kalkan,tc_5sec,tc_4sec,tc_3sec,tc_2sec,tc_1sec,Pd_5sec,Pd_4sec,Pd_3sec,Pd_2sec,Pd_1sec,Pga_5sec,Pga_4sec,Pga_3sec,Pga_2sec,Pga_1sec,Channel,Scale_factor,PGA_ew,Channel.1,Scale_factor.1,PGA_ns
20030109131400.knt,FKS0310301091314.UD,2003-01-09, 13:14:00,36.42,141.129,47,4.7,FKS031,37.3364,140.8132,399,2003-01-09, 13:15:51,100Hz,119,U-D,0.0002384185791015,2.083,105.69943964633454,208.0,206.0,31.89217893186585,0.9980582277456456,0.9303218819965748,0.8632495642966654,0.880239588930725,1.036859755957402,0.0034677430122434,0.0034677430122434,0.0034677430122434,0.0034677430122434,0.0034677430122434,1.7646771784570825,1.7646771784570825,1.7646771784570825,1.7646771784570825,1.0440620297586949,E-W,0.0002384185791015,4.31,N-S,0.0002384185791015,5.391
20030109131400.knt,GNM0030301091314.UD,2003-01-09, 13:14:00,36.42,141.129,47,4.7,GNM003,36.6578,139.0784,462,2003-01-09, 13:15:52,100Hz,119,U-D,0.0002384185791015,1.436,185.09500274490415,1246.0,288.0,21.948605365545827,0.6803943885293868,0.659993352602722,0.5938247506819748,0.5409699311048529,0.5334086371505424,0.0031181518587564,0.0031181518587564,0.0031181518587564,0.0030650051145918,0.0022063648191232,1.4493706166818785,1.4493706166818785,1.4493706166818785,1.4493706166818785,1.253896288310057,E-W,0.0002384185791015,2.985,N-S,0.0002384185791015,2.943
20030109131400.knt,IBR0010301091314.UD,2003-01-09, 13:14:00,36.42,141.129,47,4.7,IBR001,36.7761,140.3569,105,2003-01-09, 13:15:36,100Hz,119,U-D,0.0002384185791015,10.963,79.49013877085997,1454.0,1454.0,37.51973449457834,0.5604866777201111,0.3973715357064631,0.3325740087428926,0.3419265209811809,0.3847757962576077,0.0141376529981516,0.0141376529981516,0.0141376529981516,0.0141376529981516,0.0141376529981516,8.169992392100612,8.169992392100612,8.169992392100612,8.169992392100612,8.169992392100612,E-W,0.0002384185791015,12.803,N-S,0.0002384185791015,12.064
20030109131400.knt,IBR0020301091314.UD,2003-01-09, 13:14:00,36.42,141.129,47,4.7,IBR002,36.7061,140.7068,9,2003-01-09, 13:15:32,100Hz,119,U-D,0.0002384185791015,19.733,49.3346224967394,1465.0,1464.0,41.729734884797,0.4071199794294481,0.410738854305089,0.4162692746109367,0.398662695377434,0.3846144761047676,0.013019603341772,0.013019603341772,0.013019603341772,0.013019603341772,0.013019603341772,8.668122328184532,8.668122328184532,8.668122328184532,8.668122328184532,8.668122328184532,E-W,0.0002384185791015,42.722,N-S,0.0002384185791015,56.419
20030109131400.knt,IBR0030301091314.UD,2003-01-09, 13:14:00,36.42,141.129,47,4.7,IBR003,36.5915,140.6453,58,2003-01-09, 13:15:32,100Hz,119,U-D,0.0002384185791015,22.295,47.25123682193536,1428.0,1428.0,33.820096834895985,1.0333656417545063,0.9768592199825912,0.7653764155125642,0.4025780585347506,0.2598743355109066,0.0155017309745115,0.0155017309745115,0.0134091050297367,0.0093372359036381,0.0093372359036381,7.94190402009833,7.071960743547881,7.071960743547881,7.071960743547881,7.071960743547881,E-W,0.0002384185791015,42.238,N-S,0.0002384185791015,47.144
20030109131400.knt,IBR0040301091314.UD,2003-01-09, 13:14:00,36.42,141.129,47,4.7,IBR004,36.5273,140.4094,51,2003-01-09, 13:15:39,100Hz,119,U-D,0.0002384185791015,10.828,65.4398750603154,973.0,989.0,23.23144065680038,5.756631809664992,6.514669379678449,7.247257438401751,7.751878894369242,7.150940038031448,0.0392914812274788,0.0392914812274788,0.0392914812274788,0.0392914812274788,0.0392914812274788,5.973774041798202,5.973774041798202,5.973774041798202,4.1522468264507975,2.9233886091927483,E-W,0.0002384185791015,26.26,N-S,0.0002384185791015,24.552
20030109131400.knt,IBR0050301091314.UD,2003-01-09, 13:14:00,36.42,141.129,47,4.7,IBR005,36.3851,140.2372,63,2003-01-09, 13:15:36,100Hz,119,U-D,0.0002384185791015,13.455,79.90757774181714,1433.0,1432.0,37.76879033366792,0.2905366840066142,0.2813219191814166,0.2346128816436856,0.1797031535045997,0.1769409425016512,0.0064560545002329,0.0064560545002329,0.0064560545002329,0.0064560545002329,0.0064560545002329,11.252658374005016,11.252658374005016,11.252658374005016,11.252658374005016,11.252658374005016,E-W,0.0002384185791015,30.32,N-S,0.0002384185791015,36.975
20030109131400.knt,IBR0060301091314.UD,2003-01-09, 13:14:00,36.42,141.129,47,4.7,IBR006,36.369,140.4528,20,2003-01-09, 13:15:34,100Hz,119,U-D,0.0002384185791015,10.313,60.789221230612846,1444.0,1444.0,38.5569399282358,0.3470279460329471,0.353844700501942,0.3588470978622718,0.3583234195814553,0.3688116515730382,0.0164309735259577,0.0164309735259577,0.0164309735259577,0.0164309735259577,0.0164309735259577,9.672746593897786,9.672746593897786,9.672746593897786,9.672746593897786,9.672746593897786,E-W,0.0002384185791015,28.319,N-S,0.0002384185791015,23.38
20030109131400.knt,IBR0070301091314.UD,2003-01-09, 13:14:00,36.42,141.129,47,4.7,IBR007,36.3523,140.5955,24,2003-01-09, 13:15:32,100Hz,119,U-D,0.0002384185791015,17.891,48.34641787467818,1472.0,1472.0,35.094775886167945,0.5160544850844981,0.4632260389453216,0.3779096362172187,0.3589885986194199,0.3705834154019691,0.0124194514052827,0.0124194514052827,0.0124194514052827,0.0124194514052827,0.0124194514052827,7.8135601418882255,7.8135601418882255,7.8135601418882255,7.8135601418882255,7.8135601418882255,E-W,0.0002384185791015,28.074,N-S,0.0002384185791015,37.575
20030109131400.knt,IBR0100301091314.UD,2003-01-09, 13:14:00,36.42,141.129,47,4.7,IBR010,36.1843,139.9653,23,2003-01-09, 13:15:51,100Hz,119,U-D,0.0002384185791015,5.821,107.52446907548004,281.0,278.0,23.231560116814126,3.5937232435363207,3.591892833915527,3.74460848441576,4.106002296624816,3.974538713571132,0.0174866707041445,0.0174866707041445,0.0174866707041445,0.0174866707041445,0.0174866707041445,1.892776057510076,1.892776057510076,1.892776057510076,1.892776057510076,1.892776057510076,E-W,0.0002384185791015,9.095,N-S,0.0002384185791015,11.685
20030109131400.knt,IBR0110301091314.UD,2003-01-09, 13:14:00,36.42,141.129,47,4.7,IBR011,36.1251,140.0903,26,2003-01-09, 13:15:38,100Hz,120,U-D,0.0002384185791015,4.613,98.7204601913531,1458.0,1453.0,26.605512001442406,0.5675511545315909,0.4577114763380592,0.3514517877807117,0.3198419603678203,0.3318151488510727,0.0054749405971727,0.0054749405971727,0.0054749405971727,0.0054749405971727,0.0054749405971727,3.1069622310116687,3.1069622310116687,3.1069622310116687,3.1069622310116687,3.1069622310116687,E-W,0.0002384185791015,10.828,N-S,0.0002384185791015,11.037
20030109131400.knt,IBR0120301091314.UD,2003-01-09, 13:14:00,36.42,141.129,47,4.7,IBR012,36.1901,140.2869,24,2003-01-09, 13:15:38,100Hz,119,U-D,0.0002384185791015,6.142,79.67221676083577,1210.0,1222.0,20.429442323633936,1.5650460985471042,1.0319987401280248,0.644569293352809,0.3543361448019799,0.369327325523718,0.0103191158007666,0.0055907390575821,0.0039569964104769,0.0029485525277849,0.0029485525277849,2.415212175508666,2.415212175508666,2.415212175508666,2.415212175508666,2.353213325267138,E-W,0.0002384185791015,12.875,N-S,0.0002384185791015,10.148
20030109131400.knt,IBR0130301091314.UD,2003-01-09, 13:14:00,36.42,141.129,47,4.7,IBR013,36.1587,140.4892,28,2003-01-09, 13:15:34,100Hz,119,U-D,0.0002384185791015,21.772,64.2842692906682,1476.0,1475.0,40.89116745462093,0.4300064062165595,0.4300929953591449,0.3912160679476067,0.3254527256740859,0.2987744706462452,0.015932031625704,0.015932031625704,0.015932031625704,0.015932031625704,0.015932031625704,10.112507988112542,10.112507988112542,10.112507988112542,10.112507988112542,10.112507988112542,E-W,0.0002384185791015,74.526,N-S,0.0002384185791015,83.057
20030109131400.knt,IBR0140301091314.UD,2003-01-09, 13:14:00,36.42,141.129,47,4.7,IBR014,36.0729,140.1947,11,2003-01-09, 13:15:46,100Hz,119,U-D,0.0002384185791015,12.87,92.24655164121612,573.0,567.0,28.776275660936136,6.050713279004064,5.904430830040027,4.538402859839084,2.718250771592638,0.9125204201188882,0.0231290496437398,0.0231290496437398,0.022898723946297,0.0168759441290348,0.0075427620036468,2.067440066262277,1.9453187020247515,1.9453187020247515,1.9453187020247515,1.8455506252692555,E-W,0.0002384185791015,25.211,N-S,0.0002384185791015,29.494
20030109131400.knt,IBR0150301091314.UD,2003-01-09, 13:14:00,36.42,141.129,47,4.7,IBR015,36.0693,139.908,14,2003-01-09, 13:15:54,100Hz,119,U-D,0.0002384185791015,6.041,116.2332902942057,1.0,89.0,15.12140676064698,8.896683251940203,9.298686246041928,8.017597789313571,5.037284550206186,2.298951606111306,0.0250689415845758,0.0250689415845758,0.0250689415845758,0.0229023619772688,0.0120334155196499,1.317261449619696,1.317261449619696,1.317261449619696,1.317261449619696,0.851506494250315,E-W,0.0002384185791015,11.673,N-S,0.0002384185791015,18.138
20030109131400.knt,IBR0160301091314.UD,2003-01-09, 13:14:00,36.42,141.129,47,4.7,IBR016,35.9112,140.0494,20,2003-01-09, 13:15:53,100Hz,119,U-D,0.0002384185791015,9.062,112.2189378236532,133.0,132.0,20.75849192442981,5.443299777399055,5.965312329860791,5.954532901214194,5.468156146005196,5.095037581259437,0.0253902232924271,0.0253902232924271,0.0253902232924271,0.0253902232924271,0.0225982984016644,3.191710062756106,3.191710062756106,3.191710062756106,3.191710062756106,2.7835824443324224,E-W,0.0002384185791015,16.456,N-S,0.0002384185791015,14.793
20030109131400.knt,IBR0170301091314.UD,2003-01-09, 13:14:00,36.42,141.129,47,4.7,IBR017,35.9537,140.3194,17,2003-01-09, 13:15:43,100Hz,119,U-D,0.0002384185791015,9.106,89.26058258593856,827.0,898.0,22.80142643685521,4.275636895311619,4.796392740103292,5.599392821777503,6.668415002573459,7.619279854480806,0.0090483521449208,0.0090483521449208,0.0090483521449208,0.0090483521449208,0.0090483521449208,1.6846695242019911,1.6846695242019911,1.6846695242019911,1.4904201375748007,1.113279451636252,E-W,0.0002384185791015,12.666,N-S,0.0002384185791015,11.992
20030109131400.knt,IBR0180301091314.UD,2003-01-09, 13:14:00,36.42,141.129,47,4.7,IBR018,35.977,140.6322,39,2003-01-09, 13:15:35,100Hz,119,U-D,0.0002384185791015,5.572,66.43576609872987,1409.0,1408.0,32.50984378539174,0.7778925786705307,0.7235353881210121,0.5469540491921517,0.4394901194843861,0.446394284384548,0.0055598139417537,0.0055598139417537,0.0052235762473696,0.0052235762473696,0.0052235762473696,3.146490906555185,3.146490906555185,3.146490906555185,3.146490906555185,3.146490906555185,E-W,0.0002384185791015,20.232,N-S,0.0002384185791015,20.349
20030109131400.knt,TCG0010301091314.UD,2003-01-09, 13:14:00,36.42,141.129,47,4.7,TCG001,36.9417,140.0828,255,2003-01-09, 13:15:54,100Hz,119,U-D,0.0002384185791015,1.909,109.85904536424236,61.0,59.0,31.67145128866261,1.6583184355139995,1.604047650031161,1.349888225607791,1.0921564557658472,0.8124352736698627,0.0099639954723773,0.0099639954723773,0.0099639954723773,0.0075318255773336,0.0051852977489702,1.8504865616524595,1.8504865616524595,1.8504865616524595,1.765931321689331,1.5560606958726773,E-W,0.0002384185791015,3.631,N-S,0.0002384185791015,2.825
20030109131400.knt,TCG0030301091314.UD,2003-01-09, 13:14:00,36.42,141.129,47,4.7,TCG003,36.8144,139.7153,398,2003-01-09, 13:15:45,100Hz,119,U-D,0.0002384185791015,0.914,133.57449814557577,1226.0,1237.0,19.82765949630988,4.873768813473941,4.7852408833826505,4.200700994401954,3.269676916440646,2.4955558458143385,0.0050350888685233,0.0050350888685233,0.0050350888685233,0.004834622708688,0.00223623872909,0.9170197602039708,0.9170197602039708,0.9170197602039708,0.9170197602039708,0.4358064886455789,E-W,0.0002384185791015,5.505,N-S,0.0002384185791015,4.156
20030109131400.knt,TCG0060301091314.UD,2003-01-09, 13:14:00,36.42,141.129,47,4.7,TCG006,36.7639,140.1297,122,2003-01-09, 13:15:39,100Hz,119,U-D,0.0002384185791015,4.311,97.0652407044672,1384.0,1378.0,35.6112506244538,0.951028693902488,0.8058834997933265,0.6696166818029132,0.523216562052988,0.5450493383565825,0.0085995405599751,0.0080482124877345,0.0080482124877345,0.0062206179475262,0.0062206179475262,4.365309461064619,4.365309461064619,4.365309461064619,3.423345406590145,2.9979878341022244,E-W,0.0002384185791015,4.96,N-S,0.0002384185791015,5.929
20030109131400.knt,TCG0120301091314.UD,2003-01-09, 13:14:00,36.42,141.129,47,4.7,TCG012,36.2859,139.8047,33,2003-01-09, 13:15:41,100Hz,119,U-D,0.0002384185791015,7.093,119.5294426188437,1469.0,1462.0,23.15470152828851,0.4020182984834757,0.3705799744548672,0.3070105456027223,0.308950395749316,0.2981478695537229,0.0089788345261557,0.0089788345261557,0.0089788345261557,0.0089788345261557,0.0089788345261557,7.1139129443830695,7.1139129443830695,7.1139129443830695,7.1139129443830695,7.1139129443830695,E-W,0.0002384185791015,10.567,N-S,0.0002384185791015,10.658
20030109131400.knt,TCG0130301091314.UD,2003-01-09, 13:14:00,36.42,141.129,47,4.7,TCG013,36.4368,140.0225,67,2003-01-09, 13:15:39,100Hz,119,U-D,0.0002384185791015,6.167,99.0127462082424,1402.0,1425.0,15.775184410175632,0.5279584163112899,0.5080973530401844,0.4529226570318966,0.4220062449118474,0.3998810615401274,0.0102716910893118,0.0102716910893118,0.0102716910893118,0.0102716910893118,0.0102716910893118,6.194035883623383,6.194035883623383,6.194035883623383,6.194035883623383,6.194035883623383,E-W,0.0002384185791015,14.415,N-S,0.0002384185791015,12.276
20030109131400.knt,TCG0140301091314.UD,2003-01-09, 13:14:00,36.42,141.129,47,4.7,TCG014,36.545,140.1742,130,2003-01-09, 13:15:37,100Hz,119,U-D,0.0002384185791015,11.267,86.48768626954099,1437.0,374.0,21.57029234543488,0.3946021878901869,0.3831972753340895,0.3460220801711001,0.3274716793730371,0.3035431810408169,0.0121605132452896,0.0121605132452896,0.0121605132452896,0.0121605132452896,0.0121605132452896,11.304230783887242,11.304230783887242,11.304230783887242,10.969426538981178,8.70235862659588,E-W,0.0002384185791015,27.383,N-S,0.0002384185791015,23.462
20030109222400.knt,FKS0010301092224.UD,2003-01-09, 22:24:00,37.346,141.584,44,4.6,FKS001,37.7949,140.9196,9,2003-01-09, 22:25:00,100Hz,119,U-D,0.0002384185791015,2.526,76.94337427765201,455.0,465.00000000000006,17.959877648361196,5.653865457881202,4.553826603560749,3.6722370706651,3.633488621966322,5.099347225668026,0.0153597457970939,0.0144886435626736,0.0144886435626736,0.0144886435626736,0.0144886435626736,2.519418462068064,2.519418462068064,2.519418462068064,2.519418462068064,1.3775466806047791,E-W,0.0002384185791015,3.674,N-S,0.0002384185791015,3.545
20030109222400.knt,FKS0050301092224.UD,2003-01-09, 22:24:00,37.346,141.584,44,4.6,FKS005,37.6385,140.9849,16,2003-01-09, 22:25:57,100Hz,119,U-D,0.0002384185791015,3.116,62.06123454519313,583.0,582.0,22.0602768245182,1.9099042160996684,1.9279383975964552,1.6195451574151596,0.9345814613398092,0.7070213922014769,0.0051655424031284,0.0051655424031284,0.0051655424031284,0.0032984974538123,0.0032984974538123,2.2915505016446462,2.2915505016446462,2.2915505016446462,2.2915505016446462,2.2915505016446462,E-W,0.0002384185791015,2.876,N-S,0.0002384185791015,7.696
20030109222400.knt,FKS0060301092224.UD,2003-01-09, 22:24:00,37.346,141.584,44,4.6,FKS006,37.5031,140.7588,472,2003-01-09, 22:25:00,100Hz,119,U-D,0.0002384185791015,2.72,74.93435659374602,444.0,442.0,30.995925076061248,6.832030303983297,7.566088990498914,6.368384331610228,3.186981042498988,1.5779407337522948,0.0221194063917825,0.0221194063917825,0.0221194063917825,0.015341621776121,0.0059192076151436,1.264247777273705,1.264247777273705,1.264247777273705,1.264247777273705,1.264247777273705,E-W,0.0002384185791015,7.202,N-S,0.0002384185791015,4.771
20030109222400.knt,FKS0070301092224.UD,2003-01-09, 22:24:00,37.346,141.584,44,4.6,FKS007,37.4061,140.9632,70,2003-01-09, 22:25:55,100Hz,119,U-D,0.0002384185791015,2.814,55.26127471534003,710.0,709.0,27.71962484359662,5.173043150901898,5.325423487427026,5.297746030396871,4.796459088339597,3.214946542240031,0.0167718211864369,0.0167718211864369,0.0167718211864369,0.0167718211864369,0.0144490994766507,2.4993088401493813,2.4993088401493813,2.4993088401493813,2.4993088401493813,2.29010367637689,E-W,0.0002384185791015,4.55,N-S,0.0002384185791015,5.475
20030109222400.knt,FKS0080301092224.UD,2003-01-09, 22:24:00,37.346,141.584,44,4.6,FKS008,37.4363,140.5668,430,2003-01-09, 22:25:03,100Hz,119,U-D,0.0002384185791015,1.965,90.42359956612644,335.0,334.0,28.74891017939531,5.44022655776126,5.6851138680278686,6.5285182825573855,7.328748633128371,7.727421323264764,0.0080795562545464,0.0080795562545464,0.0080795562545464,0.0080795562545464,0.0080795562545464,1.4970848594946875,1.3471519878525349,1.2913566477865182,1.2913566477865182,1.2913566477865182,E-W,0.0002384185791015,3.691,N-S,0.0002384185791015,3.853
20030109222400.knt,FKS0100301092224.UD,2003-01-09, 22:24:00,37.346,141.584,44,4.6,FKS010,37.2342,141.0016,50,2003-01-09, 22:25:55,100Hz,119,U-D,0.0002384185791015,1.663,53.00006927283631,712.0,711.0,24.584589735451363,8.96640387856893,8.640499880310996,8.10709552434918,6.453241029679212,4.90571361858758,0.0114579258232155,0.0114579258232155,0.0114579258232155,0.0096314741490851,0.0095621162744963,1.4723431621348362,1.4723431621348362,1.4723431621348362,1.4723431621348362,1.4723431621348362,E-W,0.0002384185791015,5.829,N-S,0.0002384185791015,7.838
20030109222400.knt,FKS0310301092224.UD,2003-01-09, 22:24:00,37.346,141.584,44,4.6,FKS031,37.3364,140.8132,399,2003-01-09, 22:25:58,100Hz,119,U-D,0.0002384185791015,2.035,68.15008186645021,556.0,552.0,29.864306788891973,2.530869127332463,2.672640596465789,2.786864525273141,2.4035318215724293,1.3231070191729262,0.0038532879054,0.0038532879054,0.0038532879054,0.0038532879054,0.0030369862625427,1.7041852167950342,1.7041852167950342,1.7041852167950342,1.7041852167950342,1.7041852167950342,E-W,0.0002384185791015,2.802,N-S,0.0002384185791015,2.85
20030109222400.knt,MYG0110301092224.UD,2003-01-09, 22:24:00,37.346,141.584,44,4.6,MYG011,38.2972,141.5043,30,2003-01-09, 22:25:04,100Hz,119,U-D,0.0002384185791015,3.946,106.00001639471051,402.0,428.0,26.62608350004241,8.067226464879532,8.520058149295178,10.251825845614707,11.87260489976194,13.51945759610744,0.0158614574285058,0.0158614574285058,0.0158614574285058,0.0158614574285058,0.0158614574285058,1.0612175063697789,1.0612175063697789,1.0612175063697789,1.041414007393333,0.8689415340000289,E-W,0.0002384185791015,15.868,N-S,0.0002384185791015,11.65
20030109222400.knt,MYG0150301092224.UD,2003-01-09, 22:24:00,37.346,141.584,44,4.6,MYG015,38.1049,140.8699,3,2003-01-09, 22:25:07,100Hz,120,U-D,0.0002384185791015,2.567,105.1915046951096,145.0,142.0,23.53015824953304,1.1848105246818854,1.223310574906677,1.2534383529310702,1.3171793830249514,1.1454335345001685,0.003726066260271,0.003726066260271,0.003726066260271,0.003726066260271,0.003726066260271,0.8946565959462045,0.8946565959462045,0.8946565959462045,0.8946565959462045,0.8946565959462045,E-W,0.0002384185791015,5.913,N-S,0.0002384185791015,8.511
20030109222400.knt,MYG0170301092224.UD,2003-01-09, 22:24:00,37.346,141.584,44,4.6,MYG017,37.9763,140.7818,35,2003-01-09, 22:25:05,100Hz,119,U-D,0.0002384185791015,2.204,99.49028012340254,265.0,257.0,21.69527351540626,0.5089854203098694,0.4150202293823957,0.3911644874699184,0.4036912576681832,0.4281452618356574,0.0015107824247289,0.0015107824247289,0.0015107824247289,0.0015107824247289,0.0015107824247289,1.0770618011468238,1.0770618011468238,1.0770618011468238,1.0770618011468238,1.0770618011468238,E-W,0.0002384185791015,6.835,N-S,0.0002384185791015,4.588
20030110170600.knt,SMN0010301101706.UD,2003-01-10, 17:06:00,35.405,133.252,9,3.3,SMN001,35.5372,133.1612,2,2003-01-10, 17:06:59,100Hz,119,U-D,0.0002384185791015,1.505,16.84343698944121,1198.0,1198.0,16.57321995260463,1.9858167844032228,2.0242954514618363,2.4368311837633576,3.856827534500408,3.938930198794378,0.0028604126931014,0.0028604126931014,0.0028604126931014,0.0028604126931014,0.0028604126931014,1.5128303658275624,1.5128303658275624,1.5128303658275624,1.5128303658275624,1.5128303658275624,E-W,0.0002384185791015,2.912,N-S,0.0002384185791015,4.111
