earthquake name,records name,earthquake date,earthquake time,lat,long,depth,mag,stn_code,stn_lat,stn_long,stn_height,rcd_date,rcd_time,frequency,rcd_duration,direction,scale_factor,max_pga,epi_dist,pick_index_manually,pick_index_kalkan,snr_db_kalkan,tc_5sec,tc_4sec,tc_3sec,tc_2sec,tc_1sec,Pd_5sec,Pd_4sec,Pd_3sec,Pd_2sec,Pd_1sec,Pga_5sec,Pga_4sec,Pga_3sec,Pga_2sec,Pga_1sec,Channel,Scale_factor,PGA_ew,Channel.1,Scale_factor.1,PGA_ns
20040926203500.knt,WKY0030409262035.UD,2004-09-26, 20:35:00,34.151,135.244,3,3.1,WKY003,34.0996,135.116,3,2004-09-26, 20:35:21,100Hz,60,U-D,0.0006340209495401,4.818,13.095289930669102,1313,0.0,0.0,0.2473163912857011,0.2489494157937759,0.2651837123748778,0.285830156929289,0.2472239785220203,0.0030957997391565,0.0030957997391565,0.0030957997391565,0.0021410025821181,0.0021410025821181,4.781809353037318,4.781809353037318,4.781809353037318,2.957009974391101,2.5442778434189366,E-W,0.0006340209495401,9.091,N-S,0.0006340209495401,15.588
20040926203500.knt,WKY0050409262035.UD,2004-09-26, 20:35:00,34.151,135.244,3,3.1,WKY005,33.8938,135.4883,316,2004-09-26, 20:35:28,100Hz,60,U-D,0.0006340209495401,0.431,36.39829534251248,1046,0.0,0.0,0.7505352596399469,0.7596704004114814,0.6461650102895061,0.8153186987115191,1.303927454480369,0.0004011055488742,0.000223805864176,0.0001561226592431,0.0001561226592431,0.0001561226592431,0.4317885439768606,0.3266439234622977,0.3266439234622977,0.3266439234622977,0.1784088549327654,E-W,0.0006340209495401,1.187,N-S,0.0006340209495401,1.732
20040926203500.knt,WKY0060409262035.UD,2004-09-26, 20:35:00,34.151,135.244,3,3.1,WKY006,33.8908,135.1524,3,2004-09-26, 20:35:26,100Hz,60,U-D,0.0006340209495401,1.899,30.13937153568641,1137,0.0,0.0,0.2004394102658546,0.2630632130744178,0.2586752561511647,0.196332588264898,0.2473510535363234,0.0014052363652651,0.0003139691742767,0.0002550447808196,0.0002550447808196,0.0001539379195633,1.9028216115088163,1.2343211045512692,0.922685724807756,0.922685724807756,0.6032174114030275,E-W,0.0006340209495401,2.772,N-S,0.0006340209495401,4.227
20040927161000.knt,GIF0070409271610.UD,2004-09-27, 16:10:00,35.82,137.589,5,2.9,GIF007,36.0378,137.4861,995,2004-09-27, 16:10:47,100Hz,60,U-D,0.0006340209495401,3.98,25.930006849663982,1198,0.0,0.0,0.1515859545224381,0.1417640644702186,0.2891636102810049,0.368473970262091,0.4331689516913888,0.0014152628325563,0.0014152628325563,0.0004544348230694,0.000305332940203,0.000305332940203,3.986414862169724,3.986414862169724,1.0891528941466453,0.4389666278041619,0.4136509135818485,E-W,0.0006340209495401,7.688,N-S,0.0006340209495401,4.192
20040927161000.knt,NGN0180409271610.UD,2004-09-27, 16:10:00,35.82,137.589,5,2.9,NGN018,35.8132,137.5295,1050,2004-09-27, 16:10:41,100Hz,60,U-D,0.0006340209495401,11.485,5.417977586307255,1459,0.0,0.0,0.2757026936388351,0.2755903614599695,0.2731914685121783,0.2637259566082665,0.3721212197158427,0.0060343593421454,0.0060343593421454,0.0060343593421454,0.0060343593421454,0.0028565554610254,11.584004197262669,11.584004197262669,11.584004197262669,11.584004197262669,4.748724327857302,E-W,0.0006340209495401,12.461,N-S,0.0006340209495401,21.832
20040927161000.knt,NGN0190409271610.UD,2004-09-27, 16:10:00,35.82,137.589,5,2.9,NGN019,35.8562,137.7078,788,2004-09-27, 16:10:43,100Hz,60,U-D,0.0006340209495401,10.742,11.440492415425563,1349,0.0,0.0,0.2698188708229023,0.2678602442809073,0.2618887213795364,0.25561922665329,0.2339737744968393,0.0051681598535605,0.0051681598535605,0.0051681598535605,0.0051681598535605,0.000680223683362,10.760901081377886,10.760901081377886,10.760901081377886,10.760901081377886,2.7647034672452726,E-W,0.0006340209495401,12.375,N-S,0.0006340209495401,19.137
20040927161600.knt,GIF0070409271616.UD,2004-09-27, 16:16:00,35.82,137.59,5,2.8,GIF007,36.0378,137.4861,995,2004-09-27, 16:16:28,100Hz,60,U-D,0.0006340209495401,1.368,25.96231509151379,1227,0.0,0.0,0.1906035556102274,0.1621064428022908,0.251095435849698,0.2632614679853777,0.1950905014948617,0.0005710974719616,0.0004603565621254,0.0002476500406596,0.0002476500406596,0.0002476500406596,1.3672797438487942,1.3672797438487942,0.4395355282232451,0.4395355282232451,0.4395355282232451,E-W,0.0006340209495401,2.26,N-S,0.0006340209495401,1.928
20040927161600.knt,NGN0180409271616.UD,2004-09-27, 16:16:00,35.82,137.59,5,2.8,NGN018,35.8132,137.5295,1050,2004-09-27, 16:16:22,100Hz,60,U-D,0.0006340209495401,8.777,5.507276896897156,1496,0.0,0.0,0.2651892244110035,0.2654984331267384,0.2640946938902962,0.2570534938925359,0.2385394182095483,0.0070526654675754,0.0070526654675754,0.0070526654675754,0.0070526654675754,0.0070526654675754,8.84884183214881,8.84884183214881,8.84884183214881,8.84884183214881,8.84884183214881,E-W,0.0006340209495401,15.858,N-S,0.0006340209495401,18.444
20040927161600.knt,NGN0190409271616.UD,2004-09-27, 16:16:00,35.82,137.59,5,2.8,NGN019,35.8562,137.7078,788,2004-09-27, 16:16:22,100Hz,60,U-D,0.0006340209495401,4.377,11.356157637392366,1582,0.0,0.0,0.2509892307873327,0.2502903326797865,0.2523734622357137,0.2414955724025256,0.1874778410006724,0.0025954025357851,0.0025954025357851,0.0025954025357851,0.0025954025357851,0.0006445144198481,4.3494903745384175,4.3494903745384175,4.3494903745384175,4.3494903745384175,1.9509618074772903,E-W,0.0006340209495401,5.49,N-S,0.0006340209495401,7.493
20040927161600.knt,NGN0220409271616.UD,2004-09-27, 16:16:00,35.82,137.59,5,2.8,NGN022,35.6079,137.6125,451,2004-09-27, 16:16:28,100Hz,60,U-D,0.0006340209495401,2.81,23.671766052554684,1203,0.0,0.0,0.2224420417888214,0.2401089824051537,0.3335740402230119,0.4391708403878824,0.5293641024066161,0.0005462359015614,0.0005462359015614,0.0003202124519891,0.0003127583963293,0.0002373175363522,2.817397036209088,2.817397036209088,1.71548468871603,0.9435978230856732,0.9435978230856732,E-W,0.0006340209495401,7.255,N-S,0.0006340209495401,6.339
20040927161600.knt,NGN0240409271616.UD,2004-09-27, 16:16:00,35.82,137.59,5,2.8,NGN024,35.5232,137.8374,538,2004-09-27, 16:16:33,100Hz,60,U-D,0.0006340209495401,1.552,39.85734811679671,1000,0.0,0.0,0.4992833258661622,0.7288381400795837,0.9346083347577068,0.8746172494890206,0.9397840666454664,0.0004093143408075,0.0004093143408075,0.0004093143408075,0.0004093143408075,0.0003611381144188,0.7828783502261979,0.5731942789727523,0.381757243811699,0.381757243811699,0.3141473799857061,E-W,0.0006340209495401,2.517,N-S,0.0006340209495401,2.991
20040929155600.knt,OKN0030409291556.UD,2004-09-29, 15:56:00,26.314,127.828,21,3.5,OKN003,26.38,127.8572,10,2004-09-29, 15:56:31,100Hz,119,U-D,0.0002384185791015,10.598,7.894605145325409,1469,0.0,0.0,2.1707762706500184,2.008433444403896,2.191637970931505,2.365157861518464,2.010924633318625,0.0153054684320077,0.0153054684320077,0.0153054684320077,0.0153054684320077,0.0153054684320077,10.576482822482696,10.576482822482696,10.576482822482696,10.576482822482696,10.576482822482696,E-W,0.0002384185791015,7.454,N-S,0.0002384185791015,6.758
20040929155600.knt,OKN0040409291556.UD,2004-09-29, 15:56:00,26.314,127.828,21,3.5,OKN004,26.2497,127.6786,4,2004-09-29, 15:56:32,100Hz,119,U-D,0.0002384185791015,11.252,16.52234787059983,1447,0.0,0.0,7.933298193058827,7.5381615015459165,6.182223068576908,3.9260690869104153,1.5084180560489422,0.0424034925765878,0.0424034925765878,0.0389376803981824,0.0290102030915532,0.0142602322230822,11.225487200719575,11.225487200719575,11.225487200719575,11.225487200719575,11.225487200719575,E-W,0.0002384185791015,13.39,N-S,0.0002384185791015,9.975
20040929155600.knt,OKN0050409291556.UD,2004-09-29, 15:56:00,26.314,127.828,21,3.5,OKN005,26.1686,127.8267,73,2004-09-29, 15:56:32,100Hz,119,U-D,0.0002384185791015,13.505,16.168262206424576,1459,0.0,0.0,0.3724642130466555,0.3791007978230933,0.4930273691487966,0.6056666835238573,0.6657866829048771,0.0057463818850286,0.0057463818850286,0.0030155811547914,0.0027388827142324,0.0027388827142324,13.526890927024624,13.526890927024624,6.439566573219743,6.439566573219743,6.439566573219743,E-W,0.0002384185791015,33.317,N-S,0.0002384185791015,22.236
20041001095900.knt,FKS0020410010959.UD,2004-10-01, 09:59:00,37.32,140.83,74,4.2,FKS002,37.8449,140.6013,42,2004-10-01, 09:59:59,100Hz,119,U-D,0.0002384185791015,2.961,61.7474415298369,374,0.0,0.0,5.834648219154432,4.786943140975327,4.232109303761779,4.5752718345143775,4.858775745793023,0.0094569336103613,0.0094569336103613,0.0094569336103613,0.0094569336103613,0.0094569336103613,2.961290310273267,2.961290310273267,2.961290310273267,2.961290310273267,2.961290310273267,E-W,0.0002384185791015,8.295,N-S,0.0002384185791015,9.63
20041001095900.knt,FKS0040410010959.UD,2004-10-01, 09:59:00,37.32,140.83,74,4.2,FKS004,37.6799,140.7346,488,2004-10-01, 09:59:47,100Hz,119,U-D,0.0002384185791015,10.958,40.89439233271834,1415,0.0,0.0,1.2443500674219663,1.1589907240511412,0.9006774338028632,0.490054232574171,0.2384738915773884,0.0059104436204508,0.0059104436204508,0.0059104436204508,0.0046952226788693,0.0039124573642533,10.998676962291194,10.998676962291194,10.998676962291194,10.998676962291194,10.998676962291194,E-W,0.0002384185791015,11.799,N-S,0.0002384185791015,11.938
20041001095900.knt,FKS0060410010959.UD,2004-10-01, 09:59:00,37.32,140.83,74,4.2,FKS006,37.5031,140.7588,472,2004-10-01, 09:59:46,100Hz,119,U-D,0.0002384185791015,11.758,21.3088220844018,1424,0.0,0.0,0.2707463456671108,0.2567599504942929,0.2083543508806682,0.1820595351324961,0.183882233389413,0.0042826691544148,0.0042826691544148,0.0042826691544148,0.0042826691544148,0.0042826691544148,11.768589578066091,11.768589578066091,11.768589578066091,11.768589578066091,11.768589578066091,E-W,0.0002384185791015,22.107,N-S,0.0002384185791015,20.92
20041001095900.knt,FKS0070410010959.UD,2004-10-01, 09:59:00,37.32,140.83,74,4.2,FKS007,37.4061,140.9632,70,2004-10-01, 09:59:53,100Hz,119,U-D,0.0002384185791015,4.584,15.173636119339864,663,0.0,0.0,10.56928589661656,11.357708183143645,10.038742147794022,8.284945145580492,5.956380359419279,0.015515019823948,0.015515019823948,0.0151558294259255,0.0134942210121815,0.0107042637668762,2.501908920897937,2.501908920897937,2.501908920897937,2.501908920897937,2.501908920897937,E-W,0.0002384185791015,13.498,N-S,0.0002384185791015,12.319
20041001095900.knt,FKS0080410010959.UD,2004-10-01, 09:59:00,37.32,140.83,74,4.2,FKS008,37.4363,140.5668,430,2004-10-01, 09:59:46,100Hz,119,U-D,0.0002384185791015,6.103,26.61015860214965,1419,0.0,0.0,1.1660197639470469,1.1835756633465,1.1336072531319568,0.9971001680922768,0.7525694446522655,0.0044798146832943,0.0044798146832943,0.0044798146832943,0.0044798146832943,0.004224025658473,4.939467457513151,4.939467457513151,4.939467457513151,4.939467457513151,4.939467457513151,E-W,0.0002384185791015,15.273,N-S,0.0002384185791015,12.995
20041001095900.knt,FKS0090410010959.UD,2004-10-01, 09:59:00,37.32,140.83,74,4.2,FKS009,37.2778,140.6349,440,2004-10-01, 09:59:46,100Hz,119,U-D,0.0002384185791015,11.457,17.883934443115017,1401,0.0,0.0,1.2232050037781057,1.2196574312637116,0.9427830757513496,0.496574758684944,0.4619179970811152,0.0030490802543752,0.0030490802543752,0.0029849592203635,0.0028188640380815,0.0028188640380815,2.846951027609881,2.846951027609881,2.846951027609881,2.846951027609881,2.846951027609881,E-W,0.0002384185791015,49.992,N-S,0.0002384185791015,32.724
20041001095900.knt,FKS0100410010959.UD,2004-10-01, 09:59:00,37.32,140.83,74,4.2,FKS010,37.2342,141.0016,50,2004-10-01, 09:59:55,100Hz,119,U-D,0.0002384185791015,4.988,17.931749034202422,517,0.0,0.0,7.189344393022288,5.925588551709029,4.272027851917667,2.7589399294471653,2.794395240961763,0.017845319026381,0.0164397450597111,0.0135264311415245,0.0102735436760811,0.0102735436760811,2.796485561959979,2.796485561959979,2.796485561959979,2.796485561959979,2.796485561959979,E-W,0.0002384185791015,10.848,N-S,0.0002384185791015,13.51
20041001095900.knt,FKS0110410010959.UD,2004-10-01, 09:59:00,37.32,140.83,74,4.2,FKS011,37.0911,140.9035,165,2004-10-01, 09:59:46,100Hz,119,U-D,0.0002384185791015,8.08,26.271717411244023,1424,0.0,0.0,1.5930355490992865,1.5097238375518918,1.363170379754547,1.136648271187637,0.734928033298137,0.005485808341248,0.005485808341248,0.005485808341248,0.005485808341248,0.0051332970092396,8.099377952151338,8.099377952151338,8.099377952151338,8.099377952151338,8.099377952151338,E-W,0.0002384185791015,7.992,N-S,0.0002384185791015,7.739
20041001095900.knt,FKS0130410010959.UD,2004-10-01, 09:59:00,37.32,140.83,74,4.2,FKS013,37.09,140.5563,320,2004-10-01, 09:59:54,100Hz,119,U-D,0.0002384185791015,4.66,35.23703193948347,688,0.0,0.0,5.4783198802312985,5.764327188531777,5.213102284017271,4.661806512802443,3.704601864995841,0.0074076562506445,0.0074076562506445,0.0074076562506445,0.0071395587869695,0.0059424854373394,2.002154999924385,1.9672318257910013,1.9672318257910013,1.9672318257910013,1.850834718676321,E-W,0.0002384185791015,12.768,N-S,0.0002384185791015,18.917
20041001095900.knt,FKS0170410010959.UD,2004-10-01, 09:59:00,37.32,140.83,74,4.2,FKS017,37.2842,140.3689,263,2004-10-01, 09:59:56,100Hz,119,U-D,0.0002384185791015,7.546,40.978132525276045,528,0.0,0.0,3.371531364622315,2.789806928205264,2.29250308948977,2.194608430191781,2.562211791621286,0.0096856912912008,0.0096856912912008,0.0096856912912008,0.0096856912912008,0.0096856912912008,2.771451585227544,2.771451585227544,2.771451585227544,2.771451585227544,2.771451585227544,E-W,0.0002384185791015,7.353,N-S,0.0002384185791015,7.755
20041001095900.knt,FKS0180410010959.UD,2004-10-01, 09:59:00,37.32,140.83,74,4.2,FKS018,37.3961,140.3622,245,2004-10-01, 09:59:47,100Hz,119,U-D,0.0002384185791015,4.656,42.20315598360475,1435,0.0,0.0,0.230125023400669,0.2211104519170262,0.2159937401176668,0.2060775716254907,0.1995492822638684,0.0034643266469616,0.0034643266469616,0.0034643266469616,0.0034643266469616,0.0034643266469616,4.676572964365246,4.676572964365246,4.676572964365246,4.676572964365246,4.676572964365246,E-W,0.0002384185791015,4.148,N-S,0.0002384185791015,6.096
20041001095900.knt,FKS0190410010959.UD,2004-10-01, 09:59:00,37.32,140.83,74,4.2,FKS019,37.603,140.4368,235,2004-10-01, 09:59:47,100Hz,119,U-D,0.0002384185791015,5.451,46.84716045762304,1438,0.0,0.0,4.030439665091755,3.7402665077143578,2.730871760672604,1.3798522738923251,0.3653124408562622,0.0110279337684162,0.0110279337684162,0.0105338648052008,0.0080029573645715,0.0024201621270585,5.474583664861116,5.474583664861116,5.474583664861116,5.474583664861116,5.474583664861116,E-W,0.0002384185791015,7.236,N-S,0.0002384185791015,7.836
20041001095900.knt,FKS0200410010959.UD,2004-10-01, 09:59:00,37.32,140.83,74,4.2,FKS020,37.5474,140.1078,516,2004-10-01, 09:59:50,100Hz,119,U-D,0.0002384185791015,4.154,68.5968762992422,1361,0.0,0.0,0.4602076659975272,0.3698067354078729,0.3420685396672204,0.3586340408686362,0.3700298537201998,0.0022656267730265,0.0022656267730265,0.0022656267730265,0.0022656267730265,0.0022656267730265,4.176063013043216,4.176063013043216,4.176063013043216,4.176063013043216,4.176063013043216,E-W,0.0002384185791015,1.933,N-S,0.0002384185791015,2.661
20041001095900.knt,FKS0230410010959.UD,2004-10-01, 09:59:00,37.32,140.83,74,4.2,FKS023,37.4774,139.9294,219,2004-10-01, 09:59:51,100Hz,119,U-D,0.0002384185791015,2.99,81.45786754496713,1417,0.0,0.0,2.287869963442883,2.290130820139217,2.1168130424048752,1.7055220524283814,0.9396359413917926,0.0075406799371779,0.0075406799371779,0.0075406799371779,0.0075406799371779,0.0047852002056455,2.993573379808692,2.993573379808692,2.993573379808692,2.993573379808692,2.993573379808692,E-W,0.0002384185791015,3.151,N-S,0.0002384185791015,2.062
20041001095900.knt,FKS0240410010959.UD,2004-10-01, 09:59:00,37.32,140.83,74,4.2,FKS024,37.3957,140.1325,527,2004-10-01, 09:59:59,100Hz,119,U-D,0.0002384185791015,1.756,62.2200691539124,380,0.0,0.0,3.815694571687149,3.0175696801146183,2.574022522527433,2.845036915393136,3.39198537685948,0.0072627345199703,0.0072627345199703,0.0072627345199703,0.0072627345199703,0.0072627345199703,1.4361962737831715,1.4361962737831715,1.4361962737831715,1.4361962737831715,1.4361962737831715,E-W,0.0002384185791015,5.374,N-S,0.0002384185791015,3.356
20041001095900.knt,IBR0020410010959.UD,2004-10-01, 09:59:00,37.32,140.83,74,4.2,IBR002,36.7061,140.7068,9,2004-10-01, 09:59:51,100Hz,119,U-D,0.0002384185791015,3.566,69.13343697548173,1204,0.0,0.0,1.0586264388016802,1.0132166844357484,0.8779176428551425,0.9890866545478132,1.4079831065934347,0.0025044883397197,0.0025044883397197,0.0025044883397197,0.0025044883397197,0.0025044883397197,1.390354150030873,1.390354150030873,1.390354150030873,1.390354150030873,1.390354150030873,E-W,0.0002384185791015,6.13,N-S,0.0002384185791015,5.518
20041001095900.knt,IBR0030410010959.UD,2004-10-01, 09:59:00,37.32,140.83,74,4.2,IBR003,36.5915,140.6453,58,2004-10-01, 09:59:50,100Hz,119,U-D,0.0002384185791015,7.049,82.65122528907892,1417,0.0,0.0,0.1922779145086369,0.1918181751975505,0.1899000023307885,0.1901243070593984,0.1915502245154963,0.0047422234326366,0.0047422234326366,0.0047422234326366,0.0047422234326366,0.0047422234326366,7.035923911318285,7.035923911318285,7.035923911318285,7.035923911318285,7.035923911318285,E-W,0.0002384185791015,12.793,N-S,0.0002384185791015,8.915
20041001095900.knt,IBR0040410010959.UD,2004-10-01, 09:59:00,37.32,140.83,74,4.2,IBR004,36.5273,140.4094,51,2004-10-01, 09:59:05,100Hz,119,U-D,0.0002384185791015,3.167,95.74571959136422,95,0.0,0.0,4.75497699973405,4.938892722406144,4.826715551508092,4.250730036824567,3.141667326957429,0.0138631401039441,0.0138631401039441,0.0138631401039441,0.013674272637727,0.0120903903178058,3.149034567269708,3.149034567269708,3.149034567269708,3.149034567269708,3.149034567269708,E-W,0.0002384185791015,9.224,N-S,0.0002384185791015,10.008
20041001095900.knt,IBR0050410010959.UD,2004-10-01, 09:59:00,37.32,140.83,74,4.2,IBR005,36.3851,140.2372,63,2004-10-01, 09:59:54,100Hz,119,U-D,0.0002384185791015,4.254,116.57077018888717,1372,0.0,0.0,0.6143801144190717,0.4298149454812825,0.4355167588211891,0.4475945520440449,0.4626214703217072,0.0036740611771727,0.0034853273850891,0.0034853273850891,0.0034853273850891,0.0034853273850891,4.21947301785999,4.21947301785999,4.21947301785999,4.21947301785999,4.21947301785999,E-W,0.0002384185791015,7.405,N-S,0.0002384185791015,6.681
20041001095900.knt,IBR0060410010959.UD,2004-10-01, 09:59:00,37.32,140.83,74,4.2,IBR006,36.369,140.4528,20,2004-10-01, 09:59:53,100Hz,119,U-D,0.0002384185791015,6.158,110.94528633159638,1451,0.0,0.0,0.4352343610233762,0.3587291215025462,0.3085552600768802,0.308566027222078,0.3276427697385249,0.0034081268805545,0.0034081268805545,0.0034081268805545,0.0034081268805545,0.0034081268805545,6.15037750710679,6.15037750710679,6.15037750710679,6.15037750710679,6.15037750710679,E-W,0.0002384185791015,5.504,N-S,0.0002384185791015,3.598
20041001095900.knt,IBR0070410010959.UD,2004-10-01, 09:59:00,37.32,140.83,74,4.2,IBR007,36.3523,140.5955,24,2004-10-01, 09:59:53,100Hz,119,U-D,0.0002384185791015,5.373,109.60830145159431,1409,0.0,0.0,0.329470319783908,0.3002347920281219,0.2529509514570113,0.2568348980347139,0.1953580440002888,0.0021037456752033,0.0021037456752033,0.0021037456752033,0.0021037456752033,0.0021037456752033,5.360357639543264,5.360357639543264,5.360357639543264,5.360357639543264,5.360357639543264,E-W,0.0002384185791015,6.473,N-S,0.0002384185791015,10.297
20041001095900.knt,IBR0190410010959.UD,2004-10-01, 09:59:00,37.32,140.83,74,4.2,IBR019,36.8808,140.6544,-9999,2004-10-01, 09:59:57,200Hz,137,U-D,0.0002384185791015,13.667,51.259748754270966,984,0.0,0.0,0.6716441912129454,0.683691685243658,0.5774821632495658,0.4675240028088366,0.4629911886475431,0.0104226070725253,0.0104226070725253,0.0104226070725253,0.0075850147156251,0.0051992399265183,4.986186590580337,4.986186590580337,4.986186590580337,4.986186590580337,2.2219810010985284,E-W,0.0002384185791015,22.887,N-S,0.0002384185791015,16.611
