earthquake name,records name,earthquake date,earthquake time,lat,long,depth,mag,stn_code,stn_lat,stn_long,stn_height,rcd_date,rcd_time,frequency,rcd_duration,direction,scale_factor,max_pga,epi_dist,pick_index_manually,pick_index_kalkan,snr_db_kalkan,tc_5sec,tc_4sec,tc_3sec,tc_2sec,tc_1sec,Pd_5sec,Pd_4sec,Pd_3sec,Pd_2sec,Pd_1sec,Pga_5sec,Pga_4sec,Pga_3sec,Pga_2sec,Pga_1sec,Channel,Scale_factor,PGA_ew,Channel.1,Scale_factor.1,PGA_ns
20050101051400.knt,IBR0120501010514.UD,2005-01-01, 05:14:00,36.783,140.982,89,5.0,IBR012,36.1901,140.2869,24,2005-01-01, 05:14:07,100Hz,119,U-D,0.0002384185791015,13.025,90.59786370123462,1461,0,0,1.0153783114828536,0.9442174995048772,0.876630328127074,0.7676364195459144,0.6006161952757253,0.0072619972054707,0.0072619972054707,0.0072619972054707,0.0072619972054707,0.0072619972054707,7.060454201811771,7.060454201811771,7.060454201811771,7.060454201811771,7.060454201811771,E-W,0.0002384185791015,16.866,N-S,0.0002384185791015,12.645
20050101051400.knt,IBR0140501010514.UD,2005-01-01, 05:14:00,36.783,140.982,89,5.0,IBR014,36.0729,140.1947,11,2005-01-01, 05:14:09,100Hz,119,U-D,0.0002384185791015,8.633,105.81084145853912,1418,0,0,0.4636426286980691,0.4668354907567028,0.4688400508953692,0.4714879465828314,0.4909896498649244,0.011565863558074,0.011565863558074,0.011565863558074,0.011565863558074,0.011565863558074,8.641085202857235,8.641085202857235,8.641085202857235,8.641085202857235,8.641085202857235,E-W,0.0002384185791015,20.336,N-S,0.0002384185791015,22.3
20050101051400.knt,IBR0170501010514.UD,2005-01-01, 05:14:00,36.783,140.982,89,5.0,IBR017,35.9537,140.3194,17,2005-01-01, 05:14:09,100Hz,119,U-D,0.0002384185791015,13.115,109.64907895426444,1452,0,0,0.4703303486957082,0.4729860274847577,0.499218896600605,0.5749058989982997,0.6983551557458375,0.0066305225110197,0.0066305225110197,0.0066305225110197,0.0066305225110197,0.0066305225110197,5.412895121232282,5.412895121232282,5.412895121232282,5.412895121232282,5.412895121232282,E-W,0.0002384185791015,30.567,N-S,0.0002384185791015,25.699
20050101051400.knt,IBR0180501010514.UD,2005-01-01, 05:14:00,36.783,140.982,89,5.0,IBR018,35.977,140.6322,39,2005-01-01, 05:14:09,100Hz,119,U-D,0.0002384185791015,7.005,94.93629287345767,1374,0,0,0.8085479310084719,0.6354636564778835,0.5324777353675509,0.4669829952807294,0.4236925193182157,0.007593823665368,0.0047611361222194,0.0043482627559618,0.0043482627559618,0.0043482627559618,4.520359166259992,4.520359166259992,4.520359166259992,4.520359166259992,4.520359166259992,E-W,0.0002384185791015,21.408,N-S,0.0002384185791015,19.552
20050101051400.knt,MYG0020501010514.UD,2005-01-01, 05:14:00,36.783,140.982,89,5.0,MYG002,38.7262,141.5109,79,2005-01-01, 05:14:26,100Hz,93,U-D,0.0006340209495401,4.456,221.01917612202428,950,0,0,1.236617588212906,1.3617738528937118,1.1708340357880156,1.3461277454018588,2.666850154085828,0.0008078593954572,0.0008078593954572,0.0007587782377672,0.0006415505349724,0.0006415505349724,0.8368922332444366,0.8368922332444366,0.6139515757365139,0.5420533377215526,0.153810610791993,E-W,0.0006340209495401,16.425,N-S,0.0006340209495401,17.435
20050101051400.knt,MYG0150501010514.UD,2005-01-01, 05:14:00,36.783,140.982,89,5.0,MYG015,38.1049,140.8699,3,2005-01-01, 05:14:14,100Hz,116,U-D,0.0006340209495401,9.011,147.321315631969,1334,0,0,0.4045432797093173,0.4112293358459055,0.3722621288145722,0.3462590284315356,0.3353997391286623,0.0019614054981656,0.0017534665688751,0.0011880664375485,0.0011880664375485,0.0011880664375485,1.6866430869304452,1.3198008938736832,1.3198008938736832,1.2517313426311096,1.2010216686471156,E-W,0.0006340209495401,34.004,N-S,0.0006340209495401,31.87
20050101051400.knt,MYG0160501010514.UD,2005-01-01, 05:14:00,36.783,140.982,89,5.0,MYG016,38.0085,140.621,50,2005-01-01, 05:14:20,100Hz,85,U-D,0.0006340209495401,5.24,139.9508960039559,671,0,0,20.498274734881484,19.7991865130454,17.118738952096876,12.648694559685522,7.716227597550239,0.1011399108192148,0.1011399108192148,0.1011399108192148,0.0957169273576133,0.0751840793951538,1.4767359179742536,1.4767359179742536,1.4767359179742536,1.4767359179742536,1.4767359179742536,E-W,0.0006340209495401,11.371,N-S,0.0006340209495401,11.763
20050101051400.knt,MYG0170501010514.UD,2005-01-01, 05:14:00,36.783,140.982,89,5.0,MYG017,37.9763,140.7818,35,2005-01-01, 05:14:15,100Hz,95,U-D,0.0006340209495401,7.738,133.86273168016783,1103,0,0,0.3914305371353343,0.4219726837690971,0.4180504755484009,0.4346752300746128,0.5120948679840178,0.0034391279332345,0.0034391279332345,0.0034391279332345,0.0034391279332345,0.0034391279332345,1.823199661000573,1.4474805629366776,1.4474805629366776,1.4474805629366776,1.4474805629366776,E-W,0.0006340209495401,21.113,N-S,0.0006340209495401,18.098
20050101051400.knt,SIT0040501010514.UD,2005-01-01, 05:14:00,36.783,140.982,89,5.0,SIT004,36.1179,139.1045,140,2005-01-01, 05:14:18,100Hz,119,U-D,0.0002384185791015,4.124,183.4865249211492,1377,0,0,2.166715156307201,2.136510816576787,1.7212594463228847,1.042080947933342,0.3057049595386327,0.0043460850173706,0.0043460850173706,0.0043109375388034,0.003660040808924,0.001620368482525,2.79325140587416,2.79325140587416,2.79325140587416,2.79325140587416,2.79325140587416,E-W,0.0002384185791015,8.999,N-S,0.0002384185791015,11.669
20050101051400.knt,TCG0010501010514.UD,2005-01-01, 05:14:00,36.783,140.982,89,5.0,TCG001,36.9417,140.0828,255,2005-01-01, 05:14:07,100Hz,119,U-D,0.0002384185791015,14.72,81.91995480349821,1436,0,0,0.4854677061548557,0.4807474974390218,0.470527278214686,0.4663764439391473,0.4641716903461763,0.0264253310938186,0.0264253310938186,0.0264253310938186,0.0264253310938186,0.0264253310938186,14.778852497967524,14.778852497967524,14.778852497967524,14.778852497967524,14.778852497967524,E-W,0.0002384185791015,15.108,N-S,0.0002384185791015,14.447
20050101051400.knt,TCG0020501010514.UD,2005-01-01, 05:14:00,36.783,140.982,89,5.0,TCG002,36.99,139.8033,618,2005-01-01, 05:14:10,100Hz,119,U-D,0.0002384185791015,4.113,107.32598357874592,1335,0,0,1.1086586600444992,1.1652397623476296,0.8591971651867114,0.564521380854387,0.5837493852967509,0.0052825559283433,0.0052825559283433,0.0045315772730589,0.0041043651314476,0.0041043651314476,2.53549469169628,2.53549469169628,2.53549469169628,2.53549469169628,2.53549469169628,E-W,0.0002384185791015,12.05,N-S,0.0002384185791015,8.394
20050101051400.knt,TCG0030501010514.UD,2005-01-01, 05:14:00,36.783,140.982,89,5.0,TCG003,36.8144,139.7153,398,2005-01-01, 05:14:10,100Hz,119,U-D,0.0002384185791015,2.283,112.83862259330884,1417,0,0,8.212124447428335,8.798468436476616,6.792829735892268,3.649970799019449,0.8133824141223851,0.0247342657475138,0.0247342657475138,0.0244077946268088,0.0179002830599937,0.005263450362343,1.562434151271175,1.562434151271175,1.562434151271175,1.562434151271175,1.562434151271175,E-W,0.0002384185791015,21.873,N-S,0.0002384185791015,24.76
20050101051400.knt,TCG0040501010514.UD,2005-01-01, 05:14:00,36.783,140.982,89,5.0,TCG004,36.8061,139.4204,1490,2005-01-01, 05:14:13,100Hz,119,U-D,0.0002384185791015,4.636,139.07266394734526,1473,0,0,0.6963304763575207,0.6714122080961835,0.5220340405185027,0.3819828771696658,0.3898697567128007,0.0063685933404159,0.0063685933404159,0.0063083747786399,0.0063083747786399,0.0063083747786399,4.417310395595096,4.417310395595096,4.417310395595096,4.417310395595096,4.417310395595096,E-W,0.0002384185791015,9.699,N-S,0.0002384185791015,7.889
20050101051400.knt,TCG0050501010514.UD,2005-01-01, 05:14:00,36.783,140.982,89,5.0,TCG005,36.8061,139.9264,197,2005-01-01, 05:14:08,100Hz,119,U-D,0.0002384185791015,4.027,94.0290370715824,1448,0,0,0.706859227804896,0.6776652143524552,0.6821663267026811,0.6944263059128989,0.6642448138234652,0.0092976806875137,0.0092976806875137,0.0092976806875137,0.0092976806875137,0.0092976806875137,3.960320053880639,3.960320053880639,3.960320053880639,3.960320053880639,3.960320053880639,E-W,0.0002384185791015,16.843,N-S,0.0002384185791015,15.058
20050101051400.knt,TCG0070501010514.UD,2005-01-01, 05:14:00,36.783,140.982,89,5.0,TCG007,36.5692,139.8861,138,2005-01-01, 05:14:09,100Hz,119,U-D,0.0002384185791015,6.537,100.58277214986492,1379,0,0,2.1687041841263603,2.2306613085777927,2.139479324775964,1.7960701925680782,1.1964567407473947,0.0233847213406886,0.0233847213406886,0.0233847213406886,0.0233847213406886,0.0233847213406886,5.107952987465719,5.107952987465719,5.107952987465719,5.107952987465719,5.107952987465719,E-W,0.0002384185791015,14.882,N-S,0.0002384185791015,11.261
20050101051400.knt,TCG0080501010514.UD,2005-01-01, 05:14:00,36.783,140.982,89,5.0,TCG008,36.56,139.7675,153,2005-01-01, 05:14:10,100Hz,119,U-D,0.0002384185791015,12.412,111.11805947301588,1392,0,0,0.4676535637019546,0.4733853516987066,0.4741902520486217,0.5099399471819736,0.5898642780810273,0.0158514426766913,0.0158514426766913,0.0158514426766913,0.0158514426766913,0.0158514426766913,5.420460146572829,5.420460146572829,5.420460146572829,5.420460146572829,5.164357606852558,E-W,0.0002384185791015,22.321,N-S,0.0002384185791015,22.373
20050101051400.knt,TCG0090501010514.UD,2005-01-01, 05:14:00,36.783,140.982,89,5.0,TCG009,36.7258,139.7155,361,2005-01-01, 05:14:10,100Hz,119,U-D,0.0002384185791015,35.941,113.0110904897089,1418,0,0,0.3227751785140358,0.2874078007523972,0.2438175561276803,0.2459463886123652,0.2607943602762317,0.0123658196304132,0.0123658196304132,0.0123658196304132,0.0123658196304132,0.0123658196304132,13.293689606441244,13.293689606441244,13.293689606441244,13.293689606441244,13.293689606441244,E-W,0.0002384185791015,126.217,N-S,0.0002384185791015,74.336
20050101051400.knt,TCG0100501010514.UD,2005-01-01, 05:14:00,36.783,140.982,89,5.0,TCG010,36.6347,139.4376,640,2005-01-01, 05:14:13,100Hz,119,U-D,0.0002384185791015,7.392,138.6551200130175,1415,0,0,2.8311168632852595,2.8165340242267787,2.178735100856456,1.0628271734690706,0.3612697960062762,0.0158368970320469,0.0158368970320469,0.0155245485953502,0.0108287181778364,0.0036900493832189,4.955993612201168,4.955993612201168,4.955993612201168,4.955993612201168,4.955993612201168,E-W,0.0002384185791015,2.144,N-S,0.0002384185791015,17.423
20050101051400.knt,TCG0110501010514.UD,2005-01-01, 05:14:00,36.783,140.982,89,5.0,TCG011,36.3867,139.6145,93,2005-01-01, 05:14:12,100Hz,119,U-D,0.0002384185791015,5.744,129.80667903003297,1382,0,0,2.0081607865126467,2.1429192263323777,1.8717658930365664,1.050781032965409,0.655728387124022,0.0069084029222164,0.0069084029222164,0.0069084029222164,0.0053964152140543,0.0037129608986403,3.112231464933599,3.112231464933599,3.112231464933599,3.112231464933599,2.836657916438714,E-W,0.0002384185791015,7.977,N-S,0.0002384185791015,9.074
20050101051400.knt,TCG0120501010514.UD,2005-01-01, 05:14:00,36.783,140.982,89,5.0,TCG012,36.2859,139.8047,33,2005-01-01, 05:14:11,100Hz,119,U-D,0.0002384185791015,9.275,118.82371665295052,1369,0,0,0.8954926323267727,0.858112392310419,0.8524114993257023,0.8390132238832754,0.5978979332704866,0.0058021479829656,0.0058021479829656,0.0058021479829656,0.0058021479829656,0.0058021479829656,4.957286796615348,4.957286796615348,4.957286796615348,4.957286796615348,4.957286796615348,E-W,0.0002384185791015,12.552,N-S,0.0002384185791015,12.649
20050101051400.knt,TCG0130501010514.UD,2005-01-01, 05:14:00,36.783,140.982,89,5.0,TCG013,36.4368,140.0225,67,2005-01-01, 05:14:08,100Hz,119,U-D,0.0002384185791015,23.376,93.89617883983638,1401,0,0,0.5967334148006246,0.5910179292008003,0.5720041230066167,0.5228977390581367,0.453487401864712,0.0127179866133256,0.0127179866133256,0.0127179866133256,0.0127179866133256,0.0127179866133256,23.26958200797523,23.26958200797523,23.26958200797523,23.26958200797523,23.26958200797523,E-W,0.0002384185791015,26.806,N-S,0.0002384185791015,16.339
20050101051400.knt,TCG0140501010514.UD,2005-01-01, 05:14:00,36.783,140.982,89,5.0,TCG014,36.545,140.1742,130,2005-01-01, 05:14:06,100Hz,119,U-D,0.0002384185791015,31.744,76.75791812867207,1481,0,0,0.563754194346889,0.5293519360512214,0.4161451761222906,0.2892257499924806,0.2625128067684764,0.0271946277712977,0.0271946277712977,0.0271946277712977,0.0271946277712977,0.0271946277712977,31.78561855723987,31.78561855723987,31.78561855723987,31.78561855723987,31.78561855723987,E-W,0.0002384185791015,69.568,N-S,0.0002384185791015,44.984
20050101051400.knt,TKY0070501010514.UD,2005-01-01, 05:14:00,36.783,140.982,89,5.0,TKY007,35.7107,139.6859,34,2005-01-01, 05:14:17,100Hz,119,U-D,0.0002384185791015,2.798,166.50776526946672,1372,0,0,0.6722612207572258,0.6266769874958766,0.5972904989205194,0.489392250015953,0.4034382006583789,0.0043075837163608,0.0043075837163608,0.0043075837163608,0.0043075837163608,0.0043075837163608,2.7890221827047665,2.7890221827047665,2.7890221827047665,2.7890221827047665,2.7890221827047665,E-W,0.0002384185791015,5.494,N-S,0.0002384185791015,3.394
20050101051400.knt,YMT0070501010514.UD,2005-01-01, 05:14:00,36.783,140.982,89,5.0,YMT007,38.4306,140.3907,120,2005-01-01, 05:14:24,100Hz,119,U-D,0.0002384185791015,2.589,190.4641924868664,875,0,0,1.1947550957814994,1.4576073526572062,1.4292795364935282,1.234971907249443,0.9554955584914596,0.0025376566326235,0.0024181833747081,0.0024181833747081,0.0022706808000167,0.0022706808000167,1.2333958596700798,1.2333958596700798,1.2333958596700798,1.2333958596700798,1.2333958596700798,E-W,0.0002384185791015,4.925,N-S,0.0002384185791015,3.48
20050102013000.knt,GIF0020501020130.UD,2005-01-02, 01:30:00,35.865,137.577,6,4.2,GIF002,36.2734,137.0253,570,2005-01-02, 01:30:46,100Hz,60,U-D,0.0006340209495401,0.943,67.23871170558928,718,0,0,0.6855774108929326,0.7101970376113541,0.6353694053985357,0.5042719100838136,0.452507576637779,0.0007059698568171,0.0007059698568171,0.0007059698568171,0.0007059698568171,0.0005852127193634,0.7090103838892166,0.7090103838892166,0.7090103838892166,0.7090103838892166,0.7090103838892166,E-W,0.0006340209495401,2.937,N-S,0.0006340209495401,3.914
20050102013000.knt,GIF0030501020130.UD,2005-01-02, 01:30:00,35.865,137.577,6,4.2,GIF003,36.3322,137.3014,405,2005-01-02, 01:30:43,100Hz,60,U-D,0.0006340209495401,2.269,57.54959352403552,846,0,0,2.6971882015468367,2.693514330185229,2.529273472646921,2.5705755117896536,3.240094806994428,0.0017903907926897,0.0017903907926897,0.0017903907926897,0.0016942441954223,0.0015751639450838,1.3659964784351015,1.3659964784351015,1.3659964784351015,1.3587639815551509,1.0865081301789168,E-W,0.0006340209495401,6.201,N-S,0.0006340209495401,5.816
20050102013000.knt,GIF0040501020130.UD,2005-01-02, 01:30:00,35.865,137.577,6,4.2,GIF004,36.2492,137.5174,810,2005-01-02, 01:30:39,100Hz,60,U-D,0.0006340209495401,3.058,43.05572786486834,1020,0,0,3.467634243759064,3.903996384973559,4.2821184681255895,5.713731499763122,7.477460212394645,0.0032545556719447,0.0032545556719447,0.0032545556719447,0.0032545556719447,0.0032545556719447,0.8099658453919879,0.6820742108296067,0.6820742108296067,0.6316196684369715,0.5273540485572401,E-W,0.0006340209495401,3.931,N-S,0.0006340209495401,6.022
20050102013000.knt,GIF0050501020130.UD,2005-01-02, 01:30:00,35.865,137.577,6,4.2,GIF005,36.1536,137.2514,562,2005-01-02, 01:30:40,100Hz,60,U-D,0.0006340209495401,2.102,43.445937355669535,933,0,0,7.464390110590335,8.71753147369468,9.272256286323612,9.27669779932,7.814617461186613,0.0076722084263578,0.0076722084263578,0.0076722084263578,0.0076722084263578,0.0076722084263578,2.105650273538269,1.0642568944208688,1.0642568944208688,1.0642568944208688,1.0642568944208688,E-W,0.0006340209495401,4.107,N-S,0.0006340209495401,3.228
20050102013000.knt,GIF0070501020130.UD,2005-01-02, 01:30:00,35.865,137.577,6,4.2,GIF007,36.0378,137.4861,995,2005-01-02, 01:30:30,100Hz,70,U-D,0.0006340209495401,28.274,20.88410417210068,1540,0,0,0.1768891392277583,0.1614013909610292,0.1588725749587379,0.1775558339020156,0.1798204277173269,0.0125770212725493,0.0125770212725493,0.0125770212725493,0.0031490355810506,0.0022375653636043,28.2605242709894,28.2605242709894,28.2605242709894,6.7661800876509774,3.947376023845234,E-W,0.0006340209495401,51.062,N-S,0.0006340209495401,38.288
20050102013000.knt,GIF0080501020130.UD,2005-01-02, 01:30:00,35.865,137.577,6,4.2,GIF008,35.9515,137.26,522,2005-01-02, 01:30:36,100Hz,60,U-D,0.0006340209495401,3.104,30.126649033725425,1108,0,0,1.051922591998566,1.0923411308568307,1.1575072938609974,1.065070726862514,0.9030386313991406,0.0030924768887195,0.0030924768887195,0.0030924768887195,0.0030924768887195,0.0030924768887195,3.110980563273575,3.110980563273575,3.110980563273575,3.110980563273575,3.110980563273575,E-W,0.0006340209495401,7.478,N-S,0.0006340209495401,4.44
20050102013000.knt,GIF0100501020130.UD,2005-01-02, 01:30:00,35.865,137.577,6,4.2,GIF010,35.8029,137.245,362,2005-01-02, 01:30:32,100Hz,60,U-D,0.0006340209495401,4.86,30.715248574986163,1527,0,0,0.3605804279456251,0.4704055435033758,0.3004422653583151,0.2822484822729444,0.2732731469455348,0.0036611333958326,0.0024987576690771,0.0017691392277292,0.0017691392277292,0.0017691392277292,4.816370324811603,3.665846114657143,3.665846114657143,3.665846114657143,3.665846114657143,E-W,0.0006340209495401,6.827,N-S,0.0006340209495401,10.331
20050102013000.knt,GIF0110501020130.UD,2005-01-02, 01:30:00,35.865,137.577,6,4.2,GIF011,35.7593,136.9808,245,2005-01-02, 01:30:42,100Hz,60,U-D,0.0006340209495401,1.28,55.03044846189465,917,0,0,1.7919628615812158,1.6773938871777152,1.5616865706337273,1.44558579821622,1.1993100876027456,0.0010107166689502,0.0010107166689502,0.0010107166689502,0.0010107166689502,0.0010107166689502,1.284144590915129,1.284144590915129,1.284144590915129,1.284144590915129,1.284144590915129,E-W,0.0006340209495401,4.355,N-S,0.0006340209495401,3.964
20050102013000.knt,GIF0130501020130.UD,2005-01-02, 01:30:00,35.865,137.577,6,4.2,GIF013,35.6637,137.1617,230,2005-01-02, 01:30:40,100Hz,60,U-D,0.0006340209495401,1.753,43.64747393680427,931,0,0,9.111212935949792,10.21786724550956,10.982037910175416,12.198279469612505,12.58074080548745,0.0039225796751408,0.0039225796751408,0.0039225796751408,0.0039225796751408,0.0039225796751408,1.127483618533573,1.127483618533573,1.127483618533573,1.127483618533573,1.127483618533573,E-W,0.0006340209495401,4.386,N-S,0.0006340209495401,3.576
20050102013000.knt,GIF0150501020130.UD,2005-01-02, 01:30:00,35.865,137.577,6,4.2,GIF015,35.5454,136.9072,96,2005-01-02, 01:30:47,100Hz,60,U-D,0.0006340209495401,0.882,70.14682999768911,686,0,0,0.9057970201677384,0.9714832093859448,0.8421289559552013,0.5889580000425716,0.4739282141346387,0.0003554011315856,0.0003554011315856,0.0003554011315856,0.0002555610762106,0.0001995492257256,0.4548780330709869,0.4548780330709869,0.4548780330709869,0.4548780330709869,0.4548780330709869,E-W,0.0006340209495401,2.193,N-S,0.0006340209495401,1.279
20050102013000.knt,GIF0180501020130.UD,2005-01-02, 01:30:00,35.865,137.577,6,4.2,GIF018,35.4887,137.5,320,2005-01-02, 01:30:39,100Hz,60,U-D,0.0006340209495401,1.488,42.41674427363469,999,0,0,0.4892832894026059,0.490404444679754,0.5521189012758395,0.4992487378297107,0.5122096305790709,0.0007200254878694,0.0007200254878694,0.0007200254878694,0.0006430634154212,0.0004383239132078,0.9450705440443424,0.9450705440443424,0.7168064423238297,0.7060043842106625,0.5957708073091226,E-W,0.0006340209495401,3.873,N-S,0.0006340209495401,3.523
20050102013000.knt,GIF0260501020130.UD,2005-01-02, 01:30:00,35.865,137.577,6,4.2,GIF026,35.5912,136.7414,145,2005-01-02, 01:30:50,100Hz,60,U-D,0.0006340209495401,1.451,81.33994829337072,561,0,0,4.9799909046850015,4.312833750105451,3.1455141346894178,1.8370702638267984,0.6318764119039808,0.0028204807961772,0.0028204807961772,0.0026662837690639,0.0019377597514296,0.0007912168378883,1.4537777358654345,1.4537777358654345,1.4537777358654345,1.4537777358654345,1.4537777358654345,E-W,0.0006340209495401,1.999,N-S,0.0006340209495401,2.35
