earthquake name,records name,earthquake date,earthquake time,lat,long,depth,mag,stn_code,stn_lat,stn_long,stn_height,rcd_date,rcd_time,frequency,rcd_duration,direction,scale_factor,max_pga,epi_dist,pick_index_manually,pick_index_kalkan,snr_db_kalkan,tc_5sec,tc_4sec,tc_3sec,tc_2sec,tc_1sec,Pd_5sec,Pd_4sec,Pd_3sec,Pd_2sec,Pd_1sec,Pga_5sec,Pga_4sec,Pga_3sec,Pga_2sec,Pga_1sec,Channel,Scale_factor,PGA_ew,Channel.1,Scale_factor.1,PGA_ns
20000530232800.knt,FKS0170005302328.UD,2000-05-30, 23:28:00,37.026,141.265,53,4.3,FKS017,37.2842,140.3689,263,2000-05-30, 23:28:04,100Hz,119,U-D,0.0002384185791015,3.036,84.44486539667162,1410,29.0,11.40551829874891,3.1259938054428287,2.953132707937523,2.390287956400934,1.423756121006989,0.478372284588363,0.0126031274745142,0.0126031274745142,0.0125330668972482,0.0106050161450099,0.0051733683056057,2.99968771851452,2.99968771851452,2.99968771851452,2.99968771851452,2.99968771851452,E-W,0.0002384185791015,2.204,N-S,0.0002384185791015,2.576
20000530232800.knt,FKS0180005302328.UD,2000-05-30, 23:28:00,37.026,141.265,53,4.3,FKS018,37.3961,140.3622,245,2000-05-30, 23:28:04,100Hz,119,U-D,0.0002384185791015,4.376,89.91874969138206,1467,1478.0,18.86708838760805,0.2580064243750639,0.2544235904627812,0.2554048466560369,0.2555348008651196,0.245702600520242,0.0038450018682094,0.0038450018682094,0.0038450018682094,0.0038450018682094,0.0038450018682094,4.381406319026182,4.381406319026182,4.381406319026182,4.381406319026182,4.381406319026182,E-W,0.0002384185791015,4.078,N-S,0.0002384185791015,2.648
20000530232800.knt,FKS0190005302328.UD,2000-05-30, 23:28:00,37.026,141.265,53,4.3,FKS019,37.603,140.4368,235,2000-05-30, 23:28:16,100Hz,119,U-D,0.0002384185791015,3.302,97.36897991467488,325,335.0,25.44321105926795,2.78235299994861,2.7983224859340265,2.904813461842184,3.0720840649749444,3.24720932133603,0.0058438417898791,0.0058438417898791,0.0058438417898791,0.0058438417898791,0.0058438417898791,1.6997686869039224,1.6997686869039224,1.6997686869039224,1.6997686869039224,1.2359707781166838,E-W,0.0002384185791015,5.997,N-S,0.0002384185791015,6.57
20000530232800.knt,FKS0310005302328.UD,2000-05-30, 23:28:00,37.026,141.265,53,4.3,FKS031,37.3364,140.8132,399,2000-05-30, 23:28:00,100Hz,119,U-D,0.0002384185791015,13.169,52.85205724259495,1408,1408.0,39.17804461671039,0.5755455743805694,0.5674330052831996,0.5212596172588707,0.3256223082533516,0.1989888815069661,0.0033848416976236,0.0033848416976236,0.0033848416976236,0.0033848416976236,0.0033848416976236,9.157586634377916,9.157586634377916,9.157586634377916,9.157586634377916,9.157586634377916,E-W,0.0002384185791015,19.561,N-S,0.0002384185791015,16.107
20000530232800.knt,IBR0010005302328.UD,2000-05-30, 23:28:00,37.026,141.265,53,4.3,IBR001,36.7761,140.3569,105,2000-05-30, 23:28:14,100Hz,119,U-D,0.0002384185791015,3.37,85.39498659518539,411,448.00000000000006,13.694986585319874,2.522294220747873,2.730532544250327,3.029819175826596,3.565229455096999,3.9462171010905744,0.0042070187405182,0.0042070187405182,0.0042070187405182,0.0042070187405182,0.0042070187405182,0.949586590562844,0.8610158890529035,0.8610158890529035,0.8610158890529035,0.8610158890529035,E-W,0.0002384185791015,3.738,N-S,0.0002384185791015,3.206
20000530232800.knt,IBR0020005302328.UD,2000-05-30, 23:28:00,37.026,141.265,53,4.3,IBR002,36.7061,140.7068,9,2000-05-30, 23:28:09,100Hz,119,U-D,0.0002384185791015,1.995,61.08336911661653,615,635.0,24.78908034829906,1.1818549926997373,1.4993902369058512,1.3568353595234175,0.882967225974498,1.1597339379722578,0.0019121071817616,0.0011581490157086,0.0011581490157086,0.0007034310757092,0.0007034310757092,0.6133450732808775,0.509581610544035,0.509581610544035,0.509581610544035,0.3023581979996457,E-W,0.0002384185791015,3.989,N-S,0.0002384185791015,4.304
20000530232800.knt,IBR0030005302328.UD,2000-05-30, 23:28:00,37.026,141.265,53,4.3,IBR003,36.5915,140.6453,58,2000-05-30, 23:28:07,100Hz,119,U-D,0.0002384185791015,3.942,73.33451112485697,945,962.0,31.101189388059744,0.4943987389529813,0.618698481588964,0.7047263333265698,0.8039378042496353,0.6796488316323569,0.0012050488978808,0.0009495243516849,0.00087074914415,0.00087074914415,0.00087074914415,1.615572501919008,1.397643815022103,1.397643815022103,1.397643815022103,0.799862286592848,E-W,0.0002384185791015,8.075,N-S,0.0002384185791015,6.106
20000530232800.knt,TCG0060005302328.UD,2000-05-30, 23:28:00,37.026,141.265,53,4.3,TCG006,36.7639,140.1297,122,2000-05-30, 23:28:19,100Hz,119,U-D,0.0002384185791015,1.51,105.080183664168,186,186.0,20.22390781560492,10.000476115384954,10.798281422333694,12.004591158772076,13.408828281125256,11.1419591363159,0.0168754589488231,0.0168754589488231,0.0168754589488231,0.0168754589488231,0.0162031489767008,0.5624013617931164,0.5624013617931164,0.5624013617931164,0.5624013617931164,0.5624013617931164,E-W,0.0002384185791015,2.378,N-S,0.0002384185791015,3.219
20000530232800.knt,TCG0140005302328.UD,2000-05-30, 23:28:00,37.026,141.265,53,4.3,TCG014,36.545,140.1742,130,2000-05-30, 23:28:20,100Hz,119,U-D,0.0002384185791015,1.898,110.89000867690524,137,142.0,22.47722667716191,9.657120933527414,10.729952892236543,11.728354974896773,11.3718240782422,8.227073002993214,0.018399858389922,0.018399858389922,0.018399858389922,0.018399858389922,0.0169091125596143,1.0618900595406977,1.0618900595406977,1.0618900595406977,1.0618900595406977,1.0618900595406977,E-W,0.0002384185791015,7.693,N-S,0.0002384185791015,6.696
20000602150600.knt,HYG0250006021506.UD,2000-06-02, 15:06:00,34.025,135.39,62,4.0,HYG025,34.3405,134.9014,10,2000-06-02, 15:06:17,100Hz,119,U-D,0.0002384185791015,1.504,57.015130306876095,579,594.0,21.83131500144445,2.9487505530169327,2.594289097820622,2.058147905882985,1.5101769521081427,0.9848841113539466,0.0018818220809927,0.0013321477231824,0.0011956449123291,0.0010373188056412,0.0006817213641941,0.4524068398303409,0.4524068398303409,0.4524068398303409,0.4524068398303409,0.3935214030974939,E-W,0.0002384185791015,2.855,N-S,0.0002384185791015,4.668
20000602150600.knt,MIE0070006021506.UD,2000-06-02, 15:06:00,34.025,135.39,62,4.0,MIE007,34.651,136.3404,82,2000-06-02, 15:06:27,100Hz,119,U-D,0.0002384185791015,1.532,111.6232201085672,117,137.0,18.950656778392524,3.993040905830332,3.4401093268496736,2.2368884139871743,1.323920781209348,1.447605616091332,0.0029437402685063,0.0028699300365986,0.0021029606155616,0.0009396263187832,0.0009396263187832,0.5236315202353808,0.4980882759199094,0.4980882759199094,0.4492957415013757,0.4492957415013757,E-W,0.0002384185791015,2.952,N-S,0.0002384185791015,3.245
20000602150600.knt,MIE0140006021506.UD,2000-06-02, 15:06:00,34.025,135.39,62,4.0,MIE014,34.0638,136.1687,85,2000-06-02, 15:06:20,100Hz,119,U-D,0.0002384185791015,2.305,71.87616446687912,371,367.0,20.630003651744488,6.782884721821595,7.80244211140857,7.316335565469976,5.235764172858775,3.143099544044885,0.0090725743663455,0.0090725743663455,0.0090725743663455,0.0085706126656885,0.0047466281539927,2.307034188129,2.307034188129,2.307034188129,2.307034188129,2.307034188129,E-W,0.0002384185791015,3.464,N-S,0.0002384185791015,4.141
20000602150600.knt,MIE0150006021506.UD,2000-06-02, 15:06:00,34.025,135.39,62,4.0,MIE015,33.8783,136.0822,6,2000-06-02, 15:06:18,100Hz,119,U-D,0.0002384185791015,1.461,65.89733092360493,521,518.0,11.332512246763212,5.163980955201342,4.191072317467706,2.987782766978477,1.7194901490150851,1.4098846527190585,0.0057621235430026,0.0057289622367746,0.0049769922348243,0.00346007907017,0.00346007907017,1.466111666604347,1.466111666604347,1.466111666604347,1.466111666604347,1.466111666604347,E-W,0.0002384185791015,3.56,N-S,0.0002384185791015,2.824
20000602150600.knt,MIE0160006021506.UD,2000-06-02, 15:06:00,34.025,135.39,62,4.0,MIE016,33.8764,135.9188,63,2000-06-02, 15:06:15,100Hz,119,U-D,0.0002384185791015,3.042,51.498321885861,656,662.0,22.88435693812572,8.152837196016872,8.069373664679404,7.42228606043141,5.895327104558689,3.4875812257674577,0.0088409421040068,0.0088409421040068,0.0088409421040068,0.0085866652753539,0.0070957631498838,1.4916122581540536,1.4916122581540536,1.4916122581540536,1.4916122581540536,1.4916122581540536,E-W,0.0002384185791015,6.274,N-S,0.0002384185791015,9.079
20000602150600.knt,NAR0010006021506.UD,2000-06-02, 15:06:00,34.025,135.39,62,4.0,NAR001,34.7154,135.7272,150,2000-06-02, 15:06:22,100Hz,119,U-D,0.0002384185791015,2.623,82.772351108245,316,333.0,18.400703697215125,9.616137304078933,9.036194950002823,9.858240298921618,12.564427816159451,18.27913739738174,0.0233981814495566,0.0233981814495566,0.0233981814495566,0.0233981814495566,0.0233981814495566,0.7158892240629365,0.7158892240629365,0.7158892240629365,0.7158892240629365,0.7158892240629365,E-W,0.0002384185791015,3.86,N-S,0.0002384185791015,3.028
20000602150600.knt,NAR0020006021506.UD,2000-06-02, 15:06:00,34.025,135.39,62,4.0,NAR002,34.6683,135.8352,90,2000-06-02, 15:06:22,100Hz,119,U-D,0.0002384185791015,1.524,82.38503566280043,312,332.0,20.378665976551385,2.313053625143935,2.2120033369328893,2.202667565037051,2.35416334790185,3.166650305687625,0.0014767091443301,0.0014767091443301,0.0014767091443301,0.0014767091443301,0.0014767091443301,0.3101860805393233,0.3101860805393233,0.3101860805393233,0.3101860805393233,0.2596363504386512,E-W,0.0002384185791015,4.093,N-S,0.0002384185791015,4.41
20000602150600.knt,NAR0050006021506.UD,2000-06-02, 15:06:00,34.025,135.39,62,4.0,NAR005,34.3408,135.6883,105,2000-06-02, 15:06:15,100Hz,119,U-D,0.0002384185791015,2.691,44.56458453486447,641,636.0,22.024502771777826,2.47910272910149,2.2676061584982627,1.9106870451037417,1.4131828102179569,0.7809149393372522,0.0042706493418134,0.0042706493418134,0.0042706493418134,0.0038168669264866,0.0030388938939876,1.927377963127037,1.927377963127037,1.927377963127037,1.927377963127037,1.927377963127037,E-W,0.0002384185791015,8.297,N-S,0.0002384185791015,10.545
20000602150600.knt,NAR0060006021506.UD,2000-06-02, 15:06:00,34.025,135.39,62,4.0,NAR006,34.3383,135.9541,330,2000-06-02, 15:06:09,100Hz,119,U-D,0.0002384185791015,4.075,62.49950480919758,1378,1389.0,20.24907442238709,3.1419970237855925,3.218369124449816,3.0065292546933486,1.829551256864608,0.4329567191590565,0.0085371812926466,0.0085371812926466,0.0085371812926466,0.0077308646276879,0.0028844896081054,4.082077455354104,4.082077455354104,4.082077455354104,4.082077455354104,4.082077455354104,E-W,0.0002384185791015,3.441,N-S,0.0002384185791015,3.259
20000602150600.knt,NAR0070006021506.UD,2000-06-02, 15:06:00,34.025,135.39,62,4.0,NAR007,34.2213,135.7369,760,2000-06-02, 15:06:07,100Hz,119,U-D,0.0002384185791015,4.752,38.67972728436914,1385,1384.0,32.75993051649904,0.5038902030092492,0.4707289632313554,0.4047779746255397,0.3398743131740179,0.346191078124438,0.0038606807462717,0.0038606807462717,0.0038606807462717,0.0038606807462717,0.0038606807462717,4.735818429210246,4.735818429210246,4.735818429210246,4.735818429210246,4.735818429210246,E-W,0.0002384185791015,6.86,N-S,0.0002384185791015,8.045
20000602150600.knt,NAR0080006021506.UD,2000-06-02, 15:06:00,34.025,135.39,62,4.0,NAR008,34.1352,136.0046,330,2000-06-02, 15:06:17,100Hz,119,U-D,0.0002384185791015,2.309,57.914350666014194,522,529.0,12.04223689777143,6.987807704880593,6.270559069116016,4.763481770235364,2.699398469696716,0.8824848794581532,0.008676193362939,0.008676193362939,0.0081332987088215,0.0058060175165511,0.0025612248204608,2.31146794173712,2.31146794173712,2.31146794173712,2.31146794173712,2.31146794173712,E-W,0.0002384185791015,2.803,N-S,0.0002384185791015,3.854
20000602150600.knt,NAR0090006021506.UD,2000-06-02, 15:06:00,34.025,135.39,62,4.0,NAR009,33.938,135.7552,200,2000-06-02, 15:06:06,100Hz,119,U-D,0.0002384185791015,3.145,35.03525039804779,1417,1428.0,17.27065744479664,1.6485765823052845,1.3578693969880409,0.9236595884539024,0.4696331385120402,0.273799297252756,0.0037316569534231,0.0036284615187107,0.0033228125177833,0.0021036249747721,0.0019799914315753,3.1329092848160367,3.1329092848160367,3.1329092848160367,3.1329092848160367,3.1329092848160367,E-W,0.0002384185791015,5.31,N-S,0.0002384185791015,9.026
20000602150600.knt,OSK0080006021506.UD,2000-06-02, 15:06:00,34.025,135.39,62,4.0,OSK008,34.4438,135.3874,10,2000-06-02, 15:06:16,100Hz,119,U-D,0.0002384185791015,2.343,46.56904865715008,580,592.0,15.691686688434745,1.3880023504148675,1.1512906399801246,0.9281286613060118,0.8148376762147305,0.7200485492085597,0.0025941812662414,0.0025941812662414,0.0025941812662414,0.0025941812662414,0.0025941812662414,2.3535325847970148,2.3535325847970148,2.3535325847970148,2.3535325847970148,2.3535325847970148,E-W,0.0002384185791015,2.995,N-S,0.0002384185791015,4.826
20000602150600.knt,OSK0090006021506.UD,2000-06-02, 15:06:00,34.025,135.39,62,4.0,OSK009,34.4366,135.5816,209,2000-06-02, 15:06:16,100Hz,119,U-D,0.0002384185791015,1.262,49.04039819705176,582,595.0,19.86915985745476,4.197216376404413,3.994200626458464,3.1237857166521685,1.871054265891648,0.8602832530448384,0.0040075641837947,0.0040075641837947,0.0039780992735583,0.0028594581709871,0.001725105821075,1.2626192559084857,1.2626192559084857,1.2626192559084857,1.2626192559084857,1.2626192559084857,E-W,0.0002384185791015,4.477,N-S,0.0002384185791015,2.753
20000602150600.knt,TKS0030006021506.UD,2000-06-02, 15:06:00,34.025,135.39,62,4.0,TKS003,33.8716,134.6039,8,2000-06-02, 15:06:21,100Hz,119,U-D,0.0002384185791015,1.191,74.48956091786334,384,399.0,21.21574018351433,2.700393002772571,2.319698445903875,2.111955867418093,2.196162703745977,3.83537648970857,0.0036156989997613,0.0036156989997613,0.0036156989997613,0.0036156989997613,0.0036156989997613,1.0448819891843562,1.0448819891843562,1.0448819891843562,1.0448819891843562,0.4532323442885501,E-W,0.0002384185791015,3.549,N-S,0.0002384185791015,3.213
20000602150600.knt,WKY0010006021506.UD,2000-06-02, 15:06:00,34.025,135.39,62,4.0,WKY001,34.2288,135.1694,8,2000-06-02, 15:06:06,100Hz,119,U-D,0.0002384185791015,6.292,30.42791716493567,1459,1469.0,19.551438435359,0.7549236814851138,0.5016176028542544,0.4492106242222101,0.4598711051899303,0.426781911819415,0.0047292436479249,0.0039129255507102,0.0039129255507102,0.0039129255507102,0.0039129255507102,4.778050144947211,4.778050144947211,4.778050144947211,4.778050144947211,4.778050144947211,E-W,0.0002384185791015,11.742,N-S,0.0002384185791015,5.452
20000602150600.knt,WKY0030006021506.UD,2000-06-02, 15:06:00,34.025,135.39,62,4.0,WKY003,34.0996,135.116,3,2000-06-02, 15:06:13,100Hz,119,U-D,0.0002384185791015,4.319,26.56822900004681,719,720.0,14.135483840082854,11.290423744039234,12.468353802203172,12.905015124394806,10.764774794541202,7.773869888103249,0.0208801503348853,0.0208801503348853,0.0208801503348853,0.0203030503055634,0.0167574105429611,2.178856711789635,2.178856711789635,2.178856711789635,2.178856711789635,2.178856711789635,E-W,0.0002384185791015,8.713,N-S,0.0002384185791015,19.364
20000602150600.knt,WKY0040006021506.UD,2000-06-02, 15:06:00,34.025,135.39,62,4.0,WKY004,34.0838,135.4313,238,2000-06-02, 15:06:05,100Hz,119,U-D,0.0002384185791015,5.889,7.564740469764065,1419,1422.0,28.77508819268844,0.6144653039871317,0.5530535359473467,0.5354446259934375,0.4456575657391917,0.4249930765220197,0.0021006517723825,0.0021006517723825,0.0021006517723825,0.0021006517723825,0.0021006517723825,5.856999484801081,5.856999484801081,5.856999484801081,5.856999484801081,5.856999484801081,E-W,0.0002384185791015,7.005,N-S,0.0002384185791015,7.008
20000602150600.knt,WKY0050006021506.UD,2000-06-02, 15:06:00,34.025,135.39,62,4.0,WKY005,33.8938,135.4883,316,2000-06-02, 15:06:05,100Hz,119,U-D,0.0002384185791015,9.285,17.176328779888102,1424,1433.0,27.14460781319204,6.14947022256431,6.011852381931671,4.855508995837159,2.817719615997388,0.7988126698819351,0.0136900978795071,0.0136900978795071,0.0136900978795071,0.0114922278578279,0.0043019112962722,5.664500821636614,5.664500821636614,5.664500821636614,5.664500821636614,5.664500821636614,E-W,0.0002384185791015,20.53,N-S,0.0002384185791015,29.028
20000602150600.knt,WKY0060006021506.UD,2000-06-02, 15:06:00,34.025,135.39,62,4.0,WKY006,33.8908,135.1524,3,2000-06-02, 15:06:12,100Hz,119,U-D,0.0002384185791015,3.751,26.512211148503525,808,46.0,11.322626787801038,5.481449882298349,6.348850477012228,7.0178273299579885,7.133988702130821,6.421870170094985,0.0072484606352674,0.0072484606352674,0.0072484606352674,0.0072484606352674,0.0070709900544734,2.0396458816354315,2.0396458816354315,2.0396458816354315,2.0396458816354315,2.0396458816354315,E-W,0.0002384185791015,14.094,N-S,0.0002384185791015,10.121
20000602150600.knt,WKY0080006021506.UD,2000-06-02, 15:06:00,34.025,135.39,62,4.0,WKY008,33.7289,135.3772,4,2000-06-02, 15:06:13,100Hz,120,U-D,0.0002384185791015,6.253,32.94601594089919,740,402.00000000000006,11.49625117169354,1.701230571249743,1.3048773793594268,1.0831061562409072,1.078798515230834,1.2296839274030962,0.0040435569094336,0.00268955088415,0.0020705597516407,0.0020705597516407,0.0020705597516407,1.9673597031528056,1.9673597031528056,1.9673597031528056,1.9673597031528056,1.9673597031528056,E-W,0.0002384185791015,10.771,N-S,0.0002384185791015,12.525
20000602150600.knt,WKY0100006021506.UD,2000-06-02, 15:06:00,34.025,135.39,62,4.0,WKY010,33.5503,135.4972,6,2000-06-02, 15:06:16,100Hz,119,U-D,0.0002384185791015,3.424,53.70585949972903,626,636.0,12.351752205055506,4.839728180098064,5.132141981294596,4.433741912966757,2.7270181760110166,0.6043540519717153,0.006060797451577,0.006060797451577,0.006060797451577,0.0051936922560782,0.0013122311842832,1.113113779309357,1.113113779309357,1.113113779309357,1.113113779309357,1.113113779309357,E-W,0.0002384185791015,7.38,N-S,0.0002384185791015,5.054
20000602150600.knt,WKY0110006021506.UD,2000-06-02, 15:06:00,34.025,135.39,62,4.0,WKY011,33.5947,135.946,10,2000-06-02, 15:06:20,100Hz,119,U-D,0.0002384185791015,1.173,70.20049904484245,366,366.0,19.884346789669976,1.5766272681555793,1.5243352552268083,1.3959391006483015,1.5314836881992628,1.4167786025434326,0.0009371711316717,0.0009371711316717,0.0009371711316717,0.0009371711316717,0.0009371711316717,0.5372534062759025,0.5372534062759025,0.5372534062759025,0.4349747210607362,0.4349747210607362,E-W,0.0002384185791015,1.985,N-S,0.0002384185791015,1.549
20000602150600.knt,WKY0130006021506.UD,2000-06-02, 15:06:00,34.025,135.39,62,4.0,WKY013,34.216,135.586,823,2000-06-02, 15:06:06,100Hz,120,U-D,0.0002384185791015,6.693,27.867454916909413,1417,1424.0,27.94440774720061,0.4339457851942495,0.4014639394990408,0.3505286050676297,0.3048331442067367,0.2993080762066376,0.0028909342700193,0.0028909342700193,0.0028909342700193,0.0028909342700193,0.0028909342700193,6.68987532635376,6.68987532635376,6.68987532635376,6.68987532635376,6.68987532635376,E-W,0.0002384185791015,4.184,N-S,0.0002384185791015,7.166
20000602150600.knt,WKY0140006021506.UD,2000-06-02, 15:06:00,34.025,135.39,62,4.0,WKY014,33.7053,135.6397,430,2000-06-02, 15:06:14,100Hz,119,U-D,0.0002384185791015,1.272,42.37054328888812,670,676.0,26.7451764065706,0.8746601316066337,0.8313412508120132,0.9227179996896984,0.908228242424721,0.7403300168075679,0.0008858228595211,0.000711582098788,0.000711582098788,0.000711582098788,0.000711582098788,0.8219467576500283,0.8219467576500283,0.8219467576500283,0.8219467576500283,0.5776403595914181,E-W,0.0002384185791015,4.012,N-S,0.0002384185791015,4.997
20000602212600.knt,EHM0140006022126.UD,2000-06-02, 21:26:00,32.53,132.106,39,4.2,EHM014,32.9453,132.5047,1,2000-06-02, 21:26:43,100Hz,119,U-D,0.0002384185791015,3.531,59.35612309219831,492,505.0,21.280759359118463,7.48738519988508,6.041996114387628,4.112393655081397,2.7689450978696346,3.1133339322008804,0.0129712905036182,0.0129712905036182,0.010691734349834,0.0093621571412026,0.0093621571412026,3.534282428032172,3.534282428032172,3.534282428032172,3.534282428032172,3.534282428032172,E-W,0.0002384185791015,6.049,N-S,0.0002384185791015,6.439
