earthquake name,records name,earthquake date,earthquake time,lat,long,depth,mag,stn_code,stn_lat,stn_long,stn_height,rcd_date,rcd_time,frequency,rcd_duration,direction,scale_factor,max_pga,epi_dist,pick_index_manually,pick_index_kalkan,snr_db_kalkan,tc_5sec,tc_4sec,tc_3sec,tc_2sec,tc_1sec,Pd_5sec,Pd_4sec,Pd_3sec,Pd_2sec,Pd_1sec,Pga_5sec,Pga_4sec,Pga_3sec,Pga_2sec,Pga_1sec,Channel,Scale_factor,PGA_ew,Channel.1,Scale_factor.1,PGA_ns
20020115215900.knt,IBR0170201152159.UD,2002-01-15, 21:59:00,35.886,140.612,44,4.3,IBR017,35.9537,140.3194,17,2002-01-15, 22:00:56,100Hz,119,U-D,0.0002384185791015,3.872,27.40287698973336,1370,1398.0,21.13848851259705,6.653632728894477,5.86707276194374,4.118914810556284,2.3095311246122807,0.8676398037170371,0.0264238046332427,0.0264238046332427,0.0226612751213434,0.0167166052616227,0.0066221698026565,3.887881895376988,3.887881895376988,3.887881895376988,3.887881895376988,3.887881895376988,E-W,0.0002384185791015,4.184,N-S,0.0002384185791015,3.551
20020115215900.knt,IBR0180201152159.UD,2002-01-15, 21:59:00,35.886,140.612,44,4.3,IBR018,35.977,140.6322,39,2002-01-15, 22:00:55,100Hz,119,U-D,0.0002384185791015,3.581,10.280889098451668,1420,1428.0,27.38531999409652,0.6341630770337311,0.5940874560824896,0.560955989237075,0.5565952680725484,0.4711779753005229,0.0042628764946303,0.003977118617393,0.003977118617393,0.003977118617393,0.003977118617393,3.592450258416754,3.592450258416754,3.592450258416754,3.592450258416754,3.592450258416754,E-W,0.0002384185791015,7.072,N-S,0.0002384185791015,8.159
20020115215900.knt,TCG0140201152159.UD,2002-01-15, 21:59:00,35.886,140.612,44,4.3,TCG014,36.545,140.1742,130,2002-01-15, 22:00:05,100Hz,119,U-D,0.0002384185791015,1.847,83.13928253307263,1105,1124.0,23.23329875270511,1.5876526601639696,1.0422378731636863,0.6722844866133576,0.6845619656058439,0.9523109855347556,0.0060133441146032,0.0046529290863659,0.0029898142197579,0.0029898142197579,0.0029898142197579,1.8432990158231048,1.8432990158231048,1.8432990158231048,1.8432990158231048,1.7174263197639366,E-W,0.0002384185791015,3.765,N-S,0.0002384185791015,3.361
20020116223300.knt,OKN0080201162233.UD,2002-01-16, 22:33:00,23.937,125.298,77,5.6,OKN008,24.7558,125.3864,70,2002-01-16, 22:33:41,100Hz,119,U-D,0.0002384185791015,2.637,91.485771808371,158,155.0,20.88222193633944,5.814318042413139,9.21521368697401,10.861736542185458,12.186701183778531,9.848800604099797,0.0509767085599431,0.0509767085599431,0.0509767085599431,0.0509767085599431,0.0509767085599431,1.8821304592095256,1.8821304592095256,1.675777110159367,1.3523390358548408,0.9684330640109904,E-W,0.0002384185791015,3.798,N-S,0.0002384185791015,3.356
20020118164600.knt,CHB0210201181646.UD,2002-01-18, 16:46:00,34.746,139.622,20,4.0,CHB021,34.9083,139.8979,6,2002-01-18, 16:46:20,100Hz,119,U-D,0.0002384185791015,1.379,30.982218646333905,882,901.0,21.509382139714862,1.7611654065253275,1.8764726777876384,1.9026037548997847,1.6590504400821862,2.0609251976771428,0.0035516541716872,0.0035516541716872,0.0027137722450367,0.0027137722450367,0.0027137722450367,1.375890148821242,1.375890148821242,0.9024293069941288,0.8734892080664132,0.8734892080664132,E-W,0.0002384185791015,3.188,N-S,0.0002384185791015,4.572
20020118164600.knt,KNG0040201181646.UD,2002-01-18, 16:46:00,34.746,139.622,20,4.0,KNG004,35.1441,139.6218,31,2002-01-18, 16:46:23,100Hz,119,U-D,0.0002384185791015,4.065,44.26670405064044,790,41.0,18.01479027349948,1.3162806781887415,1.3911597487301948,1.3318235328049135,1.2340901104265516,1.4725636679509406,0.0035932469495842,0.0035932469495842,0.0035932469495842,0.0035921831560696,0.0033248646321857,2.2494512272489007,2.2494512272489007,2.2494512272489007,2.2494512272489007,1.390928773987024,E-W,0.0002384185791015,5.127,N-S,0.0002384185791015,6.411
20020118164600.knt,KNG2010201181646.UD,2002-01-18, 16:46:00,34.746,139.622,20,4.0,KNG201,34.5956,139.9183,-2197,2002-01-18, 16:46:21,200Hz,180,U-D,5.960464477539063e-05,1.674,31.842059115376188,1617,1620.0,31.28758881481569,2.122063455237823,2.130786050971352,2.1509532948137355,1.7776077638401748,0.9787909346922464,0.0206430524121116,0.0206430524121116,0.0206430524121116,0.0206430524121116,0.0148873455688209,1.665153696761938,1.665153696761938,1.665153696761938,1.665153696761938,1.665153696761938,E-W,5.960464477539063e-05,13.665,N-S,5.960464477539063e-05,29.564
20020118164600.knt,KNG2020201181646.UD,2002-01-18, 16:46:00,34.746,139.622,20,4.0,KNG202,34.7396,139.8393,-2339,2002-01-18, 16:46:21,200Hz,180,U-D,5.960464477539063e-05,9.668,19.867649759269923,1195,1194.0,41.60588137427589,1.4090208923130008,1.2187831363862138,1.1360614753568368,1.1484282565824993,1.0051273928134146,0.0172245016795941,0.0172245016795941,0.0172245016795941,0.0172245016795941,0.0172245016795941,2.099387397743581,2.099387397743581,2.099387397743581,2.099387397743581,2.099387397743581,E-W,5.960464477539063e-05,24.187,N-S,5.960464477539063e-05,24.658
20020118164600.knt,KNG2030201181646.UD,2002-01-18, 16:46:00,34.746,139.622,20,4.0,KNG203,34.7983,139.6435,-902,2002-01-18, 16:46:21,200Hz,180,U-D,5.960464477539063e-05,60.343,6.138110241335493,963,973.0,4.165624114701986,21.92400342956373,23.642514984820053,26.977771567609608,33.13177703546232,35.79830610024384,2.4801402290604924,2.4801402290604924,2.4801402290604924,2.4801402290604924,2.4801402290604924,37.64236211308129,37.64236211308129,37.64236211308129,37.64236211308129,37.64236211308129,E-W,5.960464477539063e-05,208.904,N-S,5.960464477539063e-05,281.135
20020118164600.knt,KNG2040201181646.UD,2002-01-18, 16:46:00,34.746,139.622,20,4.0,KNG204,34.8931,139.5711,-933,2002-01-18, 16:46:16,200Hz,180,U-D,5.960464477539063e-05,18.809,17.00392800346822,2101,2101.0,43.581912157734266,0.9229200116633168,0.933098623820394,1.2126700133753212,0.9360680928919884,0.6851767744091352,0.0382531232200028,0.0382531232200028,0.0214846369509966,0.0139082203392311,0.0139082203392311,6.783105596481572,6.783105596481572,5.836177739364283,5.836177739364283,5.836177739364283,E-W,5.960464477539063e-05,77.036,N-S,5.960464477539063e-05,54.524
20020118164600.knt,KNG2050201181646.UD,2002-01-18, 16:46:00,34.746,139.622,20,4.0,KNG205,34.9413,139.4213,-1486,2002-01-18, 16:46:16,200Hz,180,U-D,5.960464477539063e-05,3.596,28.408903945894405,2437,2437.0,33.00147169919282,0.90439680121724,0.8350035400397604,0.805259301328399,0.8035223633734757,0.8122483649009894,0.0349527856979549,0.0349527856979549,0.0349527856979549,0.0349527856979549,0.0349527856979549,3.6306009086081024,3.6306009086081024,3.6306009086081024,3.6306009086081024,3.6306009086081024,E-W,5.960464477539063e-05,16.656,N-S,5.960464477539063e-05,14.101
20020118164600.knt,KNG2060201181646.UD,2002-01-18, 16:46:00,34.746,139.622,20,4.0,KNG206,35.0966,139.3778,-1130,2002-01-18, 16:46:16,200Hz,180,U-D,5.960464477539063e-05,1.379,44.89463153170867,2997,2994.0,27.833566749921,3.0951945938275585,2.9509947222407606,3.03977051208316,2.1661800193316965,0.908048540056734,0.0174261907822421,0.0171843074174855,0.0171728665632791,0.0128964958546023,0.0114010898477292,1.120741853870165,1.120741853870165,1.120741853870165,1.120741853870165,1.120741853870165,E-W,5.960464477539063e-05,7.593,N-S,5.960464477539063e-05,6.932
20020118164600.knt,SZO0010201181646.UD,2002-01-18, 16:46:00,34.746,139.622,20,4.0,SZO001,35.1424,139.0795,76,2002-01-18, 16:46:27,100Hz,119,U-D,0.0002384185791015,1.966,66.24103353356247,646,657.0,19.752097726724458,16.48215121138021,15.431067405683216,12.939479602898134,9.278289186279975,5.582058102780993,0.0205778492723993,0.0205778492723993,0.0203954513343853,0.0184370928516027,0.0129102767544875,1.5814868058846536,1.5814868058846536,1.5814868058846536,1.5814868058846536,1.5814868058846536,E-W,0.0002384185791015,13.539,N-S,0.0002384185791015,5.387
20020118164600.knt,SZO0030201181646.UD,2002-01-18, 16:46:00,34.746,139.622,20,4.0,SZO003,34.8158,139.0546,149,2002-01-18, 16:46:25,100Hz,119,U-D,0.0002384185791015,13.836,52.397885730733776,702,711.0,24.000722369313813,10.25868373333514,10.00711613783181,8.918480642009444,7.000912354096436,4.610891831622152,0.0387312121669107,0.0387312121669107,0.0387312121669107,0.0377048168457705,0.0315122894516547,3.9678874352766456,3.9678874352766456,3.9678874352766456,3.9678874352766456,2.7622975855782896,E-W,0.0002384185791015,26.743,N-S,0.0002384185791015,46.508
20020118164600.knt,SZO0070201181646.UD,2002-01-18, 16:46:00,34.746,139.622,20,4.0,SZO007,34.9771,138.9466,49,2002-01-18, 16:46:28,100Hz,119,U-D,0.0002384185791015,2.103,66.76617242349926,585,582.0,12.681092496168326,14.510841437871948,12.45572911723239,9.48989787732788,5.929790657369438,2.393845625991065,0.0308325778792612,0.0308325778792612,0.0300815709788063,0.0246838459983883,0.0131039530657997,0.9742593956235428,0.9742593956235428,0.9742593956235428,0.9742593956235428,0.918659820443674,E-W,0.0002384185791015,13.663,N-S,0.0002384185791015,4.806
20020118164600.knt,SZO0270201181646.UD,2002-01-18, 16:46:00,34.746,139.622,20,4.0,SZO027,34.7903,138.8008,71,2002-01-18, 16:46:30,100Hz,119,U-D,0.0002384185791015,1.825,75.17213573903278,524,538.0,15.11878168705748,10.4223042165695,11.820217008599055,14.96876100025318,12.023896370994114,7.353811492809419,0.0269488903620487,0.0269488903620487,0.0269488903620487,0.0268903682306428,0.01940457587864,0.3316051926765807,0.3316051926765807,0.3316051926765807,0.3316051926765807,0.3316051926765807,E-W,0.0002384185791015,3.56,N-S,0.0002384185791015,4.437
20020118164600.knt,TKY0080201181646.UD,2002-01-18, 16:46:00,34.746,139.622,20,4.0,TKY008,34.7852,139.3909,67,2002-01-18, 16:46:13,100Hz,119,U-D,0.0002384185791015,29.752,21.555303157547502,1460,1458.0,37.47878446750735,0.3989016137326237,0.3650708754687836,0.3696248398787111,0.2473877025158231,0.2176487929827313,0.0306455263522338,0.0199119811475993,0.011780767170996,0.011780767170996,0.011780767170996,29.77003037554728,29.77003037554728,18.84215807389768,18.84215807389768,18.84215807389768,E-W,0.0002384185791015,69.331,N-S,0.0002384185791015,79.075
20020118164600.knt,TKY0090201181646.UD,2002-01-18, 16:46:00,34.746,139.622,20,4.0,TKY009,34.6874,139.4412,60,2002-01-18, 16:46:13,100Hz,119,U-D,0.0002384185791015,22.077,17.763354667373058,1464,1470.0,31.46437036038202,0.6227859486280135,0.788226005451295,1.824557391049202,1.592089893461326,1.8833735320957523,0.0177509413227845,0.0177509413227845,0.0177509413227845,0.0177509413227845,0.0177509413227845,22.099685231754474,22.099685231754474,11.074249688057105,11.074249688057105,11.074249688057105,E-W,0.0002384185791015,46.219,N-S,0.0002384185791015,53.084
20020118164600.knt,TKY0100201181646.UD,2002-01-18, 16:46:00,34.746,139.622,20,4.0,TKY010,34.3775,139.2557,13,2002-01-18, 16:46:28,100Hz,119,U-D,0.0002384185791015,2.774,52.953343985311164,493,488.0,19.905257689509387,1.5474406219645036,1.3850468473376274,1.3446237555586906,1.3162448740832549,1.358499470847318,0.005715036271927,0.005715036271927,0.005715036271927,0.005715036271927,0.005715036271927,1.238615795726186,1.238615795726186,1.238615795726186,0.9900744446903968,0.9900744446903968,E-W,0.0002384185791015,2.711,N-S,0.0002384185791015,3.466
20020119180600.knt,HKD0590201191806.UD,2002-01-19, 18:06:00,43.715,147.358,32,5.6,HKD059,43.8565,144.4629,31,2002-01-19, 18:07:54,100Hz,119,U-D,0.0002384185791015,3.291,232.9247389534229,1295,1338.0,18.66312506529931,1.5473703236861196,1.5467120016984648,1.5247518108785745,1.4868905614494623,1.3904834545620597,0.0147492446992743,0.0147492446992743,0.0147492446992743,0.0147492446992743,0.0147492446992743,3.284634858144914,3.284634858144914,3.284634858144914,3.284634858144914,2.166139728444224,E-W,0.0002384185791015,1.773,N-S,0.0002384185791015,1.91
20020119180600.knt,HKD0610201191806.UD,2002-01-19, 18:06:00,43.715,147.358,32,5.6,HKD061,44.0699,144.9973,64,2002-01-19, 18:07:49,100Hz,119,U-D,0.0002384185791015,1.342,193.23215237647224,1269,1295.0,11.697967425601332,2.8175264165948866,2.0432430866706337,1.4583774648893928,1.226970081806586,1.2088094042774975,0.0208285396499583,0.0178454076684104,0.0150821629847533,0.0129573949535703,0.0129573949535703,1.354718995213676,1.354718995213676,1.354718995213676,1.2071983316491175,1.2071983316491175,E-W,0.0002384185791015,3.166,N-S,0.0002384185791015,4.848
20020119180600.knt,HKD0640201191806.UD,2002-01-19, 18:06:00,43.715,147.358,32,5.6,HKD064,44.0202,145.1886,17,2002-01-19, 18:07:48,100Hz,119,U-D,0.0002384185791015,3.735,177.1850101620025,1105,1145.0,31.131582654317587,1.0401468099098077,0.9844088936366334,1.005741341580955,1.0704380092001584,3.0831482711314284,0.0171768375227002,0.0171768375227002,0.0171768375227002,0.0171768375227002,0.0086538299530927,2.356690057806772,2.356690057806772,2.208604876965194,1.765353599818645,0.8077215354723205,E-W,0.0002384185791015,3.642,N-S,0.0002384185791015,6.23
20020119180600.knt,HKD0650201191806.UD,2002-01-19, 18:06:00,43.715,147.358,32,5.6,HKD065,43.7938,145.0565,10,2002-01-19, 18:07:47,100Hz,119,U-D,0.0002384185791015,2.927,185.0518326627346,1331,1355.0,28.29812950579543,1.3264375644270208,1.176404033462377,1.004748044351939,0.9279155571687976,0.8902979191363151,0.0152780250062911,0.0152780250062911,0.0152780250062911,0.0089959000998773,0.0089959000998773,2.9464295679826384,2.9464295679826384,2.9464295679826384,2.9464295679826384,2.4556671925947,E-W,0.0002384185791015,3.512,N-S,0.0002384185791015,3.703
20020119180600.knt,HKD0660201191806.UD,2002-01-19, 18:06:00,43.715,147.358,32,5.6,HKD066,43.6619,145.1307,2,2002-01-19, 18:07:46,100Hz,120,U-D,0.0002384185791015,11.77,179.17966265254236,1364,1434.0,25.21725574888498,0.8091455098122888,0.7341797646616492,0.6090925636432899,0.5367326365599682,1.3510020508430285,0.0109166207428804,0.0097118551104994,0.0097118551104994,0.0097118551104994,0.0079957311675391,11.789792962934794,11.789792962934794,11.789792962934794,11.789792962934794,2.0119073455494862,E-W,0.0002384185791015,9.331,N-S,0.0002384185791015,17.592
20020119180600.knt,HKD0700201191806.UD,2002-01-19, 18:06:00,43.715,147.358,32,5.6,HKD070,43.3852,145.284,6,2002-01-19, 18:07:46,100Hz,129,U-D,0.0002384185791015,4.785,171.1163267501694,1282,1321.0,28.077081047597154,0.5965133454425667,0.5909808367332684,0.6156971834241266,0.6462357644472866,0.8105824659211037,0.0069274761515356,0.0069274761515356,0.0069274761515356,0.0069274761515356,0.0056282637130667,3.099565992373849,3.099565992373849,3.099565992373849,3.033535231723463,1.9741124818798808,E-W,0.0002384185791015,19.299,N-S,0.0002384185791015,16.753
20020119180600.knt,HKD0720201191806.UD,2002-01-19, 18:06:00,43.715,147.358,32,5.6,HKD072,43.1948,145.5209,46,2002-01-19, 18:07:45,100Hz,119,U-D,0.0002384185791015,7.837,159.16523990678334,1216,1270.0,33.20593804279908,1.819511122524038,1.8497965503194551,1.5282285452669058,1.4781288184545134,1.72063127863372,0.0107526114093016,0.0107526114093016,0.0107526114093016,0.0042139567057331,0.0028574168139942,3.886308438230591,3.886308438230591,3.886308438230591,2.2182382675182577,0.9178951540632988,E-W,0.0002384185791015,22.573,N-S,0.0002384185791015,29.099
20020119180600.knt,HKD0730201191806.UD,2002-01-19, 18:06:00,43.715,147.358,32,5.6,HKD073,43.3327,145.6003,36,2002-01-19, 18:07:42,100Hz,119,U-D,0.0002384185791015,5.652,147.9514035428221,1337,1378.0,29.56138946526023,0.5115115616628763,0.5076275146949375,0.4873674911872713,0.4446856871427121,0.6340274494659867,0.0026425398252299,0.0026425398252299,0.0026425398252299,0.0026425398252299,0.0026425398252299,3.150489908990516,3.150489908990516,3.150489908990516,3.150489908990516,1.6957104764939053,E-W,0.0002384185791015,15.169,N-S,0.0002384185791015,15.161
20020119180600.knt,HKD0780201191806.UD,2002-01-19, 18:06:00,43.715,147.358,32,5.6,HKD078,43.1486,144.4976,21,2002-01-19, 18:07:54,100Hz,119,U-D,0.0002384185791015,6.695,239.3928472597285,1327,1368.0,31.822512752873948,0.5165911695618057,0.5759441604372453,0.5890502316544146,0.5899995759301521,0.7277185274994369,0.0086483343531546,0.0086483343531546,0.0086483343531546,0.0086483343531546,0.0060110364678086,4.199260687434875,4.199260687434875,4.199260687434875,3.152547641019245,1.3696101317848643,E-W,0.0002384185791015,10.622,N-S,0.0002384185791015,8.775
20020119180600.knt,HKD0790201191806.UD,2002-01-19, 18:06:00,43.715,147.358,32,5.6,HKD079,43.3033,144.5996,32,2002-01-19, 18:07:54,100Hz,119,U-D,0.0002384185791015,2.784,227.1030724862149,1219,1249.0,30.88773930557902,0.9557682114582974,1.0249432463806374,1.0536957949988477,1.046722103879113,0.8654428192905957,0.007628946198275,0.007628946198275,0.007628946198275,0.007628946198275,0.0064964095946079,2.7875360434056726,2.7875360434056726,2.633491751179744,2.633491751179744,1.6239135254533503,E-W,0.0002384185791015,4.866,N-S,0.0002384185791015,4.512
20020120052100.knt,TKY0080201200521.UD,2002-01-20, 05:21:00,34.715,139.409,0,2.6,TKY008,34.7852,139.3909,67,2002-01-20, 05:21:54,100Hz,119,U-D,0.0002384185791015,3.624,7.979125199525382,1260,1279.0,21.05174031919009,1.5696170075144862,1.544695169660231,1.0233373181965686,0.440972058942169,0.2778058219489655,0.0182105800035379,0.0132566634371403,0.0068092787481074,0.0031766339810399,0.001241824103025,3.632829886872324,3.3107555927675074,1.8725430031194887,1.8725430031194887,1.5680931828743745,E-W,0.0002384185791015,6.361,N-S,0.0002384185791015,5.793
20020120052100.knt,TKY0090201200521.UD,2002-01-20, 05:21:00,34.715,139.409,0,2.6,TKY009,34.6874,139.4412,60,2002-01-20, 05:21:53,100Hz,119,U-D,0.0002384185791015,4.515,4.252477490943358,1264,1273.0,22.94785224006965,1.5396148291280387,1.620256646964757,1.678402266307912,3.2178711057379568,5.008250677490576,0.0222603242550506,0.0222603242550506,0.0161344917142356,0.0161344917142356,0.0161344917142356,4.516659989642789,4.516659989642789,4.516659989642789,3.0372266891699167,2.0418141617389423,E-W,0.0002384185791015,7.648,N-S,0.0002384185791015,9.601
20020121085500.knt,HKD0770201210855.UD,2002-01-21, 08:55:00,42.535,144.776,47,4.7,HKD077,42.9845,144.3824,3,2002-01-21, 08:56:02,100Hz,119,U-D,0.0002384185791015,9.654,59.42016432618717,644,642.0,25.17617029350612,7.700822943159403,7.1640189328013495,6.102895728472214,5.100976713831545,2.9597643240214984,0.0364010638923389,0.0364010638923389,0.0364010638923389,0.0345287064089611,0.02613554269793,3.4248757820439533,3.4248757820439533,3.4248757820439533,3.4248757820439533,3.4248757820439533,E-W,0.0002384185791015,22.775,N-S,0.0002384185791015,15.688
20020121085500.knt,HKD0780201210855.UD,2002-01-21, 08:55:00,42.535,144.776,47,4.7,HKD078,43.1486,144.4976,21,2002-01-21, 08:56:06,100Hz,119,U-D,0.0002384185791015,4.308,71.9056855572426,400,418.0,22.197512097643155,1.747249866859908,1.5335555406627697,1.613302568525241,1.7961208041781058,2.003814463684775,0.0068509618236307,0.0068509618236307,0.0068509618236307,0.0068509618236307,0.0068509618236307,1.3223523508768962,1.3223523508768962,1.173785571381906,1.173785571381906,0.9629703300984636,E-W,0.0002384185791015,4.416,N-S,0.0002384185791015,3.525
20020121085500.knt,HKD0840201210855.UD,2002-01-21, 08:55:00,42.535,144.776,47,4.7,HKD084,43.1141,144.123,30,2002-01-21, 08:56:09,100Hz,120,U-D,0.0002384185791015,1.307,83.56118186754267,256,162.0,18.18202808450073,3.295877380767676,3.4003753091788687,3.639788166010864,3.77456370315349,3.148914362282326,0.007537607460985,0.007537607460985,0.007537607460985,0.007537607460985,0.007537607460985,0.6235977539403142,0.6235977539403142,0.6235977539403142,0.6235977539403142,0.6235977539403142,E-W,0.0002384185791015,3.247,N-S,0.0002384185791015,2.392
20020121085500.knt,HKD0850201210855.UD,2002-01-21, 08:55:00,42.535,144.776,47,4.7,HKD085,42.9581,144.0697,5,2002-01-21, 08:56:06,100Hz,119,U-D,0.0002384185791015,1.731,74.4289963493741,441,444.00000000000006,23.13317624536885,1.8813084923791623,1.5540221365200233,1.3661467621712042,1.369257202060325,1.3176596689588618,0.0127974801989445,0.0127974801989445,0.0127974801989445,0.0127974801989445,0.0127974801989445,1.6903973789146371,1.6903973789146371,1.6903973789146371,1.6903973789146371,1.6903973789146371,E-W,0.0002384185791015,2.498,N-S,0.0002384185791015,6.844
