earthquake name,records name,earthquake date,earthquake time,lat,long,depth,mag,stn_code,stn_lat,stn_long,stn_height,rcd_date,rcd_time,frequency,rcd_duration,direction,scale_factor,max_pga,epi_dist,pick_index_manually,pick_index_kalkan,snr_db_kalkan,tc_5sec,tc_4sec,tc_3sec,tc_2sec,tc_1sec,Pd_5sec,Pd_4sec,Pd_3sec,Pd_2sec,Pd_1sec,Pga_5sec,Pga_4sec,Pga_3sec,Pga_2sec,Pga_1sec,Channel,Scale_factor,PGA_ew,Channel.1,Scale_factor.1,PGA_ns
20050109185900.knt,FKI0060501091859.UD,2005-01-09, 18:59:00,35.312,136.85,13,4.7,FKI006,35.7731,136.1998,127,2005-01-09, 19:00:53,100Hz,60,U-D,0.0006340209495401,1.607,78.03555583063729,563,0,0,1.1645805694756748,1.1207080468623756,0.8898326358702017,0.6921427047683436,0.3894544651293927,0.0023462642888326,0.0023462642888326,0.0016343047043352,0.0014222658428933,0.001255557393681,1.6075068783112143,1.6075068783112143,1.6075068783112143,1.344992228331028,1.344992228331028,E-W,0.0006340209495401,2.803,N-S,0.0006340209495401,2.423
20050109185900.knt,FKI0080501091859.UD,2005-01-09, 18:59:00,35.312,136.85,13,4.7,FKI008,35.5479,135.9084,13,2005-01-09, 19:00:56,100Hz,60,U-D,0.0006340209495401,1.396,89.2541464440935,450,0,0,9.485074715131232,7.40922146323816,5.6732874433842735,5.415991790865677,7.480154826484651,0.101480715498567,0.1007008264447464,0.1007008264447464,0.1007008264447464,0.1007008264447464,1.367022892257183,1.367022892257183,1.367022892257183,1.367022892257183,1.367022892257183,E-W,0.0006340209495401,2.327,N-S,0.0006340209495401,2.606
20050109185900.knt,FKI0090501091859.UD,2005-01-09, 18:59:00,35.312,136.85,13,4.7,FKI009,35.4965,135.7519,3,2005-01-09, 19:00:59,100Hz,60,U-D,0.0006340209495401,1.234,101.61629733435892,336,0,0,0.8329560682278783,0.8568291662221403,0.8736842559121303,0.9241797630666216,2.118357729453632,0.0020282006261147,0.0020282006261147,0.0020282006261147,0.0020282006261147,0.0020282006261147,1.235963941766801,1.235963941766801,1.235963941766801,1.235963941766801,0.5572339694340686,E-W,0.0006340209495401,2.372,N-S,0.0006340209495401,2.054
20050109185900.knt,FKI0110501091859.UD,2005-01-09, 18:59:00,35.312,136.85,13,4.7,FKI011,35.9053,136.6706,432,2005-01-09, 19:00:50,100Hz,60,U-D,0.0006340209495401,3.385,67.93618178247132,710,0,0,26.918158265022324,27.479267021812003,25.11742510906413,19.29070464042601,12.650831990120432,0.7523041676717206,0.7523041676717206,0.7523041676717206,0.7455215702277747,0.6360154361971164,2.5872714671246806,2.5872714671246806,2.5872714671246806,2.5872714671246806,1.5678509018509428,E-W,0.0006340209495401,6.402,N-S,0.0006340209495401,8.628
20050109185900.knt,GIF0010501091859.UD,2005-01-09, 18:59:00,35.312,136.85,13,4.7,GIF001,36.2742,136.8978,478,2005-01-09, 19:00:01,100Hz,60,U-D,0.0006340209495401,1.102,107.07858017930036,263,0,0,0.6530775315050144,0.6644304422667545,0.7118622701178693,0.7819428401123962,0.8140296071155013,0.0015225484279232,0.0015225484279232,0.0015225484279232,0.0015225484279232,0.0015225484279232,0.3078608304815848,0.3078608304815848,0.3078608304815848,0.3078608304815848,0.2220092719297451,E-W,0.0006340209495401,3.173,N-S,0.0006340209495401,2.965
20050109185900.knt,GIF0020501091859.UD,2005-01-09, 18:59:00,35.312,136.85,13,4.7,GIF002,36.2734,137.0253,570,2005-01-09, 19:00:01,100Hz,60,U-D,0.0006340209495401,0.919,108.06564983025548,250,0,0,0.896262455904444,0.9399223359092156,1.0523340298534185,1.0875311090648914,1.2150361221086692,0.0011533266204903,0.0011533266204903,0.0011533266204903,0.0011533266204903,0.0011533266204903,0.534007361544882,0.534007361544882,0.4414069013461646,0.4414069013461646,0.4414069013461646,E-W,0.0006340209495401,2.703,N-S,0.0006340209495401,4.25
20050109185900.knt,GIF0030501091859.UD,2005-01-09, 18:59:00,35.312,136.85,13,4.7,GIF003,36.3322,137.3014,405,2005-01-09, 19:00:04,100Hz,60,U-D,0.0006340209495401,0.907,120.5203106948726,141,0,0,1.42539454656663,1.6099141622798328,1.627321154539208,1.6090021692939285,1.4858391918866012,0.0008618993593639,0.0008618993593639,0.0008618993593639,0.0008618993593639,0.0008618993593639,0.4003524565329583,0.4003524565329583,0.4003524565329583,0.3919406113393384,0.3919406113393384,E-W,0.0006340209495401,2.108,N-S,0.0006340209495401,3.092
20050109185900.knt,GIF0040501091859.UD,2005-01-09, 18:59:00,35.312,136.85,13,4.7,GIF004,36.2492,137.5174,810,2005-01-09, 19:00:04,100Hz,60,U-D,0.0006340209495401,1.754,120.35170382620336,128,0,0,9.168897289281716,10.407351575793278,11.792673264784472,11.55960633725736,8.735186941126777,0.0071615942356161,0.0071615942356161,0.0071615942356161,0.0071615942356161,0.0063844966600139,0.3496291334362064,0.3496291334362064,0.3496291334362064,0.3496291334362064,0.3496291334362064,E-W,0.0006340209495401,3.067,N-S,0.0006340209495401,4.876
20050109185900.knt,GIF0050501091859.UD,2005-01-09, 18:59:00,35.312,136.85,13,4.7,GIF005,36.1536,137.2514,562,2005-01-09, 19:00:59,100Hz,60,U-D,0.0006340209495401,2.038,100.35024908372404,343,0,0,5.949379563503045,5.785650645659816,5.89201944132424,7.787239002661499,9.706562716570648,0.0043842076222177,0.0043842076222177,0.0043842076222177,0.0043842076222177,0.0043842076222177,0.4332636390413218,0.4332636390413218,0.4332636390413218,0.4105288770141408,0.3254302473426653,E-W,0.0006340209495401,3.754,N-S,0.0006340209495401,5.339
20050109185900.knt,GIF0060501091859.UD,2005-01-09, 18:59:00,35.312,136.85,13,4.7,GIF006,36.0333,136.9528,792,2005-01-09, 19:00:57,100Hz,60,U-D,0.0006340209495401,1.286,80.740650049348,204,0,0,2.199954151981089,2.490075722579077,3.4528210240989807,4.541780765477385,8.544889397018927,0.0014284273254509,0.0014284273254509,0.0014284273254509,0.0014284273254509,0.0012548973045163,0.7062381503483576,0.7062381503483576,0.6555015909914257,0.6555015909914257,0.1645790367025936,E-W,0.0006340209495401,1.847,N-S,0.0006340209495401,1.851
20050109185900.knt,GIF0070501091859.UD,2005-01-09, 18:59:00,35.312,136.85,13,4.7,GIF007,36.0378,137.4861,995,2005-01-09, 19:00:47,100Hz,72,U-D,0.0006340209495401,8.604,99.06864946851825,1503,0,0,0.3144454643829664,0.2673089801556176,0.246532824732006,0.242016622038997,0.2594382426418332,0.000837987583683,0.0006388711292298,0.0006388711292298,0.0006388711292298,0.0006388711292298,1.3377513561812706,1.3377513561812706,1.3377513561812706,1.3377513561812706,1.0845652790060156,E-W,0.0006340209495401,14.915,N-S,0.0006340209495401,13.736
20050109185900.knt,GIF0080501091859.UD,2005-01-09, 18:59:00,35.312,136.85,13,4.7,GIF008,35.9515,137.26,522,2005-01-09, 19:00:53,100Hz,60,U-D,0.0006340209495401,3.042,80.18421771381267,595,0,0,0.7498168030619372,0.813178452744286,0.7222698836993966,0.5715174186006325,0.5497472795088186,0.000776067722359,0.0007650409637339,0.0006702426111062,0.0005746647974772,0.0005746647974772,0.5303203240574086,0.5303203240574086,0.5303203240574086,0.5287408752122863,0.3407335044783581,E-W,0.0006340209495401,6.804,N-S,0.0006340209495401,4.751
20050109185900.knt,GIF0090501091859.UD,2005-01-09, 18:59:00,35.312,136.85,13,4.7,GIF009,35.9219,136.8311,450,2005-01-09, 19:00:50,100Hz,60,U-D,0.0006340209495401,1.53,67.83930095943933,724,0,0,1.2597239883104112,1.488634465648896,1.6520331623252331,1.6103373764786142,1.6351215993231834,0.0012458158542608,0.0011444542703618,0.0011444542703618,0.0011444542703618,0.0011444542703618,1.1998636658586714,1.1998636658586714,1.1998636658586714,0.8011832666093053,0.8011832666093053,E-W,0.0006340209495401,4.432,N-S,0.0006340209495401,2.421
20050109185900.knt,GIF0100501091859.UD,2005-01-09, 18:59:00,35.312,136.85,13,4.7,GIF010,35.8029,137.245,362,2005-01-09, 19:00:49,100Hz,60,U-D,0.0006340209495401,6.054,65.24063099404118,744,0,0,1.542777734058623,1.6164621444839216,1.5486063725605417,1.4413585592601426,1.1099345865099073,0.0034019004717778,0.0034019004717778,0.0034019004717778,0.0034019004717778,0.0034019004717778,1.1399352182096336,1.1399352182096336,1.1399352182096336,1.1399352182096336,1.1399352182096336,E-W,0.0006340209495401,16.728,N-S,0.0006340209495401,18.048
20050109185900.knt,GIF0110501091859.UD,2005-01-09, 18:59:00,35.312,136.85,13,4.7,GIF011,35.7593,136.9808,245,2005-01-09, 19:00:45,100Hz,60,U-D,0.0006340209495401,3.09,51.12626277740026,935,0,0,0.8588159890066607,1.0644901145674028,1.1133977122239018,1.3218046093496647,1.8361937998773847,0.0019609217957223,0.0019609217957223,0.0015123060622345,0.0015123060622345,0.0012834839185335,1.7666185442576487,1.7666185442576487,1.7666185442576487,0.9663612501486832,0.7195827504235481,E-W,0.0006340209495401,7.596,N-S,0.0006340209495401,11.373
20050109185900.knt,GIF0120501091859.UD,2005-01-09, 18:59:00,35.312,136.85,13,4.7,GIF012,35.6365,136.4882,221,2005-01-09, 19:00:39,100Hz,69,U-D,0.0006340209495401,7.476,48.737525918146254,1478,0,0,0.1627285270417013,0.1550587008493614,0.146106784265347,0.146854243934905,0.1589141832830372,0.001575931057404,0.001575931057404,0.001575931057404,0.001575931057404,0.001575931057404,5.421656551271044,5.421656551271044,5.421656551271044,5.421656551271044,5.421656551271044,E-W,0.0006340209495401,43.135,N-S,0.0006340209495401,22.443
20050109185900.knt,GIF0130501091859.UD,2005-01-09, 18:59:00,35.312,136.85,13,4.7,GIF013,35.6637,137.1617,230,2005-01-09, 19:00:44,100Hz,60,U-D,0.0006340209495401,6.585,48.22654139601481,971,0,0,12.829204999179506,13.896055459666323,15.160517355664576,16.41754929663854,15.661653424218231,0.034888881148351,0.034888881148351,0.034888881148351,0.034888881148351,0.034888881148351,5.691901616900342,5.691901616900342,5.691901616900342,4.7692856690805145,4.7692856690805145,E-W,0.0006340209495401,28.848,N-S,0.0006340209495401,29.14
20050109185900.knt,GIF0140501091859.UD,2005-01-09, 18:59:00,35.312,136.85,13,4.7,GIF014,35.6576,137.4258,463,2005-01-09, 19:00:49,100Hz,60,U-D,0.0006340209495401,3.7,64.76695296944544,742,0,0,2.109326226443251,2.17293409606085,1.995906624083713,1.7833641916340086,1.278757088859228,0.0069581326171986,0.0069581326171986,0.0069581326171986,0.0069581326171986,0.0069581326171986,1.6944323761452875,1.6944323761452875,1.6944323761452875,1.6944323761452875,1.6944323761452875,E-W,0.0006340209495401,7.517,N-S,0.0006340209495401,9.699
20050109185900.knt,GIF0150501091859.UD,2005-01-09, 18:59:00,35.312,136.85,13,4.7,GIF015,35.5454,136.9072,96,2005-01-09, 19:00:38,100Hz,61,U-D,0.0006340209495401,9.563,26.46530915819607,1250,0,0,0.5971965130098026,0.5613558640128303,0.1478816211869033,0.1379534623785006,0.1587553689592242,0.0142327326493334,0.013756401671142,0.0011638055498189,0.0008599219584431,0.0008599219584431,9.55556951607714,9.55556951607714,8.653739542164603,7.569284510923252,4.868845619699842,E-W,0.0006340209495401,36.46,N-S,0.0006340209495401,25.953
20050109185900.knt,GIF0160501091859.UD,2005-01-09, 18:59:00,35.312,136.85,13,4.7,GIF016,35.5424,137.1191,145,2005-01-09, 19:00:37,100Hz,60,U-D,0.0006340209495401,6.995,35.36738305398724,1470,0,0,0.3722945336023392,0.4065730798346339,0.3910546185787271,0.3934091837739539,0.3946111807568869,0.0111826582224568,0.0056252558615563,0.0056252558615563,0.0056252558615563,0.0056252558615563,6.938730989105746,4.294350469670231,4.294350469670231,4.294350469670231,4.294350469670231,E-W,0.0006340209495401,33.177,N-S,0.0006340209495401,31.921
20050109185900.knt,GIF0170501091859.UD,2005-01-09, 18:59:00,35.312,136.85,13,4.7,GIF017,35.487,136.5679,42,2005-01-09, 19:00:37,100Hz,60,U-D,0.0006340209495401,19.119,32.13156158928976,1424,0,0,0.5568088929344953,0.3082030052176439,0.2503894518129492,0.2488222429509184,0.2392227567590759,0.0168683839760613,0.0056556385361027,0.0044999633863745,0.0044999633863745,0.0044999633863745,19.1518875584042,19.1518875584042,19.1518875584042,19.1518875584042,19.1518875584042,E-W,0.0006340209495401,22.427,N-S,0.0006340209495401,22.655
20050109185900.knt,GIF0180501091859.UD,2005-01-09, 18:59:00,35.312,136.85,13,4.7,GIF018,35.4887,137.5,320,2005-01-09, 19:00:41,100Hz,69,U-D,0.0006340209495401,4.566,62.10432876961645,1503,0,0,0.3884051448977157,0.3820135331693356,0.3778529601897734,0.3794004809644986,0.377748349253298,0.0068965068922035,0.0068965068922035,0.0068965068922035,0.0068965068922035,0.0068965068922035,4.517939368232351,4.517939368232351,4.517939368232351,4.517939368232351,4.517939368232351,E-W,0.0006340209495401,10.49,N-S,0.0006340209495401,7.707
20050109185900.knt,GIF0190501091859.UD,2005-01-09, 18:59:00,35.312,136.85,13,4.7,GIF019,35.4495,137.4039,275,2005-01-09, 19:00:39,100Hz,60,U-D,0.0006340209495401,3.803,52.49229851279833,1544,0,0,0.4109444261557937,0.4160724226720907,0.4024555720971572,0.4021883358208321,0.4476079753133016,0.0071310598745902,0.0071310598745902,0.0071310598745902,0.0071310598745902,0.0071310598745902,2.7995213523892124,2.7995213523892124,2.7995213523892124,2.7995213523892124,2.7995213523892124,E-W,0.0006340209495401,5.645,N-S,0.0006340209495401,6.819
20050109185900.knt,GIF0200501091859.UD,2005-01-09, 18:59:00,35.312,136.85,13,4.7,GIF020,35.4243,136.7553,13,2005-01-09, 19:00:34,100Hz,64,U-D,0.0006340209495401,27.664,15.154644586596342,1486,0,0,0.439139699300119,0.4502065955894936,0.3472252540579604,0.2985743276095591,0.3124203884349019,0.027566347241498,0.027566347241498,0.0204686400816139,0.0107385133436246,0.0107385133436246,27.706550026648344,27.706550026648344,27.706550026648344,17.66878551336453,17.66878551336453,E-W,0.0006340209495401,57.628,N-S,0.0006340209495401,36.186
20050109185900.knt,GIF0210501091859.UD,2005-01-09, 18:59:00,35.312,136.85,13,4.7,GIF021,35.4426,137.0,72,2005-01-09, 19:00:35,100Hz,63,U-D,0.0006340209495401,14.893,19.89566171276279,1445,0,0,0.3801963925085571,0.4352609224513185,0.3578764715351948,0.3698683890530612,0.3817075101522813,0.0216896741183497,0.0216896741183497,0.0109779667178662,0.0109779667178662,0.0109779667178662,14.804849585313637,14.804849585313637,13.663690486921729,13.663690486921729,13.663690486921729,E-W,0.0006340209495401,35.426,N-S,0.0006340209495401,55.046
20050109185900.knt,GIF0220501091859.UD,2005-01-09, 18:59:00,35.312,136.85,13,4.7,GIF022,35.2834,136.4715,115,2005-01-09, 19:00:41,100Hz,60,U-D,0.0006340209495401,2.421,34.49686430445137,1059,0,0,0.9774187282767246,1.0461856255351196,1.1768426031275523,1.1783311696690293,1.2095775845912535,0.009361142864971,0.0058023766274041,0.0058023766274041,0.0058023766274041,0.0058023766274041,2.3282314683285024,2.0390363789169594,2.0390363789169594,2.0390363789169594,2.0390363789169594,E-W,0.0006340209495401,5.045,N-S,0.0006340209495401,4.358
20050109185900.knt,GIF0230501091859.UD,2005-01-09, 18:59:00,35.312,136.85,13,4.7,GIF023,35.3882,137.2158,275,2005-01-09, 19:00:36,100Hz,65,U-D,0.0006340209495401,13.988,34.24080019716728,1559,0,0,0.3891665242608007,0.3539726406001934,0.3413745132133451,0.3462515659491657,0.3506403218927065,0.0163189006810058,0.0163189006810058,0.0163189006810058,0.0163189006810058,0.0163189006810058,13.95163799539149,13.95163799539149,13.95163799539149,13.95163799539149,13.95163799539149,E-W,0.0006340209495401,19.305,N-S,0.0006340209495401,21.223
20050109185900.knt,GIF0240501091859.UD,2005-01-09, 18:59:00,35.312,136.85,13,4.7,GIF024,35.3009,137.387,432,2005-01-09, 19:00:39,100Hz,60,U-D,0.0006340209495401,4.334,48.74462752975963,1485,0,0,0.4251930884862611,0.4165850989236812,0.4077368985877059,0.4044530733266333,0.4053758587849781,0.0082197370054921,0.0082197370054921,0.0082197370054921,0.0082197370054921,0.0082197370054921,4.3652768644682025,4.3652768644682025,4.3652768644682025,4.3652768644682025,4.3652768644682025,E-W,0.0006340209495401,9.083,N-S,0.0006340209495401,9.597
20050109185900.knt,GIF0260501091859.UD,2005-01-09, 18:59:00,35.312,136.85,13,4.7,GIF026,35.5912,136.7414,145,2005-01-09, 19:00:40,100Hz,62,U-D,0.0006340209495401,5.369,32.5668027579608,1138,0,0,0.7385554271493802,0.4048618171827057,0.4260478288325964,0.5936838467297958,0.8602644190841129,0.0080007527787048,0.0027265883540156,0.0013712684376266,0.0013712684376266,0.0013712684376266,4.629795638717763,3.893129248317873,3.893129248317873,2.733102020116174,2.213972998544069,E-W,0.0006340209495401,10.543,N-S,0.0006340209495401,16.554
20050109185900.knt,ISK0130501091859.UD,2005-01-09, 18:59:00,35.312,136.85,13,4.7,ISK013,36.1805,136.6247,477,2005-01-09, 19:00:59,100Hz,60,U-D,0.0006340209495401,1.11,98.68992955103644,309,0,0,0.6718033581909277,0.7361859817832186,0.7839022559044653,0.8228176044981537,1.2222801833043584,0.0010189993107526,0.0010189993107526,0.0010189993107526,0.0010189993107526,0.0010189993107526,1.0392262218921466,1.0392262218921466,1.0392262218921466,1.0392262218921466,0.6576745295877723,E-W,0.0006340209495401,2.058,N-S,0.0006340209495401,1.945
20050109185900.knt,KYT0070501091859.UD,2005-01-09, 18:59:00,35.312,136.85,13,4.7,KYT007,35.3057,135.713,402,2005-01-09, 19:00:59,100Hz,60,U-D,0.0006340209495401,1.463,103.17368542865576,362,0,0,1.1982167172919933,1.105034101906107,1.0897254547700566,1.1279396403988515,1.1549798110475196,0.0021122587825802,0.0021122587825802,0.0021122587825802,0.0021122587825802,0.0021122587825802,1.4555713232191994,1.4555713232191994,1.4555713232191994,1.4555713232191994,1.4555713232191994,E-W,0.0006340209495401,2.073,N-S,0.0006340209495401,1.745
20050109185900.knt,KYT0100501091859.UD,2005-01-09, 18:59:00,35.312,136.85,13,4.7,KYT010,35.2098,135.7738,402,2005-01-09, 19:00:49,100Hz,61,U-D,0.0006340209495401,2.219,98.3708085756986,1304,0,0,0.46210186971037,0.461364459408048,0.4633973677193151,0.4620210824129923,0.4873750825351679,0.0016698754217254,0.0016698754217254,0.0016698754217254,0.0016698754217254,0.0016698754217254,2.2102473227854547,2.2102473227854547,2.2102473227854547,2.2102473227854547,2.2102473227854547,E-W,0.0006340209495401,3.269,N-S,0.0006340209495401,2.285
20050109185900.knt,KYT0120501091859.UD,2005-01-09, 18:59:00,35.312,136.85,13,4.7,KYT012,34.9962,135.8188,89,2005-01-09, 19:00:47,100Hz,62,U-D,0.0006340209495401,2.096,100.1102042985686,1534,0,0,0.5695887604391606,0.5666989699168963,0.5673560269812894,0.5755197434289656,0.588908146286848,0.0024445071262462,0.0024445071262462,0.0024445071262462,0.0024445071262462,0.0024445071262462,2.093145463437956,2.093145463437956,2.093145463437956,2.093145463437956,2.093145463437956,E-W,0.0006340209495401,3.479,N-S,0.0006340209495401,3.94
20050109185900.knt,KYT0130501091859.UD,2005-01-09, 18:59:00,35.312,136.85,13,4.7,KYT013,34.8784,135.8047,82,2005-01-09, 19:00:01,100Hz,60,U-D,0.0006340209495401,2.188,106.62353366281734,236,0,0,1.4926321369804456,1.6580189652838664,1.753340593915768,1.8685226993426645,1.642607327160654,0.0074291040561144,0.0074291040561144,0.0074291040561144,0.0074291040561144,0.0074291040561144,2.1933511684773404,2.1933511684773404,2.1933511684773404,2.1933511684773404,2.1933511684773404,E-W,0.0006340209495401,1.779,N-S,0.0006340209495401,2.021
20050109185900.knt,MIE0010501091859.UD,2005-01-09, 18:59:00,35.312,136.85,13,4.7,MIE001,35.1718,136.4943,128,2005-01-09, 19:00:42,100Hz,60,U-D,0.0006340209495401,4.259,35.868075455793544,1011,0,0,1.537647161248457,1.7845804847195814,2.2835601335372795,2.303736319226503,1.916985366058435,0.0093670115199669,0.0093670115199669,0.0093670115199669,0.0093670115199669,0.0093670115199669,4.252212493950201,3.900364882592412,3.393406444917243,3.121128143368421,3.121128143368421,E-W,0.0006340209495401,10.94,N-S,0.0006340209495401,9.892
20050109185900.knt,MIE0020501091859.UD,2005-01-09, 18:59:00,35.312,136.85,13,4.7,MIE002,35.0279,136.5073,79,2005-01-09, 19:00:39,100Hz,79,U-D,0.0006340209495401,9.485,44.36527929333565,1473,0,0,0.3078794383615472,0.2806005254065115,0.2148089109507859,0.2155264571796205,0.2764545495492653,0.0036939877558149,0.0036939877558149,0.003431887367514,0.003431887367514,0.003431887367514,9.491509865963868,9.491509865963868,9.491509865963868,9.491509865963868,6.805595335348441,E-W,0.0006340209495401,12.671,N-S,0.0006340209495401,9.636
