earthquake name,records name,earthquake date,earthquake time,lat,long,depth,mag,stn_code,stn_lat,stn_long,stn_height,rcd_date,rcd_time,frequency,rcd_duration,direction,scale_factor,max_pga,epi_dist,pick_index_manually,pick_index_kalkan,snr_db_kalkan,tc_5sec,tc_4sec,tc_3sec,tc_2sec,tc_1sec,Pd_5sec,Pd_4sec,Pd_3sec,Pd_2sec,Pd_1sec,Pga_5sec,Pga_4sec,Pga_3sec,Pga_2sec,Pga_1sec,Channel,Scale_factor,PGA_ew,Channel.1,Scale_factor.1,PGA_ns
20000521231900.knt,HKD0900005212319.UD,2000-05-21, 23:19:00,42.558,143.548,59,4.1,HKD090,43.1213,143.6183,65,2000-05-21, 23:20:00,100Hz,119,U-D,0.0002384185791015,5.881,62.89781341512836,1442,1453.0,36.42336140752494,0.4936437902454369,0.5072994728159633,0.4650120637967511,0.3823677980373242,0.3473994658239522,0.0025916936530668,0.0025916936530668,0.0025916936530668,0.0025916936530668,0.0025916936530668,3.983117175217768,3.983117175217768,3.983117175217768,3.983117175217768,3.983117175217768,E-W,0.0002384185791015,12.546,N-S,0.0002384185791015,8.852
20000521231900.knt,HKD0910005212319.UD,2000-05-21, 23:19:00,42.558,143.548,59,4.1,HKD091,42.8087,143.6588,17,2000-05-21, 23:20:58,100Hz,119,U-D,0.0002384185791015,6.593,29.31090970826342,1405,1391.0,38.10643196090298,0.3653933910877381,0.3450598919526674,0.3105574307383535,0.2911899428325711,0.274597590239903,0.0049588044933148,0.0049588044933148,0.0049588044933148,0.0049588044933148,0.0049588044933148,4.65260316020347,4.65260316020347,4.65260316020347,4.65260316020347,4.65260316020347,E-W,0.0002384185791015,10.389,N-S,0.0002384185791015,17.225
20000521231900.knt,HKD0920005212319.UD,2000-05-21, 23:19:00,42.558,143.548,59,4.1,HKD092,42.9283,143.4483,17,2000-05-21, 23:20:07,100Hz,119,U-D,0.0002384185791015,6.496,41.97268959533318,549,567.0,29.40324626008046,6.369025300899713,5.573825529642772,4.083617880980933,2.469866463512645,1.5364681329167411,0.026097674203672,0.026097674203672,0.0240544010607891,0.0170641738748583,0.0106140353585236,6.232769850846917,6.232769850846917,6.232769850846917,6.232769850846917,6.232769850846917,E-W,0.0002384185791015,18.497,N-S,0.0002384185791015,13.912
20000521231900.knt,HKD0960005212319.UD,2000-05-21, 23:19:00,42.558,143.548,59,4.1,HKD096,42.6975,143.1356,192,2000-05-21, 23:20:57,100Hz,119,U-D,0.0002384185791015,10.572,37.13484443558493,1483,1485.0,37.29283478129717,1.0192841183142134,0.8321882790119368,0.8142090328303017,0.7470664745814176,0.4004305995137,0.0049205712513475,0.0049205712513475,0.0049205712513475,0.0049205712513475,0.0049205712513475,10.522917718833494,10.522917718833494,10.522917718833494,10.522917718833494,10.522917718833494,E-W,0.0002384185791015,5.337,N-S,0.0002384185791015,6.683
20000521231900.knt,HKD0970005212319.UD,2000-05-21, 23:19:00,42.558,143.548,59,4.1,HKD097,42.6181,143.4209,33,2000-05-21, 23:20:57,100Hz,119,U-D,0.0002384185791015,5.173,12.366381188237485,1394,1394.0,33.45802272663998,0.5441438561662976,0.4590169767997361,0.468561481560085,0.4607763014831023,0.4629014109065062,0.003807478059489,0.003807478059489,0.003807478059489,0.003807478059489,0.003807478059489,5.18463892835449,5.18463892835449,5.18463892835449,5.18463892835449,5.18463892835449,E-W,0.0002384185791015,7.003,N-S,0.0002384185791015,10.308
20000521231900.knt,HKD0980005212319.UD,2000-05-21, 23:19:00,42.558,143.548,59,4.1,HKD098,42.4984,143.2787,83,2000-05-21, 23:20:05,100Hz,119,U-D,0.0002384185791015,1.833,23.04128861224948,659,659.0,29.94840915613412,1.140576867632357,0.9814904911907816,0.827268206202751,0.7435785676692269,0.7691416367955612,0.0031556305562414,0.0027925076477554,0.0027925076477554,0.0025714676302135,0.0025714676302135,1.5562479104237712,1.5562479104237712,1.5562479104237712,1.5562479104237712,1.5562479104237712,E-W,0.0002384185791015,5.06,N-S,0.0002384185791015,5.539
20000521231900.knt,HKD1130005212319.UD,2000-05-21, 23:19:00,42.558,143.548,59,4.1,HKD113,42.1287,143.3153,15,2000-05-21, 23:20:06,100Hz,119,U-D,0.0002384185791015,1.804,51.42447294861842,703,714.0,24.79086842508794,2.9550637168871874,2.672900439007577,1.8858971831828293,1.123283787849873,0.5725341832087253,0.0028135553306548,0.0027305947609487,0.0021743566155733,0.0013335802102533,0.0009592331692918,0.99214184967837,0.99214184967837,0.99214184967837,0.99214184967837,0.99214184967837,E-W,0.0002384185791015,5.365,N-S,0.0002384185791015,3.995
20000522121800.knt,GNM0090005221218.UD,2000-05-22, 12:18:00,36.148,139.854,48,3.4,GNM009,36.4106,139.3251,114,2000-05-22, 12:18:20,100Hz,119,U-D,0.0002384185791015,2.307,55.680533691269055,621,621.0,19.36265801571601,7.037432776913882,7.124274599549732,6.87646134456288,5.352188193488183,3.3348890769802235,0.0055165362966715,0.0055165362966715,0.0055165362966715,0.0054714749140566,0.0042260885209904,1.954591717670936,1.954591717670936,1.954591717670936,1.954591717670936,1.954591717670936,E-W,0.0002384185791015,11.848,N-S,0.0002384185791015,13.901
20000522121800.knt,IBR0050005221218.UD,2000-05-22, 12:18:00,36.148,139.854,48,3.4,IBR005,36.3851,140.2372,63,2000-05-22, 12:18:18,100Hz,119,U-D,0.0002384185791015,3.607,43.30535628971992,690,701.0,16.25304877322882,2.4414311443641226,2.716092539778644,2.7188364720656604,1.883262448967526,0.7615460944173661,0.0016305960276373,0.0016305960276373,0.0016305960276373,0.0014457922199401,0.0008373593770748,0.8505152898810386,0.7045138530472439,0.7045138530472439,0.7045138530472439,0.7045138530472439,E-W,0.0002384185791015,4.702,N-S,0.0002384185791015,5.432
20000522121800.knt,IBR0090005221218.UD,2000-05-22, 12:18:00,36.148,139.854,48,3.4,IBR009,36.1848,139.7037,17,2000-05-22, 12:18:16,100Hz,119,U-D,0.0002384185791015,2.301,14.099055129457684,703,208.0,13.87032986001214,18.348963918204426,20.685942451281782,20.64352510130648,16.638429847416,11.138066473177055,0.0201263230017217,0.0201263230017217,0.0201263230017217,0.0201263230017217,0.0165397557935007,1.018999024373944,1.018999024373944,0.796978000019932,0.796978000019932,0.796978000019932,E-W,0.0002384185791015,2.634,N-S,0.0002384185791015,1.458
20000522121800.knt,IBR0170005221218.UD,2000-05-22, 12:18:00,36.148,139.854,48,3.4,IBR017,35.9537,140.3194,17,2000-05-22, 12:18:19,100Hz,119,U-D,0.0002384185791015,1.957,47.088613030419694,608,608.0,17.053268513311966,7.022779482557051,7.261901414370807,6.706404523809941,5.991866198802151,4.8630775760072735,0.0053268948344829,0.0053268948344829,0.0053268948344829,0.0051215291444697,0.0048050423815458,1.256676687522861,1.256676687522861,1.256676687522861,1.256676687522861,1.1806143973994017,E-W,0.0002384185791015,2.084,N-S,0.0002384185791015,2.821
20000522121800.knt,TCG0110005221218.UD,2000-05-22, 12:18:00,36.148,139.854,48,3.4,TCG011,36.3867,139.6145,93,2000-05-22, 12:18:17,100Hz,119,U-D,0.0002384185791015,3.102,34.1398065293926,730,736.0,18.64707160285237,2.324764196214467,2.186280326116621,1.9919669976638383,1.1522379466643426,1.170200044669561,0.0009718055176361,0.0009718055176361,0.0009718055176361,0.0006073765914205,0.0006073765914205,0.6718682580225559,0.6718682580225559,0.6718682580225559,0.6718682580225559,0.6718682580225559,E-W,0.0002384185791015,3.996,N-S,0.0002384185791015,3.205
20000523085600.knt,MYZ0020005230856.UD,2000-05-23, 08:56:00,32.063,132.201,20,4.4,MYZ002,32.6978,131.6831,19,2000-05-23, 08:56:47,100Hz,119,U-D,0.0002384185791015,1.26,85.71830102790102,425,434.0,24.457439988477468,5.103225855808508,3.9000073010613376,2.4758599818377327,1.384270090592788,1.1688532279631048,0.0067150095056914,0.0061974222774395,0.0045524957307378,0.0026319213876682,0.0018207491869294,1.208153673239717,1.208153673239717,1.208153673239717,1.208153673239717,1.084322718028123,E-W,0.0002384185791015,3.8,N-S,0.0002384185791015,3.475
20000523085600.knt,MYZ0030005230856.UD,2000-05-23, 08:56:00,32.063,132.201,20,4.4,MYZ003,32.5659,131.6598,7,2000-05-23, 08:56:44,100Hz,119,U-D,0.0002384185791015,2.904,75.58834461975792,581,181.0,16.364673507523236,4.7678962363037565,4.323161851530903,3.604320886960102,2.4866107492796368,1.479246643317312,0.00858580461138,0.00858580461138,0.0084098665252964,0.007066947220104,0.0048534264913237,1.3361650023226292,1.3361650023226292,1.3361650023226292,1.3361650023226292,1.3361650023226292,E-W,0.0002384185791015,6.575,N-S,0.0002384185791015,3.803
20000523085600.knt,MYZ0060005230856.UD,2000-05-23, 08:56:00,32.063,132.201,20,4.4,MYZ006,32.2565,131.5609,22,2000-05-23, 08:56:40,100Hz,119,U-D,0.0002384185791015,3.835,63.98136032414538,789,790.0,13.45915582413102,6.250691111771125,6.231764522863543,6.067420683271324,5.7346299179429305,5.198712029024232,0.0158139734499803,0.0158139734499803,0.0158139734499803,0.0158139734499803,0.0158139734499803,3.8001672024800097,3.8001672024800097,3.8001672024800097,3.8001672024800097,3.8001672024800097,E-W,0.0002384185791015,6.767,N-S,0.0002384185791015,14.115
20000523085600.knt,MYZ0080005230856.UD,2000-05-23, 08:56:00,32.063,132.201,20,4.4,MYZ008,32.106,131.3928,65,2000-05-23, 08:56:45,100Hz,119,U-D,0.0002384185791015,1.723,76.29164448016401,504,527.0,21.836894661429262,2.906318174885689,2.580353980905835,1.978954614048724,1.5366805755478326,1.2416090393527923,0.0041297452727124,0.0041202063151303,0.0037720216693191,0.0028930284512116,0.0012387659724598,1.168028505726575,1.168028505726575,1.168028505726575,1.1402267367513998,0.8565427005331077,E-W,0.0002384185791015,4.284,N-S,0.0002384185791015,7.351
20000523085600.knt,MYZ0140005230856.UD,2000-05-23, 08:56:00,32.063,132.201,20,4.4,MYZ014,31.8454,131.3026,135,2000-05-23, 08:56:39,100Hz,119,U-D,0.0002384185791015,3.048,88.14577414526745,1429,32.0,14.806358817273043,4.9382069625933696,4.381150518122701,3.101579534965582,1.45765391854309,0.2703086479523837,0.0281783501532926,0.0281783501532926,0.0269224972690601,0.0167175194987208,0.0039241256063674,3.0077775215011653,3.0077775215011653,3.0077775215011653,3.0077775215011653,3.0077775215011653,E-W,0.0002384185791015,2.706,N-S,0.0002384185791015,1.933
20000524192300.knt,HKD1590005241923.UD,2000-05-24, 19:23:00,41.32,142.674,49,4.5,HKD159,41.7162,141.0025,35,2000-05-24, 19:24:28,100Hz,120,U-D,0.0002384185791015,2.792,145.96768126162,910,950.0,26.439358981552807,1.695312275113597,1.572056969564888,1.4967235732657538,2.04935244385734,3.937583724591162,0.002373323351242,0.0022566594997195,0.0022566594997195,0.0022566594997195,0.0022566594997195,0.7423204690563013,0.6712260704228813,0.6712260704228813,0.3842382087228744,0.1669666598410739,E-W,0.0002384185791015,6.207,N-S,0.0002384185791015,6.476
20000526175700.knt,NAR0090005261757.UD,2000-05-26, 17:57:00,33.908,135.257,12,3.4,NAR009,33.938,135.7552,200,2000-05-26, 17:57:12,100Hz,119,U-D,0.0002384185791015,3.423,46.08887726576412,1321,1326.0,21.00661557999632,1.7473464371409149,1.691939034311748,1.4691686524272805,0.7924417295167069,0.182168524419462,0.001878042992791,0.001878042992791,0.0018747662596253,0.0015607900598232,0.0005161101809407,3.433733572555606,3.433733572555606,3.433733572555606,3.433733572555606,3.433733572555606,E-W,0.0002384185791015,2.333,N-S,0.0002384185791015,3.45
20000526175700.knt,WKY0040005261757.UD,2000-05-26, 17:57:00,33.908,135.257,12,3.4,WKY004,34.0838,135.4313,238,2000-05-26, 17:57:11,100Hz,119,U-D,0.0002384185791015,2.154,25.30465825652176,1085,1083.0,11.52058262253064,3.021084527584569,3.210919766215929,4.733682162704334,3.605141312065286,1.846004578228708,0.0028415237379588,0.0028415237379588,0.0028415237379588,0.0026720072870925,0.001794684353257,2.16786017657607,2.16786017657607,2.16786017657607,2.16786017657607,2.16786017657607,E-W,0.0002384185791015,6.229,N-S,0.0002384185791015,4.625
20000526175700.knt,WKY0050005261757.UD,2000-05-26, 17:57:00,33.908,135.257,12,3.4,WKY005,33.8938,135.4883,316,2000-05-26, 17:57:10,100Hz,119,U-D,0.0002384185791015,4.837,21.405492237185992,1121,1121.0,29.55883011501186,5.4041659912871065,5.168840760480423,8.567633591224329,5.629695494961156,2.426018569563784,0.0124975252209396,0.0124975252209396,0.0124975252209396,0.0108319430923284,0.005384286453703,4.857068434130374,4.857068434130374,2.721088744397262,2.721088744397262,2.721088744397262,E-W,0.0002384185791015,11.779,N-S,0.0002384185791015,29.3
20000526175700.knt,WKY0060005261757.UD,2000-05-26, 17:57:00,33.908,135.257,12,3.4,WKY006,33.8908,135.1524,3,2000-05-26, 17:57:05,100Hz,119,U-D,0.0002384185791015,9.683,9.841557326022244,1421,1419.0,20.0384672493932,0.4161862959501817,0.3869502823587784,0.455078030821224,0.7887011551739643,0.8756527930182016,0.0050490248550966,0.0050490248550966,0.0050490248550966,0.0050490248550966,0.0034630149061154,9.708079706260712,9.708079706260712,9.708079706260712,9.708079706260712,9.708079706260712,E-W,0.0002384185791015,32.51,N-S,0.0002384185791015,17.898
20000530232800.knt,FKS0010005302328.UD,2000-05-30, 23:28:00,37.026,141.265,53,4.3,FKS001,37.7949,140.9196,9,2000-05-30, 23:28:14,100Hz,119,U-D,0.0002384185791015,2.806,90.77711175507136,411,422.0,26.123346561231195,5.184890668119045,4.529226199784378,4.445589906950005,4.9815925648717725,6.859082956661577,0.0090432753317446,0.0090432753317446,0.0090432753317446,0.0090432753317446,0.0090432753317446,1.531773027222341,1.531773027222341,1.531773027222341,1.531773027222341,1.531773027222341,E-W,0.0002384185791015,5.624,N-S,0.0002384185791015,4.364
20000530232800.knt,FKS0020005302328.UD,2000-05-30, 23:28:00,37.026,141.265,53,4.3,FKS002,37.8449,140.6013,42,2000-05-30, 23:28:19,100Hz,119,U-D,0.0002384185791015,0.917,108.28328879224038,174,163.0,24.603978816146057,2.424129487647986,2.194439199153736,1.5927236335503745,0.8009345423274924,0.3563834388222955,0.0042603163673071,0.0042603163673071,0.0041188591551032,0.0025541665457296,0.0013884745883147,0.757402765906059,0.757402765906059,0.757402765906059,0.757402765906059,0.757402765906059,E-W,0.0002384185791015,3.538,N-S,0.0002384185791015,3.805
20000530232800.knt,FKS0040005302328.UD,2000-05-30, 23:28:00,37.026,141.265,53,4.3,FKS004,37.6799,140.7346,488,2000-05-30, 23:28:04,100Hz,119,U-D,0.0002384185791015,5.105,86.51397496339291,1378,1380.0,37.58384934713783,1.1785999342164584,1.1106888965998536,0.8803297971526691,0.5872751962011016,0.3658074554193418,0.0040049345362079,0.0040049345362079,0.0040049345362079,0.0032038534963254,0.0032038534963254,4.626541252766662,4.626541252766662,4.626541252766662,4.626541252766662,4.626541252766662,E-W,0.0002384185791015,12.501,N-S,0.0002384185791015,12.945
20000530232800.knt,FKS0050005302328.UD,2000-05-30, 23:28:00,37.026,141.265,53,4.3,FKS005,37.6385,140.9849,16,2000-05-30, 23:28:10,100Hz,119,U-D,0.0002384185791015,3.063,72.4695459224768,593,589.0,25.74225012347676,2.329219121179328,1.917043638135685,1.6509342551205557,1.5968388694975952,1.7438340847062386,0.0043981861208159,0.0042160829730289,0.0042160829730289,0.0042160829730289,0.0042160829730289,2.742994587665745,2.742994587665745,2.742994587665745,2.742994587665745,2.742994587665745,E-W,0.0002384185791015,7.208,N-S,0.0002384185791015,9.928
20000530232800.knt,FKS0060005302328.UD,2000-05-30, 23:28:00,37.026,141.265,53,4.3,FKS006,37.5031,140.7588,472,2000-05-30, 23:28:10,100Hz,119,U-D,0.0002384185791015,3.384,69.43376107250992,567,575.0,25.88041613939061,2.720941075718096,2.2393495248187167,1.7197540137099094,0.9599352288392216,0.8578637969227457,0.0046349998306828,0.0044848282608718,0.0029275544642124,0.0019579973764285,0.0019579973764285,1.328501474837121,1.1863826437236926,0.9819318237955984,0.9819318237955984,0.9819318237955984,E-W,0.0002384185791015,8.386,N-S,0.0002384185791015,6.974
20000530232800.knt,FKS0070005302328.UD,2000-05-30, 23:28:00,37.026,141.265,53,4.3,FKS007,37.4061,140.9632,70,2000-05-30, 23:28:06,100Hz,119,U-D,0.0002384185791015,3.522,50.00551819861116,760,767.0,19.10565766150498,24.960710060907928,26.71310224665017,26.802007197723533,23.17060666262,16.442241554110712,0.0650859823034216,0.0650859823034216,0.0650859823034216,0.0650859823034216,0.0610009027689176,2.0375856121589626,2.031987807713916,2.031987807713916,2.031987807713916,2.031987807713916,E-W,0.0002384185791015,9.023,N-S,0.0002384185791015,8.011
20000530232800.knt,FKS0080005302328.UD,2000-05-30, 23:28:00,37.026,141.265,53,4.3,FKS008,37.4363,140.5668,430,2000-05-30, 23:28:11,100Hz,119,U-D,0.0002384185791015,2.683,76.82711272820869,558,561.0,33.43974290471037,5.335958812076139,5.279821409268625,4.471857674632421,2.506517848016572,0.7423514887491304,0.0082356813128712,0.0082356813128712,0.0082356813128712,0.0064185925430449,0.0022272316245405,1.598082486367893,1.598082486367893,1.598082486367893,1.598082486367893,1.598082486367893,E-W,0.0002384185791015,11.67,N-S,0.0002384185791015,8.158
20000530232800.knt,FKS0090005302328.UD,2000-05-30, 23:28:00,37.026,141.265,53,4.3,FKS009,37.2778,140.6349,440,2000-05-30, 23:28:09,100Hz,119,U-D,0.0002384185791015,3.978,62.46931034369447,602,620.0,19.74123232215505,11.671366483417463,10.364606257484084,8.369156588814993,5.446835260594763,2.207759630418745,0.0160800020181673,0.0160800020181673,0.0149636341243936,0.0123510883195894,0.0066748307200804,1.593679217918681,1.593679217918681,1.593679217918681,1.593679217918681,1.593679217918681,E-W,0.0002384185791015,6.009,N-S,0.0002384185791015,7.842
20000530232800.knt,FKS0110005302328.UD,2000-05-30, 23:28:00,37.026,141.265,53,4.3,FKS011,37.0911,140.9035,165,2000-05-30, 23:28:03,100Hz,119,U-D,0.0002384185791015,3.65,32.88458279817602,943,944.0,32.538274070481975,1.5923690630758691,1.6698115774217053,1.735774610451811,1.9530852005448287,2.338380547932189,0.0052061623893023,0.0052061623893023,0.0052061623893023,0.0052061623893023,0.0052061623893023,2.688165587725647,2.528220672366688,2.528220672366688,1.6778955870568106,1.6778955870568106,E-W,0.0002384185791015,5.082,N-S,0.0002384185791015,7.273
20000530232800.knt,FKS0120005302328.UD,2000-05-30, 23:28:00,37.026,141.265,53,4.3,FKS012,36.9069,140.7929,2,2000-05-30, 23:28:06,100Hz,119,U-D,0.0002384185791015,3.266,43.98399971479706,733,733.0,18.716255298392223,11.207561353527476,12.804218379245135,13.924701801393349,11.916077420696356,8.442929166532119,0.0158040439206323,0.0158040439206323,0.0157741376069842,0.0153030987663637,0.0136456994224834,2.418083892314808,2.418083892314808,2.0478347133498507,2.0478347133498507,2.0478347133498507,E-W,0.0002384185791015,6.068,N-S,0.0002384185791015,14.301
20000530232800.knt,FKS0130005302328.UD,2000-05-30, 23:28:00,37.026,141.265,53,4.3,FKS013,37.09,140.5563,320,2000-05-30, 23:28:09,100Hz,119,U-D,0.0002384185791015,2.627,63.28873096294199,621,630.0,26.275462353485985,7.280240163140051,6.680732579701697,5.36354640954899,3.245535892171368,1.3610535589559845,0.0079426173958959,0.0079426173958959,0.0074738982302321,0.0056366140111823,0.0022127732674241,1.2939934484199325,1.2939934484199325,1.2939934484199325,1.2939934484199325,0.8837902412780534,E-W,0.0002384185791015,4.302,N-S,0.0002384185791015,5.477
20000530232800.knt,FKS0140005302328.UD,2000-05-30, 23:28:00,37.026,141.265,53,4.3,FKS014,36.8683,140.43,178,2000-05-30, 23:28:12,100Hz,119,U-D,0.0002384185791015,1.267,76.24655330491385,500,500.0,25.81116703967889,2.47752746384952,2.590272862858709,2.521226276912799,2.12655429104571,1.3461608330895316,0.0024115147859753,0.0024115147859753,0.0024115147859753,0.0024115147859753,0.0020076371321103,1.0838152237046548,1.0838152237046548,1.0838152237046548,1.0838152237046548,1.0838152237046548,E-W,0.0002384185791015,4.537,N-S,0.0002384185791015,3.821
20000530232800.knt,FKS0160005302328.UD,2000-05-30, 23:28:00,37.026,141.265,53,4.3,FKS016,37.1228,140.1914,375,2000-05-30, 23:28:07,100Hz,119,U-D,0.0002384185791015,2.597,95.85256368175725,1270,1279.0,28.543285376064546,0.44438820104651,0.4318004339960284,0.4331750069182469,0.4292708101221139,0.4526999853738408,0.0038297991756002,0.0038297991756002,0.0038297991756002,0.0038297991756002,0.0038297991756002,2.610609908430656,2.610609908430656,2.610609908430656,2.610609908430656,2.610609908430656,E-W,0.0002384185791015,13.341,N-S,0.0002384185791015,11.305
