earthquake name,records name,earthquake date,earthquake time,lat,long,depth,mag,stn_code,stn_lat,stn_long,stn_height,rcd_date,rcd_time,frequency,rcd_duration,direction,scale_factor,max_pga,epi_dist,pick_index_manually,pick_index_kalkan,snr_db_kalkan,tc_5sec,tc_4sec,tc_3sec,tc_2sec,tc_1sec,Pd_5sec,Pd_4sec,Pd_3sec,Pd_2sec,Pd_1sec,Pga_5sec,Pga_4sec,Pga_3sec,Pga_2sec,Pga_1sec,Channel,Scale_factor,PGA_ew,Channel.1,Scale_factor.1,PGA_ns
20050104050600.knt,YMG0100501040506.UD,2005-01-04, 05:06:00,35.033,131.578,19,4.0,YMG010,34.2304,131.9822,65,2005-01-04, 05:07:59,100Hz,60,U-D,0.0006340209495401,1.79,96.6036785708002,380,0,0,1.2188280757179122,1.2023638409307622,1.1537717837730848,1.2410095677351218,1.7291028429420492,0.0006699724698973,0.0006699724698973,0.0006699724698973,0.0006699724698973,0.0006699724698973,0.6048045757267566,0.6048045757267566,0.6048045757267566,0.6048045757267566,0.5113273844999409,E-W,0.0006340209495401,6.025,N-S,0.0006340209495401,5.235
20050104050600.knt,YMG0160501040506.UD,2005-01-04, 05:06:00,35.033,131.578,19,4.0,YMG016,34.1699,132.1766,7,2005-01-04, 05:07:03,100Hz,60,U-D,0.0006340209495401,0.971,110.50916146364844,209,0,0,0.9844253463857564,0.9254930970760064,0.7925378907577655,0.5188188143483308,0.4194698475053176,0.0006472527334876,0.0006472527334876,0.0006472527334876,0.0004867033714935,0.0004752129570666,0.7378038633831774,0.7378038633831774,0.7378038633831774,0.7378038633831774,0.7378038633831774,E-W,0.0006340209495401,1.99,N-S,0.0006340209495401,1.813
20050106013100.knt,FKS0260501060131.UD,2005-01-06, 01:31:00,37.38,138.965,8,3.5,FKS026,37.266,139.5386,492,2005-01-06, 01:31:42,100Hz,119,U-D,0.0002384185791015,1.243,52.28083904061767,775,0,0,9.28589746638136,9.454857830154957,7.400682669653389,4.283648514775457,2.136256071494673,0.0037377871570158,0.0037377871570158,0.0037377871570158,0.002779303555969,0.0009262684774946,0.3588806483744647,0.3588806483744647,0.3588806483744647,0.3588806483744647,0.3259006489875734,E-W,0.0002384185791015,2.854,N-S,0.0002384185791015,2.662
20050106013100.knt,FKS0280501060131.UD,2005-01-06, 01:31:00,37.38,138.965,8,3.5,FKS028,37.3491,139.3144,375,2005-01-06, 01:31:32,100Hz,119,U-D,0.0002384185791015,3.382,31.06935294785842,1435,0,0,4.657070678983839,4.719739122321565,3.875370687604265,2.684422188858292,1.5997032146650745,0.0060370829804964,0.0060370829804964,0.0060177877530982,0.0049418706263151,0.0035399651905138,3.3822510123477643,3.3822510123477643,3.3822510123477643,3.3822510123477643,3.3822510123477643,E-W,0.0002384185791015,1.622,N-S,0.0002384185791015,1.535
20050106013100.knt,FKS0290501060131.UD,2005-01-06, 01:31:00,37.38,138.965,8,3.5,FKS029,37.0159,139.3801,957,2005-01-06, 01:31:36,100Hz,119,U-D,0.0002384185791015,1.765,54.688926732408426,1394,0,0,3.3112495076454813,3.094122380727516,2.031815131413482,0.8435560533342276,0.2781156819127643,0.002037298182059,0.002037298182059,0.0019322367746479,0.000907075947185,0.0003280464809193,1.7637803996633097,1.7637803996633097,1.7637803996633097,1.7637803996633097,1.7637803996633097,E-W,0.0002384185791015,3.251,N-S,0.0002384185791015,6.909
20050106013100.knt,FKS0300501060131.UD,2005-01-06, 01:31:00,37.38,138.965,8,3.5,FKS030,37.453,139.5133,360,2005-01-06, 01:31:42,100Hz,119,U-D,0.0002384185791015,1.048,49.09890415982497,737,0,0,8.926481335600698,7.61438532562157,7.803841901334812,10.904267954193736,18.1118133306882,0.004309204554092,0.004309204554092,0.004309204554092,0.004309204554092,0.004309204554092,0.3190466365572322,0.3190466365572322,0.3190466365572322,0.3190466365572322,0.3190466365572322,E-W,0.0002384185791015,1.66,N-S,0.0002384185791015,3.576
20050106013100.knt,NIG0280501060131.UD,2005-01-06, 01:31:00,37.38,138.965,8,3.5,NIG028,37.4261,138.8862,-9999,2005-01-06, 01:31:28,200Hz,180,U-D,0.0002384185791015,29.119,8.644384131216146,2805,0,0,0.3668975518869001,0.3358619722309413,0.3021587611950497,0.3026207849040157,0.3213057365713422,0.0306032057195297,0.0306032057195297,0.0291422337397503,0.0291422337397503,0.0291422337397503,29.05758934494653,29.05758934494653,29.05758934494653,29.05758934494653,29.05758934494653,E-W,0.0002384185791015,48.369,N-S,0.0002384185791015,55.944
20050106060600.knt,NGN0030501060606.UD,2005-01-06, 06:06:00,36.68,138.238,3,2.7,NGN003,36.7403,138.4129,581,2005-01-06, 06:06:20,100Hz,60,U-D,0.0006340209495401,1.265,16.971528422549632,1309,0,0,0.4714698263785417,0.4935498453429441,0.5791072030280182,0.5475806390409926,0.3569938764059832,0.00077189735889,0.00077189735889,0.00077189735889,0.0004851219155488,0.000406650993131,1.270073452436726,1.270073452436726,1.270073452436726,1.270073452436726,1.270073452436726,E-W,0.0006340209495401,2.566,N-S,0.0006340209495401,3.403
20050106060600.knt,NGN0040501060606.UD,2005-01-06, 06:06:00,36.68,138.238,3,2.7,NGN004,36.6486,138.1938,360,2005-01-06, 06:06:16,100Hz,60,U-D,0.0006340209495401,9.031,5.26624189248896,1562,0,0,0.1437383043557675,0.134376543871336,0.1286185796795377,0.1290713612912968,0.1248935672316347,0.0025698184007201,0.0025698184007201,0.0025698184007201,0.0025698184007201,0.0021830787201123,9.045456007509316,9.045456007509316,9.045456007509316,9.045456007509316,7.117977293265393,E-W,0.0006340209495401,16.954,N-S,0.0006340209495401,25.992
20050106220000.knt,AOM0010501062200.UD,2005-01-06, 22:00:00,41.457,142.103,61,5.3,AOM001,41.5267,140.9244,39,2005-01-06, 22:02:57,100Hz,119,U-D,0.0002384185791015,2.631,98.47094163785552,1383,0,0,0.9398529894543036,0.9320520805415756,0.830833046715945,0.6470620194221652,0.5944439803065075,0.0059794626208205,0.0059794626208205,0.0059794626208205,0.0059794626208205,0.0054783220338344,2.6119789767148407,2.6119789767148407,2.6119789767148407,2.6119789767148407,2.204000837312977,E-W,0.0002384185791015,7.15,N-S,0.0002384185791015,7.407
20050106220000.knt,AOM0020501062200.UD,2005-01-06, 22:00:00,41.457,142.103,61,5.3,AOM002,41.328,140.8132,10,2005-01-06, 22:02:00,100Hz,119,U-D,0.0002384185791015,2.317,108.54365777182188,1226,0,0,3.1579361449316696,2.7977188906596324,2.068735558657399,1.383582707453859,0.8009155986618227,0.0099928721036739,0.0099928721036739,0.0085697389609395,0.0079620897863824,0.0018913926798389,2.0103331518244985,2.0103331518244985,2.0103331518244985,1.6138103562280943,0.6762401216163033,E-W,0.0002384185791015,4.974,N-S,0.0002384185791015,6.153
20050106220000.knt,AOM0040501062200.UD,2005-01-06, 22:00:00,41.457,142.103,61,5.3,AOM004,41.4087,141.4486,30,2005-01-06, 22:02:52,100Hz,119,U-D,0.0002384185791015,6.711,54.81854396841537,1413,0,0,0.5801703728034224,0.5862057553089494,0.5738564160836932,0.5531070891465913,0.9101744233437576,0.0117292569864261,0.0117292569864261,0.0117292569864261,0.0117292569864261,0.0117292569864261,5.06740424103507,5.06740424103507,5.06740424103507,5.06740424103507,4.291619416426485,E-W,0.0002384185791015,15.246,N-S,0.0002384185791015,32.529
20050106220000.knt,AOM0050501062200.UD,2005-01-06, 22:00:00,41.457,142.103,61,5.3,AOM005,41.2948,141.1972,10,2005-01-06, 22:02:07,100Hz,119,U-D,0.0002384185791015,7.012,77.70123794823367,213,0,0,7.419490781629654,7.900111673018749,9.04159272005059,10.602894113043522,11.694771131612626,0.1163272544842201,0.1163272544842201,0.1163272544842201,0.1163272544842201,0.1051837845204426,4.325137251768964,4.325137251768964,4.325137251768964,4.325137251768964,3.647716188428711,E-W,0.0002384185791015,19.691,N-S,0.0002384185791015,16.105
20050106220000.knt,AOM0070501062200.UD,2005-01-06, 22:00:00,41.457,142.103,61,5.3,AOM007,41.2256,141.3958,10,2005-01-06, 22:02:53,100Hz,120,U-D,0.0002384185791015,19.828,64.4027824415617,1423,0,0,0.4076657680771355,0.3956226982454006,0.4107081213575628,0.5274728537502841,0.6177979576794066,0.0086883261943081,0.0086883261943081,0.0086883261943081,0.0086883261943081,0.0086883261943081,7.052129589878871,7.052129589878871,7.052129589878871,7.052129589878871,4.175190204230622,E-W,0.0002384185791015,34.991,N-S,0.0002384185791015,29.565
20050106220000.knt,AOM0090501062200.UD,2005-01-06, 22:00:00,41.457,142.103,61,5.3,AOM009,40.9665,141.3733,10,2005-01-06, 22:02:01,100Hz,119,U-D,0.0002384185791015,8.625,81.85608085443238,803,0,0,2.0343480044617204,2.121200106943711,2.180857451396538,2.09592175912346,2.911481248476195,0.0109209832467946,0.0109209832467946,0.0109209832467946,0.0109209832467946,0.0109209832467946,2.526606697035449,2.526606697035449,1.897082682741985,1.6746992748565337,1.412099168928891,E-W,0.0002384185791015,8.875,N-S,0.0002384185791015,11.539
20050106220000.knt,AOM0110501062200.UD,2005-01-06, 22:00:00,41.457,142.103,61,5.3,AOM011,40.6803,141.3669,41,2005-01-06, 22:02:00,100Hz,119,U-D,0.0002384185791015,9.315,106.14481539600727,1248,0,0,0.4947148995156657,0.5354488435674103,0.6100125698607268,0.8291527584623292,0.810494511835952,0.0086583664466716,0.0086583664466716,0.0086583664466716,0.0086583664466716,0.0086583664466716,4.420951786185553,3.6230946468799368,3.298414706311497,2.666682240604622,1.770407035430602,E-W,0.0002384185791015,18.767,N-S,0.0002384185791015,17.474
20050106220000.knt,AOM0120501062200.UD,2005-01-06, 22:00:00,41.457,142.103,61,5.3,AOM012,40.5138,141.4805,15,2005-01-06, 22:02:02,100Hz,119,U-D,0.0002384185791015,10.572,117.17355812358365,1113,0,0,0.5591973823753563,0.3432436589417776,0.4269914507748055,0.5916418518451586,0.8214539308222983,0.0040441614712486,0.0026638160342671,0.0014716101515819,0.0012094224951199,0.0012094224951199,3.875289754787641,3.875289754787641,1.7993427436826492,1.158670488374153,0.885948372873431,E-W,0.0002384185791015,17.112,N-S,0.0002384185791015,22.101
20050106220000.knt,HKD1580501062200.UD,2005-01-06, 22:00:00,41.457,142.103,61,5.3,HKD158,41.8345,141.1411,6,2005-01-06, 22:02:56,100Hz,119,U-D,0.0002384185791015,11.905,90.2779173185448,1377,0,0,0.4431653517297469,0.4665901324166349,0.4384424536783295,0.3771188143207745,0.4961847133732106,0.0130064704235325,0.0130064704235325,0.0130064704235325,0.0130064704235325,0.0041467499208667,11.972539047338644,11.972539047338644,11.972539047338644,11.972539047338644,4.486370616378888,E-W,0.0002384185791015,12.053,N-S,0.0002384185791015,17.228
20050106220000.knt,HKD1590501062200.UD,2005-01-06, 22:00:00,41.457,142.103,61,5.3,HKD159,41.7162,141.0025,35,2005-01-06, 22:02:57,100Hz,120,U-D,0.0002384185791015,12.681,95.95693647224452,1349,0,0,0.7423629202822806,0.6851203313113796,0.5860895622943276,0.549330680707921,0.7186884712674362,0.0098130809638113,0.0098130809638113,0.0084705043165184,0.0084705043165184,0.0065673755799721,8.166387863316318,8.166387863316318,8.166387863316318,6.9666133631922005,2.557783208851242,E-W,0.0002384185791015,42.593,N-S,0.0002384185791015,18.32
20050106220000.knt,IWT0010501062200.UD,2005-01-06, 22:00:00,41.457,142.103,61,5.3,IWT001,40.4099,141.7191,15,2005-01-06, 22:02:04,100Hz,119,U-D,0.0002384185791015,8.888,120.81549359971908,952,0,0,1.3928619863325855,1.4037337493979525,1.6884614443248258,2.111520500706716,3.0739488876373744,0.0042933924569526,0.0042933924569526,0.0042933924569526,0.0042933924569526,0.0036157541179114,3.41777441927402,3.41777441927402,2.171584565750748,1.886703947325837,0.5608397750732453,E-W,0.0002384185791015,20.545,N-S,0.0002384185791015,14.778
20050106220000.knt,IWT0240501062200.UD,2005-01-06, 22:00:00,41.457,142.103,61,5.3,IWT024,40.2632,141.2901,94,2005-01-06, 22:02:06,100Hz,119,U-D,0.0002384185791015,3.567,149.31185203617852,1149,0,0,1.8989063662973864,0.7793013402984468,0.6842143877939008,1.1673121708241772,2.517132920375374,0.007028708291599,0.0025131431019825,0.0011910973510978,0.0011910973510978,0.0011910973510978,1.8194094210834568,1.8194094210834568,1.8194094210834568,0.7201337876437097,0.186080728321185,E-W,0.0002384185791015,11.679,N-S,0.0002384185791015,8.33
20050107093900.knt,HKD0690501070939.UD,2005-01-07, 09:39:00,42.997,145.313,48,3.7,HKD069,43.3941,145.1168,25,2005-01-07, 09:39:39,100Hz,119,U-D,0.0002384185791015,3.694,46.93253850661504,616,0,0,4.079340867356037,4.025619239848083,3.4171530460909345,2.320218551187364,0.6593949014446209,0.0033283959949405,0.0033283959949405,0.0033233744746546,0.0028185015664389,0.0014299868237096,1.3258886879520604,1.3258886879520604,1.3258886879520604,1.3258886879520604,1.3258886879520604,E-W,0.0002384185791015,6.304,N-S,0.0002384185791015,6.807
20050107093900.knt,HKD0710501070939.UD,2005-01-07, 09:39:00,42.997,145.313,48,3.7,HKD071,43.2326,145.2604,38,2005-01-07, 09:39:35,100Hz,119,U-D,0.0002384185791015,4.915,26.54316327184582,778,0,0,32.56654744095634,37.25691436728745,41.34253526013462,37.37908659933158,25.608825653834764,0.5084148266805842,0.5084148266805842,0.5084148266805842,0.5084148266805842,0.4899374982413526,2.106842736194653,2.106842736194653,2.0609999451022194,2.0609999451022194,1.5722907405427495,E-W,0.0002384185791015,12.149,N-S,0.0002384185791015,9.511
20050107093900.knt,HKD0720501070939.UD,2005-01-07, 09:39:00,42.997,145.313,48,3.7,HKD072,43.1948,145.5209,46,2005-01-07, 09:39:35,100Hz,119,U-D,0.0002384185791015,2.257,27.72553467160738,834,0,0,7.140227280517377,5.657804882244876,6.304819447500323,7.301586052961507,7.777755479530017,0.0143810267598865,0.0096133272935058,0.0096133272935058,0.0096133272935058,0.0096133272935058,1.3778263020213954,1.3778263020213954,1.3778263020213954,1.3778263020213954,1.3778263020213954,E-W,0.0002384185791015,8.319,N-S,0.0002384185791015,5.203
20050107093900.knt,HKD0730501070939.UD,2005-01-07, 09:39:00,42.997,145.313,48,3.7,HKD073,43.3327,145.6003,36,2005-01-07, 09:39:36,100Hz,119,U-D,0.0002384185791015,3.24,44.0037784730234,814,0,0,7.442081147374332,7.36303202626232,6.878543453493264,5.864208989594776,4.580588304631363,0.0090417050996447,0.0090417050996447,0.0090417050996447,0.0090417050996447,0.0090417050996447,2.962865025491237,2.962865025491237,2.962865025491237,2.962865025491237,2.962865025491237,E-W,0.0002384185791015,11.439,N-S,0.0002384185791015,14.239
20050107093900.knt,HKD0740501070939.UD,2005-01-07, 09:39:00,42.997,145.313,48,3.7,HKD074,43.368,145.8026,16,2005-01-07, 09:39:39,100Hz,119,U-D,0.0002384185791015,4.281,57.25101251213528,657,0,0,3.806855846669405,3.1644984667233365,2.5829496864328565,2.112469823657165,1.4772373489971529,0.0049251764337664,0.0041051228336721,0.003485314354408,0.003485314354408,0.003485314354408,2.367340557712976,2.367340557712976,2.367340557712976,2.367340557712976,2.367340557712976,E-W,0.0002384185791015,5.521,N-S,0.0002384185791015,6.994
20050107093900.knt,HKD0750501070939.UD,2005-01-07, 09:39:00,42.997,145.313,48,3.7,HKD075,43.0767,145.1296,11,2005-01-07, 09:39:34,100Hz,119,U-D,0.0002384185791015,8.545,17.341211660334334,871,0,0,2.115147685413916,2.4960943603265338,2.653067919536715,2.986378378634857,4.097911221049313,0.0025134981603531,0.0025134981603531,0.0025134981603531,0.0025134981603531,0.0025134981603531,1.4953577613593905,1.3624853244638533,1.3624853244638533,1.3624853244638533,0.9369404360629604,E-W,0.0002384185791015,14.403,N-S,0.0002384185791015,9.565
20050107093900.knt,HKD0780501070939.UD,2005-01-07, 09:39:00,42.997,145.313,48,3.7,HKD078,43.1486,144.4976,21,2005-01-07, 09:39:42,100Hz,119,U-D,0.0002384185791015,2.486,68.34323978764284,494,0,0,2.074501981817616,1.7918587586278316,1.2671655283058014,0.8171827835083693,0.807116942526896,0.0037803476776508,0.0037803476776508,0.0034653586896295,0.0026466394534228,0.0026466394534228,2.487049205164835,2.487049205164835,2.487049205164835,2.487049205164835,2.487049205164835,E-W,0.0002384185791015,8.073,N-S,0.0002384185791015,3.683
20050107233800.knt,GIF0070501072338.UD,2005-01-07, 23:38:00,35.725,138.172,22,3.9,GIF007,36.0378,137.4861,995,2005-01-07, 23:38:22,100Hz,60,U-D,0.0006340209495401,1.232,70.91110960332477,672,0,0,1.1820083889714563,1.110081073210196,0.9943602325751284,0.8355021060510465,0.6378314625749731,0.0012355602291868,0.0012355602291868,0.0012355602291868,0.0011589249394979,0.0009550092873608,0.9678752782001976,0.9678752782001976,0.9678752782001976,0.9678752782001976,0.9678752782001976,E-W,0.0006340209495401,2.616,N-S,0.0006340209495401,2.431
20050107233800.knt,GIF0180501072338.UD,2005-01-07, 23:38:00,35.725,138.172,22,3.9,GIF018,35.4887,137.5,320,2005-01-07, 23:38:21,100Hz,60,U-D,0.0006340209495401,1.234,66.19053587564872,670,0,0,2.1977962391147554,2.2132574893367827,2.209371918537696,2.164494443661575,2.167642397793045,0.0008897443408639,0.0008897443408639,0.0008897443408639,0.0008897443408639,0.0008897443408639,0.430015720425131,0.430015720425131,0.430015720425131,0.430015720425131,0.430015720425131,E-W,0.0006340209495401,3.613,N-S,0.0006340209495401,3.188
20050107233800.knt,GNM0160501072338.UD,2005-01-07, 23:38:00,35.725,138.172,22,3.9,GNM016,36.1162,138.9251,344,2005-01-07, 23:38:26,100Hz,119,U-D,0.0002384185791015,0.793,80.56759761341722,398,0,0,7.167607953233418,6.4006589652359285,4.97094289803722,3.265952183495977,4.2914883806077935,0.0032845596470559,0.0032845596470559,0.0031893479311995,0.0025069739678447,0.0025069739678447,0.3478831681128398,0.3478831681128398,0.3478831681128398,0.3399705314432516,0.3399705314432516,E-W,0.0002384185791015,2.599,N-S,0.0002384185791015,2.432
20050107233800.knt,NGN0120501072338.UD,2005-01-07, 23:38:00,35.725,138.172,22,3.9,NGN012,36.2564,137.9785,641,2005-01-07, 23:38:20,100Hz,60,U-D,0.0006340209495401,1.0,61.6001376229296,743,0,0,3.172542446697304,3.161939351761356,3.00406133175816,2.451379225474076,1.6444347399392591,0.0014531431505011,0.0014531431505011,0.0014531431505011,0.001410491960175,0.001221580925147,1.0017243488025875,1.0017243488025875,1.0017243488025875,1.0017243488025875,1.0017243488025875,E-W,0.0006340209495401,1.294,N-S,0.0006340209495401,1.187
20050107233800.knt,NGN0130501072338.UD,2005-01-07, 23:38:00,35.725,138.172,22,3.9,NGN013,36.1833,137.7852,730,2005-01-07, 23:38:20,100Hz,60,U-D,0.0006340209495401,0.971,61.718197087739405,726,0,0,1.060838277375733,1.1040658499412137,1.1829498764694937,0.9795380758144482,0.5279165577753354,0.0003686803280681,0.0003686803280681,0.0003686803280681,0.0003500828953853,0.0001562273230959,0.3930034803866219,0.3930034803866219,0.3515915067932399,0.3106815722458416,0.1954007285149326,E-W,0.0006340209495401,1.706,N-S,0.0006340209495401,2.263
20050107233800.knt,NGN0140501072338.UD,2005-01-07, 23:38:00,35.725,138.172,22,3.9,NGN014,36.0956,138.4844,857,2005-01-07, 23:38:10,100Hz,60,U-D,0.0006340209495401,17.398,49.897280009196095,1540,0,0,0.1156699485274819,0.1154697584658278,0.114481093604713,0.1132333479608902,0.1124461761466671,0.0037065018597797,0.0037065018597797,0.0037065018597797,0.0037065018597797,0.0037065018597797,17.014632587890272,17.014632587890272,17.014632587890272,17.014632587890272,17.014632587890272,E-W,0.0006340209495401,25.313,N-S,0.0006340209495401,30.587
20050107233800.knt,NGN0150501072338.UD,2005-01-07, 23:38:00,35.725,138.172,22,3.9,NGN015,36.0454,138.1116,761,2005-01-07, 23:38:15,100Hz,60,U-D,0.0006340209495401,2.489,36.03999676877346,853,0,0,4.558189735237757,4.761726028605216,4.3168782470114735,3.578119309421883,2.760221674441344,0.0060221415314326,0.0060221415314326,0.0060221415314326,0.0054623322134508,0.0048555640919558,1.1721767389033344,1.1721767389033344,1.1721767389033344,1.1721767389033344,1.1721767389033344,E-W,0.0006340209495401,4.801,N-S,0.0006340209495401,3.373
20050107233800.knt,NGN0160501072338.UD,2005-01-07, 23:38:00,35.725,138.172,22,3.9,NGN016,35.9151,138.2421,970,2005-01-07, 23:38:07,100Hz,60,U-D,0.0006340209495401,4.156,22.06285749506845,1472,0,0,0.1789724562844278,0.1466273050895438,0.1436411186103345,0.1502076392201564,0.1574196052264988,0.002660928542643,0.0013591370705619,0.0012241879940579,0.0012221315679989,0.0012221315679989,4.143907833458018,4.143907833458018,4.025277512308188,4.025277512308188,4.025277512308188,E-W,0.0006340209495401,8.255,N-S,0.0006340209495401,10.171
