earthquake name,records name,earthquake date,earthquake time,lat,long,depth,mag,stn_code,stn_lat,stn_long,stn_height,rcd_date,rcd_time,frequency,rcd_duration,direction,scale_factor,max_pga,epi_dist,pick_index_manually,pick_index_kalkan,snr_db_kalkan,tc_5sec,tc_4sec,tc_3sec,tc_2sec,tc_1sec,Pd_5sec,Pd_4sec,Pd_3sec,Pd_2sec,Pd_1sec,Pga_5sec,Pga_4sec,Pga_3sec,Pga_2sec,Pga_1sec,Channel,Scale_factor,PGA_ew,Channel.1,Scale_factor.1,PGA_ns
20050107233800.knt,NGN0170501072338.UD,2005-01-07, 23:38:00,35.725,138.172,22,3.9,NGN017,35.9748,137.8255,927,2005-01-07, 23:38:09,100Hz,60,U-D,0.0006340209495401,8.093,41.79513650728716,1532,0,0,0.185641525484598,0.1871525477961637,0.1936904590401065,0.206753951825903,0.2290112452599472,0.0009870079578502,0.0009870079578502,0.0009870079578502,0.0009870079578502,0.0009870079578502,2.3674260085385885,2.3674260085385885,2.3674260085385885,2.3674260085385885,2.3674260085385885,E-W,0.0006340209495401,13.131,N-S,0.0006340209495401,13.47
20050107233800.knt,NGN0190501072338.UD,2005-01-07, 23:38:00,35.725,138.172,22,3.9,NGN019,35.8562,137.7078,788,2005-01-07, 23:38:16,100Hz,60,U-D,0.0006340209495401,2.275,44.33815473591526,860,0,0,31.9713658534944,37.42728570218996,48.59826405677633,73.22240762392393,82.8654323855647,0.5380125652682971,0.5380125652682971,0.5380125652682971,0.5380125652682971,0.5380125652682971,2.30362542320458,2.30362542320458,2.30362542320458,2.30362542320458,2.30362542320458,E-W,0.0006340209495401,3.257,N-S,0.0006340209495401,3.734
20050107233800.knt,NGN0200501072338.UD,2005-01-07, 23:38:00,35.725,138.172,22,3.9,NGN020,35.8282,137.9532,636,2005-01-07, 23:38:10,100Hz,60,U-D,0.0006340209495401,3.395,22.83183532382792,1181,0,0,0.4172213261912874,0.4523294607410311,0.5019717033087608,0.4922431320325275,0.430940916891996,0.0023103393426868,0.0023103393426868,0.0023103393426868,0.0023103393426868,0.0023103393426868,3.404092009833999,3.404092009833999,3.404092009833999,3.404092009833999,3.404092009833999,E-W,0.0006340209495401,4.037,N-S,0.0006340209495401,2.551
20050107233800.knt,NGN0210501072338.UD,2005-01-07, 23:38:00,35.725,138.172,22,3.9,NGN021,35.7304,137.9341,679,2005-01-07, 23:38:10,100Hz,60,U-D,0.0006340209495401,4.246,21.4831895058616,1165,0,0,0.8729535711333279,0.9098961149576956,0.9711518337718912,0.9845805082866852,0.8767602600217038,0.0020178350188058,0.0020178350188058,0.0020178350188058,0.0020178350188058,0.0020178350188058,4.260868656119947,4.260868656119947,4.260868656119947,4.260868656119947,4.260868656119947,E-W,0.0006340209495401,7.826,N-S,0.0006340209495401,9.011
20050107233800.knt,NGN0220501072338.UD,2005-01-07, 23:38:00,35.725,138.172,22,3.9,NGN022,35.6079,137.6125,451,2005-01-07, 23:38:17,100Hz,60,U-D,0.0006340209495401,3.274,52.194031485799904,880,0,0,1.3719408872271392,1.3860264658217554,1.368261523367623,1.3290321982232909,1.124444538290054,0.0028608340944475,0.0028608340944475,0.0028608340944475,0.0028608340944475,0.0028608340944475,2.140269395235807,2.140269395235807,2.140269395235807,2.140269395235807,2.140269395235807,E-W,0.0006340209495401,17.996,N-S,0.0006340209495401,17.294
20050107233800.knt,NGN0230501072338.UD,2005-01-07, 23:38:00,35.725,138.172,22,3.9,NGN023,35.5787,138.0338,674,2005-01-07, 23:38:10,100Hz,60,U-D,0.0006340209495401,7.776,20.507684445874013,1145,0,0,0.1797970513183094,0.1960657540181955,0.2335077346418071,0.279242976076566,0.5945169340207953,0.0018037307433307,0.0018037307433307,0.0007671340479893,0.0007671340479893,0.0007671340479893,7.769079009352835,7.769079009352835,4.913450884931277,4.913450884931277,2.25797073265152,E-W,0.0006340209495401,17.349,N-S,0.0006340209495401,19.706
20050107233800.knt,NGN0240501072338.UD,2005-01-07, 23:38:00,35.725,138.172,22,3.9,NGN024,35.5232,137.8374,538,2005-01-07, 23:38:14,100Hz,60,U-D,0.0006340209495401,4.834,37.65831613733154,979,0,0,3.3147994685425246,3.952210911339256,4.35017875907347,5.024742032431039,6.82557740070544,0.0053964425026893,0.0053964425026893,0.0053964425026893,0.0053964425026893,0.0053964425026893,2.065030769574122,1.4116190232153871,1.4116190232153871,1.4116190232153871,1.1936748976606912,E-W,0.0006340209495401,6.406,N-S,0.0006340209495401,6.898
20050107233800.knt,NGN0250501072338.UD,2005-01-07, 23:38:00,35.725,138.172,22,3.9,NGN025,35.2807,137.8567,400,2005-01-07, 23:38:19,100Hz,60,U-D,0.0006340209495401,0.777,57.05578442726492,726,0,0,9.711326818562002,9.695390442745529,9.426441395361758,9.647549508060226,11.029014180887032,0.0039054466432508,0.0039054466432508,0.0039054466432508,0.0038588729500322,0.0033595185678101,0.7751714603938096,0.7751714603938096,0.7751714603938096,0.5331800274403415,0.2916905143144549,E-W,0.0006340209495401,1.686,N-S,0.0006340209495401,1.356
20050107233800.knt,SIT0140501072338.UD,2005-01-07, 23:38:00,35.725,138.172,22,3.9,SIT014,35.9954,138.801,748,2005-01-07, 23:38:21,100Hz,119,U-D,0.0002384185791015,5.346,64.16455963253638,645,0,0,4.386344923002196,4.677380990926297,4.728673589746143,4.266492075600647,3.733196090215454,0.0035940564884077,0.0035940564884077,0.0035940564884077,0.0033812346202451,0.0027808365488071,1.2486736421112643,1.2486736421112643,1.2486736421112643,1.2486736421112643,0.9623610114432508,E-W,0.0002384185791015,11.56,N-S,0.0002384185791015,8.824
20050107233800.knt,SZO0150501072338.UD,2005-01-07, 23:38:00,35.725,138.172,22,3.9,SZO015,35.2435,138.3407,452,2005-01-07, 23:38:18,100Hz,60,U-D,0.0006340209495401,1.595,55.67657679395958,813,0,0,2.131756887184804,2.157710839571348,2.1545682754780127,1.9487112816644825,1.5998524224566109,0.0018508495685074,0.0018508495685074,0.0018508495685074,0.0018508495685074,0.0018508495685074,1.5927134701128225,1.5927134701128225,1.5927134701128225,1.5927134701128225,1.5927134701128225,E-W,0.0006340209495401,3.664,N-S,0.0006340209495401,1.844
20050107233800.knt,YMN0010501072338.UD,2005-01-07, 23:38:00,35.725,138.172,22,3.9,YMN001,35.7895,138.9198,617,2005-01-07, 23:38:21,100Hz,60,U-D,0.0006340209495401,2.097,67.85741159291969,689,0,0,1.556500795882806,1.4396608989749118,1.2922261361399554,1.0824579843011348,0.8088873634416522,0.0006169735708982,0.0006169735708982,0.0006169735708982,0.0005969641460645,0.0004387491576733,0.6788324046039207,0.6788324046039207,0.6788324046039207,0.6788324046039207,0.5681960236263238,E-W,0.0006340209495401,3.953,N-S,0.0006340209495401,4.377
20050107233800.knt,YMN0020501072338.UD,2005-01-07, 23:38:00,35.725,138.172,22,3.9,YMN002,35.6132,138.947,368,2005-01-07, 23:38:22,100Hz,60,U-D,0.0006340209495401,1.623,71.10424587385326,661,0,0,1.042473673714576,1.01246854072208,0.9206279352301788,0.8306933889726726,0.6322581053660902,0.0014572994249903,0.0014572994249903,0.0014572994249903,0.0014572994249903,0.0012234917416429,1.626006973998275,1.626006973998275,1.626006973998275,1.626006973998275,1.626006973998275,E-W,0.0006340209495401,2.782,N-S,0.0006340209495401,4.754
20050107233800.knt,YMN0040501072338.UD,2005-01-07, 23:38:00,35.725,138.172,22,3.9,YMN004,35.702,138.7266,393,2005-01-07, 23:38:17,100Hz,60,U-D,0.0006340209495401,2.55,50.13686376037546,837,0,0,3.133118106833847,3.436629260832573,3.8903483412930777,3.933554595930128,4.009941486115353,0.0032199035584634,0.0032199035584634,0.0032199035584634,0.0032199035584634,0.0032199035584634,1.260796725776563,1.260796725776563,1.260796725776563,1.260796725776563,1.260796725776563,E-W,0.0006340209495401,7.271,N-S,0.0006340209495401,3.5
20050107233800.knt,YMN0050501072338.UD,2005-01-07, 23:38:00,35.725,138.172,22,3.9,YMN005,35.6548,138.5677,263,2005-01-07, 23:38:13,100Hz,60,U-D,0.0006340209495401,2.026,36.57862770631268,1053,0,0,0.5189883108480908,0.7736697861370434,0.830483937063838,0.839724361661638,1.0450706698418546,0.0009749154543655,0.0008014822972541,0.0008014822972541,0.0008014822972541,0.0008014822972541,1.936803598214096,0.8352553026505604,0.8352553026505604,0.8352553026505604,0.8352553026505604,E-W,0.0006340209495401,4.582,N-S,0.0006340209495401,6.592
20050107233800.knt,YMN0060501072338.UD,2005-01-07, 23:38:00,35.725,138.172,22,3.9,YMN006,35.4684,138.6069,927,2005-01-07, 23:38:17,100Hz,60,U-D,0.0006340209495401,0.771,48.58321140115717,842,0,0,4.887612232385489,5.021023590992049,4.925075151226599,4.719851806369053,5.038304684033986,0.0028615124134106,0.0028615124134106,0.0028615124134106,0.0028615124134106,0.0026892875121999,0.7694449820075421,0.7694449820075421,0.7694449820075421,0.7694449820075421,0.7694449820075421,E-W,0.0006340209495401,1.409,N-S,0.0006340209495401,2.032
20050107233800.knt,YMN0080501072338.UD,2005-01-07, 23:38:00,35.725,138.172,22,3.9,YMN008,35.432,138.3321,388,2005-01-07, 23:38:08,100Hz,60,U-D,0.0006340209495401,3.222,35.65252876591711,1522,0,0,0.2690937439277979,0.2653202723069112,0.2551126505073349,0.2339192083935156,0.1927704799107326,0.0010464197682794,0.0010464197682794,0.0010464197682794,0.0010464197682794,0.0010464197682794,3.207727393786126,3.207727393786126,3.207727393786126,3.207727393786126,3.207727393786126,E-W,0.0006340209495401,3.417,N-S,0.0006340209495401,6.058
20050107233800.knt,YMN0100501072338.UD,2005-01-07, 23:38:00,35.725,138.172,22,3.9,YMN010,35.7918,138.4096,530,2005-01-07, 23:38:10,100Hz,60,U-D,0.0006340209495401,6.956,22.689695274771868,1178,0,0,0.1494217124980978,0.1488327049447426,0.1631952786715712,0.1909598200291387,0.2679547369896488,0.0016060703124882,0.0013183020166556,0.0005278022265397,0.0005278022265397,0.0005278022265397,6.963614477694035,5.52407169786937,2.341785563266197,1.7056433274594285,1.3814916324023168,E-W,0.0006340209495401,17.299,N-S,0.0006340209495401,12.167
20050107233800.knt,YMN0110501072338.UD,2005-01-07, 23:38:00,35.725,138.172,22,3.9,YMN011,35.6382,138.3835,640,2005-01-07, 23:38:10,100Hz,60,U-D,0.0006340209495401,2.041,21.402593284630942,1154,0,0,0.4548535535212463,0.5475983297317876,0.6144461277155318,0.6844134275368379,2.7608328536725435,0.0005970172121987,0.0005970172121987,0.0005970172121987,0.0005970172121987,0.0005970172121987,2.03374545492263,2.03374545492263,2.03374545492263,2.03374545492263,0.4446369541050678,E-W,0.0006340209495401,3.467,N-S,0.0006340209495401,2.776
20050109181200.knt,FKS0290501091812.UD,2005-01-09, 18:12:00,37.367,139.03,0,3.2,FKS029,37.0159,139.3801,957,2005-01-09, 18:12:40,100Hz,120,U-D,0.0002384185791015,0.92,49.85872282396586,762,0,0,3.309520683104578,2.099745167281988,1.5872322180066458,0.775032520209898,1.0404493185825927,0.0011418868022754,0.0005074006358074,0.0005036798834897,0.0002957511746541,0.0002957511746541,0.4735401107638757,0.4735401107638757,0.4735401107638757,0.4735401107638757,0.4735401107638757,E-W,0.0002384185791015,3.952,N-S,0.0002384185791015,3.819
20050109181200.knt,NIG0280501091812.UD,2005-01-09, 18:12:00,37.367,139.03,0,3.2,NIG028,37.4261,138.8862,-9999,2005-01-09, 18:12:29,200Hz,180,U-D,0.0002384185791015,3.399,14.30230341999892,2412,0,0,0.6623045695856845,0.7369421891698749,0.7703426694130213,0.7415025058575354,0.7051633551632069,0.010628911207059,0.010628911207059,0.010628911207059,0.010628911207059,0.010628911207059,3.405541563179584,3.405541563179584,3.405541563179584,3.405541563179584,3.2301294996265524,E-W,0.0002384185791015,6.05,N-S,0.0002384185791015,10.184
20050109185900.knt,AIC0010501091859.UD,2005-01-09, 18:59:00,35.312,136.85,13,4.7,AIC001,35.2976,136.75,6,2005-01-09, 19:00:34,100Hz,68,U-D,0.0006340209495401,47.855,9.214681902033268,1429,0,0,0.6380760875509441,0.6214437533599132,0.638689154918185,0.4980365004539658,0.5416155974107257,0.066738836228166,0.066738836228166,0.066738836228166,0.0289675022483746,0.0289675022483746,47.618311386497794,47.618311386497794,47.618311386497794,29.80839610466622,29.80839610466622,E-W,0.0006340209495401,45.368,N-S,0.0006340209495401,23.845
20050109185900.knt,AIC0020501091859.UD,2005-01-09, 18:59:00,35.312,136.85,13,4.7,AIC002,35.2979,136.9153,20,2005-01-09, 19:00:33,100Hz,63,U-D,0.0006340209495401,31.032,6.129543913099761,1486,0,0,0.4275233086345595,0.4269494107115214,0.4202216138391658,0.5223660812305964,0.3921952148535222,0.0636186803664178,0.0636186803664178,0.0636186803664178,0.023566125420004,0.023566125420004,30.6033598422988,30.6033598422988,30.6033598422988,22.897307924737166,18.76250240885264,E-W,0.0006340209495401,121.435,N-S,0.0006340209495401,60.411
20050109185900.knt,AIC0030501091859.UD,2005-01-09, 18:59:00,35.312,136.85,13,4.7,AIC003,35.1732,136.7404,-2,2005-01-09, 19:00:34,100Hz,97,U-D,0.0006340209495401,17.845,18.364959763398748,1558,0,0,0.6716987694645821,0.6665386220676733,0.6946003162793467,0.6736364491786386,0.6419322827310873,0.0329768767807163,0.0329768767807163,0.0329768767807163,0.0065605561503419,0.0065605561503419,17.924275778031866,17.924275778031866,17.924275778031866,3.291282155296751,3.291282155296751,E-W,0.0006340209495401,18.255,N-S,0.0006340209495401,15.37
20050109185900.knt,AIC0040501091859.UD,2005-01-09, 18:59:00,35.312,136.85,13,4.7,AIC004,35.0632,136.9737,27,2005-01-09, 19:00:38,100Hz,71,U-D,0.0006340209495401,20.658,29.861966586154058,1320,0,0,0.3763787287545242,0.4987201575557622,0.2403325055954762,0.3001417622544766,0.2786417565327206,0.012547914750794,0.0075090450157056,0.0012244073942201,0.0009782951263596,0.0008330106699606,20.67569319546837,8.210010085166072,5.178242948877728,2.8203495256466136,2.8089757568145366,E-W,0.0006340209495401,23.315,N-S,0.0006340209495401,13.784
20050109185900.knt,AIC0050501091859.UD,2005-01-09, 18:59:00,35.312,136.85,13,4.7,AIC005,35.1979,137.2056,150,2005-01-09, 19:00:41,100Hz,60,U-D,0.0006340209495401,4.16,34.6919613184593,1057,0,0,2.973090852645687,3.2450546203202384,3.524525662504137,3.5760211604491228,3.172304423527348,0.0142297634923549,0.0142297634923549,0.0142297634923549,0.0142297634923549,0.0142297634923549,3.809271448536768,3.809271448536768,3.809271448536768,3.809271448536768,3.809271448536768,E-W,0.0006340209495401,16.569,N-S,0.0006340209495401,7.755
20050109185900.knt,AIC0060501091859.UD,2005-01-09, 18:59:00,35.312,136.85,13,4.7,AIC006,35.2159,137.5086,510,2005-01-09, 19:00:41,100Hz,60,U-D,0.0006340209495401,8.346,60.74199572054646,1478,0,0,0.3113208603658162,0.3088835004016271,0.2909328421744145,0.2907987443626634,0.3007315017481978,0.0083553439258865,0.0083553439258865,0.0083553439258865,0.0083553439258865,0.0083553439258865,8.36139386670056,8.36139386670056,8.36139386670056,8.36139386670056,8.36139386670056,E-W,0.0006340209495401,22.66,N-S,0.0006340209495401,15.431
20050109185900.knt,AIC0080501091859.UD,2005-01-09, 18:59:00,35.312,136.85,13,4.7,AIC008,35.0977,137.5697,465,2005-01-09, 19:00:50,100Hz,60,U-D,0.0006340209495401,4.681,69.59606134089938,698,0,0,2.2602155572306697,2.251324794255295,2.055966301475531,1.7734452134450722,1.2062251287696375,0.0041609622398716,0.0041609622398716,0.0041609622398716,0.0041609622398716,0.0039430396408324,1.968114493539733,1.968114493539733,1.968114493539733,1.968114493539733,1.968114493539733,E-W,0.0006340209495401,16.653,N-S,0.0006340209495401,15.477
20050109185900.knt,AIC0090501091859.UD,2005-01-09, 18:59:00,35.312,136.85,13,4.7,AIC009,35.0812,137.1464,60,2005-01-09, 19:00:37,100Hz,68,U-D,0.0006340209495401,13.473,37.20213958071966,1499,0,0,0.4129686818897621,0.3974813949048839,0.3631716661925443,0.3291635274753333,0.3317444755685211,0.0075500923085141,0.0045237597484066,0.0045237597484066,0.0045237597484066,0.0045237597484066,6.571585213228202,3.33453429864331,3.33453429864331,3.33453429864331,3.33453429864331,E-W,0.0006340209495401,14.761,N-S,0.0006340209495401,11.48
20050109185900.knt,AIC0100501091859.UD,2005-01-09, 18:59:00,35.312,136.85,13,4.7,AIC010,34.976,137.4236,525,2005-01-09, 19:00:49,100Hz,62,U-D,0.0006340209495401,12.88,64.1556923883211,711,0,0,5.4462075862391535,5.54199443799097,5.113993768065309,4.212749271239463,3.602190905207721,0.0134775891149328,0.0134775891149328,0.0134775891149328,0.0134775891149328,0.0119290495665472,2.7100988913467026,2.7100988913467026,2.7100988913467026,2.7100988913467026,2.7100988913467026,E-W,0.0006340209495401,23.386,N-S,0.0006340209495401,30.656
20050109185900.knt,AIC0110501091859.UD,2005-01-09, 18:59:00,35.312,136.85,13,4.7,AIC011,34.9965,136.8639,5,2005-01-09, 19:00:42,100Hz,60,U-D,0.0006340209495401,7.168,35.104751832014706,1016,0,0,2.6668526529898062,3.6301051868912073,4.344330625448135,5.179027224477091,6.643350362994082,0.0127402619715647,0.0127402619715647,0.0127402619715647,0.0127402619715647,0.0127402619715647,4.020076486619826,3.383001432108281,3.383001432108281,3.0216060579630524,2.922512491797597,E-W,0.0006340209495401,9.078,N-S,0.0006340209495401,10.858
20050109185900.knt,AIC0120501091859.UD,2005-01-09, 18:59:00,35.312,136.85,13,4.7,AIC012,34.9119,137.0447,6,2005-01-09, 19:00:45,100Hz,60,U-D,0.0006340209495401,3.047,47.88446622610152,893,0,0,5.351871496429409,6.387047923421934,7.500984954687895,8.11687630732633,8.804326383016935,0.0071377666915437,0.0071377666915437,0.0071377666915437,0.0071377666915437,0.0071377666915437,1.9338176384542964,1.9338176384542964,1.9338176384542964,1.600714201603111,1.2677375025164204,E-W,0.0006340209495401,5.264,N-S,0.0006340209495401,4.64
20050109185900.knt,AIC0130501091859.UD,2005-01-09, 18:59:00,35.312,136.85,13,4.7,AIC013,34.9335,137.5761,80,2005-01-09, 19:00:52,100Hz,60,U-D,0.0006340209495401,1.608,78.30886600819184,608,0,0,1.371455843926995,1.7680320767706443,1.5249143045400446,1.0534179406021853,0.7010203900608972,0.0030034822115699,0.0015258900081713,0.0012390036781366,0.001206244686657,0.0008580233866483,0.7965063721340521,0.7965063721340521,0.7965063721340521,0.7965063721340521,0.5698530724605688,E-W,0.0006340209495401,6.421,N-S,0.0006340209495401,6.039
20050109185900.knt,AIC0140501091859.UD,2005-01-09, 18:59:00,35.312,136.85,13,4.7,AIC014,34.8263,137.22,4,2005-01-09, 19:00:48,100Hz,60,U-D,0.0006340209495401,2.322,63.64479148398968,810,0,0,3.963665755553307,4.789673955897107,6.299421853224474,6.168717199829129,5.66419745949966,0.0035511134493678,0.0035511134493678,0.0035511134493678,0.0035511134493678,0.0033731840514668,1.4695103912252137,1.4695103912252137,1.0422333072761665,1.0422333072761665,0.7781942237671323,E-W,0.0006340209495401,8.454,N-S,0.0006340209495401,6.281
20050109185900.knt,AIC0150501091859.UD,2005-01-09, 18:59:00,35.312,136.85,13,4.7,AIC015,34.7549,137.4047,8,2005-01-09, 19:00:53,100Hz,60,U-D,0.0006340209495401,1.062,79.92521713309951,565,0,0,0.7184168083234795,0.6554880103140345,0.4846763313763086,0.3659328966974694,0.382862814566839,0.0023637389778511,0.0016297989530791,0.0007277805512288,0.0003948038097698,0.0003948038097698,0.7626072504983619,0.7412513983565427,0.7412513983565427,0.7412513983565427,0.7412513983565427,E-W,0.0006340209495401,2.65,N-S,0.0006340209495401,3.343
20050109185900.knt,FKI0040501091859.UD,2005-01-09, 18:59:00,35.312,136.85,13,4.7,FKI004,35.9789,136.4865,175,2005-01-09, 19:00:53,100Hz,60,U-D,0.0006340209495401,1.468,81.10454034821512,627,0,0,1.2713306955661228,1.2778556233747826,1.2340039621636116,1.2075599633484366,1.1033766982163973,0.0012141098830746,0.0012141098830746,0.0010717520794011,0.0010214180072397,0.0004128558334221,0.8906620242032919,0.8906620242032919,0.8906620242032919,0.8393457568256817,0.2784216108160166,E-W,0.0006340209495401,3.689,N-S,0.0006340209495401,3.311
20050109185900.knt,FKI0050501091859.UD,2005-01-09, 18:59:00,35.312,136.85,13,4.7,FKI005,35.9067,136.1743,32,2005-01-09, 19:00:47,100Hz,65,U-D,0.0006340209495401,2.22,90.0227999241738,1348,0,0,0.2884689730424698,0.2934091454566146,0.2677646036518972,0.2747580338731414,0.3881769300850922,0.000826390329736,0.000826390329736,0.0008003859614368,0.0008003859614368,0.0008003859614368,2.220121555831484,2.220121555831484,2.220121555831484,2.220121555831484,1.1748022105951763,E-W,0.0006340209495401,11.137,N-S,0.0006340209495401,9.227
