earthquake name,records name,earthquake date,earthquake time,lat,long,depth,mag,stn_code,stn_lat,stn_long,stn_height,rcd_date,rcd_time,frequency,rcd_duration,direction,scale_factor,max_pga,epi_dist,pick_index_manually,pick_index_kalkan,snr_db_kalkan,tc_5sec,tc_4sec,tc_3sec,tc_2sec,tc_1sec,Pd_5sec,Pd_4sec,Pd_3sec,Pd_2sec,Pd_1sec,Pga_5sec,Pga_4sec,Pga_3sec,Pga_2sec,Pga_1sec,Channel,Scale_factor,PGA_ew,Channel.1,Scale_factor.1,PGA_ns
20000101143400.knt,IWT0130001011434.UD,2000-01-01, 14:34:00,38.87,142.076,49,4.2,IWT013,39.3367,141.5378,272,2000-01-01, 14:35:03,100Hz,119,U-D,0.0002384185791015,1.577,69.63995698666699,546,543.0,24.19756254517048,1.3194247030159654,1.176132605612034,1.1972590059371304,0.8246839364992274,0.3117463552943868,0.0011434376603966,0.0011434376603966,0.0011434376603966,0.0011434376603966,0.0005349859516481,1.317940793874182,1.317940793874182,1.317940793874182,1.317940793874182,1.317940793874182,E-W,0.0002384185791015,4.317,N-S,0.0002384185791015,3.945
20000101143400.knt,MYG0030001011434.UD,2000-01-01, 14:34:00,38.87,142.076,49,4.2,MYG003,38.7348,141.3106,28,2000-01-01, 14:35:03,100Hz,119,U-D,0.0002384185791015,1.494,68.00831676194562,546,548.0,25.43242558339234,5.121212711249215,2.9716693258115754,1.6575924447575616,1.687278024892242,1.528428682546328,0.0094529434252981,0.0065172713480966,0.0032542757690689,0.0032542757690689,0.0032542757690689,1.3048216627367004,1.3048216627367004,1.3048216627367004,1.3048216627367004,1.3048216627367004,E-W,0.0002384185791015,2.632,N-S,0.0002384185791015,4.455
20000101143400.knt,MYG0110001011434.UD,2000-01-01, 14:34:00,38.87,142.076,49,4.2,MYG011,38.2972,141.5043,30,2000-01-01, 14:35:05,100Hz,119,U-D,0.0002384185791015,3.866,80.78382797889584,479,508.0,21.18029996047971,7.394447996412503,6.002141644741906,5.426018317096713,5.809043421225808,6.658149550851338,0.0117569217879249,0.0117569217879249,0.0117569217879249,0.0117569217879249,0.0117569217879249,0.7607660582263766,0.73113814998836,0.73113814998836,0.6257888516277068,0.3914278355160191,E-W,0.0002384185791015,6.843,N-S,0.0002384185791015,7.402
20000106135300.knt,SIT0060001061353.UD,2000-01-06, 13:53:00,35.846,139.244,9,2.9,SIT006,35.9954,139.0709,207,2000-01-06, 13:53:08,100Hz,119,U-D,0.0002384185791015,0.824,22.78036082747432,1031,1035.0,11.064368395308378,3.0125822709581143,5.074304461516167,7.789492909098235,8.340691740956547,5.897776291078363,0.0039225009092771,0.001749222415856,0.001749222415856,0.0017485139197356,0.0013402378953083,0.8220772976242757,0.3848145750640326,0.3056803239494294,0.2361757064263628,0.1872426687334479,E-W,0.0002384185791015,4.613,N-S,0.0002384185791015,2.64
20000106135300.knt,SIT0140001061353.UD,2000-01-06, 13:53:00,35.846,139.244,9,2.9,SIT014,35.9954,138.801,748,2000-01-06, 13:53:13,100Hz,119,U-D,0.0002384185791015,1.837,43.21247117498273,842,854.0000000000001,22.38078681986121,3.9431417812096057,4.090694862829406,3.9251372713646457,2.447040551160242,2.6496843848961085,0.0047601965966987,0.0047601965966987,0.0047601965966987,0.0039168939540243,0.0029418486255306,1.7527844787596167,1.7527844787596167,1.7527844787596167,1.7527844787596167,1.7527844787596167,E-W,0.0002384185791015,3.152,N-S,0.0002384185791015,4.174
20000106135300.knt,TKY0010001061353.UD,2000-01-06, 13:53:00,35.846,139.244,9,2.9,TKY001,35.8029,139.0956,380,2000-01-06, 13:53:02,100Hz,119,U-D,0.0002384185791015,3.903,14.211941345086911,1470,1473.0,23.04043575710845,1.1451880533018164,1.1322551398442733,1.1519397551724364,1.806086201285972,1.4591347150538148,0.004147082185491,0.004147082185491,0.004147082185491,0.004147082185491,0.004147082185491,3.886022319512016,3.886022319512016,3.886022319512016,3.600519132616595,3.600519132616595,E-W,0.0002384185791015,7.966,N-S,0.0002384185791015,4.317
20000106135300.knt,TKY0020001061353.UD,2000-01-06, 13:53:00,35.846,139.244,9,2.9,TKY002,35.7304,139.1454,302,2000-01-06, 13:53:05,100Hz,119,U-D,0.0002384185791015,1.446,15.630936778622962,1171,1190.0,21.6132108100223,2.025435462027703,1.6174325497657085,1.2707472911647175,2.2087005686389056,3.14487287088322,0.0025927094603758,0.0024447340626385,0.0022786247946772,0.0019341356782111,0.0019341356782111,1.4547855273184522,1.4547855273184522,1.4547855273184522,0.9805960899863772,0.9719092415846056,E-W,0.0002384185791015,2.297,N-S,0.0002384185791015,2.743
20000106135300.knt,TKY0030001061353.UD,2000-01-06, 13:53:00,35.846,139.244,9,2.9,TKY003,35.7968,139.2912,181,2000-01-06, 13:53:03,100Hz,119,U-D,0.0002384185791015,3.724,6.931091037337216,1273,1274.0,18.07199403669789,1.3023849897338171,1.1203912902864526,0.8865368218609145,0.5928048932826013,0.2646981153956657,0.0063832397662756,0.0063832397662756,0.0063832397662756,0.005976115321123,0.0019744439773616,3.722354653727728,3.722354653727728,3.722354653727728,3.722354653727728,3.259590733971649,E-W,0.0002384185791015,7.646,N-S,0.0002384185791015,6.858
20000106204000.knt,HYG0100001062040.UD,2000-01-06, 20:40:00,35.053,135.812,14,3.7,HYG010,35.0593,135.1777,195,2000-01-06, 20:40:22,100Hz,119,U-D,0.0002384185791015,2.491,57.74004405263525,682,690.0,10.380708962427438,3.778629529123801,3.753689980980793,3.797887403667245,3.875858620617045,3.00506459552427,0.0080252945484978,0.0080252945484978,0.0080252945484978,0.0080252945484978,0.0080252945484978,2.494179452575379,2.494179452575379,2.494179452575379,2.494179452575379,2.494179452575379,E-W,0.0002384185791015,1.957,N-S,0.0002384185791015,3.402
20000106204000.knt,KYT0100001062040.UD,2000-01-06, 20:40:00,35.053,135.812,14,3.7,KYT010,35.2098,135.7738,402,2000-01-06, 20:40:11,100Hz,119,U-D,0.0002384185791015,2.786,17.778067932579766,1126,1143.0,23.12647742404376,3.265847903567106,1.5137256493180185,0.3159069938511675,0.5109459584179356,0.2527282956401878,0.0089336196519205,0.0070684008256883,0.0007393228510823,0.0006203773552364,0.00057377300355,2.794952833899535,2.794952833899535,2.794952833899535,2.794952833899535,2.794952833899535,E-W,0.0002384185791015,29.923,N-S,0.0002384185791015,9.43
20000106204000.knt,KYT0110001062040.UD,2000-01-06, 20:40:00,35.053,135.812,14,3.7,KYT011,35.017,135.5638,101,2000-01-06, 20:40:09,100Hz,119,U-D,0.0002384185791015,5.636,22.949566180092663,1432,1439.0,24.26713658904137,1.6321021218207443,0.8444274434510798,0.7083309804564366,0.5147359171337864,0.4507091277782394,0.0115080589838808,0.0049873641146672,0.0041209044677633,0.0022619348911013,0.0022619348911013,5.644489423753931,5.644489423753931,5.644489423753931,3.9021635136004864,3.9021635136004864,E-W,0.0002384185791015,6.88,N-S,0.0002384185791015,13.175
20000106204000.knt,KYT0120001062040.UD,2000-01-06, 20:40:00,35.053,135.812,14,3.7,KYT012,34.9962,135.8188,89,2000-01-06, 20:40:07,100Hz,119,U-D,0.0002384185791015,14.529,6.3461515884687,1396,1396.0,41.519744080043175,0.6072049447673253,0.5551617242647267,0.4931113147719611,0.5536589499186846,0.3011495138299823,0.0103293837188371,0.0103293837188371,0.0103293837188371,0.0103293837188371,0.0071725722159364,14.500668550662862,14.500668550662862,14.500668550662862,14.494132724300597,14.494132724300597,E-W,0.0002384185791015,47.836,N-S,0.0002384185791015,21.652
20000106204000.knt,KYT0130001062040.UD,2000-01-06, 20:40:00,35.053,135.812,14,3.7,KYT013,34.8784,135.8047,82,2000-01-06, 20:40:11,100Hz,119,U-D,0.0002384185791015,6.207,19.426026746937687,1197,1198.0,28.37488576888034,0.75529076492828,0.886598622034162,1.2418421763076888,1.36299289133455,1.4235650253785763,0.00927509664857,0.00927509664857,0.0076485249291917,0.0076485249291917,0.0076485249291917,6.249828269828148,6.249828269828148,4.675693960100728,2.345088206847657,2.345088206847657,E-W,0.0002384185791015,7.633,N-S,0.0002384185791015,8.863
20000106204000.knt,MIE0040001062040.UD,2000-01-06, 20:40:00,35.053,135.812,14,3.7,MIE004,34.8569,136.4493,79,2000-01-06, 20:40:23,100Hz,119,U-D,0.0002384185791015,1.88,62.0389207752466,681,681.0,24.14114462726084,1.4770018624851398,1.3346346369802236,1.2369502631819866,1.056587637068216,0.7406821565164202,0.0018753024127692,0.0017719384938179,0.0017719384938179,0.0017719384938179,0.0010111655373132,1.077328305886878,1.077328305886878,1.077328305886878,1.077328305886878,1.077328305886878,E-W,0.0002384185791015,4.939,N-S,0.0002384185791015,5.412
20000106204000.knt,MIE0050001062040.UD,2000-01-06, 20:40:00,35.053,135.812,14,3.7,MIE005,34.7677,136.1151,134,2000-01-06, 20:40:17,100Hz,119,U-D,0.0002384185791015,2.479,42.07463265300655,937,937.0,27.26306845688915,6.76010273870172,7.77566895028007,8.539685543547778,8.32460202018361,8.411942017042573,0.0070138921010397,0.0070138921010397,0.0070138921010397,0.0070138921010397,0.0070138921010397,1.6175343870355374,1.6175343870355374,1.6175343870355374,1.6175343870355374,1.1323613056694688,E-W,0.0002384185791015,5.072,N-S,0.0002384185791015,4.2
20000106204000.knt,MIE0070001062040.UD,2000-01-06, 20:40:00,35.053,135.812,14,3.7,MIE007,34.651,136.3404,82,2000-01-06, 20:40:16,100Hz,119,U-D,0.0002384185791015,15.627,65.74894663253627,1409,1430.0,20.49076680085934,0.5965807943937813,0.6048695133304993,0.6116216703159479,0.5640429324647095,0.5768619141691465,0.0029579445011104,0.0029579445011104,0.0029579445011104,0.0029579445011104,0.0029579445011104,2.5580926406105373,2.5580926406105373,2.5580926406105373,2.5580926406105373,2.5580926406105373,E-W,0.0002384185791015,20.766,N-S,0.0002384185791015,20.683
20000106204000.knt,MIE0080001062040.UD,2000-01-06, 20:40:00,35.053,135.812,14,3.7,MIE008,34.6285,136.1073,221,2000-01-06, 20:40:14,100Hz,119,U-D,0.0002384185791015,10.125,54.353799134450895,1437,1445.0,30.59754599020873,2.6108215263014314,2.48233990485588,2.594645622623008,2.2245769981283168,1.2310816422052226,0.0047135981570358,0.0047135981570358,0.0047135981570358,0.0047135981570358,0.0038018859408149,3.2548132340199447,3.2548132340199447,3.2548132340199447,3.2548132340199447,3.2548132340199447,E-W,0.0002384185791015,20.731,N-S,0.0002384185791015,13.853
20000106204000.knt,MIE0110001062040.UD,2000-01-06, 20:40:00,35.053,135.812,14,3.7,MIE011,34.4283,136.3329,143,2000-01-06, 20:40:29,100Hz,120,U-D,0.0002384185791015,1.02,84.20526838640716,375,386.0,15.784576238996916,1.3422748522574794,1.3587948544934838,1.2001306907398248,0.6937193466011128,0.6498468924308436,0.0005444400656168,0.0005444400656168,0.0005444400656168,0.0004814035344589,0.0004814035344589,0.3370233720341306,0.3370233720341306,0.3370233720341306,0.3370233720341306,0.3370233720341306,E-W,0.0002384185791015,3.431,N-S,0.0002384185791015,1.891
20000106204000.knt,NAR0010001062040.UD,2000-01-06, 20:40:00,35.053,135.812,14,3.7,NAR001,34.7154,135.7272,150,2000-01-06, 20:40:17,100Hz,119,U-D,0.0002384185791015,2.394,38.32801098909225,895,904.0,26.1304856972123,3.694451643995344,4.480269720382286,4.357467985537592,3.3728638699635547,2.877621816589345,0.003675572251086,0.003675572251086,0.003675572251086,0.0032322816560408,0.0021045094289372,0.9696442334437458,0.8322685680927204,0.5925615478611729,0.5925615478611729,0.5925615478611729,E-W,0.0002384185791015,2.3,N-S,0.0002384185791015,3.148
20000106204000.knt,NAR0020001062040.UD,2000-01-06, 20:40:00,35.053,135.812,14,3.7,NAR002,34.6683,135.8352,90,2000-01-06, 20:40:18,100Hz,119,U-D,0.0002384185791015,1.564,42.82902946426512,880,895.0000000000001,21.06527119592569,3.0787765892843604,3.79887522396259,4.273524067655294,4.997880368464049,5.481346635236223,0.0020980001064335,0.0020980001064335,0.0020980001064335,0.0020980001064335,0.0020980001064335,0.5943759345073276,0.4706168170309254,0.4331895730049934,0.405636762151689,0.2459568843759534,E-W,0.0002384185791015,5.314,N-S,0.0002384185791015,5.461
20000106204000.knt,NAR0040001062040.UD,2000-01-06, 20:40:00,35.053,135.812,14,3.7,NAR004,34.5277,135.9526,311,2000-01-06, 20:40:22,100Hz,119,U-D,0.0002384185791015,6.949,59.80514580479392,728,737.0,15.37754944958241,22.337404926646908,23.41090189539464,20.29324504634218,14.76579641107255,9.909980474546408,0.0605740560746602,0.0605740560746602,0.0605740560746602,0.0580087663109786,0.0430098690644743,2.216014933744645,2.216014933744645,2.216014933744645,2.216014933744645,2.216014933744645,E-W,0.0002384185791015,14.696,N-S,0.0002384185791015,20.342
20000106204000.knt,NAR0080001062040.UD,2000-01-06, 20:40:00,35.053,135.812,14,3.7,NAR008,34.1352,136.0046,330,2000-01-06, 20:40:34,100Hz,119,U-D,0.0002384185791015,1.723,103.56616806378698,227,232.0,19.992323965661537,6.256126569871177,7.023701049688057,7.857679014145109,9.84061230276786,10.700548522639725,0.0027910040371251,0.0027910040371251,0.0027910040371251,0.0027910040371251,0.0027910040371251,0.5023536275334552,0.5023536275334552,0.5023536275334552,0.5023536275334552,0.3121758945772839,E-W,0.0002384185791015,3.522,N-S,0.0002384185791015,2.96
20000106204000.knt,OSK0010001062040.UD,2000-01-06, 20:40:00,35.053,135.812,14,3.7,OSK001,34.9707,135.39,224,2000-01-06, 20:40:12,100Hz,119,U-D,0.0002384185791015,5.356,39.50701226504125,1392,1399.0,27.97482805877101,0.5895435211728187,0.5277071511427506,0.5131731024059628,0.4872328908949829,0.3590232752813328,0.0016427987540616,0.0016427987540616,0.0016427987540616,0.0016427987540616,0.0016427987540616,2.764864217949742,2.764864217949742,2.764864217949742,2.764864217949742,2.764864217949742,E-W,0.0002384185791015,5.852,N-S,0.0002384185791015,5.282
20000106204000.knt,SIG0080001062040.UD,2000-01-06, 20:40:00,35.053,135.812,14,3.7,SIG008,35.0701,136.2946,218,2000-01-06, 20:40:18,100Hz,119,U-D,0.0002384185791015,1.912,43.96588925401532,867,865.0,20.98675411000369,1.5760644694778327,1.6676392383513186,1.6645033698988456,1.47988879795505,1.3999937522694756,0.0017035619190133,0.0017035619190133,0.0016900343023079,0.0016900343023079,0.0016900343023079,1.314147577348893,1.314147577348893,1.314147577348893,1.314147577348893,1.314147577348893,E-W,0.0002384185791015,5.688,N-S,0.0002384185791015,6.783
20000106204000.knt,SIG0100001062040.UD,2000-01-06, 20:40:00,35.053,135.812,14,3.7,SIG010,34.9718,135.8965,110,2000-01-06, 20:40:07,100Hz,119,U-D,0.0002384185791015,5.8,11.863599896465898,1485,1479.0,22.225525238244643,0.5956829545132762,0.5695677465896142,0.758035886553332,1.2016078530610064,1.1941760389121907,0.0112174795460526,0.0112174795460526,0.006179821629772,0.0056708704727704,0.0056708704727704,5.772082834220307,5.772082834220307,5.451616447793064,3.9069899448301055,3.9069899448301055,E-W,0.0002384185791015,10.767,N-S,0.0002384185791015,9.785
20000106204000.knt,SIG0110001062040.UD,2000-01-06, 20:40:00,35.053,135.812,14,3.7,SIG011,34.8779,136.0587,283,2000-01-06, 20:40:14,100Hz,119,U-D,0.0002384185791015,12.778,29.739739482712075,1038,1044.0,24.33094681094318,0.6793480810386759,2.4932251857239778,4.246682383882617,4.982970187852457,4.8270932227052965,0.0093933003364638,0.0077997010675946,0.0077997010675946,0.0077997010675946,0.0077997010675946,12.725635532042345,6.276075040335158,3.5695546719128526,3.5695546719128526,3.5695546719128526,E-W,0.0002384185791015,43.568,N-S,0.0002384185791015,39.123
20000107045100.knt,GIF0070001070451.UD,2000-01-07, 04:51:00,35.868,137.584,10,3.3,GIF007,36.0378,137.4861,995,2000-01-07, 04:51:07,100Hz,119,U-D,0.0002384185791015,9.393,20.836100642076985,1188,1195.0,26.16590484315716,0.4047733679519426,0.4247917127393449,0.4550545065820111,0.5795553862523417,0.2250222658281608,0.0053781931590576,0.0053781931590576,0.0053781931590576,0.0029887494821612,0.00115556881765,9.396558600290716,9.396558600290716,9.396558600290716,2.4118699055473467,1.858227373976899,E-W,0.0002384185791015,13.295,N-S,0.0002384185791015,9.026
20000107045100.knt,NGN0170001070451.UD,2000-01-07, 04:51:00,35.868,137.584,10,3.3,NGN017,35.9748,137.8255,927,2000-01-07, 04:51:08,100Hz,119,U-D,0.0002384185791015,3.005,24.777927173471863,1140,608.0,1.700884678349557,13.088349727536134,13.44356641845694,14.254698198918078,15.753904914200238,19.302190010002136,0.2125697015088484,0.2125697015088484,0.2125697015088484,0.2125697015088484,0.2125697015088484,3.0170079732813044,3.0170079732813044,3.0170079732813044,3.0170079732813044,3.0170079732813044,E-W,0.0002384185791015,3.471,N-S,0.0002384185791015,5.998
20000107045100.knt,NGN0180001070451.UD,2000-01-07, 04:51:00,35.868,137.584,10,3.3,NGN018,35.8132,137.5295,1050,2000-01-07, 04:51:04,100Hz,119,U-D,0.0002384185791015,4.846,7.827163440776723,1286,1289.0,24.696195959055043,1.6714880423666547,1.4621784865744285,1.0016606576399745,0.5404266568687585,0.7830642510994696,0.0075172002014933,0.0075172002014933,0.0074732930649104,0.0055992255213861,0.0015994589093987,4.841504111689359,4.841504111689359,4.841504111689359,4.841504111689359,1.871595962339008,E-W,0.0002384185791015,10.299,N-S,0.0002384185791015,7.153
20000107045100.knt,NGN0190001070451.UD,2000-01-07, 04:51:00,35.868,137.584,10,3.3,NGN019,35.8562,137.7078,788,2000-01-07, 04:51:04,100Hz,119,U-D,0.0002384185791015,30.831,11.233207690887214,1314,1319.0,23.167271938128096,2.489190770066683,2.3356208858740835,1.758157883679221,1.0220308382522854,1.1170692759141847,0.0289112619461002,0.0289112619461002,0.0283654998221282,0.0243858447028088,0.0084546209061751,30.81544550400416,30.81544550400416,30.81544550400416,30.81544550400416,4.715117408905099,E-W,0.0002384185791015,32.13,N-S,0.0002384185791015,56.875
20000107045100.knt,NGN0220001070451.UD,2000-01-07, 04:51:00,35.868,137.584,10,3.3,NGN022,35.6079,137.6125,451,2000-01-07, 04:51:10,100Hz,119,U-D,0.0002384185791015,2.277,29.03596564329884,1021,1024.0,27.06472601247874,8.100623115523662,7.8384900545326,6.3461757611420175,3.277224703635272,3.161862395089321,0.0089161786894174,0.0089161786894174,0.0089161786894174,0.0054983111654942,0.0023751632199019,2.305534577426779,1.4622094544473234,0.982144098134949,0.982144098134949,0.982144098134949,E-W,0.0002384185791015,5.667,N-S,0.0002384185791015,5.675
20000107193500.knt,GIF0020001071935.UD,2000-01-07, 19:35:00,35.868,137.582,9,3.6,GIF002,36.2734,137.0253,570,2000-01-07, 19:35:45,100Hz,119,U-D,0.0002384185791015,0.701,67.34636189757214,565,565.0,16.90076512038723,1.966731666241948,2.003943578531812,1.9108846757572029,1.950939434863635,1.4271790373062851,0.0012324971906797,0.0012324971906797,0.0012324971906797,0.0012324971906797,0.0012174082335669,0.3962861284008412,0.3962861284008412,0.3962861284008412,0.3962861284008412,0.3962861284008412,E-W,0.0002384185791015,1.593,N-S,0.0002384185791015,2.312
20000107193500.knt,GIF0030001071935.UD,2000-01-07, 19:35:00,35.868,137.582,9,3.6,GIF003,36.3322,137.3014,405,2000-01-07, 19:35:42,100Hz,119,U-D,0.0002384185791015,0.753,57.44416347044074,675,680.0,11.548742205734206,4.5604173856495,4.769132688368253,4.123276512039473,2.194051598511344,0.8185544492591559,0.001990310047406,0.001990310047406,0.001990310047406,0.0014541489302987,0.0003901221389251,0.4792924486987963,0.4792924486987963,0.4792924486987963,0.4792924486987963,0.3805346713060404,E-W,0.0002384185791015,3.593,N-S,0.0002384185791015,3.116
20000107193500.knt,GIF0070001071935.UD,2000-01-07, 19:35:00,35.868,137.582,9,3.6,GIF007,36.0378,137.4861,995,2000-01-07, 19:35:28,100Hz,119,U-D,0.0002384185791015,8.322,20.760604022600425,1476,1475.0,37.29628947205416,0.8007234465301176,0.7153903589860361,0.6731788542798323,0.6267082008403039,0.3177545338223386,0.0107330271101142,0.0107330271101142,0.0107330271101142,0.0076604949363205,0.0035055066858618,8.2760133534419,8.2760133534419,7.469841865744858,4.943212095779724,4.943212095779724,E-W,0.0002384185791015,13.283,N-S,0.0002384185791015,15.479
20000107193500.knt,GIF0100001071935.UD,2000-01-07, 19:35:00,35.868,137.582,9,3.6,GIF010,35.8029,137.245,362,2000-01-07, 19:35:34,100Hz,119,U-D,0.0002384185791015,5.085,31.22968451397215,1073,1073.0,28.748682719323583,0.6175797784623359,1.1991688887048513,1.1143527445137642,0.7158215561095922,0.3388353991691806,0.0042239310252417,0.0041261510059373,0.0041261510059373,0.0029382814320282,0.0016769787718294,5.074413490968202,2.278972438974943,2.278972438974943,2.278972438974943,2.278972438974943,E-W,0.0002384185791015,5.596,N-S,0.0002384185791015,13.688
