earthquake name,records name,earthquake date,earthquake time,lat,long,depth,mag,stn_code,stn_lat,stn_long,stn_height,rcd_date,rcd_time,frequency,rcd_duration,direction,scale_factor,max_pga,epi_dist,pick_index_manually,pick_index_kalkan,snr_db_kalkan,tc_5sec,tc_4sec,tc_3sec,tc_2sec,tc_1sec,Pd_5sec,Pd_4sec,Pd_3sec,Pd_2sec,Pd_1sec,Pga_5sec,Pga_4sec,Pga_3sec,Pga_2sec,Pga_1sec,Channel,Scale_factor,PGA_ew,Channel.1,Scale_factor.1,PGA_ns
20000603133800.knt,MYG0060006031338.UD,2000-06-03, 13:38:00,38.643,141.448,106,4.0,MYG006,38.5801,140.9654,20,2000-06-03, 13:38:30,100Hz,119,U-D,0.0002384185791015,6.881,42.5109801022934,1388,1399.0,18.39652599506656,0.3789108371637086,0.3250266352960078,0.2433387831728355,0.2053476227077711,0.2087978337704432,0.0045024846037052,0.0045024846037052,0.0045024846037052,0.0045024846037052,0.0045024846037052,6.886465168626717,6.886465168626717,6.886465168626717,6.886465168626717,6.886465168626717,E-W,0.0002384185791015,3.824,N-S,0.0002384185791015,3.494
20000603133800.knt,MYG0080006031338.UD,2000-06-03, 13:38:00,38.643,141.448,106,4.0,MYG008,38.5769,141.4514,5,2000-06-03, 13:38:28,100Hz,119,U-D,0.0002384185791015,10.675,7.355919315896138,1478,1476.0,37.85507793953479,0.2623144954208989,0.2652940265137758,0.2539369316151915,0.2148450282349253,0.2123227890761213,0.002562497146806,0.002562497146806,0.002562497146806,0.002562497146806,0.002562497146806,3.653915416256192,3.653915416256192,3.653915416256192,3.653915416256192,3.653915416256192,E-W,0.0002384185791015,15.14,N-S,0.0002384185791015,23.769
20000603133800.knt,MYG0100006031338.UD,2000-06-03, 13:38:00,38.643,141.448,106,4.0,MYG010,38.4282,141.2809,2,2000-06-03, 13:38:29,100Hz,119,U-D,0.0002384185791015,4.617,27.95924801838024,1415,1422.0,22.053850583072613,1.1303834563616175,1.0636464035407474,0.5841583397530418,0.2814369258673455,0.2673799584632937,0.0091511829926316,0.0091511829926316,0.0059991810392033,0.0041503717184225,0.0041503717184225,4.650990130733544,4.650990130733544,4.650990130733544,4.650990130733544,4.650990130733544,E-W,0.0002384185791015,7.632,N-S,0.0002384185791015,10.085
20000603133800.knt,MYG0110006031338.UD,2000-06-03, 13:38:00,38.643,141.448,106,4.0,MYG011,38.2972,141.5043,30,2000-06-03, 13:38:29,100Hz,119,U-D,0.0002384185791015,20.68,38.762333240104034,1448,1443.0,42.01688692037877,0.4034554337506333,0.4317327224388463,0.4242622821107721,0.3995042108010118,0.2827280098182325,0.0033933464714539,0.0033933464714539,0.0033933464714539,0.0033933464714539,0.0033933464714539,5.273415199584576,5.273415199584576,5.273415199584576,5.273415199584576,5.273415199584576,E-W,0.0002384185791015,56.911,N-S,0.0002384185791015,49.272
20000603133800.knt,MYG0130006031338.UD,2000-06-03, 13:38:00,38.643,141.448,106,4.0,MYG013,38.2663,140.9293,5,2000-06-03, 13:38:31,100Hz,119,U-D,0.0002384185791015,7.387,61.59983614790431,1387,1385.0,30.64145558915346,0.4301432607419397,0.4245360961707641,0.3918173419298656,0.3355006197700712,0.292993387930981,0.0092366791868593,0.0092366791868593,0.0092366791868593,0.0092366791868593,0.0092366791868593,7.353898166466813,7.353898166466813,7.353898166466813,7.353898166466813,7.353898166466813,E-W,0.0002384185791015,10.654,N-S,0.0002384185791015,6.701
20000603133800.knt,MYG0150006031338.UD,2000-06-03, 13:38:00,38.643,141.448,106,4.0,MYG015,38.1049,140.8699,3,2000-06-03, 13:38:33,100Hz,119,U-D,0.0002384185791015,4.275,78.22874822115723,1303,454.0,20.46121211968082,0.8635809106944963,0.8021802432061419,0.5998141536354978,0.391594590617718,0.4041763791690816,0.0035656765170056,0.0035656765170056,0.0028215829867587,0.0026335087726369,0.0026335087726369,1.7202235480674075,1.7202235480674075,1.7202235480674075,1.7202235480674075,1.7202235480674075,E-W,0.0002384185791015,8.663,N-S,0.0002384185791015,9.393
20000603175000.knt,FKS0210006031750.UD,2000-06-03, 17:50:00,37.515,139.62,13,3.6,FKS021,37.6535,139.8633,210,2000-06-03, 17:50:20,100Hz,119,U-D,0.0002384185791015,2.263,26.397005028249115,1064,1066.0,20.961986029127505,1.3339695675322203,1.9262720175314028,2.663449056224438,3.03035251666616,2.522083553641468,0.0020148214214712,0.0019517173215653,0.0019517173215653,0.0019517173215653,0.0019170115053938,2.255810688994196,2.141450720677713,1.1930833349299803,1.0857067020635591,1.0857067020635591,E-W,0.0002384185791015,4.892,N-S,0.0002384185791015,11.491
20000603175000.knt,FKS0220006031750.UD,2000-06-03, 17:50:00,37.515,139.62,13,3.6,FKS022,37.6002,139.6467,159,2000-06-03, 17:50:13,100Hz,119,U-D,0.0002384185791015,48.368,9.761779166232785,1484,1484.0,39.51776008157144,0.2186900773808047,0.183185066752649,0.1552225435187689,0.1432463249424073,0.1991084331670965,0.0173874157383881,0.0144804059069214,0.0144804059069214,0.0144804059069214,0.0095632298472888,48.3375214959578,48.3375214959578,48.3375214959578,48.3375214959578,20.461303253485195,E-W,0.0002384185791015,49.8,N-S,0.0002384185791015,98.432
20000603175000.knt,FKS0230006031750.UD,2000-06-03, 17:50:00,37.515,139.62,13,3.6,FKS023,37.4774,139.9294,219,2000-06-03, 17:50:16,100Hz,119,U-D,0.0002384185791015,4.184,27.61401779232508,1487,1487.0,13.173214463977898,1.3696801200522506,1.3121328091690576,1.368010131062234,1.3891229972707086,1.1674472635607551,0.0058232323908822,0.0058232323908822,0.0058232323908822,0.0058232323908822,0.0058232323908822,4.192107639745188,4.192107639745188,4.192107639745188,4.192107639745188,4.192107639745188,E-W,0.0002384185791015,2.295,N-S,0.0002384185791015,1.838
20000603175000.knt,FKS0240006031750.UD,2000-06-03, 17:50:00,37.515,139.62,13,3.6,FKS024,37.3957,140.1325,527,2000-06-03, 17:50:19,100Hz,119,U-D,0.0002384185791015,7.562,47.142968187331846,1472,1471.0,31.23838672622446,0.8445328629922925,0.8209929502512883,0.7984227984872382,0.807552556190378,0.7302739678463995,0.0055148525319031,0.0055148525319031,0.0055148525319031,0.0055148525319031,0.0055148525319031,7.549953175719115,7.549953175719115,7.549953175719115,7.549953175719115,7.549953175719115,E-W,0.0002384185791015,11.523,N-S,0.0002384185791015,9.482
20000603175000.knt,FKS0270006031750.UD,2000-06-03, 17:50:00,37.515,139.62,13,3.6,FKS027,37.07,139.6808,830,2000-06-03, 17:50:26,100Hz,119,U-D,0.0002384185791015,1.262,49.773187642269065,795,795.0,20.9799434426818,8.952029502734435,10.050024481190617,9.747079543296334,8.046231926238265,6.226821390536586,0.0036957787366346,0.0036957787366346,0.0036957787366346,0.0031894145659791,0.0031423300721285,1.2602695174202392,1.2602695174202392,1.2602695174202392,1.2602695174202392,1.2602695174202392,E-W,0.0002384185791015,3.893,N-S,0.0002384185791015,2.208
20000603175000.knt,FKS0300006031750.UD,2000-06-03, 17:50:00,37.515,139.62,13,3.6,FKS030,37.453,139.5133,360,2000-06-03, 17:50:15,100Hz,119,U-D,0.0002384185791015,5.436,11.669019482911104,1291,1296.0,21.907632562900616,3.65101776083054,3.754396338328033,3.672635606568388,3.979106886853085,16.58311968809505,0.00858538588399,0.00858538588399,0.00858538588399,0.0077638548575363,0.0076360141144515,5.39823962207875,5.39823962207875,5.39823962207875,5.39823962207875,0.6698582654415185,E-W,0.0002384185791015,11.326,N-S,0.0002384185791015,10.294
20000603175000.knt,NIG0150006031750.UD,2000-06-03, 17:50:00,37.515,139.62,13,3.6,NIG015,37.6935,139.1886,34,2000-06-03, 17:50:24,100Hz,119,U-D,0.0002384185791015,0.921,42.87446304042943,880,804.0000000000001,15.670674748196667,12.780169237487849,11.624820573920916,8.04323478915732,4.764597063388519,1.5955279519669845,0.0148739659685002,0.0148739659685002,0.0120727588941806,0.0079826871718332,0.0027679789733876,0.5463585674436007,0.3977299559604071,0.3977299559604071,0.3977299559604071,0.3977299559604071,E-W,0.0002384185791015,3.934,N-S,0.0002384185791015,2.21
20000603175400.knt,CHB0010006031754.UD,2000-06-03, 17:54:00,35.68,140.715,48,6.0,CHB001,35.9595,139.8733,13,2000-06-03, 17:55:04,100Hz,119,U-D,0.0002384185791015,11.678,82.00766376975002,1357,1383.0,27.37757926625909,2.590280004288872,2.8948485308607834,2.53424608700046,2.8526616985017283,1.772806133401304,0.110051537638875,0.110051537638875,0.110051537638875,0.0710947136709226,0.0259406244835261,7.572304840161275,7.572304840161275,7.572304840161275,5.84051540316908,2.429027220251827,E-W,0.0002384185791015,24.145,N-S,0.0002384185791015,25.819
20000603175400.knt,CHB0030006031754.UD,2000-06-03, 17:54:00,35.68,140.715,48,6.0,CHB003,35.7943,140.0564,28,2000-06-03, 17:55:02,100Hz,119,U-D,0.0002384185791015,21.532,60.78696994272581,1306,1337.0,32.29477503724931,2.194697177407221,2.126862639257596,2.209569200677216,1.87705626538413,1.2814776506224586,0.2164543787510073,0.2164543787510073,0.2164543787510073,0.1511624758530709,0.0776362509944513,19.04842514007328,19.04842514007328,16.345484771481217,13.565444829974744,9.492525753717656,E-W,0.0002384185791015,49.762,N-S,0.0002384185791015,41.948
20000603175400.knt,CHB0040006031754.UD,2000-06-03, 17:54:00,35.68,140.715,48,6.0,CHB004,35.9007,140.4905,14,2000-06-03, 17:55:58,100Hz,119,U-D,0.0002384185791015,30.129,31.81631473417356,1388,1408.0,30.977482269911786,1.830542999005749,1.895974288703277,1.7050502676781067,1.3491789164689303,0.6227774619797782,0.1823057434136195,0.1823057434136195,0.1149375239020278,0.1141934619140644,0.024196948753714,30.08586000632345,22.658620294744043,22.658620294744043,13.55713902880241,9.716054169501891,E-W,0.0002384185791015,60.579,N-S,0.0002384185791015,43.357
20000603175400.knt,CHB0060006031754.UD,2000-06-03, 17:54:00,35.68,140.715,48,6.0,CHB006,35.7801,140.3067,27,2000-06-03, 17:55:58,100Hz,119,U-D,0.0002384185791015,47.539,38.499470131405616,1467,1480.0,28.905290132195383,1.9095740740970155,1.839716535364485,1.9075132203456624,1.3191765068646326,0.9053803353237592,0.3168184311270547,0.3168184311270547,0.3168184311270547,0.2379071067963106,0.1004760191642115,48.18628474155224,48.18628474155224,48.18628474155224,38.13218095847839,36.67805459444438,E-W,0.0002384185791015,54.315,N-S,0.0002384185791015,57.296
20000603175400.knt,CHB0070006031754.UD,2000-06-03, 17:54:00,35.68,140.715,48,6.0,CHB007,35.7234,140.2267,24,2000-06-03, 17:55:59,100Hz,119,U-D,0.0002384185791015,29.534,44.35559762877279,1426,1453.0,29.846908645483,2.5777997388764664,2.345517650679509,2.8378341726844667,2.4260558032781327,1.4210103832462333,0.3281884472968687,0.3033441637483881,0.3033441637483881,0.2170238055885296,0.1251349535072536,23.096517692676592,22.140508222693573,22.140508222693573,22.140508222693573,11.818241436098337,E-W,0.0002384185791015,72.753,N-S,0.0002384185791015,126.036
20000603175400.knt,CHB0080006031754.UD,2000-06-03, 17:54:00,35.68,140.715,48,6.0,CHB008,35.6537,139.9023,4,2000-06-03, 17:55:04,100Hz,181,U-D,0.0002384185791015,8.786,73.47496789471279,1315,1329.0,23.127691879438355,3.555786725288975,3.711993020549433,3.344572304833356,3.3984964219084657,2.3379978905736416,0.2043498959831322,0.2043498959831322,0.1957910273961501,0.1041973850242447,0.0684320977220894,6.024406704913567,4.764268533766376,3.5944262260037565,3.197570277787176,1.709117012233469,E-W,0.0002384185791015,18.09,N-S,0.0002384185791015,13.898
20000603175400.knt,CHB0090006031754.UD,2000-06-03, 17:54:00,35.68,140.715,48,6.0,CHB009,35.6082,140.1022,4,2000-06-03, 17:55:01,100Hz,131,U-D,0.0002384185791015,13.579,55.9468311413468,1387,1403.0,30.846737618274723,3.0941195511728288,3.148233408452976,2.9275758961094183,2.696806085476128,1.5763267763662312,0.2114903044265484,0.2114903044265484,0.207008141296899,0.1736462885663965,0.11393291563408,13.77914574074112,13.77914574074112,13.77914574074112,13.77914574074112,5.522360583784415,E-W,0.0002384185791015,29.026,N-S,0.0002384185791015,44.856
20000603175400.knt,CHB0100006031754.UD,2000-06-03, 17:54:00,35.68,140.715,48,6.0,CHB010,35.7077,140.568,8,2000-06-03, 17:55:57,100Hz,180,U-D,0.0002384185791015,26.439,13.627699600444767,1363,1392.0,29.01566792849237,2.2502351035230133,2.4514157292726475,2.39945520402635,0.8217752761167483,0.43903965900593,0.2516058710532621,0.2460840993066485,0.1625446965783536,0.0901778236539921,0.0094890839407262,26.50394564909136,26.50394564909136,26.50394564909136,17.62887324509007,5.915935056177196,E-W,0.0002384185791015,140.995,N-S,0.0002384185791015,73.528
20000603175400.knt,CHB0130006031754.UD,2000-06-03, 17:54:00,35.68,140.715,48,6.0,CHB013,35.4327,140.2905,13,2000-06-03, 17:55:05,100Hz,119,U-D,0.0002384185791015,14.864,47.23139376597843,855,883.0,33.56724292829447,3.2311991784407,3.4455296274535425,2.926092563322422,4.1306208958986526,1.7008389840198994,0.2506627683729485,0.2492086858506844,0.2492086858506844,0.2229631071762629,0.0904132599457136,6.798547543563752,6.798547543563752,6.798547543563752,5.544910904545724,3.10450067524552,E-W,0.0002384185791015,46.607,N-S,0.0002384185791015,39.442
20000603175400.knt,CHB0140006031754.UD,2000-06-03, 17:54:00,35.68,140.715,48,6.0,CHB014,35.4769,140.0489,7,2000-06-03, 17:55:04,100Hz,119,U-D,0.0002384185791015,39.384,64.334042379213,1213,1238.0,37.04490606551973,2.682645795727756,3.071771574602512,2.6525015406408188,2.528976665057732,1.5040442000237944,0.2012576759645295,0.2012576759645295,0.2012576759645295,0.149932606728754,0.1000235332673337,11.605277415432704,11.605277415432704,11.605277415432704,11.515426513732232,7.540323773472225,E-W,0.0002384185791015,59.973,N-S,0.0002384185791015,56.725
20000603175400.knt,CHB0150006031754.UD,2000-06-03, 17:54:00,35.68,140.715,48,6.0,CHB015,35.3738,139.9159,2,2000-06-03, 17:55:06,100Hz,138,U-D,0.0002384185791015,15.729,79.92881318986385,1185,1214.0,37.49015421645182,3.13136245072703,3.453838672745534,2.748509718732892,3.598225085911611,1.4132578697812426,0.1657934033629093,0.1657934033629093,0.1599349439181552,0.1166635339595713,0.0410884977173562,7.960688974001077,7.439434061522922,6.151645866269719,3.848253080079272,2.3148962681173955,E-W,0.0002384185791015,23.478,N-S,0.0002384185791015,24.945
20000603175400.knt,CHB0160006031754.UD,2000-06-03, 17:54:00,35.68,140.715,48,6.0,CHB016,35.3004,140.3869,8,2000-06-03, 17:55:00,100Hz,160,U-D,0.0002384185791015,15.347,51.61424767484197,1380,1397.0,35.804882488567564,2.754636949710063,2.607766440234624,2.613194791118242,2.734011074468256,1.1049982071735858,0.2025606801249798,0.1724300527298526,0.1724300527298526,0.1186741887782529,0.0639587191765748,11.074733274807654,9.255139928893744,9.255139928893744,9.255139928893744,4.437815198301114,E-W,0.0002384185791015,59.534,N-S,0.0002384185791015,69.327
20000603175400.knt,CHB0170006031754.UD,2000-06-03, 17:54:00,35.68,140.715,48,6.0,CHB017,35.2988,140.0755,31,2000-06-03, 17:55:04,100Hz,140,U-D,0.0002384185791015,14.327,71.75596014005262,1261,1278.0,38.924484134628656,3.3473288657240894,3.7302596845509486,2.9254277891274603,2.8736666298078988,1.4945225047722326,0.1247824488519247,0.1247824488519247,0.1196379940209652,0.0877047930765065,0.0470150726086516,7.901020420877503,7.901020420877503,5.137256046751099,4.964213272492158,2.270442472646643,E-W,0.0002384185791015,39.98,N-S,0.0002384185791015,21.386
20000603175400.knt,CHB0180006031754.UD,2000-06-03, 17:54:00,35.68,140.715,48,6.0,CHB018,35.1577,140.3222,56,2000-06-03, 17:55:02,100Hz,119,U-D,0.0002384185791015,10.065,68.11667846090421,1350,1366.0,30.22500340683296,2.266778357530423,2.4335897486371563,2.6205342923254724,2.162440269920646,1.3881404845814729,0.101862542745727,0.101862542745727,0.101862542745727,0.0693099558741017,0.0366204341682644,6.047923984320766,5.657593456976553,5.657593456976553,5.657593456976553,1.6586810227921118,E-W,0.0002384185791015,20.249,N-S,0.0002384185791015,25.264
20000603175400.knt,CHB0200006031754.UD,2000-06-03, 17:54:00,35.68,140.715,48,6.0,CHB020,35.1155,140.1022,13,2000-06-03, 17:55:06,100Hz,142,U-D,0.0002384185791015,7.059,83.81611105475136,1136,1202.0,33.407751089358925,2.9756295055696493,3.093835795632604,2.6653609683761323,2.554015980998263,1.2888144710012086,0.047613347936531,0.047613347936531,0.047613347936531,0.047613347936531,0.0200320300463088,2.972620949068713,2.4146477520854264,1.548471427035892,1.548471427035892,0.6714806780625704,E-W,0.0002384185791015,20.355,N-S,0.0002384185791015,15.295
20000603175400.knt,CHB0240006031754.UD,2000-06-03, 17:54:00,35.68,140.715,48,6.0,CHB024,35.6335,140.0784,3,2000-06-03, 17:55:01,100Hz,163,U-D,0.0002384185791015,9.875,57.7477094802176,1400,1420.0,28.48532382260543,3.013109166135817,3.19393118444552,2.769335213360764,2.7857005353801894,1.2940587909511492,0.190270230598982,0.190270230598982,0.1835443827961274,0.1605985019287102,0.0979496999372313,9.89051404629552,9.89051404629552,9.89051404629552,9.89051404629552,6.168367003591786,E-W,0.0002384185791015,19.254,N-S,0.0002384185791015,21.968
20000603175400.knt,CHB0250006031754.UD,2000-06-03, 17:54:00,35.68,140.715,48,6.0,CHB025,34.9707,139.9459,-9999,2000-06-03, 17:55:16,200Hz,177,U-D,0.0002384185791015,2.995,105.30350574002044,927,1010.0,18.29114286109024,4.067780055455374,4.578701247714257,3.055536625750294,5.504998454500175,2.7689623920978903,0.1067053975663765,0.1067053975663765,0.0866006511319959,0.0452984615402511,0.0363043950722155,1.0505605507369893,0.7668611230208903,0.6790348448975975,0.5254958372656379,0.2241584003466077,E-W,0.0002384185791015,7.108,N-S,0.0002384185791015,6.001
20000603175400.knt,CHB0300006031754.UD,2000-06-03, 17:54:00,35.68,140.715,48,6.0,CHB030,35.3766,139.9151,-9999,2000-06-03, 17:55:05,100Hz,155,U-D,0.0002384185791015,7.498,79.86115573074905,1290,1317.0,32.69876237905394,3.199682125212783,3.5069928049452623,2.788961071044965,3.607152924192624,1.464694422589388,0.1664891252364998,0.1664891252364998,0.1613953124494455,0.1179332916433381,0.041688204944847,5.773738092684127,5.198523463294231,4.625278617120212,4.625278617120212,1.5864448649870084,E-W,0.0002384185791015,23.435,N-S,0.0002384185791015,21.473
20000603175400.knt,FKS0130006031754.UD,2000-06-03, 17:54:00,35.68,140.715,48,6.0,FKS013,37.09,140.5563,320,2000-06-03, 17:55:17,100Hz,119,U-D,0.0002384185791015,2.193,157.427073016404,1055,1117.0,30.96241653649991,1.3407699874334338,1.2832100145187546,1.8520088073714465,1.3719998118813954,3.14592251148393,0.0074723126216334,0.0074723126216334,0.0067467189804147,0.0015960195249612,0.0012642374339696,1.213689202274641,1.213689202274641,0.8743571215126552,0.628149057665268,0.1679387682178654,E-W,0.0002384185791015,7.235,N-S,0.0002384185791015,6.228
20000603175400.knt,GNM0110006031754.UD,2000-06-03, 17:54:00,35.68,140.715,48,6.0,GNM011,36.2914,139.3609,42,2000-06-03, 17:55:14,100Hz,119,U-D,0.0002384185791015,2.922,139.51727181262157,1017,1109.0,27.385179273843782,1.5122051167388997,2.260892717391312,2.704437533874238,4.860030125556408,3.0631691546740205,0.0181349634480829,0.0136590086645572,0.0093767611937905,0.0093767611937905,0.0034366071692174,2.4457966166058034,1.4280728782993046,0.5883229992885145,0.3534310524305804,0.1076616076414916,E-W,0.0002384185791015,7.268,N-S,0.0002384185791015,6.006
20000603175400.knt,IBR0010006031754.UD,2000-06-03, 17:54:00,35.68,140.715,48,6.0,IBR001,36.7761,140.3569,105,2000-06-03, 17:55:15,100Hz,119,U-D,0.0002384185791015,3.245,126.04197391785544,793,898.0,29.423272118396987,1.8880696501768752,1.955649406521762,4.7042560914752976,5.759488151487381,14.614004288391056,0.0094330932234474,0.0078607838060507,0.0061340322464718,0.0056171061456236,0.0056171061456236,1.4178230420724989,1.2453498554018756,0.7167459247000356,0.3124344783614698,0.1016070344437853,E-W,0.0002384185791015,13.498,N-S,0.0002384185791015,10.708
20000603175400.knt,IBR0030006031754.UD,2000-06-03, 17:54:00,35.68,140.715,48,6.0,IBR003,36.5915,140.6453,58,2000-06-03, 17:55:08,100Hz,119,U-D,0.0002384185791015,6.233,101.54725814823964,1189,1243.0,32.15406686725837,0.8609891995614909,0.9866021071852232,1.2216028148381026,0.43709912747426,0.3313338719060912,0.0161185729682365,0.0161185729682365,0.0161185729682365,0.0028212605379031,0.0009957222928228,4.2128932223375,4.2128932223375,3.146239286915802,1.77546366736239,0.6069988986201746,E-W,0.0002384185791015,21.487,N-S,0.0002384185791015,19.321
