earthquake name,records name,earthquake date,earthquake time,lat,long,depth,mag,stn_code,stn_lat,stn_long,stn_height,rcd_date,rcd_time,frequency,rcd_duration,direction,scale_factor,max_pga,epi_dist,pick_index_manually,pick_index_kalkan,snr_db_kalkan,tc_5sec,tc_4sec,tc_3sec,tc_2sec,tc_1sec,Pd_5sec,Pd_4sec,Pd_3sec,Pd_2sec,Pd_1sec,Pga_5sec,Pga_4sec,Pga_3sec,Pga_2sec,Pga_1sec,Channel,Scale_factor,PGA_ew,Channel.1,Scale_factor.1,PGA_ns
20000109130200.knt,MYG0150001091302.UD,2000-01-09, 13:02:00,37.276,141.7,46,5.0,MYG015,38.1049,140.8699,3,2000-01-09, 13:03:42,100Hz,119,U-D,0.0002384185791015,8.426,117.60101518896066,1382,1389.0,26.827122882280538,0.9548367921770462,0.8552253187865043,0.5989058117442339,0.4545633765776182,0.4729927904934778,0.0129928661088813,0.0129928661088813,0.0116871540894342,0.0096231765266146,0.0096231765266146,3.588906582466117,3.588906582466117,3.588906582466117,2.837015120091826,2.5006571856982465,E-W,0.0002384185791015,18.753,N-S,0.0002384185791015,27.783
20000109130200.knt,MYG0160001091302.UD,2000-01-09, 13:02:00,37.276,141.7,46,5.0,MYG016,38.0085,140.621,50,2000-01-09, 13:03:43,100Hz,119,U-D,0.0002384185791015,5.39,125.13807269348814,1406,1406.0,32.638576154707394,0.5653147920204002,0.5665423729343316,0.5626784195079105,0.5517077425171244,0.4877584890988536,0.0152052819884824,0.0152052819884824,0.0152052819884824,0.0152052819884824,0.0152052819884824,5.388249485040871,5.388249485040871,5.388249485040871,5.388249485040871,5.054389622321456,E-W,0.0002384185791015,8.557,N-S,0.0002384185791015,6.965
20000109130200.knt,MYG0170001091302.UD,2000-01-09, 13:02:00,37.276,141.7,46,5.0,MYG017,37.9763,140.7818,35,2000-01-09, 13:03:53,100Hz,119,U-D,0.0002384185791015,6.719,112.26024930751996,206,178.0,20.47328898351257,7.791829720074388,8.336780608572827,9.224447456334149,9.62743743420989,7.958071617333198,0.0979748423138599,0.0979748423138599,0.0979748423138599,0.0979748423138599,0.0971765670989385,4.09446913218043,4.09446913218043,4.09446913218043,4.09446913218043,4.026822754166519,E-W,0.0002384185791015,11.42,N-S,0.0002384185791015,11.188
20000109130200.knt,TCG0140001091302.UD,2000-01-09, 13:02:00,37.276,141.7,46,5.0,TCG014,36.545,140.1742,130,2000-01-09, 13:03:47,100Hz,119,U-D,0.0002384185791015,7.15,158.14142371387683,1421,1448.0,30.920955585136014,0.3596065508602023,0.2588521542457498,0.2207445967410432,0.2707726482744864,0.3529359196255925,0.0034713277131589,0.0034713277131589,0.0034713277131589,0.0034713277131589,0.0034713277131589,3.9034792706527712,3.9034792706527712,3.9034792706527712,3.7901166455803392,1.6284628592592978,E-W,0.0002384185791015,22.92,N-S,0.0002384185791015,22.999
20000110173300.knt,AKT0180001101733.UD,2000-01-10, 17:33:00,38.876,140.682,13,4.2,AKT018,39.1939,140.1902,130,2000-01-10, 17:33:55,100Hz,119,U-D,0.0002384185791015,1.774,55.26194808664295,787,804.0000000000001,17.461398762072086,1.1746222952132357,0.7908776924815384,0.6925478525671431,0.7513160050102912,0.7855586436667867,0.0024252588421021,0.0022083180294905,0.0022083180294905,0.0022083180294905,0.0022083180294905,0.6669355632523638,0.6669355632523638,0.6669355632523638,0.6669355632523638,0.6669355632523638,E-W,0.0002384185791015,6.629,N-S,0.0002384185791015,9.59
20000110173300.knt,AKT0190001101733.UD,2000-01-10, 17:33:00,38.876,140.682,13,4.2,AKT019,39.0384,140.451,170,2000-01-10, 17:33:47,100Hz,119,U-D,0.0002384185791015,4.498,26.92670732243906,1101,1109.0,26.560940111663307,1.3488481504443168,1.6167649329736236,1.84951759350521,1.9044119596212568,2.618261392810016,0.0078182419065554,0.0078182419065554,0.0078182419065554,0.0078182419065554,0.0078182419065554,4.501682966856997,4.501682966856997,2.708495521072199,2.708495521072199,2.488470034628665,E-W,0.0002384185791015,10.157,N-S,0.0002384185791015,8.839
20000110173300.knt,IWT0090001101733.UD,2000-01-10, 17:33:00,38.876,140.682,13,4.2,IWT009,39.0187,141.4031,150,2000-01-10, 17:33:58,100Hz,119,U-D,0.0002384185791015,1.912,64.34685877341006,639,635.0,22.60375089965373,5.016567760168654,4.850847325572703,4.280460197381725,3.0793678955389403,3.2927766468039783,0.0043808388869512,0.0043808388869512,0.0043808388869512,0.003735111059179,0.0019268162622481,1.577648365540392,1.577648365540392,1.577648365540392,1.577648365540392,0.6695510519194506,E-W,0.0002384185791015,7.948,N-S,0.0002384185791015,10.278
20000110173300.knt,MYG0010001101733.UD,2000-01-10, 17:33:00,38.876,140.682,13,4.2,MYG001,38.9015,141.5684,48,2000-01-10, 17:33:53,100Hz,119,U-D,0.0002384185791015,3.793,76.7703509571756,1355,1376.0,26.079438458953632,2.0543977753274536,1.952133637758695,1.4810055534769906,0.6696347049549201,0.5265016611223623,0.0075667011878296,0.0075667011878296,0.0075667011878296,0.0052581142559564,0.0021490451090409,3.790538720692606,3.790538720692606,3.790538720692606,3.790538720692606,3.47273894941858,E-W,0.0002384185791015,2.681,N-S,0.0002384185791015,3.508
20000110173300.knt,MYG0020001101733.UD,2000-01-10, 17:33:00,38.876,140.682,13,4.2,MYG002,38.7262,141.5109,79,2000-01-10, 17:33:52,100Hz,133,U-D,0.0002384185791015,2.862,73.7358087151928,1421,1448.0,21.97231697992345,4.290092241890644,4.343453497866806,3.694650744266073,2.0327787323025177,0.6134383522495095,0.0090493123053714,0.0090493123053714,0.0090493123053714,0.0071721789892848,0.001679703162819,2.511839269837899,2.511839269837899,2.511839269837899,2.511839269837899,1.8501963461186584,E-W,0.0002384185791015,6.428,N-S,0.0002384185791015,6.284
20000110173300.knt,MYG0030001101733.UD,2000-01-10, 17:33:00,38.876,140.682,13,4.2,MYG003,38.7348,141.3106,28,2000-01-10, 17:33:57,100Hz,120,U-D,0.0002384185791015,2.367,56.68692760912217,634,653.0,21.90695876876696,1.5686111182072753,1.6436604362325062,1.7211355514260762,1.8823273748894027,1.7187500482255236,0.0037626912993896,0.0037626912993896,0.0037626912993896,0.0037626912993896,0.0037626912993896,2.3619433342131537,2.3619433342131537,2.3619433342131537,2.3619433342131537,1.9346430158240464,E-W,0.0002384185791015,6.058,N-S,0.0002384185791015,3.693
20000110173300.knt,MYG0040001101733.UD,2000-01-10, 17:33:00,38.876,140.682,13,4.2,MYG004,38.7292,141.0217,40,2000-01-10, 17:33:46,100Hz,129,U-D,0.0002384185791015,5.67,33.65971371253309,1410,1410.0,27.387668700283243,0.6808623976325205,0.6684562859539487,0.5861928191159144,0.5437367700283615,0.4965293586323588,0.0039442988576875,0.0039442988576875,0.0039054064842626,0.0039054064842626,0.0039054064842626,5.025681483148508,5.025681483148508,5.025681483148508,5.025681483148508,5.025681483148508,E-W,0.0002384185791015,24.471,N-S,0.0002384185791015,31.839
20000110173300.knt,MYG0050001101733.UD,2000-01-10, 17:33:00,38.876,140.682,13,4.2,MYG005,38.7992,140.6507,300,2000-01-10, 17:33:42,100Hz,134,U-D,0.0002384185791015,42.782,8.959747270987803,1392,1415.0,21.344139303012803,1.0920465579097147,1.173440437772891,1.0417401669299935,1.0015263553268996,0.5322960397481589,0.0519297104967297,0.0519297104967297,0.0503851941151482,0.0389358498318976,0.0218483537895283,42.802347100019695,42.802347100019695,42.802347100019695,22.374056467211297,18.689681943745605,E-W,0.0002384185791015,50.597,N-S,0.0002384185791015,51.634
20000110173300.knt,MYG0110001101733.UD,2000-01-10, 17:33:00,38.876,140.682,13,4.2,MYG011,38.2972,141.5043,30,2000-01-10, 17:33:57,100Hz,132,U-D,0.0002384185791015,2.69,96.17829820809084,1257,1287.0,23.753938572697507,3.1796915824711367,2.915332989127528,2.037375792551764,0.788298095048257,0.7582007727395184,0.0045684090458463,0.0045684090458463,0.0045345973202053,0.0022890201502198,0.0010973139769915,1.8183302995804944,1.8183302995804944,1.8183302995804944,1.8183302995804944,1.3416099834809374,E-W,0.0002384185791015,7.513,N-S,0.0002384185791015,6.059
20000110173300.knt,YMT0050001101733.UD,2000-01-10, 17:33:00,38.876,140.682,13,4.2,YMT005,38.607,140.1621,350,2000-01-10, 17:33:56,100Hz,119,U-D,0.0002384185791015,2.736,54.10958183427114,695,707.0,23.868538534210828,8.969376721815662,9.01862781748208,9.258695943877868,8.316358072968459,6.664469224041339,0.017872327474431,0.017872327474431,0.017872327474431,0.0178327944915162,0.0150948322248292,2.022579009102058,2.022579009102058,2.022579009102058,2.022579009102058,1.7956567091950504,E-W,0.0002384185791015,3.841,N-S,0.0002384185791015,3.337
20000110173300.knt,YMT0060001101733.UD,2000-01-10, 17:33:00,38.876,140.682,13,4.2,YMT006,38.6001,140.4054,96,2000-01-10, 17:33:54,100Hz,119,U-D,0.0002384185791015,1.701,38.94514044614057,673,684.0,22.52311102851373,12.317837156411992,13.168765118219326,11.54940047527551,9.43029347424494,7.546581254400657,0.0101734909938163,0.0094516135959642,0.0094516135959642,0.0084314414019115,0.0050612011492177,1.1703383532156106,0.8535533791795981,0.8535533791795981,0.8535533791795981,0.8535533791795981,E-W,0.0002384185791015,2.37,N-S,0.0002384185791015,2.966
20000110181000.knt,IWT0090001101810.UD,2000-01-10, 18:10:00,38.878,140.68,13,3.6,IWT009,39.0187,141.4031,150,2000-01-10, 18:11:07,100Hz,119,U-D,0.0002384185791015,0.933,64.45929676041251,632,637.0,18.44222007618245,5.402894644096628,4.810742669299697,5.758125010219215,6.761932471143848,6.229560942112818,0.002197434456274,0.0018608298992132,0.0018608298992132,0.0018608298992132,0.0018607828936838,0.6393505715077422,0.6393505715077422,0.6393505715077422,0.6393505715077422,0.6393505715077422,E-W,0.0002384185791015,2.631,N-S,0.0002384185791015,3.022
20000110181000.knt,MYG0030001101810.UD,2000-01-10, 18:10:00,38.878,140.68,13,3.6,MYG003,38.7348,141.3106,28,2000-01-10, 18:11:06,100Hz,119,U-D,0.0002384185791015,1.246,56.91454982610495,621,636.0,21.941060409091136,5.011654711613762,4.426804899559129,3.2841183543528603,1.886341512236385,0.6624352038697379,0.0026082201170939,0.0026025768644353,0.0025057645287568,0.0017482561189008,0.0005983806793373,1.1418223997194938,1.1418223997194938,1.1418223997194938,1.1418223997194938,1.1418223997194938,E-W,0.0002384185791015,3.044,N-S,0.0002384185791015,3.07
20000110181000.knt,MYG0040001101810.UD,2000-01-10, 18:10:00,38.878,140.68,13,3.6,MYG004,38.7292,141.0217,40,2000-01-10, 18:11:00,100Hz,119,U-D,0.0002384185791015,3.342,33.91894558558096,910,910.0,26.83554144685912,1.2836687967756952,1.7949227028357049,2.0948833495522634,2.231866575037196,2.399283875508463,0.0026404429254592,0.0026404429254592,0.0026404429254592,0.0026404429254592,0.0026404429254592,1.8573719109475189,1.4273244772427671,1.4273244772427671,1.4273244772427671,1.4273244772427671,E-W,0.0002384185791015,14.171,N-S,0.0002384185791015,14.686
20000110181000.knt,MYG0050001101810.UD,2000-01-10, 18:10:00,38.878,140.68,13,3.6,MYG005,38.7992,140.6507,300,2000-01-10, 18:11:50,100Hz,119,U-D,0.0002384185791015,49.401,9.12225033970211,1478,1479.0,47.53021975660957,1.147120571217111,1.075376144183379,0.8827391686145863,0.6754173996395217,0.3974706360954051,0.0393390122985384,0.0393390122985384,0.0393390122985384,0.0291669437679192,0.0103529067455707,49.26869818505394,49.26869818505394,49.26869818505394,46.95672299156743,20.58418790081018,E-W,0.0002384185791015,27.003,N-S,0.0002384185791015,38.55
20000110181000.knt,MYG0110001101810.UD,2000-01-10, 18:10:00,38.878,140.68,13,3.6,MYG011,38.2972,141.5043,30,2000-01-10, 18:11:16,100Hz,119,U-D,0.0002384185791015,1.231,96.45555681751723,274,273.0,14.789211799617734,10.52000296807092,10.601099988370336,12.167932505694592,16.108008673864525,28.14328713577288,0.0223216673861316,0.0223216673861316,0.0223216673861316,0.0223216673861316,0.0223216673861316,0.6899183981927288,0.6899183981927288,0.6899183981927288,0.6899183981927288,0.6899183981927288,E-W,0.0002384185791015,3.272,N-S,0.0002384185791015,3.639
20000110222500.knt,FKI0030001102225.UD,2000-01-10, 22:25:00,36.251,136.299,11,3.6,FKI003,36.0444,136.2279,9,2000-01-10, 22:25:38,100Hz,119,U-D,0.0002384185791015,2.758,23.843424270366576,1103,1110.0,19.5847118235381,1.3859664653789332,0.7965599719832278,0.6989152873295894,0.539592583050308,0.2825541931855682,0.0089416818468881,0.0036658004930421,0.0011252884912864,0.001118599044966,0.0010571338919358,2.7589271662672328,2.7589271662672328,1.925296932757896,1.925296932757896,1.925296932757896,E-W,0.0002384185791015,5.489,N-S,0.0002384185791015,5.515
20000110222500.knt,FKI0040001102225.UD,2000-01-10, 22:25:00,36.251,136.299,11,3.6,FKI004,35.9789,136.4865,175,2000-01-10, 22:25:41,100Hz,119,U-D,0.0002384185791015,1.788,34.628112494187015,951,954.0,25.71007912059485,1.194132702386816,2.2514031988896464,2.293507279032878,2.3431781975183408,2.389508000450076,0.0024901297011897,0.0024901297011897,0.0024901297011897,0.0024901297011897,0.0024901297011897,1.795182330580722,1.4938029655406406,1.4938029655406406,1.4938029655406406,1.4938029655406406,E-W,0.0002384185791015,4.143,N-S,0.0002384185791015,4.149
20000110222500.knt,FKI0050001102225.UD,2000-01-10, 22:25:00,36.251,136.299,11,3.6,FKI005,35.9067,136.1743,32,2000-01-10, 22:25:42,100Hz,119,U-D,0.0002384185791015,1.541,39.89089342915421,928,928.0,12.544747976593095,2.1131454122654745,2.271089775672908,2.2252830514590496,2.39135740620362,2.319566052141028,0.0019205979297205,0.0019205979297205,0.0019205979297205,0.0019205979297205,0.0019205979297205,1.543723395635814,1.543723395635814,1.543723395635814,1.543723395635814,1.543723395635814,E-W,0.0002384185791015,4.657,N-S,0.0002384185791015,2.567
20000110222500.knt,FKI0060001102225.UD,2000-01-10, 22:25:00,36.251,136.299,11,3.6,FKI006,35.7731,136.1998,127,2000-01-10, 22:25:46,100Hz,119,U-D,0.0002384185791015,1.709,53.883910367677984,754,768.0,20.05669297284583,4.989816234814833,5.272361921096685,5.161809859850675,3.8534174696524666,2.258550679622832,0.0023570542426873,0.0023570542426873,0.0023570542426873,0.0021991389416577,0.001484978315717,0.6704264482446237,0.6704264482446237,0.6704264482446237,0.6704264482446237,0.6704264482446237,E-W,0.0002384185791015,6.402,N-S,0.0002384185791015,5.783
20000110222500.knt,FKI0110001102225.UD,2000-01-10, 22:25:00,36.251,136.299,11,3.6,FKI011,35.9053,136.6706,432,2000-01-10, 22:25:45,100Hz,119,U-D,0.0002384185791015,1.691,50.92039184804446,829,819.9999999999999,21.34209085084383,3.6330450382063786,3.3139140877807884,2.1903482025849725,1.2065832082508805,1.2097953776828363,0.0027530834939667,0.0027530834939667,0.0025000964500552,0.0016033534663151,0.0016033534663151,1.6923841358217837,1.6923841358217837,1.6923841358217837,1.6923841358217837,1.6923841358217837,E-W,0.0002384185791015,3.193,N-S,0.0002384185791015,2.679
20000110222500.knt,GIF0090001102225.UD,2000-01-10, 22:25:00,36.251,136.299,11,3.6,GIF009,35.9219,136.8311,450,2000-01-10, 22:25:48,100Hz,119,U-D,0.0002384185791015,1.126,60.210774676415824,684,693.0,12.889758013001725,2.0387649483824104,2.10852975417442,2.160072873619172,1.703704596649271,0.6756798125519149,0.0007458029570989,0.0007458029570989,0.0007458029570989,0.000738309153517,0.0003365774965677,0.4252146939678319,0.4252146939678319,0.4252146939678319,0.4252146939678319,0.4252146939678319,E-W,0.0002384185791015,8.042,N-S,0.0002384185791015,2.543
20000110222500.knt,GIF0260001102225.UD,2000-01-10, 22:25:00,36.251,136.299,11,3.6,GIF026,35.5912,136.7414,145,2000-01-10, 22:25:54,100Hz,119,U-D,0.0002384185791015,0.753,83.48416424355942,471,477.00000000000006,15.44205286097056,2.564750938728455,2.3383991443333696,2.3067945582021325,2.1762368333374464,1.2466972473187778,0.0011079986466204,0.0011079986466204,0.0011079986466204,0.0011079986466204,0.0009274660720392,0.7519897094819994,0.7519897094819994,0.7519897094819994,0.7519897094819994,0.7519897094819994,E-W,0.0002384185791015,2.775,N-S,0.0002384185791015,2.865
20000110222500.knt,ISK0120001102225.UD,2000-01-10, 22:25:00,36.251,136.299,11,3.6,ISK012,36.3575,136.6045,177,2000-01-10, 22:25:39,100Hz,119,U-D,0.0002384185791015,2.178,29.827497316004383,1103,1110.0,27.64428519994546,0.6099467732579514,0.5085431304203841,0.6899738082774032,0.6289131908872858,0.3377268007461071,0.001548509170842,0.0006806147896918,0.0006806147896918,0.0006806147896918,0.0003723216160305,2.183030406276444,1.5154054537224029,1.3812239959302453,1.3812239959302453,1.3812239959302453,E-W,0.0002384185791015,5.765,N-S,0.0002384185791015,3.356
20000110222500.knt,ISK0130001102225.UD,2000-01-10, 22:25:00,36.251,136.299,11,3.6,ISK013,36.1769,136.6245,494,2000-01-10, 22:25:40,100Hz,119,U-D,0.0002384185791015,1.246,30.34202462316225,1009,1009.0,22.4657582342474,4.264019019938585,6.309678601275916,6.573296192782672,6.119353151326245,5.230557603599257,0.0030075538628654,0.0030075538628654,0.0030075538628654,0.0030075538628654,0.0030075538628654,1.2491278688549945,1.2491278688549945,1.2491278688549945,1.2491278688549945,1.2491278688549945,E-W,0.0002384185791015,2.55,N-S,0.0002384185791015,2.199
20000110222500.knt,ISK0140001102225.UD,2000-01-10, 22:25:00,36.251,136.299,11,3.6,ISK014,36.3028,136.3154,4,2000-01-10, 22:25:32,100Hz,119,U-D,0.0002384185791015,30.693,5.944550285994138,1458,1463.0,25.43144955488872,0.2774157508342915,0.267031306186785,0.2175508526644366,0.2182566944735759,0.231900710789846,0.0231575621927448,0.0231575621927448,0.0174866494111562,0.0174866494111562,0.0052955567082813,30.626022463971548,30.626022463971548,30.626022463971548,30.626022463971548,30.626022463971548,E-W,0.0002384185791015,159.195,N-S,0.0002384185791015,157.115
20000521231900.knt,HKD0840005212319.UD,2000-05-21, 23:19:00,42.558,143.548,59,4.1,HKD084,43.1141,144.123,30,2000-05-21, 23:20:13,100Hz,119,U-D,0.0002384185791015,2.127,77.60013558197221,314,319.0,31.39332146667609,3.3894541292145983,3.4982650413034504,3.712783030779155,4.206158262094248,4.17204364604643,0.0037615843781337,0.0037615843781337,0.0037615843781337,0.0037615843781337,0.0037615843781337,0.6699302281441968,0.6699302281441968,0.6699302281441968,0.6699302281441968,0.6699302281441968,E-W,0.0002384185791015,7.289,N-S,0.0002384185791015,7.816
20000521231900.knt,HKD0850005212319.UD,2000-05-21, 23:19:00,42.558,143.548,59,4.1,HKD085,42.9581,144.0697,5,2000-05-21, 23:20:00,100Hz,119,U-D,0.0002384185791015,2.549,61.59053571210387,1471,1471.0,27.63726227186359,1.0926245091925118,1.0669872629514514,0.993191237174752,0.8848603863688215,0.6830942592345002,0.0027425477160765,0.0027425477160765,0.0027425477160765,0.0027425477160765,0.0027425477160765,2.5612536793199103,2.5612536793199103,2.5612536793199103,2.5612536793199103,2.5612536793199103,E-W,0.0002384185791015,8.146,N-S,0.0002384185791015,9.783
20000521231900.knt,HKD0860005212319.UD,2000-05-21, 23:19:00,42.558,143.548,59,4.1,HKD086,42.8526,143.8636,32,2000-05-21, 23:20:08,100Hz,119,U-D,0.0002384185791015,7.738,41.69071547360274,532,519.0,31.8239489891993,3.8945226514675615,3.2940867943329195,2.3913748939912445,1.2956686603220589,0.7029448072159007,0.0258358553076529,0.0257930071271034,0.0230307821195381,0.0161230677629336,0.0120535207797985,7.789312809616031,7.789312809616031,7.789312809616031,7.789312809616031,7.789312809616031,E-W,0.0002384185791015,39.152,N-S,0.0002384185791015,27.385
20000521231900.knt,HKD0870005212319.UD,2000-05-21, 23:19:00,42.558,143.548,59,4.1,HKD087,43.1502,143.8916,170,2000-05-21, 23:20:11,100Hz,119,U-D,0.0002384185791015,1.493,71.55864941816274,465,469.00000000000006,28.154572758934687,2.4618301958493807,2.1907732642695192,1.5922648011428682,0.9863544920002704,0.8453978485635145,0.0032587556109526,0.0032587556109526,0.0029387992500428,0.0019210778139252,0.0019210778139252,1.0449149577846073,1.0449149577846073,1.0449149577846073,1.0449149577846073,1.0449149577846073,E-W,0.0002384185791015,4.711,N-S,0.0002384185791015,2.546
20000521231900.knt,HKD0890005212319.UD,2000-05-21, 23:19:00,42.558,143.548,59,4.1,HKD089,43.2436,143.5544,90,2000-05-21, 23:20:12,100Hz,119,U-D,0.0002384185791015,3.54,76.23702398485736,384,396.0,23.331866667736143,5.436944712297206,5.1178584005658925,4.938899294801751,5.47823799345002,6.4730458576935845,0.0138982523080844,0.0138982523080844,0.0138982523080844,0.0138982523080844,0.0138982523080844,1.8297961884884524,1.8297961884884524,1.8297961884884524,1.8297961884884524,1.8297961884884524,E-W,0.0002384185791015,10.108,N-S,0.0002384185791015,6.801
