earthquake name,records name,earthquake date,earthquake time,lat,long,depth,mag,stn_code,stn_lat,stn_long,stn_height,rcd_date,rcd_time,frequency,rcd_duration,direction,scale_factor,max_pga,epi_dist,pick_index_manually,pick_index_kalkan,snr_db_kalkan,tc_5sec,tc_4sec,tc_3sec,tc_2sec,tc_1sec,Pd_5sec,Pd_4sec,Pd_3sec,Pd_2sec,Pd_1sec,Pga_5sec,Pga_4sec,Pga_3sec,Pga_2sec,Pga_1sec,Channel,Scale_factor,PGA_ew,Channel.1,Scale_factor.1,PGA_ns
20020104163400.knt,WKY0100201041634.UD,2002-01-04, 16:34:00,33.956,135.637,12,4.0,WKY010,33.5503,135.4972,6,2002-01-04, 16:34:10,100Hz,119,U-D,0.0002384185791015,2.415,46.92675866154417,866,868.0,16.708123768141753,1.2099562821815804,1.1579008057165858,1.020793022188651,0.9765532096845644,0.7660214224369722,0.0018258486852049,0.0012550470285735,0.0012550470285735,0.0012550470285735,0.0012550470285735,2.339072571920485,2.339072571920485,2.339072571920485,2.339072571920485,2.339072571920485,E-W,0.0002384185791015,4.646,N-S,0.0002384185791015,3.907
20020104163400.knt,WKY0140201041634.UD,2002-01-04, 16:34:00,33.956,135.637,12,4.0,WKY014,33.7053,135.6397,430,2002-01-04, 16:34:04,100Hz,119,U-D,0.0002384185791015,3.43,27.87768366849128,1137,1137.0,30.642128778820776,0.648751341287579,0.6479117830169787,0.930424541167224,0.5847973514123015,0.2451621325368499,0.0045197955566939,0.0032635189487691,0.0028419614301614,0.0018236844384663,0.0011361778381901,3.417602328340265,3.417602328340265,2.364971554914173,2.364971554914173,2.364971554914173,E-W,0.0002384185791015,9.033,N-S,0.0002384185791015,10.921
20020106183500.knt,CHB0100201061835.UD,2002-01-06, 18:35:00,36.395,141.029,47,4.2,CHB010,35.7077,140.568,8,2002-01-06, 18:35:45,100Hz,119,U-D,0.0002384185791015,1.166,86.93795940859563,389,385.0,14.249132119740576,2.04762348349836,1.979387461355303,1.902586149589483,2.1542435371635977,2.455520084662951,0.0018351325684771,0.0011699127082043,0.0011699127082043,0.0011699127082043,0.0011699127082043,0.7337249729525687,0.7337249729525687,0.7337249729525687,0.7337249729525687,0.7337249729525687,E-W,0.0002384185791015,2.618,N-S,0.0002384185791015,2.343
20020106183500.knt,FKS0090201061835.UD,2002-01-06, 18:35:00,36.395,141.029,47,4.2,FKS009,37.2778,140.6349,440,2002-01-06, 18:35:48,100Hz,119,U-D,0.0002384185791015,1.393,104.24007245663906,250,255.00000000000003,19.57759587901092,11.11338048214911,12.070816876485203,14.715631150830715,20.67696859304669,32.76339174979176,0.0153185495497011,0.0153185495497011,0.0153185495497011,0.0153185495497011,0.0153185495497011,0.7484753254538998,0.7484753254538998,0.7484753254538998,0.7484753254538998,0.7484753254538998,E-W,0.0002384185791015,2.66,N-S,0.0002384185791015,3.117
20020106183500.knt,IBR0020201061835.UD,2002-01-06, 18:35:00,36.395,141.029,47,4.2,IBR002,36.7061,140.7068,9,2002-01-06, 18:35:30,100Hz,119,U-D,0.0002384185791015,8.227,44.99995459973389,1379,1374.0,33.36038556414312,2.085614173862744,2.075443344295471,1.632379929855996,0.9480934471614038,0.3726706348845383,0.0071210113646798,0.0071210113646798,0.006849455203572,0.0047430085153476,0.0028425236311398,3.2944600500017587,3.2944600500017587,3.2944600500017587,3.2944600500017587,3.2944600500017587,E-W,0.0002384185791015,25.177,N-S,0.0002384185791015,23.08
20020106183500.knt,IBR0030201061835.UD,2002-01-06, 18:35:00,36.395,141.029,47,4.2,IBR003,36.5915,140.6453,58,2002-01-06, 18:35:29,100Hz,119,U-D,0.0002384185791015,19.254,40.668109343075415,1421,1440.0,20.438472383721248,1.2781952771241003,1.4544667793256416,1.3436687517019168,0.8105298550385253,0.2914039699213482,0.0094129589826825,0.0094129589826825,0.0094129589826825,0.0066533521027267,0.00300589849077,6.186305238112371,4.524295644648202,4.524295644648202,4.524295644648202,4.524295644648202,E-W,0.0002384185791015,23.941,N-S,0.0002384185791015,29.209
20020106183500.knt,IBR0040201061835.UD,2002-01-06, 18:35:00,36.395,141.029,47,4.2,IBR004,36.5273,140.4094,51,2002-01-06, 18:35:31,100Hz,119,U-D,0.0002384185791015,9.127,57.33006672008517,1444,1452.0,30.90322492821725,0.5205420313175091,0.5594661697854941,0.5843475250089901,0.5551219353578941,0.3671732858355176,0.0037598419680147,0.0037598419680147,0.0037598419680147,0.0037598419680147,0.0037598419680147,9.07476265331218,9.07476265331218,9.07476265331218,9.07476265331218,9.07476265331218,E-W,0.0002384185791015,22.518,N-S,0.0002384185791015,27.269
20020106183500.knt,IBR0050201061835.UD,2002-01-06, 18:35:00,36.395,141.029,47,4.2,IBR005,36.3851,140.2372,63,2002-01-06, 18:35:33,100Hz,119,U-D,0.0002384185791015,8.335,70.88360646596504,1380,1385.0,29.869267933493298,3.932616785448403,4.018088399517494,3.172862454089472,1.699530134325168,0.417135752607558,0.0218522980874843,0.0218522980874843,0.021575133336661,0.0170979867253268,0.0058305987823088,4.528931279676601,4.528931279676601,4.528931279676601,4.528931279676601,4.275313840432887,E-W,0.0002384185791015,11.408,N-S,0.0002384185791015,17.033
20020106183500.knt,IBR0110201061835.UD,2002-01-06, 18:35:00,36.395,141.029,47,4.2,IBR011,36.1251,140.0903,26,2002-01-06, 18:35:46,100Hz,119,U-D,0.0002384185791015,2.101,89.35498676253236,302,302.0,26.244876580200177,2.589241895547735,2.467009015624636,2.459753117087678,2.9737781933644745,3.150372389258333,0.0041371496531817,0.0041371496531817,0.0041371496531817,0.0041371496531817,0.0041371496531817,1.1652254549536136,1.1652254549536136,1.1652254549536136,1.1249553816734992,1.1249553816734992,E-W,0.0002384185791015,6.366,N-S,0.0002384185791015,5.299
20020106183500.knt,IBR0120201061835.UD,2002-01-06, 18:35:00,36.395,141.029,47,4.2,IBR012,36.1901,140.2869,24,2002-01-06, 18:35:41,100Hz,119,U-D,0.0002384185791015,3.089,70.30373697903194,553,553.0,16.422415131002325,5.838809395190456,5.841143601267011,4.489240814908405,2.8135560129301287,1.0503507457991097,0.0099171548083353,0.0099171548083353,0.0092570168743925,0.0073511970328657,0.0034853036382575,1.954486581571792,1.7895848518537865,1.7895848518537865,1.7895848518537865,1.7895848518537865,E-W,0.0002384185791015,7.929,N-S,0.0002384185791015,4.602
20020106183500.knt,IBR0130201061835.UD,2002-01-06, 18:35:00,36.395,141.029,47,4.2,IBR013,36.1587,140.4892,28,2002-01-06, 18:35:31,100Hz,119,U-D,0.0002384185791015,9.706,55.06211819546906,1428,1427.0,40.02517167492503,0.2377167742595978,0.2469739313300728,0.2552634723255748,0.2223032123035609,0.189546664004673,0.0040298134777516,0.0040298134777516,0.0040298134777516,0.0040298134777516,0.0040298134777516,7.34833159989234,7.34833159989234,7.34833159989234,7.34833159989234,7.34833159989234,E-W,0.0002384185791015,15.294,N-S,0.0002384185791015,19.219
20020106183500.knt,IBR0140201061835.UD,2002-01-06, 18:35:00,36.395,141.029,47,4.2,IBR014,36.0729,140.1947,11,2002-01-06, 18:35:44,100Hz,119,U-D,0.0002384185791015,2.587,82.95848010670983,341,360.0,23.605210636015546,2.7434249549124776,2.6275681495769,2.678642126004148,3.532160310913339,7.67896899337015,0.0047094983855446,0.0047094983855446,0.0047094983855446,0.0047094983855446,0.0047094983855446,1.784351100924974,1.784351100924974,1.784351100924974,1.784351100924974,0.6613517566760418,E-W,0.0002384185791015,6.775,N-S,0.0002384185791015,6.187
20020106183500.knt,IBR0150201061835.UD,2002-01-06, 18:35:00,36.395,141.029,47,4.2,IBR015,36.0693,139.908,14,2002-01-06, 18:35:50,100Hz,119,U-D,0.0002384185791015,2.983,106.86862702539712,123,131.0,16.317235108784555,11.74128670242138,14.366535903244072,16.748626784980473,15.119304992780528,9.49091383851531,0.0382239858081611,0.0382239858081611,0.0382239858081611,0.0382239858081611,0.03388694356546,0.839222723605703,0.839222723605703,0.839222723605703,0.839222723605703,0.839222723605703,E-W,0.0002384185791015,4.999,N-S,0.0002384185791015,6.065
20020106183500.knt,IBR0170201061835.UD,2002-01-06, 18:35:00,36.395,141.029,47,4.2,IBR017,35.9537,140.3194,17,2002-01-06, 18:35:43,100Hz,119,U-D,0.0002384185791015,5.166,80.40303656902965,484,507.0,25.73765263252808,1.3198505384411665,1.1759828139768294,1.1688764143604164,1.268116040188061,1.6211342067971766,0.0033497870229542,0.0033497870229542,0.0033497870229542,0.0033497870229542,0.0029183840895791,1.6986753956503111,1.6986753956503111,1.6986753956503111,1.6986753956503111,0.8232060244607953,E-W,0.0002384185791015,8.229,N-S,0.0002384185791015,5.694
20020106183500.knt,IBR0180201061835.UD,2002-01-06, 18:35:00,36.395,141.029,47,4.2,IBR018,35.977,140.6322,39,2002-01-06, 18:35:40,100Hz,119,U-D,0.0002384185791015,3.192,58.55324303455451,600,610.0,25.44932194607073,3.930890488559388,3.8004978294143217,3.631565734329624,2.715413399379882,1.3951347563235474,0.0082901656860416,0.0082901656860416,0.0082901656860416,0.0075464491377683,0.0040547752730861,1.7360432654546163,1.7360432654546163,1.5175667568364128,1.5175667568364128,1.4173279082434402,E-W,0.0002384185791015,10.499,N-S,0.0002384185791015,5.736
20020106183500.knt,TCG0030201061835.UD,2002-01-06, 18:35:00,36.395,141.029,47,4.2,TCG003,36.8144,139.7153,398,2002-01-06, 18:35:40,100Hz,119,U-D,0.0002384185791015,0.605,126.1972191198417,1385,1389.0,16.4350005933758,2.21173473940168,1.89254741501718,1.7976574273367547,1.8738920666010253,2.25996056479122,0.0022089992459606,0.0022089992459606,0.0022089992459606,0.0022089992459606,0.0022089992459606,0.6035222595282633,0.6035222595282633,0.6035222595282633,0.6035222595282633,0.6035222595282633,E-W,0.0002384185791015,2.834,N-S,0.0002384185791015,3.24
20020106183500.knt,TCG0060201061835.UD,2002-01-06, 18:35:00,36.395,141.029,47,4.2,TCG006,36.7639,140.1297,122,2002-01-06, 18:35:35,100Hz,119,U-D,0.0002384185791015,5.607,90.17095389853418,1452,1460.0,20.66163012915842,1.3491507339647963,1.338457794264488,1.1120896608452953,0.6004782923536377,0.2545714174484788,0.0061464021922543,0.0061464021922543,0.0061464021922543,0.0044035748497845,0.0034351738021322,5.579325578980541,5.579325578980541,5.579325578980541,5.579325578980541,5.579325578980541,E-W,0.0002384185791015,4.252,N-S,0.0002384185791015,4.585
20020106183500.knt,TCG0120201061835.UD,2002-01-06, 18:35:00,36.395,141.029,47,4.2,TCG012,36.2859,139.8047,33,2002-01-06, 18:35:51,100Hz,119,U-D,0.0002384185791015,2.352,110.3271092008752,104,36.0,14.039653184096192,3.4084185797559283,3.5865576575491063,3.508174256838038,3.2213153467517373,2.1671878536670537,0.0068019535266053,0.0068019535266053,0.0068019535266053,0.0068019535266053,0.0062940062098701,1.7681207916617148,1.7681207916617148,1.7681207916617148,1.7681207916617148,1.7681207916617148,E-W,0.0002384185791015,3.56,N-S,0.0002384185791015,2.735
20020106183500.knt,TCG0130201061835.UD,2002-01-06, 18:35:00,36.395,141.029,47,4.2,TCG013,36.4368,140.0225,67,2002-01-06, 18:35:36,100Hz,119,U-D,0.0002384185791015,3.617,90.18286549815336,1346,1354.0,30.85056577184901,0.3659181578064726,0.3721307159971223,0.3252861634056643,0.2727929782950176,0.3045742887254501,0.0020335403886178,0.0020335403886178,0.0020335403886178,0.0020335403886178,0.0020335403886178,3.607606622227314,3.607606622227314,3.607606622227314,3.607606622227314,2.6341857123296446,E-W,0.0002384185791015,5.468,N-S,0.0002384185791015,4.599
20020110004100.knt,KNG2060201100041.UD,2002-01-10, 00:41:00,34.233,139.725,117,4.8,KNG206,35.0966,139.3778,-1130,2002-01-10, 00:41:33,200Hz,180,U-D,5.960464477539063e-05,2.035,101.1416255734374,1193,1190.0,30.42014796062393,3.567965205208464,3.5983090126869084,4.629333241106912,4.640663278975726,7.071991041412787,0.0077093622938844,0.0077093622938844,0.0063960694296556,0.003898430670872,0.0038845505206319,0.4348268344155251,0.3739470579702696,0.2583122991033179,0.2583122991033179,0.1020750035802429,E-W,5.960464477539063e-05,9.612,N-S,5.960464477539063e-05,9.14
20020113093400.knt,EHM0060201130934.UD,2002-01-13, 09:34:00,33.715,132.734,41,3.9,EHM006,33.641,133.0082,552,2002-01-13, 09:34:37,100Hz,119,U-D,0.0002384185791015,0.738,26.673381325963494,845,844.9999999999999,16.483419037182646,6.005213776991988,6.704920315813221,6.387537881859604,5.984814935054676,4.907864994085132,0.0020255160882037,0.0020255160882037,0.0020255160882037,0.0020255160882037,0.0017515463408236,0.4415388482688324,0.4415388482688324,0.4415388482688324,0.4415388482688324,0.4415388482688324,E-W,0.0002384185791015,7.06,N-S,0.0002384185791015,6.717
20020113093400.knt,EHM0090201130934.UD,2002-01-13, 09:34:00,33.715,132.734,41,3.9,EHM009,33.6324,132.7963,250,2002-01-13, 09:34:30,100Hz,119,U-D,0.0002384185791015,5.081,10.844116177016511,1459,1458.0,28.75056281813024,0.8096812775666866,0.92141631335576,0.9054551654949536,0.8539183601695204,0.6270970439236515,0.0024407984480372,0.0024407984480372,0.0024407984480372,0.0024407984480372,0.0024407984480372,5.039396924209621,5.039396924209621,5.039396924209621,5.039396924209621,5.039396924209621,E-W,0.0002384185791015,5.993,N-S,0.0002384185791015,7.508
20020113093400.knt,EHM0100201130934.UD,2002-01-13, 09:34:00,33.715,132.734,41,3.9,EHM010,33.4512,132.6882,190,2002-01-13, 09:34:37,100Hz,119,U-D,0.0002384185791015,1.302,29.638456182162223,890,890.0,22.83473003590036,4.188217647039452,4.60898935320025,5.063294748229076,4.184280642395282,2.018745489060478,0.002856226600197,0.002856226600197,0.002856226600197,0.0027022641216614,0.0015210092143711,0.6008694589546719,0.6008694589546719,0.5474035124199838,0.4586431492991193,0.3153395900785585,E-W,0.0002384185791015,2.798,N-S,0.0002384185791015,4.121
20020113093400.knt,EHM0110201130934.UD,2002-01-13, 09:34:00,33.715,132.734,41,3.9,EHM011,33.4496,132.4336,10,2002-01-13, 09:34:39,100Hz,119,U-D,0.0002384185791015,2.287,40.56213001861907,807,824.0,11.682050638953934,4.145179193450887,4.217347219481344,3.077594451670638,1.4886175909586434,1.2010484269147934,0.0026840741335353,0.0026840741335353,0.0024849241190168,0.0010265296180008,0.0005917589504226,0.5180348742033156,0.5180348742033156,0.5180348742033156,0.3575157739742279,0.3250893731978377,E-W,0.0002384185791015,5.374,N-S,0.0002384185791015,3.793
20020113093400.knt,EHM0120201130934.UD,2002-01-13, 09:34:00,33.715,132.734,41,3.9,EHM012,33.2217,132.5727,37,2002-01-13, 09:34:43,100Hz,119,U-D,0.0002384185791015,1.001,56.85635491011048,574,593.0,16.505349734332274,8.082614752467615,7.450559849465384,6.203401645939845,4.445862872031162,2.006484411499072,0.0031585771619079,0.0031585771619079,0.0031585771619079,0.002502043392837,0.0009952505125475,0.375315533743814,0.375315533743814,0.375315533743814,0.2672070150248666,0.1893754728229588,E-W,0.0002384185791015,2.673,N-S,0.0002384185791015,2.896
20020113093400.knt,EHM0150201130934.UD,2002-01-13, 09:34:00,33.715,132.734,41,3.9,EHM015,33.6105,132.4814,4,2002-01-13, 09:34:37,100Hz,119,U-D,0.0002384185791015,3.53,26.10647226194901,835,854.0000000000001,19.099023591763498,6.156848233488676,6.832799734348267,7.063881557868495,6.530956132132097,5.00305015117563,0.0045485335269963,0.0045485335269963,0.0043575323618106,0.0037866064662989,0.0027235335760134,1.163201824085987,1.0121086689176386,0.8126705595667969,0.7778144621494445,0.7778144621494445,E-W,0.0002384185791015,6.5,N-S,0.0002384185791015,7.497
20020115215900.knt,CHB0040201152159.UD,2002-01-15, 21:59:00,35.886,140.612,44,4.3,CHB004,35.9007,140.4905,14,2002-01-15, 22:00:01,100Hz,119,U-D,0.0002384185791015,3.012,11.066115682701636,792,811.0,20.85736955750643,6.815739308829256,6.844017862331386,6.436687851749095,5.8165576527823,5.19381779706614,0.0342743608992502,0.0342743608992502,0.0342743608992502,0.0342743608992502,0.0332270988853723,2.9959946282521344,2.9959946282521344,2.9959946282521344,2.9959946282521344,2.9959946282521344,E-W,0.0002384185791015,3.844,N-S,0.0002384185791015,4.555
20020115215900.knt,CHB0070201152159.UD,2002-01-15, 21:59:00,35.886,140.612,44,4.3,CHB007,35.7234,140.2267,24,2002-01-15, 22:00:06,100Hz,119,U-D,0.0002384185791015,2.177,39.16918692435694,494,512.0,19.81013878329837,2.846600093279124,2.164679858277091,1.66759075502671,1.5353846036133716,2.1225094166749803,0.0127811369403451,0.0103924612302255,0.0089856531152701,0.0089856531152701,0.0089856531152701,2.183716602695024,2.183716602695024,2.183716602695024,2.183716602695024,1.6041233487512223,E-W,0.0002384185791015,5.155,N-S,0.0002384185791015,5.393
20020115215900.knt,CHB0100201152159.UD,2002-01-15, 21:59:00,35.886,140.612,44,4.3,CHB010,35.7077,140.568,8,2002-01-15, 22:00:02,100Hz,119,U-D,0.0002384185791015,2.3,20.219303579152523,723,717.0,28.65724914362044,2.100618451290252,2.2557250358094825,2.1703987185580496,1.9927561473589408,2.1110759254441365,0.0085566883345413,0.0085566883345413,0.0085566883345413,0.0085566883345413,0.0078447550350123,1.4132856101258615,1.4132856101258615,1.4132856101258615,1.4132856101258615,1.4132856101258615,E-W,0.0002384185791015,5.945,N-S,0.0002384185791015,5.186
20020115215900.knt,CHB0120201152159.UD,2002-01-15, 21:59:00,35.886,140.612,44,4.3,CHB012,35.5727,140.3333,62,2002-01-15, 22:00:58,100Hz,119,U-D,0.0002384185791015,3.255,42.97119723438056,1351,1372.0,24.05623219058567,0.3733481437103251,0.3405769307121967,0.3516702895696605,0.379218663550139,0.4359155156390593,0.0037802382694084,0.0036018940256821,0.0036018940256821,0.0036018940256821,0.0036018940256821,3.243514527378593,3.243514527378593,3.243514527378593,3.243514527378593,3.243514527378593,E-W,0.0002384185791015,3.888,N-S,0.0002384185791015,3.978
20020115215900.knt,IBR0030201152159.UD,2002-01-15, 21:59:00,35.886,140.612,44,4.3,IBR003,36.5915,140.6453,58,2002-01-15, 22:00:14,100Hz,119,U-D,0.0002384185791015,1.397,78.50484698860043,133,133.0,16.727655838202796,8.915322582127796,10.69114787754938,11.483708305632774,11.601302732960546,9.813822317532384,0.0267018216515257,0.0267018216515257,0.0267018216515257,0.0267018216515257,0.0245984897153545,1.3639720685976078,1.0989140475532737,1.0989140475532737,1.0792019024604411,0.6472160928594796,E-W,0.0002384185791015,2.522,N-S,0.0002384185791015,2.573
20020115215900.knt,IBR0070201152159.UD,2002-01-15, 21:59:00,35.886,140.612,44,4.3,IBR007,36.3523,140.5955,24,2002-01-15, 22:00:07,100Hz,119,U-D,0.0002384185791015,2.097,51.87137120565432,528,542.0,23.66419136686569,3.6453578664953694,2.94802952434472,1.96119065945146,1.2738287876715904,2.1112961567385766,0.0104244107579314,0.0104244107579314,0.0079691369105271,0.0058130634801214,0.0058130634801214,2.019954639002905,2.019954639002905,2.019954639002905,2.019954639002905,1.809981930166063,E-W,0.0002384185791015,3.268,N-S,0.0002384185791015,3.471
20020115215900.knt,IBR0120201152159.UD,2002-01-15, 21:59:00,35.886,140.612,44,4.3,IBR012,36.1901,140.2869,24,2002-01-15, 22:00:57,100Hz,119,U-D,0.0002384185791015,2.546,44.69767293770713,1449,1468.0,16.448143167418966,0.4120097816667273,0.4037417446661362,0.3947524453918211,0.3573370779592745,0.3580571983181024,0.0041078538632099,0.0041078538632099,0.0041078538632099,0.0041078538632099,0.0041078538632099,2.555468563319351,2.555468563319351,2.555468563319351,2.555468563319351,2.555468563319351,E-W,0.0002384185791015,2.463,N-S,0.0002384185791015,2.635
20020115215900.knt,IBR0130201152159.UD,2002-01-15, 21:59:00,35.886,140.612,44,4.3,IBR013,36.1587,140.4892,28,2002-01-15, 22:00:02,100Hz,119,U-D,0.0002384185791015,2.545,32.27135183447235,830,849.0,23.919491662911177,5.522968476767946,6.069764781954288,6.472909075023509,6.868967133514301,6.80637458375185,0.0236800966814546,0.0236800966814546,0.0236800966814546,0.0236800966814546,0.0236800966814546,2.5330860289781816,2.5330860289781816,2.5330860289781816,2.5330860289781816,2.5330860289781816,E-W,0.0002384185791015,6.251,N-S,0.0002384185791015,5.967
20020115215900.knt,IBR0140201152159.UD,2002-01-15, 21:59:00,35.886,140.612,44,4.3,IBR014,36.0729,140.1947,11,2002-01-15, 22:00:06,100Hz,119,U-D,0.0002384185791015,1.184,42.916951229520464,519,517.0,24.63408846194698,2.3903069945509534,1.926438270746028,1.3508631835792988,0.7210791871074979,0.7047576318053641,0.009594126642111,0.007875635200228,0.0065300324620777,0.0052004328458533,0.0052004328458533,1.100385265126273,1.100385265126273,1.100385265126273,1.065222346416791,1.022280401154386,E-W,0.0002384185791015,2.685,N-S,0.0002384185791015,2.503
