earthquake name,records name,earthquake date,earthquake time,lat,long,depth,mag,stn_code,stn_lat,stn_long,stn_height,rcd_date,rcd_time,frequency,rcd_duration,direction,scale_factor,max_pga,epi_dist,pick_index_manually,pick_index_kalkan,snr_db_kalkan,tc_5sec,tc_4sec,tc_3sec,tc_2sec,tc_1sec,Pd_5sec,Pd_4sec,Pd_3sec,Pd_2sec,Pd_1sec,Pga_5sec,Pga_4sec,Pga_3sec,Pga_2sec,Pga_1sec,Channel,Scale_factor,PGA_ew,Channel.1,Scale_factor.1,PGA_ns
20021025050000.knt,AKT0010210250500.UD,2002-10-25, 05:00:00,39.818,139.959,20,4.5,AKT001,40.3279,140.7428,168,2002-10-25, 05:01:05,100Hz,119,U-D,0.0002384185791015,3.119,87.53581675002681,345,360.0,20.19851576334315,5.450763058998806,4.687321174910308,3.8484659796957534,3.9171015627553216,4.9133382362154245,0.0081961178765977,0.0081961178765977,0.0081961178765977,0.0081961178765977,0.0081961178765977,1.4596999826554384,1.4596999826554384,1.4596999826554384,1.4596999826554384,1.4596999826554384,E-W,0.0002384185791015,4.972,N-S,0.0002384185791015,4.661
20021025050000.knt,AKT0030210250500.UD,2002-10-25, 05:00:00,39.818,139.959,20,4.5,AKT003,40.2782,140.2631,37,2002-10-25, 05:01:58,100Hz,119,U-D,0.0002384185791015,1.555,57.34621443276541,628,647.0,22.18046182661585,2.812304287816378,3.0526878012891525,3.173980315765977,2.8128928761277123,1.7719988938292297,0.0029367690736852,0.0029367690736852,0.0029367690736852,0.0029367690736852,0.0023154720471749,1.5510551104020924,1.5510551104020924,1.5510551104020924,1.5510551104020924,1.5510551104020924,E-W,0.0002384185791015,7.098,N-S,0.0002384185791015,7.199
20021025050000.knt,AKT0040210250500.UD,2002-10-25, 05:00:00,39.818,139.959,20,4.5,AKT004,40.3888,139.9827,31,2002-10-25, 05:01:59,100Hz,119,U-D,0.0002384185791015,1.248,63.50206318878043,600,620.0,18.67328410802116,6.472034732116724,6.199291143540065,5.148232529986645,3.565380059376216,2.2162492724645766,0.002216919766686,0.002216919766686,0.0019264922836357,0.0014905725494096,0.0006310564791068,0.3891518370872644,0.3891518370872644,0.3891518370872644,0.3891518370872644,0.3891518370872644,E-W,0.0002384185791015,4.848,N-S,0.0002384185791015,5.02
20021025050000.knt,AKT0050210250500.UD,2002-10-25, 05:00:00,39.818,139.959,20,4.5,AKT005,40.2032,140.0288,10,2002-10-25, 05:01:55,100Hz,119,U-D,0.0002384185791015,3.074,43.24284048918619,767,772.0,25.778651883921462,1.5078787309410258,1.80594462246532,1.9565250764165376,2.0092309309672567,1.5872121262478156,0.0023409272975147,0.0023409272975147,0.0023409272975147,0.0023409272975147,0.0023409272975147,1.5615018585351577,1.1436426266190176,1.1436426266190176,1.1436426266190176,1.1436426266190176,E-W,0.0002384185791015,8.429,N-S,0.0002384185791015,8.773
20021025050000.knt,AKT0060210250500.UD,2002-10-25, 05:00:00,39.818,139.959,20,4.5,AKT006,40.2152,140.7873,120,2002-10-25, 05:01:54,100Hz,119,U-D,0.0002384185791015,3.175,83.22351216338694,1409,1421.0,18.52507072387213,0.7415038527134011,0.7193818524733785,0.6433482414983999,0.5071049655182037,0.3523664230206241,0.0023773083653608,0.0023773083653608,0.0023773083653608,0.0021105842684616,0.0021105842684616,3.1791589858945195,3.1791589858945195,3.1791589858945195,3.1791589858945195,3.1791589858945195,E-W,0.0002384185791015,6.201,N-S,0.0002384185791015,8.681
20021025050000.knt,AKT0070210250500.UD,2002-10-25, 05:00:00,39.818,139.959,20,4.5,AKT007,40.046,140.0813,5,2002-10-25, 05:01:49,100Hz,119,U-D,0.0002384185791015,2.349,27.41326821968036,1043,1058.0,24.32152673563484,0.8795749740785703,1.394593880359426,1.2629485091738757,1.44389502956136,1.6728173842462664,0.0024970031049784,0.0023994275937177,0.0023994275937177,0.0023994275937177,0.0023994275937177,1.777704453491104,1.1598889664683418,1.019952520355587,1.019952520355587,1.019952520355587,E-W,0.0002384185791015,5.004,N-S,0.0002384185791015,5.861
20021025050000.knt,AKT0080210250500.UD,2002-10-25, 05:00:00,39.818,139.959,20,4.5,AKT008,39.883,140.0716,2,2002-10-25, 05:01:43,100Hz,119,U-D,0.0002384185791015,24.096,12.026420346591172,1475,1475.0,40.00563676702623,0.7887328716345785,0.7013506708247338,0.812420023763618,0.9272037534834204,0.2848949389007901,0.0356155178372884,0.0356155178372884,0.0152765765447981,0.0116687069786581,0.0052202448694255,24.043594192087813,24.043594192087813,24.043594192087813,24.043594192087813,24.043594192087813,E-W,0.0002384185791015,48.274,N-S,0.0002384185791015,70.888
20021025050000.knt,AKT0090210250500.UD,2002-10-25, 05:00:00,39.818,139.959,20,4.5,AKT009,39.8879,139.8466,60,2002-10-25, 05:01:44,100Hz,119,U-D,0.0002384185791015,14.863,12.348004252347309,1380,1393.0,28.080140603884747,0.4589947259645248,0.4420010294425721,0.5555310217211796,0.3866977451599629,0.4523881308094247,0.0106337247627147,0.0106337247627147,0.010104017381186,0.0037660622284894,0.0015839685768367,14.85042560931158,14.85042560931158,6.479443094332465,3.4607790696076512,3.4607790696076512,E-W,0.0002384185791015,80.918,N-S,0.0002384185791015,31.814
20021025050000.knt,AKT0100210250500.UD,2002-10-25, 05:00:00,39.818,139.959,20,4.5,AKT010,39.7225,140.1002,10,2002-10-25, 05:01:44,100Hz,119,U-D,0.0002384185791015,77.897,16.07475840263633,1445,1451.0,25.764724497095905,0.4137071795888704,1.1880116442344295,1.1152842477021252,0.908711431668362,0.3743907556188909,0.0465295066382977,0.0316285625828566,0.0245484958779754,0.0135901837680942,0.0055810383955464,78.3005393301439,15.833471812643266,15.083769731641992,11.957435214809488,11.957435214809488,E-W,0.0002384185791015,221.215,N-S,0.0002384185791015,87.254
20021025050000.knt,AKT0110210250500.UD,2002-10-25, 05:00:00,39.818,139.959,20,4.5,AKT011,39.8128,140.5803,320,2002-10-25, 05:01:49,100Hz,119,U-D,0.0002384185791015,33.591,53.06833607100464,1431,1432.0,46.02719089839109,0.4480687096216726,0.443481746299288,0.3668757769654742,0.2473871123353909,0.175044197179843,0.0107493388094708,0.0107493388094708,0.0107493388094708,0.0090896041345698,0.0090896041345698,33.57436740822578,33.57436740822578,33.57436740822578,33.57436740822578,33.57436740822578,E-W,0.0002384185791015,16.176,N-S,0.0002384185791015,17.663
20021025050000.knt,AKT0120210250500.UD,2002-10-25, 05:00:00,39.818,139.959,20,4.5,AKT012,39.6991,140.7181,206,2002-10-25, 05:01:59,100Hz,119,U-D,0.0002384185791015,2.689,66.22138167184599,612,613.0,26.20119236916973,3.600000358721662,3.2038991856390906,2.676999828747923,1.9489168705413245,1.0538233203916685,0.0065894274858591,0.0065894274858591,0.0065591017834344,0.0058556048464698,0.0036157206899579,2.615653374061182,2.615653374061182,2.615653374061182,2.615653374061182,2.615653374061182,E-W,0.0002384185791015,9.795,N-S,0.0002384185791015,7.574
20021025050000.knt,AKT0130210250500.UD,2002-10-25, 05:00:00,39.818,139.959,20,4.5,AKT013,39.6069,140.3213,34,2002-10-25, 05:01:52,100Hz,119,U-D,0.0002384185791015,3.251,38.87662929555522,922,922.0,31.147301993264108,0.5539787163967903,0.6470041839368998,0.5759726887542617,0.4837477496200665,0.3710202578932752,0.0018922777499305,0.0018922777499305,0.0018922777499305,0.0018922777499305,0.0018922777499305,1.4344637014583816,1.0727883036660513,1.0727883036660513,1.0727883036660513,1.0727883036660513,E-W,0.0002384185791015,11.126,N-S,0.0002384185791015,10.775
20021025050000.knt,AKT0140210250500.UD,2002-10-25, 05:00:00,39.818,139.959,20,4.5,AKT014,39.595,140.5554,58,2002-10-25, 05:01:56,100Hz,119,U-D,0.0002384185791015,5.712,56.72568881182346,761,761.0,30.10580370212512,3.6316745712670873,3.403282313850307,2.862573340779328,2.034757986927264,1.4569302551445584,0.0044343937345013,0.0044343937345013,0.0042100107327661,0.00348315800467,0.0030857832033002,1.3093194623174755,1.3093194623174755,1.3093194623174755,1.3093194623174755,1.3093194623174755,E-W,0.0002384185791015,11.785,N-S,0.0002384185791015,13.22
20021025050000.knt,AKT0150210250500.UD,2002-10-25, 05:00:00,39.818,139.959,20,4.5,AKT015,39.383,140.0499,29,2002-10-25, 05:01:57,100Hz,119,U-D,0.0002384185791015,2.245,48.9927433483001,602,619.0,24.60968633259041,1.847843026216229,1.9488999934365463,2.011951016945166,2.729584102420483,3.5105520424915087,0.0020716023132307,0.0020716023132307,0.0020716023132307,0.0020716023132307,0.0020716023132307,0.7105994324765766,0.6484046541944777,0.5698211597185028,0.5346384149043654,0.5334625621460658,E-W,0.0002384185791015,4.833,N-S,0.0002384185791015,6.172
20021025050000.knt,AKT0160210250500.UD,2002-10-25, 05:00:00,39.818,139.959,20,4.5,AKT016,39.4544,140.476,25,2002-10-25, 05:01:58,100Hz,119,U-D,0.0002384185791015,2.726,59.954998324564365,628,626.0,33.53784190615705,1.3858285198922886,1.4589308658655162,1.4548548307002798,1.5605972392222156,1.3600805142082386,0.0025719691826935,0.0025719691826935,0.0025719691826935,0.0025719691826935,0.0025719691826935,1.585659313809948,1.585659313809948,1.585659313809948,1.585659313809948,1.585659313809948,E-W,0.0002384185791015,8.042,N-S,0.0002384185791015,7.744
20021025050000.knt,AKT0170210250500.UD,2002-10-25, 05:00:00,39.818,139.959,20,4.5,AKT017,39.2975,140.5629,77,2002-10-25, 05:01:02,100Hz,119,U-D,0.0002384185791015,5.145,77.65317095766022,504,516.0,23.388879582368016,7.354971270485865,6.042870418890013,4.512512183906242,3.095822872103624,3.6962298785258194,0.0119869125673258,0.0119869125673258,0.010002081427283,0.0083788677987339,0.0083788677987339,2.085272968908732,2.085272968908732,1.542847740373524,1.542847740373524,1.542847740373524,E-W,0.0002384185791015,11.959,N-S,0.0002384185791015,9.519
20021025050000.knt,AKT0180210250500.UD,2002-10-25, 05:00:00,39.818,139.959,20,4.5,AKT018,39.1939,140.1902,130,2002-10-25, 05:01:01,100Hz,119,U-D,0.0002384185791015,1.508,72.17576998104367,528,531.0,18.726967417673407,10.675719215098145,8.6545384597559,6.050868103387894,3.477148024576424,3.003008468798615,0.0174276989673297,0.0171955923529138,0.0155980513561095,0.0098329908312753,0.0096837990740223,0.6314172396491937,0.6314172396491937,0.6314172396491937,0.6314172396491937,0.6314172396491937,E-W,0.0002384185791015,5.916,N-S,0.0002384185791015,7.621
20021025050000.knt,AKT0190210250500.UD,2002-10-25, 05:00:00,39.818,139.959,20,4.5,AKT019,39.0384,140.451,170,2002-10-25, 05:01:08,100Hz,119,U-D,0.0002384185791015,3.754,96.43829923009773,190,215.0,20.51257968272775,3.7409631336756375,4.052719744210399,4.740530644539022,5.028056052765916,4.952823209790784,0.0040881292581975,0.0040881292581975,0.0040881292581975,0.0040881292581975,0.0040881292581975,1.4992360726169496,1.4992360726169496,1.072062992925431,1.072062992925431,0.750689667923271,E-W,0.0002384185791015,13.52,N-S,0.0002384185791015,10.645
20021025050000.knt,AKT0200210250500.UD,2002-10-25, 05:00:00,39.818,139.959,20,4.5,AKT020,39.2022,139.9085,10,2002-10-25, 05:01:01,100Hz,119,U-D,0.0002384185791015,1.877,68.6107464798118,490,546.0,19.905610260821764,2.360150888650872,2.430690215226414,3.14753740542121,2.3579894432070767,3.199007870115002,0.0007852091998462,0.0007852091998462,0.0007852091998462,0.0006594012291832,0.0005697034616874,0.2205023893587448,0.1854573865911183,0.1475049279483996,0.1361754362712195,0.1361754362712195,E-W,0.0002384185791015,4.231,N-S,0.0002384185791015,2.477
20021025050000.knt,AKT0210210250500.UD,2002-10-25, 05:00:00,39.818,139.959,20,4.5,AKT021,39.995,140.4031,110,2002-10-25, 05:01:53,100Hz,119,U-D,0.0002384185791015,2.012,42.68808002258913,845,844.0,27.86371163866754,1.1876041037001936,1.21405234151043,1.2508476828604809,1.22503455342787,1.0006050721234536,0.0049633160438026,0.0049633160438026,0.0049633160438026,0.0049633160438026,0.0049633160438026,1.9915033006134275,1.9915033006134275,1.9915033006134275,1.9915033006134275,1.9915033006134275,E-W,0.0002384185791015,3.058,N-S,0.0002384185791015,2.205
20021025050000.knt,AKT0220210250500.UD,2002-10-25, 05:00:00,39.818,139.959,20,4.5,AKT022,39.7739,140.6667,270,2002-10-25, 05:01:57,100Hz,119,U-D,0.0002384185791015,2.645,60.66019377371386,736,734.0,26.84640208527172,2.5871691645890973,2.531760000407034,2.2623546384343194,1.9022626278423915,1.337680107173277,0.0065905247126971,0.0065905247126971,0.0065905247126971,0.0065905247126971,0.0065905247126971,2.6100296348763465,2.6100296348763465,2.6100296348763465,2.6100296348763465,2.6100296348763465,E-W,0.0002384185791015,3.912,N-S,0.0002384185791015,5.573
20021025050000.knt,AKT0230210250500.UD,2002-10-25, 05:00:00,39.818,139.959,20,4.5,AKT023,39.1462,140.717,280,2002-10-25, 05:01:08,100Hz,119,U-D,0.0002384185791015,3.606,99.05561490021724,223,253.00000000000003,15.613442965903184,1.172372807127408,1.2351084999288873,1.1746119832547472,1.089510327978911,1.170297047579645,0.0012470449189755,0.0012470449189755,0.0012470449189755,0.0012470449189755,0.001235858052737,0.4782533457166806,0.4782533457166806,0.4782533457166806,0.4682087731434678,0.4639523474974406,E-W,0.0002384185791015,3.992,N-S,0.0002384185791015,5.178
20021025050000.knt,AOM0150210250500.UD,2002-10-25, 05:00:00,39.818,139.959,20,4.5,AOM015,40.4738,140.6306,144,2002-10-25, 05:01:07,100Hz,120,U-D,0.0002384185791015,1.397,92.60720044375158,246,278.0,15.426449506097136,2.2565788640861992,2.38458030546988,2.266843530569894,1.4889925474736203,0.7098229876374834,0.0022363462817536,0.0022363462817536,0.0022363462817536,0.0022363462817536,0.0009604512907708,0.84923740412334,0.84923740412334,0.84923740412334,0.84923740412334,0.84923740412334,E-W,0.0002384185791015,4.035,N-S,0.0002384185791015,3.672
20021025050000.knt,AOM0290210250500.UD,2002-10-25, 05:00:00,39.818,139.959,20,4.5,AOM029,40.5758,140.2965,120,2002-10-25, 05:01:06,100Hz,119,U-D,0.0002384185791015,1.408,89.00561204593673,286,306.0,23.025714947633777,1.442685147740343,1.4708110084226889,1.568086517935598,1.715254849713744,4.480483597254782,0.0018353510043821,0.0018353510043821,0.0018353510043821,0.0018353510043821,0.0018353510043821,0.7315469192764628,0.7315469192764628,0.7315469192764628,0.7315469192764628,0.3210145260856303,E-W,0.0002384185791015,3.363,N-S,0.0002384185791015,4.232
20021025050000.knt,IWT0150210250500.UD,2002-10-25, 05:00:00,39.818,139.959,20,4.5,IWT015,39.318,140.7792,247,2002-10-25, 05:01:05,100Hz,119,U-D,0.0002384185791015,1.847,89.63103461478147,379,392.0,18.00853796031971,2.8902288660088886,2.7578212022573805,2.923693595972114,3.312061851119947,3.4799060894894884,0.0049429724403578,0.0049429724403578,0.0049429724403578,0.0049429724403578,0.0049429724403578,1.0240670464592692,1.0240670464592692,1.0240670464592692,1.0240670464592692,1.0240670464592692,E-W,0.0002384185791015,3.077,N-S,0.0002384185791015,5.208
20021025050000.knt,IWT0250210250500.UD,2002-10-25, 05:00:00,39.818,139.959,20,4.5,IWT025,39.5169,140.8301,370,2002-10-25, 05:01:03,100Hz,119,U-D,0.0002384185791015,3.239,81.73230598478665,438,459.0,19.4384387024281,0.4889655901343917,0.4951021310583723,0.4824169896624203,0.4962392725151343,0.4155055098828272,0.0009891105490638,0.0009891105490638,0.0009891105490638,0.0009891105490638,0.0007780586287502,0.5217422581530582,0.5217422581530582,0.5139837126464569,0.5139837126464569,0.5139837126464569,E-W,0.0002384185791015,8.319,N-S,0.0002384185791015,10.955
20021025194900.knt,FKS0050210251949.UD,2002-10-25, 19:49:00,36.745,141.374,49,4.3,FKS005,37.6385,140.9849,16,2002-10-25, 19:49:48,100Hz,119,U-D,0.0002384185791015,1.079,105.16090959383482,132,129.0,15.397018940899024,9.539304271764832,9.068042493604173,8.120235147812473,7.555435720417435,5.753907552405455,0.0070827074141355,0.0070827074141355,0.0069369502592385,0.006903119323952,0.0068142604397343,1.0661752087781136,1.0661752087781136,1.0661752087781136,1.0661752087781136,1.0661752087781136,E-W,0.0002384185791015,2.746,N-S,0.0002384185791015,2.224
20021025194900.knt,FKS0090210251949.UD,2002-10-25, 19:49:00,36.745,141.374,49,4.3,FKS009,37.2778,140.6349,440,2002-10-25, 19:49:44,100Hz,119,U-D,0.0002384185791015,1.152,88.41103409106246,355,354.0,23.1330754281734,2.2392773607247856,2.1044190364426814,2.331812091131738,2.85407874268502,4.331316505965624,0.0014390301771056,0.0014390301771056,0.0014390301771056,0.0014390301771056,0.0014390301771056,0.7934757182157572,0.7934757182157572,0.7934757182157572,0.59959217807421,0.59959217807421,E-W,0.0002384185791015,2.556,N-S,0.0002384185791015,2.827
20021025194900.knt,IBR0030210251949.UD,2002-10-25, 19:49:00,36.745,141.374,49,4.3,IBR003,36.5915,140.6453,58,2002-10-25, 19:49:40,100Hz,119,U-D,0.0002384185791015,1.992,67.19657985757148,476,474.0,22.213814437090097,2.1205584222121456,2.318872912853088,2.505423820678699,1.8752805003192792,1.20226340383035,0.0016982981083693,0.0016982981083693,0.0016982981083693,0.0016130728253447,0.0010976501555616,0.8171576156588986,0.8171576156588986,0.7414059124703974,0.7414059124703974,0.7414059124703974,E-W,0.0002384185791015,4.386,N-S,0.0002384185791015,4.412
20021025234000.knt,KGS0130210252340.UD,2002-10-25, 23:40:00,30.504,130.196,115,5.1,KGS013,31.5973,130.9938,118,2002-10-25, 23:42:23,100Hz,119,U-D,0.0002384185791015,1.855,143.36922287695674,954,952.0,24.19378197294889,1.4136541163151075,1.4212370346784151,1.4192752249613607,1.3239039595175015,0.8494825524455117,0.0065499151928686,0.0065499151928686,0.0065499151928686,0.0065499151928686,0.005005920612263,1.8612707976401075,1.8612707976401075,1.8612707976401075,1.8612707976401075,1.8612707976401075,E-W,0.0002384185791015,2.753,N-S,0.0002384185791015,2.427
20021025234000.knt,KGS0180210252340.UD,2002-10-25, 23:40:00,30.504,130.196,115,5.1,KGS018,31.3757,130.5449,51,2002-10-25, 23:42:15,100Hz,119,U-D,0.0002384185791015,3.387,102.48108816051764,1364,1360.0,25.37192957648204,0.5977168968035711,0.6169853309409559,0.6294738431568333,0.6380349908028605,0.7216265267147794,0.007098003793036,0.007098003793036,0.007098003793036,0.007098003793036,0.007098003793036,3.3579868357632576,3.3579868357632576,3.3579868357632576,3.3579868357632576,2.291151653819126,E-W,0.0002384185791015,3.092,N-S,0.0002384185791015,2.884
20021025234000.knt,KGS0200210252340.UD,2002-10-25, 23:40:00,30.504,130.196,115,5.1,KGS020,31.2396,130.4915,21,2002-10-25, 23:42:13,100Hz,119,U-D,0.0002384185791015,6.414,86.5204507501671,1435,1422.0,32.76242322026351,0.5840784697029681,0.5277981538744747,0.4936129135078403,0.4058750519508515,0.3314812284802084,0.0070692143422573,0.0070692143422573,0.0070692143422573,0.0070692143422573,0.0070692143422573,6.44138000005557,6.44138000005557,6.44138000005557,6.44138000005557,6.44138000005557,E-W,0.0002384185791015,3.061,N-S,0.0002384185791015,3.742
20021025234000.knt,KGS0220210252340.UD,2002-10-25, 23:40:00,30.504,130.196,115,5.1,KGS022,31.2804,131.0504,12,2002-10-25, 23:42:17,100Hz,119,U-D,0.0002384185791015,3.383,118.74167800228176,1282,1280.0,35.24281108948996,0.7825834358479004,0.7977809735087502,0.8235371705040386,0.8840055474160365,0.6691723734758381,0.0052755724930589,0.0052755724930589,0.0052755724930589,0.0052755724930589,0.0047283763763453,3.3899173890052854,3.3899173890052854,3.3899173890052854,3.3899173890052854,3.2497983135495927,E-W,0.0002384185791015,7.101,N-S,0.0002384185791015,6.324
20021025234000.knt,KGS0230210252340.UD,2002-10-25, 23:40:00,30.504,130.196,115,5.1,KGS023,31.199,130.849,179,2002-10-25, 23:42:14,100Hz,119,U-D,0.0002384185791015,5.471,99.28707871391556,1426,1425.0,37.17778795593696,0.6666840959363766,0.630011099788411,0.5569802399182135,0.5714806953901005,0.5822571689279796,0.0068187353240565,0.0068187353240565,0.0068187353240565,0.0068187353240565,0.0068187353240565,4.297070409483667,4.297070409483667,4.297070409483667,4.297070409483667,4.297070409483667,E-W,0.0002384185791015,9.243,N-S,0.0002384185791015,7.574
20021025234000.knt,KGS0260210252340.UD,2002-10-25, 23:40:00,30.504,130.196,115,5.1,KGS026,30.5202,130.9543,115,2002-10-25, 23:42:13,100Hz,120,U-D,0.0002384185791015,9.222,72.66496113718445,1350,1387.0,24.32851578540205,0.4933841172671212,0.4989829118488173,0.5689671307099813,0.8207871947061811,1.251120845600264,0.0098496121789642,0.0098496121789642,0.0098496121789642,0.0098496121789642,0.0098496121789642,9.169021502513194,9.169021502513194,9.032052749112966,7.0286979701908106,2.280227405376277,E-W,0.0002384185791015,12.034,N-S,0.0002384185791015,8.643
