earthquake name,records name,earthquake date,earthquake time,lat,long,depth,mag,stn_code,stn_lat,stn_long,stn_height,rcd_date,rcd_time,frequency,rcd_duration,direction,scale_factor,max_pga,epi_dist,pick_index_manually,pick_index_kalkan,snr_db_kalkan,tc_5sec,tc_4sec,tc_3sec,tc_2sec,tc_1sec,Pd_5sec,Pd_4sec,Pd_3sec,Pd_2sec,Pd_1sec,Pga_5sec,Pga_4sec,Pga_3sec,Pga_2sec,Pga_1sec,Channel,Scale_factor,PGA_ew,Channel.1,Scale_factor.1,PGA_ns
20020123120900.knt,AOM0040201231209.UD,2002-01-23, 12:09:00,41.235,142.234,57,4.4,AOM004,41.4087,141.4486,30,2002-01-23, 12:09:20,100Hz,119,U-D,0.0002384185791015,5.055,68.3722860194419,1412,1407.0,30.714584126837977,1.4383770454271183,1.398873825321538,1.2075741068666035,0.8050326113550259,0.3569797514615372,0.0036547179587486,0.0036547179587486,0.0036547179587486,0.0033316998575756,0.0029713897686087,5.078593588861999,5.078593588861999,5.078593588861999,5.078593588861999,5.078593588861999,E-W,0.0002384185791015,11.36,N-S,0.0002384185791015,9.099
20020123120900.knt,AOM0090201231209.UD,2002-01-23, 12:09:00,41.235,142.234,57,4.4,AOM009,40.9665,141.3733,10,2002-01-23, 12:09:32,100Hz,119,U-D,0.0002384185791015,2.126,78.05442655457593,331,301.0,17.109957551027822,3.950747821816989,3.9191244769073257,4.092663253768006,4.465346777218676,4.84735190143971,0.0125791021619225,0.0125791021619225,0.0125791021619225,0.0125791021619225,0.0125791021619225,2.028993501226797,2.028993501226797,2.028993501226797,2.028993501226797,2.028993501226797,E-W,0.0002384185791015,2.707,N-S,0.0002384185791015,3.533
20020123120900.knt,AOM0110201231209.UD,2002-01-23, 12:09:00,41.235,142.234,57,4.4,AOM011,40.6803,141.3669,41,2002-01-23, 12:09:36,100Hz,120,U-D,0.0002384185791015,4.729,95.42563332264014,167,170.0,16.86025496522962,2.145323744702444,2.37100740173816,2.9093164199574755,2.908864846193876,2.8194874112268145,0.0103814383919812,0.0103814383919812,0.0103814383919812,0.0103814383919812,0.0103814383919812,2.6729477375350377,2.6729477375350377,2.6729477375350377,2.6729477375350377,1.807993354024393,E-W,0.0002384185791015,7.931,N-S,0.0002384185791015,8.834
20020123120900.knt,IWT0010201231209.UD,2002-01-23, 12:09:00,41.235,142.234,57,4.4,IWT001,40.4099,141.7191,15,2002-01-23, 12:09:36,100Hz,119,U-D,0.0002384185791015,3.245,101.46220040557344,130,143.0,18.5386352177297,9.223306556696423,10.302919391056854,10.848613013125249,9.974821305490718,8.131510868726902,0.0123558842871254,0.0123558842871254,0.0123558842871254,0.0123558842871254,0.010525796788653,1.331068728359906,1.331068728359906,1.331068728359906,1.331068728359906,0.7353035282229164,E-W,0.0002384185791015,3.653,N-S,0.0002384185791015,4.319
20020124160800.knt,HRS0010201241608.UD,2002-01-24, 16:08:00,35.363,133.32,9,4.5,HRS001,35.0337,132.9018,566,2002-01-24, 16:09:45,100Hz,119,U-D,0.0002384185791015,3.422,52.7703581931075,1377,1376.0,34.68709607965765,1.424601525524691,0.8981459869458779,0.4408326355074155,0.4233830866603226,0.4804079051659092,0.0050176054008924,0.0038917468304151,0.0022045876965219,0.0022045876965219,0.0022045876965219,3.021908474199363,3.021908474199363,3.021908474199363,2.433495490211428,2.433495490211428,E-W,0.0002384185791015,9.005,N-S,0.0002384185791015,10.341
20020124160800.knt,HRS0050201241608.UD,2002-01-24, 16:08:00,35.363,133.32,9,4.5,HRS005,34.777,133.2807,480,2002-01-24, 16:09:47,100Hz,119,U-D,0.0002384185791015,9.192,65.2583094759322,1392,1413.0,29.131675200607347,0.5048022283617838,0.4090347919133956,0.4163576025509956,0.3642060149558521,0.3437713493805432,0.0022954917503485,0.0022954917503485,0.0022954917503485,0.0022954917503485,0.0022954917503485,2.8768742585487064,2.8768742585487064,2.8768742585487064,2.8768742585487064,2.8768742585487064,E-W,0.0002384185791015,22.361,N-S,0.0002384185791015,19.124
20020124160800.knt,HRS0100201241608.UD,2002-01-24, 16:08:00,35.363,133.32,9,4.5,HRS010,34.5887,133.0501,346,2002-01-24, 16:09:58,100Hz,120,U-D,0.0002384185791015,5.077,89.5411173027717,707,723.0,13.742562208969533,4.064745831558694,3.819079669690492,3.140189830149445,2.260722204589911,1.3619153056562698,0.0058526994398769,0.0058526994398769,0.0058526994398769,0.0051048115067288,0.0027226177641881,1.0755169463646548,1.0755169463646548,1.0755169463646548,1.0755169463646548,1.0755169463646548,E-W,0.0002384185791015,4.485,N-S,0.0002384185791015,2.301
20020124160800.knt,HRS0110201241608.UD,2002-01-24, 16:08:00,35.363,133.32,9,4.5,HRS011,34.5676,133.2362,28,2002-01-24, 16:09:02,100Hz,119,U-D,0.0002384185791015,0.713,88.77347069003531,272,267.0,16.88165045221021,2.862695801451572,3.0034291514055096,2.989351968283448,2.400230824929992,1.5285389715557778,0.0026104746080692,0.0026104746080692,0.0026104746080692,0.0024785043485325,0.0011187457972049,0.7071784617357415,0.7071784617357415,0.7071784617357415,0.7071784617357415,0.7071784617357415,E-W,0.0002384185791015,2.555,N-S,0.0002384185791015,1.982
20020124160800.knt,HRS0210201241608.UD,2002-01-24, 16:08:00,35.363,133.32,9,4.5,HRS021,34.9529,133.1171,325,2002-01-24, 16:09:44,100Hz,120,U-D,0.0002384185791015,11.314,49.19032473652756,1446,1471.0,28.45265877801563,1.7096471110953304,1.6450277875432624,1.4362041474144462,0.9118999650840384,0.3955595284625123,0.0107059275238306,0.0107059275238306,0.0106653650095529,0.0084610951384434,0.0049248036827746,11.317252976907092,11.317252976907092,11.317252976907092,11.317252976907092,11.317252976907092,E-W,0.0002384185791015,14.158,N-S,0.0002384185791015,8.492
20020124160800.knt,OKY0010201241608.UD,2002-01-24, 16:08:00,35.363,133.32,9,4.5,OKY001,35.1945,133.7314,334,2002-01-24, 16:09:43,100Hz,120,U-D,0.0002384185791015,11.036,41.78106928171724,1402,1417.0,14.440575772322086,0.8837813974778229,0.6934589073511195,0.6870901638724222,0.5567034910696438,0.2715625814347833,0.0040602068639577,0.0033429094707279,0.0033429094707279,0.0033429094707279,0.0025729421038948,11.021229076029194,11.021229076029194,11.021229076029194,11.021229076029194,11.021229076029194,E-W,0.0002384185791015,15.018,N-S,0.0002384185791015,10.594
20020124160800.knt,OKY0040201241608.UD,2002-01-24, 16:08:00,35.363,133.32,9,4.5,OKY004,34.9579,133.5018,168,2002-01-24, 16:09:50,100Hz,119,U-D,0.0002384185791015,5.637,47.98114908059832,791,804.0000000000001,29.281315987767663,6.346766809209148,5.795067049123023,4.914403637006917,3.8306435235846,3.0420732720084724,0.0083791700057698,0.0083791700057698,0.0083791700057698,0.0081193678240669,0.0050096743854117,1.7458332928590965,1.7458332928590965,1.7458332928590965,1.7458332928590965,1.7458332928590965,E-W,0.0002384185791015,19.11,N-S,0.0002384185791015,17.105
20020124160800.knt,OKY0050201241608.UD,2002-01-24, 16:08:00,35.363,133.32,9,4.5,OKY005,35.0098,133.7317,134,2002-01-24, 16:09:51,100Hz,119,U-D,0.0002384185791015,5.571,54.24267314523696,800,800.0,28.36827861813216,8.643252158971281,8.550232341636768,8.156840015270964,7.252765525558028,6.053142159718091,0.0172869336547584,0.0172869336547584,0.0172869336547584,0.0172869336547584,0.0155139042617534,2.790024329968656,2.790024329968656,2.790024329968656,2.790024329968656,2.790024329968656,E-W,0.0002384185791015,8.193,N-S,0.0002384185791015,13.95
20020124160800.knt,OKY0080201241608.UD,2002-01-24, 16:08:00,35.363,133.32,9,4.5,OKY008,34.8701,133.9036,62,2002-01-24, 16:09:58,100Hz,119,U-D,0.0002384185791015,1.419,76.29895527999165,465,482.0,19.62873536512544,1.162511425377456,0.7454233184644149,0.7359544240060635,0.7715348875305487,0.4249181898484271,0.0017238499048129,0.0012053768738454,0.0012053768738454,0.0012053768738454,0.0009080566410609,0.8819921722129589,0.8819921722129589,0.8819921722129589,0.8819921722129589,0.7999413034745388,E-W,0.0002384185791015,3.444,N-S,0.0002384185791015,3.5
20020124160800.knt,OKY0100201241608.UD,2002-01-24, 16:08:00,35.363,133.32,9,4.5,OKY010,34.7454,134.1884,2,2002-01-24, 16:09:06,100Hz,119,U-D,0.0002384185791015,1.527,104.71026257443684,133,132.0,12.193934616338405,1.5921874737471082,1.625013646799236,1.6184461555160463,1.4137775362911211,1.153744257635615,0.0026304370075824,0.0026304370075824,0.0026304370075824,0.0026304370075824,0.0026304370075824,1.293843145212697,1.293843145212697,1.293843145212697,1.293843145212697,1.293843145212697,E-W,0.0002384185791015,3.236,N-S,0.0002384185791015,2.173
20020124160800.knt,OKY0130201241608.UD,2002-01-24, 16:08:00,35.363,133.32,9,4.5,OKY013,34.5095,133.5099,6,2002-01-24, 16:09:04,100Hz,119,U-D,0.0002384185791015,1.981,96.4706061683075,201,208.0,22.53155677349246,5.630303138895908,5.848960425832466,6.812320031181053,7.553393102161956,9.556389657577013,0.0054340893998617,0.0054340893998617,0.0054340893998617,0.0054340893998617,0.0054340893998617,0.7572470467651732,0.7572470467651732,0.7572470467651732,0.7572470467651732,0.4409685954420962,E-W,0.0002384185791015,5.215,N-S,0.0002384185791015,3.66
20020124160800.knt,OKY0150201241608.UD,2002-01-24, 16:08:00,35.363,133.32,9,4.5,OKY015,35.2793,133.9256,475,2002-01-24, 16:09:45,100Hz,119,U-D,0.0002384185791015,2.081,55.72663998845234,1420,1419.0,23.410972370227803,1.6371964588707932,1.684172326189773,1.788472354523629,1.9141000235990369,1.776422162134338,0.004036823472321,0.004036823472321,0.004036823472321,0.004036823472321,0.004036823472321,2.0889084852770363,2.0889084852770363,2.0889084852770363,2.0889084852770363,2.0889084852770363,E-W,0.0002384185791015,3.579,N-S,0.0002384185791015,2.514
20020124160800.knt,SMN0010201241608.UD,2002-01-24, 16:08:00,35.363,133.32,9,4.5,SMN001,35.5372,133.1612,2,2002-01-24, 16:09:40,100Hz,119,U-D,0.0002384185791015,5.477,24.127013886862347,1402,1400.0,33.521970469180815,2.138588378522077,2.576406507665096,2.3742575079049653,1.2511823889476266,0.8863305665596362,0.0246073629953966,0.0246073629953966,0.021504111315776,0.0091600247079949,0.0068419608131577,5.462802806290246,4.581888801933769,4.581888801933769,4.581888801933769,4.581888801933769,E-W,0.0002384185791015,22.284,N-S,0.0002384185791015,22.148
20020124160800.knt,SMN0020201241608.UD,2002-01-24, 16:08:00,35.363,133.32,9,4.5,SMN002,35.4714,133.0682,2,2002-01-24, 16:09:40,100Hz,119,U-D,0.0002384185791015,4.757,25.805789914218742,1433,804.0000000000001,20.490090181228787,1.081918108760564,1.1194847018870662,0.908585790813516,0.9157029975640648,0.9783943123548486,0.0111471235234277,0.0111471235234277,0.0111471235234277,0.0111471235234277,0.0111471235234277,4.791533439506114,4.791533439506114,4.791533439506114,4.791533439506114,4.791533439506114,E-W,0.0002384185791015,7.463,N-S,0.0002384185791015,6.508
20020124160800.knt,SMN0030201241608.UD,2002-01-24, 16:08:00,35.363,133.32,9,4.5,SMN003,35.1795,133.0929,332,2002-01-24, 16:09:41,100Hz,119,U-D,0.0002384185791015,7.568,29.00659406631868,1388,1394.0,21.42526868511461,3.8896783558146697,4.382609096761082,4.245037675777795,2.6909940428101216,0.9152750595615436,0.0227465291209177,0.0227465291209177,0.0227465291209177,0.0210227058484641,0.0094055130239205,7.593388754802747,7.593388754802747,7.593388754802747,7.593388754802747,7.593388754802747,E-W,0.0002384185791015,12.641,N-S,0.0002384185791015,16.47
20020124160800.knt,SMN0040201241608.UD,2002-01-24, 16:08:00,35.363,133.32,9,4.5,SMN004,35.2881,132.9004,45,2002-01-24, 16:09:47,100Hz,119,U-D,0.0002384185791015,3.614,38.96722121724783,955,919.0,17.51161874532743,4.960230365332911,6.042644619789412,6.79439180961734,7.606863311252621,10.771832069397322,0.0180870220429092,0.0180870220429092,0.0180870220429092,0.0180870220429092,0.0180870220429092,2.9542793245052845,2.9542793245052845,2.9542793245052845,2.9542793245052845,2.462116293191856,E-W,0.0002384185791015,7.48,N-S,0.0002384185791015,8.502
20020124160800.knt,SMN0060201241608.UD,2002-01-24, 16:08:00,35.363,133.32,9,4.5,SMN006,35.1942,132.4978,36,2002-01-24, 16:09:58,100Hz,119,U-D,0.0002384185791015,0.84,76.95839231377063,473,482.0,20.268381644863723,3.1666722633719377,2.5854197041134257,2.0908145421984083,1.481787149083193,1.722099940190176,0.0035783622623709,0.003267574454113,0.002722824917296,0.0022118235003544,0.0021972960996924,0.557874853069198,0.557874853069198,0.557874853069198,0.557874853069198,0.3384424290202517,E-W,0.0002384185791015,2.166,N-S,0.0002384185791015,2.647
20020124160800.knt,SMN0150201241608.UD,2002-01-24, 16:08:00,35.363,133.32,9,4.5,SMN015,35.3644,133.1704,32,2002-01-24, 16:09:38,100Hz,119,U-D,0.0002384185791015,6.583,13.566450325340748,1417,1424.0,29.66262925615528,0.7866919191107805,0.8158001318136127,0.9791628616826562,0.4760039862832218,0.5998516949864825,0.0283356889140228,0.0283356889140228,0.0283356889140228,0.005133931254205,0.005133931254205,6.6166769424978655,6.6166769424978655,6.584417123831733,6.150931144392263,5.991314325131285,E-W,0.0002384185791015,29.465,N-S,0.0002384185791015,16.402
20020124160800.knt,SMN0160201241608.UD,2002-01-24, 16:08:00,35.363,133.32,9,4.5,SMN016,35.1957,132.8146,210,2002-01-24, 16:09:44,100Hz,119,U-D,0.0002384185791015,4.205,49.5050803091914,1416,1433.0,24.71196678340496,4.912124370121204,4.617351547908852,3.566630032429849,1.9519711692948245,0.538841374621816,0.018340086587719,0.018340086587719,0.0178025322638759,0.0135146092472234,0.0037085301383086,4.225993344901568,4.225993344901568,4.225993344901568,4.225993344901568,4.225993344901568,E-W,0.0002384185791015,6.764,N-S,0.0002384185791015,5.561
20020124160800.knt,TTR0050201241608.UD,2002-01-24, 16:08:00,35.363,133.32,9,4.5,TTR005,35.429,133.8253,27,2002-01-24, 16:09:49,100Hz,119,U-D,0.0002384185791015,2.413,46.38586808963954,883,882.0,19.588066890485205,1.9904950967384585,2.0734020116521803,2.1966526813432004,2.3487036457430666,2.51900824175634,0.0044982352464157,0.0044982352464157,0.0044982352464157,0.0044982352464157,0.0044982352464157,1.5462877678581084,1.5462877678581084,1.5462877678581084,1.5462877678581084,1.5462877678581084,E-W,0.0002384185791015,7.698,N-S,0.0002384185791015,12.683
20020124160800.knt,TTR0070201241608.UD,2002-01-24, 16:08:00,35.363,133.32,9,4.5,TTR007,35.2826,133.4876,155,2002-01-24, 16:09:39,100Hz,119,U-D,0.0002384185791015,26.776,17.63891060821137,1402,1401.0,40.84753644136989,6.61081580001608,6.3762404261656815,5.640813184211106,4.001743371040391,1.3123867525160628,0.0928460851858872,0.0928460851858872,0.0928460851858872,0.0767298805584781,0.0332198669620594,26.79029148047264,26.79029148047264,26.79029148047264,26.79029148047264,26.79029148047264,E-W,0.0002384185791015,35.067,N-S,0.0002384185791015,26.0
20020124160800.knt,TTR0080201241608.UD,2002-01-24, 16:08:00,35.363,133.32,9,4.5,TTR008,35.4258,133.3301,2,2002-01-24, 16:09:37,100Hz,145,U-D,0.0002384185791015,75.79,7.042799304916991,1404,1411.0,20.946032249963324,0.6936884543509144,0.6968509363597402,0.7099568647335469,0.8228117576251367,0.5975829497447406,0.0781417218930809,0.0781417218930809,0.0781417218930809,0.0781417218930809,0.0610908028727165,75.8136375212757,75.8136375212757,75.8136375212757,75.8136375212757,75.8136375212757,E-W,0.0002384185791015,67.177,N-S,0.0002384185791015,50.567
20020124160800.knt,TTR0090201241608.UD,2002-01-24, 16:08:00,35.363,133.32,9,4.5,TTR009,35.1708,133.3113,300,2002-01-24, 16:09:43,100Hz,119,U-D,0.0002384185791015,7.717,21.38625548548173,1083,1086.0,17.035709596350717,0.8553889096294959,0.8951458191433508,1.1133835855957606,1.16630724175867,0.9553360026517458,0.0150792127026589,0.0150792127026589,0.011581214964653,0.011581214964653,0.011581214964653,7.736332797094118,7.736332797094118,7.736332797094118,7.736332797094118,7.736332797094118,E-W,0.0002384185791015,36.195,N-S,0.0002384185791015,24.065
20021021010600.knt,CHB0040210210106.UD,2002-10-21, 01:06:00,36.368,141.124,50,5.2,CHB004,35.9007,140.4905,14,2002-10-21, 01:06:23,100Hz,119,U-D,0.0002384185791015,7.228,77.04915856509756,745,764.0,27.96753252350121,2.191945127041525,2.466292603585452,3.073366314145512,3.639388614635842,1.4418703819385053,0.014546688921149,0.014546688921149,0.014546688921149,0.014546688921149,0.0077387788029594,3.88186047700722,2.999718128037184,2.46689566795456,1.5991483188414968,1.3004018641527355,E-W,0.0002384185791015,11.313,N-S,0.0002384185791015,10.966
20021021010600.knt,CHB0070210210106.UD,2002-10-21, 01:06:00,36.368,141.124,50,5.2,CHB007,35.7234,140.2267,24,2002-10-21, 01:06:29,100Hz,119,U-D,0.0002384185791015,7.069,107.91385306747836,516,560.0,23.067853416550573,5.642931696959902,6.534282492845329,7.778777761001242,7.187052685826783,4.320984947466191,0.0260934307021887,0.0260934307021887,0.0260934307021887,0.0256988964939069,0.0180631078925166,2.353067355274486,2.353067355274486,1.0501087133075977,1.0501087133075977,0.8608421362795415,E-W,0.0002384185791015,13.631,N-S,0.0002384185791015,15.528
20021021010600.knt,CHB0100210210106.UD,2002-10-21, 01:06:00,36.368,141.124,50,5.2,CHB010,35.7077,140.568,8,2002-10-21, 01:06:23,100Hz,119,U-D,0.0002384185791015,3.604,88.82572194010629,856,852.9999999999999,27.20928590191888,2.179020643029421,2.4121300450409304,2.9684379375717063,3.5262023931542483,3.0642947789982378,0.0059673002709031,0.0059673002709031,0.0059673002709031,0.0059673002709031,0.0058646900734809,2.170835983451777,2.170835983451777,2.170835983451777,2.170835983451777,1.420493481994736,E-W,0.0002384185791015,10.006,N-S,0.0002384185791015,9.589
20021021010600.knt,CHB0120210210106.UD,2002-10-21, 01:06:00,36.368,141.124,50,5.2,CHB012,35.5727,140.3333,62,2002-10-21, 01:06:26,100Hz,119,U-D,0.0002384185791015,4.25,113.50564904753776,915,900.0,39.80489904989285,0.6802229075437767,0.7543897825106252,0.7869902003732638,0.7777351789719564,0.980549137935555,0.0034537043598644,0.0034537043598644,0.0034537043598644,0.0023609441344347,0.0023609441344347,1.6194817393546466,1.6194817393546466,1.3967089825995516,0.9973408200125976,0.6715846622027893,E-W,0.0002384185791015,5.996,N-S,0.0002384185791015,7.993
20021021010600.knt,FKS0040210210106.UD,2002-10-21, 01:06:00,36.368,141.124,50,5.2,FKS004,37.6799,140.7346,488,2002-10-21, 01:06:29,100Hz,119,U-D,0.0002384185791015,6.643,149.91629179647032,987,1072.0,22.397830413693853,1.655182952423534,2.173334230811987,2.5632347875522394,3.043600164200309,4.521486323439406,0.0076572097121696,0.0076572097121696,0.0076572097121696,0.0076572097121696,0.0076572097121696,3.233745453478408,2.7364563418921786,2.1337721104132656,2.1337721104132656,0.9978659762292604,E-W,0.0002384185791015,10.835,N-S,0.0002384185791015,12.239
20021021010600.knt,FKS0080210210106.UD,2002-10-21, 01:06:00,36.368,141.124,50,5.2,FKS008,37.4363,140.5668,430,2002-10-21, 01:06:23,100Hz,119,U-D,0.0002384185791015,7.049,128.70701171034665,1312,1324.0,30.949213516957133,0.955996345301806,0.8662672994317726,0.7228873965451615,0.7379835667314335,1.0405470378597306,0.0036024180835525,0.0034066768272463,0.0032822909581785,0.0031050091148908,0.0031050091148908,2.966044323462995,2.966044323462995,2.966044323462995,2.183223093863762,1.7632180141559266,E-W,0.0002384185791015,21.78,N-S,0.0002384185791015,21.577
20021021010600.knt,FKS0090210210106.UD,2002-10-21, 01:06:00,36.368,141.124,50,5.2,FKS009,37.2778,140.6349,440,2002-10-21, 01:06:21,100Hz,119,U-D,0.0002384185791015,3.235,110.13437533000364,1269,1259.0,38.1922531883932,1.3405577723718982,1.4277049166559166,1.3631321284620406,0.9853329326763514,0.8948677244718451,0.0043077698906657,0.0043077698906657,0.0043077698906657,0.004242084241025,0.004242084241025,2.492908559418095,2.492908559418095,2.492908559418095,2.492908559418095,1.0091221509820325,E-W,0.0002384185791015,9.659,N-S,0.0002384185791015,11.966
20021021010600.knt,FKS0100210210106.UD,2002-10-21, 01:06:00,36.368,141.124,50,5.2,FKS010,37.2342,141.0016,50,2002-10-21, 01:06:23,100Hz,119,U-D,0.0002384185791015,5.255,96.93159278075804,925,922.0,33.766725512681575,1.5029257488912595,1.7128902577979337,1.8763253065301468,2.172255635207827,2.1843056880565945,0.0109834595352461,0.0109834595352461,0.0109834595352461,0.0109834595352461,0.0109834595352461,2.498749565337414,2.498749565337414,2.498749565337414,1.5007041694464442,1.5007041694464442,E-W,0.0002384185791015,13.111,N-S,0.0002384185791015,13.793
