earthquake name,records name,earthquake date,earthquake time,lat,long,depth,mag,stn_code,stn_lat,stn_long,stn_height,rcd_date,rcd_time,frequency,rcd_duration,direction,scale_factor,max_pga,epi_dist,pick_index_manually,pick_index_kalkan,snr_db_kalkan,tc_5sec,tc_4sec,tc_3sec,tc_2sec,tc_1sec,Pd_5sec,Pd_4sec,Pd_3sec,Pd_2sec,Pd_1sec,Pga_5sec,Pga_4sec,Pga_3sec,Pga_2sec,Pga_1sec,Channel,Scale_factor,PGA_ew,Channel.1,Scale_factor.1,PGA_ns
20050102013000.knt,NGN0120501020130.UD,2005-01-02, 01:30:00,35.865,137.577,6,4.2,NGN012,36.2564,137.9785,641,2005-01-02, 01:30:44,100Hz,60,U-D,0.0006340209495401,0.982,56.53893155904181,799,0,0,0.8078831106177099,0.8043265967089975,0.8491736014461346,1.2430471788517423,1.1072858328705482,0.0005748369991352,0.0005748369991352,0.0005748369991352,0.0005748369991352,0.0002632465755812,0.3386246619498642,0.3386246619498642,0.3386246619498642,0.3386246619498642,0.2873186953546436,E-W,0.0006340209495401,3.019,N-S,0.0006340209495401,2.079
20050102013000.knt,NGN0130501020130.UD,2005-01-02, 01:30:00,35.865,137.577,6,4.2,NGN013,36.1833,137.7852,730,2005-01-02, 01:30:38,100Hz,60,U-D,0.0006340209495401,1.418,40.04074322590444,1072,0,0,0.50222090507201,0.6128290822846846,0.590787976039152,0.4149003427522469,0.4461892009625947,0.0009745692496335,0.0006961617733284,0.0006961617733284,0.0003219156856725,0.0003024961523491,1.227776923113705,0.7694524209622374,0.6638163144710036,0.6638163144710036,0.4678645622363067,E-W,0.0006340209495401,3.129,N-S,0.0006340209495401,2.988
20050102013000.knt,NGN0170501020130.UD,2005-01-02, 01:30:00,35.865,137.577,6,4.2,NGN017,35.9748,137.8255,927,2005-01-02, 01:30:32,100Hz,60,U-D,0.0006340209495401,6.087,25.49140384656767,1429,0,0,0.39120064844076,0.3890256705835755,0.3368989647987354,0.2627132697478464,0.2325428193185575,0.0071554123252111,0.0071554123252111,0.0019770137342435,0.001712859503738,0.001712859503738,6.112864442843737,6.112864442843737,6.112864442843737,6.112864442843737,6.112864442843737,E-W,0.0006340209495401,9.675,N-S,0.0006340209495401,9.052
20050102013000.knt,NGN0180501020130.UD,2005-01-02, 01:30:00,35.865,137.577,6,4.2,NGN018,35.8132,137.5295,1050,2005-01-02, 01:30:28,100Hz,62,U-D,0.0006340209495401,25.45,7.177023068757353,1528,0,0,0.2976104371566522,0.292266846766086,0.2723200089177992,0.2794785015782496,0.2452274216796186,0.0151529943016768,0.0151529943016768,0.0151529943016768,0.0151529943016768,0.0092692131675269,25.476753670049465,25.476753670049465,25.476753670049465,25.476753670049465,25.476753670049465,E-W,0.0006340209495401,34.085,N-S,0.0006340209495401,29.42
20050102013000.knt,NGN0190501020130.UD,2005-01-02, 01:30:00,35.865,137.577,6,4.2,NGN019,35.8562,137.7078,788,2005-01-02, 01:30:29,100Hz,68,U-D,0.0006340209495401,29.934,11.827892170746937,1492,0,0,0.4583435383182725,0.4539991430216253,0.4515847536921692,0.4322085048449063,0.2987902264265998,0.0326440787522429,0.0326440787522429,0.0326440787522429,0.0326440787522429,0.0060490283875563,29.85243657063393,29.85243657063393,29.85243657063393,29.85243657063393,13.477848307941038,E-W,0.0006340209495401,62.07,N-S,0.0006340209495401,87.138
20050102013000.knt,NGN0200501020130.UD,2005-01-02, 01:30:00,35.865,137.577,6,4.2,NGN020,35.8282,137.9532,636,2005-01-02, 01:30:37,100Hz,60,U-D,0.0006340209495401,2.903,34.15412002935456,1096,0,0,0.717544734954694,0.7213699080497045,0.6669600839919221,0.6333806366235802,0.6125424236817584,0.0042561189276205,0.0042561189276205,0.0042561189276205,0.0042561189276205,0.0042561189276205,2.926397248497113,2.926397248497113,2.926397248497113,2.926397248497113,2.926397248497113,E-W,0.0006340209495401,4.239,N-S,0.0006340209495401,5.146
20050102013000.knt,NGN0220501020130.UD,2005-01-02, 01:30:00,35.865,137.577,6,4.2,NGN022,35.6079,137.6125,451,2005-01-02, 01:30:35,100Hz,60,U-D,0.0006340209495401,8.662,28.767216165003905,1185,0,0,0.2216943709756163,0.1960986534515206,0.2140426569611618,0.2154328682810637,0.2244631918625963,0.0027241425954244,0.0021912944156936,0.0008235635290976,0.0005455693175966,0.0005455693175966,8.659306882366579,8.659306882366579,4.388383761513122,2.666478329556747,2.666478329556747,E-W,0.0006340209495401,19.281,N-S,0.0006340209495401,21.674
20050102013000.knt,NGN0230501020130.UD,2005-01-02, 01:30:00,35.865,137.577,6,4.2,NGN023,35.5787,138.0338,674,2005-01-02, 01:30:42,100Hz,60,U-D,0.0006340209495401,2.317,52.09603027416969,867,0,0,3.471520145073039,3.4895152487272654,3.372007206398019,3.1690590206212383,5.276516234669806,0.003279520995033,0.003279520995033,0.003279520995033,0.003279520995033,0.003279520995033,2.3172030944838045,2.3172030944838045,2.3172030944838045,2.3172030944838045,1.0642958008615253,E-W,0.0006340209495401,3.216,N-S,0.0006340209495401,2.979
20050102013000.knt,NGN0240501020130.UD,2005-01-02, 01:30:00,35.865,137.577,6,4.2,NGN024,35.5232,137.8374,538,2005-01-02, 01:30:40,100Hz,60,U-D,0.0006340209495401,2.561,44.69311223983803,971,0,0,3.171826840664442,3.5817698749356284,3.7476353138435856,3.9855598459706942,4.13792011086881,0.0079726532721917,0.0079726532721917,0.0079726532721917,0.0079726532721917,0.0079726532721917,1.7280934951194356,1.7280934951194356,1.7280934951194356,1.559730666080399,1.559730666080399,E-W,0.0006340209495401,3.89,N-S,0.0006340209495401,3.722
20050102013000.knt,NGN0250501020130.UD,2005-01-02, 01:30:00,35.865,137.577,6,4.2,NGN025,35.2807,137.8567,400,2005-01-02, 01:30:48,100Hz,60,U-D,0.0006340209495401,0.83,69.72216375996264,566,0,0,8.51627528022404,7.465246255258584,5.676766796245801,3.329874083683695,1.6769388390844504,0.004843459178635,0.004843459178635,0.00450553026201,0.0035391576942996,0.0015328432701871,0.5966769886997216,0.5966769886997216,0.5966769886997216,0.5966769886997216,0.3939876481367009,E-W,0.0006340209495401,1.866,N-S,0.0006340209495401,3.37
20050102013000.knt,SZO0150501020130.UD,2005-01-02, 01:30:00,35.865,137.577,6,4.2,SZO015,35.2435,138.3407,452,2005-01-02, 01:30:55,100Hz,60,U-D,0.0006340209495401,1.516,97.71807805301904,326,0,0,1.000309356557614,0.8674195593338861,0.8494503610016325,0.9209408109431996,0.8056743657710475,0.0010408078465966,0.0010408078465966,0.0010408078465966,0.0010408078465966,0.0010408078465966,0.7919623765035488,0.7919623765035488,0.7919623765035488,0.7919623765035488,0.7919623765035488,E-W,0.0006340209495401,3.767,N-S,0.0006340209495401,1.248
20050102013000.knt,SZO0210501020130.UD,2005-01-02, 01:30:00,35.865,137.577,6,4.2,SZO021,35.0969,138.1332,441,2005-01-02, 01:30:56,100Hz,60,U-D,0.0006340209495401,0.651,99.15098929223502,250,0,0,1.3482885289998874,1.3113780320456117,1.312077908447175,1.3803811034558104,1.4192879204941178,0.0010001657088588,0.0010001657088588,0.0010001657088588,0.0010001657088588,0.0010001657088588,0.2790778841237011,0.2790778841237011,0.2790778841237011,0.2790778841237011,0.2790778841237011,E-W,0.0006340209495401,1.692,N-S,0.0006340209495401,2.167
20050102013000.knt,SZO0220501020130.UD,2005-01-02, 01:30:00,35.865,137.577,6,4.2,SZO022,35.0916,137.8136,136,2005-01-02, 01:30:52,100Hz,60,U-D,0.0006340209495401,1.362,88.62650876641818,457,0,0,0.4489760823538292,0.4330560505025636,0.5227611645489123,0.7089202015583882,0.9139797545373876,0.0003582609231494,0.0003320334476955,0.0003320334476955,0.0003320334476955,0.0003052014571397,0.3081744624270118,0.3081744624270118,0.3081744624270118,0.3081744624270118,0.1407296211372808,E-W,0.0006340209495401,2.282,N-S,0.0006340209495401,2.017
20050102123000.knt,EHM0070501021230.UD,2005-01-02, 12:30:00,33.745,131.933,73,4.2,EHM007,33.9621,132.7722,1,2005-01-02, 12:30:29,100Hz,60,U-D,0.0006340209495401,3.121,81.16723593441206,303,0,0,3.706865445377464,3.6927302307075607,3.7865345563157193,3.978461776739157,3.753245268644232,0.0056684236157597,0.0056684236157597,0.0056684236157597,0.0056684236157597,0.0056684236157597,3.1128655476957525,3.1128655476957525,3.1128655476957525,3.1128655476957525,3.1128655476957525,E-W,0.0006340209495401,2.223,N-S,0.0006340209495401,1.933
20050102123000.knt,EHM0090501021230.UD,2005-01-02, 12:30:00,33.745,131.933,73,4.2,EHM009,33.6324,132.7963,250,2005-01-02, 12:30:28,100Hz,60,U-D,0.0006340209495401,1.084,80.84870145509095,373,0,0,1.710720689308047,1.6193413497052829,1.5666519422654053,1.6974016925941464,2.0591919564342214,0.0012616491579941,0.0012616491579941,0.0012616491579941,0.0012616491579941,0.0012616491579941,1.0808674198029065,1.0808674198029065,1.0808674198029065,1.0808674198029065,1.0808674198029065,E-W,0.0006340209495401,2.332,N-S,0.0006340209495401,1.904
20050102123000.knt,EHM0100501021230.UD,2005-01-02, 12:30:00,33.745,131.933,73,4.2,EHM010,33.4512,132.6882,190,2005-01-02, 12:30:28,100Hz,60,U-D,0.0006340209495401,2.036,77.1985090257359,358,0,0,1.988716399573036,1.9288699062442027,1.8955758956383248,1.6473647355095102,1.2054237406750925,0.0011728153345259,0.0011728153345259,0.0011728153345259,0.0011728153345259,0.0011728153345259,0.7143803658452591,0.7143803658452591,0.7143803658452591,0.7143803658452591,0.7143803658452591,E-W,0.0006340209495401,4.474,N-S,0.0006340209495401,3.89
20050102123000.knt,EHM0120501021230.UD,2005-01-02, 12:30:00,33.745,131.933,73,4.2,EHM012,33.2217,132.5727,37,2005-01-02, 12:30:28,100Hz,60,U-D,0.0006340209495401,1.738,83.09926825012508,398,0,0,1.954580903743318,1.7896107183570105,1.6900288617508474,1.7953856468708835,2.0702506659154376,0.0011290566709719,0.0011290566709719,0.0011290566709719,0.0011290566709719,0.0011290566709719,0.5857664915043257,0.5857664915043257,0.5857664915043257,0.5857664915043257,0.5857664915043257,E-W,0.0006340209495401,4.419,N-S,0.0006340209495401,8.285
20050102123000.knt,EHM0130501021230.UD,2005-01-02, 12:30:00,33.745,131.933,73,4.2,EHM013,33.3924,132.1141,18,2005-01-02, 12:30:22,100Hz,60,U-D,0.0006340209495401,1.623,42.64675830074663,669,0,0,0.786415351613878,0.8851001438774648,0.9555531911566424,0.955351111403585,0.8735199539207588,0.0004556311478228,0.0004556311478228,0.0004556311478228,0.0004556311478228,0.0004556311478228,0.4296575568469921,0.4296575568469921,0.4296575568469921,0.4296575568469921,0.4296575568469921,E-W,0.0006340209495401,4.904,N-S,0.0006340209495401,3.225
20050102123000.knt,EHM0140501021230.UD,2005-01-02, 12:30:00,33.745,131.933,73,4.2,EHM014,32.9453,132.5047,1,2005-01-02, 12:30:32,100Hz,60,U-D,0.0006340209495401,1.89,103.57239383042592,204,0,0,2.3005457330310564,2.361187517944164,2.404989216826648,2.2658506069910147,1.6825659309591414,0.0024730459208663,0.0024730459208663,0.0024730459208663,0.0024730459208663,0.0024730459208663,1.8894652968785244,1.8894652968785244,1.8894652968785244,1.8894652968785244,1.8894652968785244,E-W,0.0006340209495401,3.538,N-S,0.0006340209495401,4.09
20050102123000.knt,EHM0150501021230.UD,2005-01-02, 12:30:00,33.745,131.933,73,4.2,EHM015,33.6105,132.4814,4,2005-01-02, 12:30:23,100Hz,60,U-D,0.0006340209495401,2.637,52.9030359162774,617,0,0,2.319563736317935,2.01941575884621,1.55039947290944,0.9423757002937784,0.3732538475174337,0.0022982717876702,0.0022982717876702,0.0021279198926896,0.0015370163980958,0.0007633673302305,1.645201944379399,1.645201944379399,1.645201944379399,1.645201944379399,1.645201944379399,E-W,0.0006340209495401,10.568,N-S,0.0006340209495401,5.849
20050102123000.knt,EHM0160501021230.UD,2005-01-02, 12:30:00,33.745,131.933,73,4.2,EHM016,33.7658,132.7088,2,2005-01-02, 12:30:28,100Hz,60,U-D,0.0006340209495401,0.937,71.7593409438798,323,0,0,1.4929779937086594,1.4137223985178462,1.3779432215619132,1.4406346564932389,1.3309440477534586,0.0021461695104014,0.0021461695104014,0.0021461695104014,0.0021461695104014,0.0021461695104014,0.9344489673756728,0.9344489673756728,0.9344489673756728,0.9344489673756728,0.9344489673756728,E-W,0.0006340209495401,1.898,N-S,0.0006340209495401,1.888
20050102123000.knt,HRS0060501021230.UD,2005-01-02, 12:30:00,33.745,131.933,73,4.2,HRS006,34.6659,132.4077,371,2005-01-02, 12:30:34,100Hz,60,U-D,0.0006340209495401,0.95,111.31580427250508,135,0,0,2.562863304906301,2.563768496608793,2.7075763824190817,2.7322592230151983,2.5524044640711403,0.0008091758041365,0.0008091758041365,0.0008091758041365,0.0008091758041365,0.0007704233729997,0.4079275855046962,0.4079275855046962,0.4079275855046962,0.4079275855046962,0.3636239449797209,E-W,0.0006340209495401,2.975,N-S,0.0006340209495401,1.606
20050102123000.knt,HRS0090501021230.UD,2005-01-02, 12:30:00,33.745,131.933,73,4.2,HRS009,34.4926,132.2794,219,2005-01-02, 12:30:30,100Hz,60,U-D,0.0006340209495401,2.483,89.03538165244673,305,0,0,2.311034224588272,2.237832143665889,2.3466556281991617,2.657240314045944,3.004653537005274,0.0017953552459287,0.0017953552459287,0.0017953552459287,0.0017953552459287,0.0017953552459287,0.6891247716326858,0.6891247716326858,0.6891247716326858,0.6891247716326858,0.6891247716326858,E-W,0.0006340209495401,3.633,N-S,0.0006340209495401,4.478
20050102123000.knt,HRS0120501021230.UD,2005-01-02, 12:30:00,33.745,131.933,73,4.2,HRS012,34.4276,132.7422,215,2005-01-02, 12:30:33,100Hz,60,U-D,0.0006340209495401,0.988,106.36782393789528,157,0,0,0.8233914593057612,0.6795847749616927,0.4425653304078425,0.35119399435765,0.3208690960800896,0.0005630765971554,0.0005630765971554,0.0005151876696093,0.0005151876696093,0.0005151876696093,0.9915995210392504,0.9915995210392504,0.9915995210392504,0.9915995210392504,0.9915995210392504,E-W,0.0006340209495401,1.956,N-S,0.0006340209495401,1.78
20050102123000.knt,HRS0140501021230.UD,2005-01-02, 12:30:00,33.745,131.933,73,4.2,HRS014,34.2869,132.2766,3,2005-01-02, 12:30:27,100Hz,60,U-D,0.0006340209495401,1.926,68.07157915654017,387,0,0,1.9184817075550555,1.6887684258171989,1.6227006272147997,1.742813186598646,2.0155181392229573,0.003251095202563,0.003251095202563,0.003251095202563,0.003251095202563,0.003251095202563,1.9186678942395112,1.9186678942395112,1.9186678942395112,1.9186678942395112,1.9186678942395112,E-W,0.0006340209495401,3.007,N-S,0.0006340209495401,4.119
20050102123000.knt,KOC0090501021230.UD,2005-01-02, 12:30:00,33.745,131.933,73,4.2,KOC009,33.5742,133.1718,105,2005-01-02, 12:30:34,100Hz,60,U-D,0.0006340209495401,1.453,116.21567898910082,127,0,0,0.8176227573924404,0.5907043995019083,0.5527582969199327,0.5185389480955912,0.375432819767116,0.0007980261392882,0.0007348207101987,0.0007348207101987,0.0007348207101987,0.0007348207101987,1.4514222265600358,1.4514222265600358,1.4514222265600358,1.4514222265600358,1.4514222265600358,E-W,0.0006340209495401,1.758,N-S,0.0006340209495401,1.804
20050102123000.knt,KOC0150501021230.UD,2005-01-02, 12:30:00,33.745,131.933,73,4.2,KOC015,32.937,132.7252,2,2005-01-02, 12:30:34,100Hz,60,U-D,0.0006340209495401,2.687,116.1358775717742,129,0,0,4.429599620372664,4.681544852756611,4.703553214615526,4.077700542316432,2.8480447419293493,0.0039915388988733,0.0039915388988733,0.0039915388988733,0.0039915388988733,0.0033766950378555,2.065676807071313,2.065676807071313,2.065676807071313,2.065676807071313,2.065676807071313,E-W,0.0006340209495401,5.685,N-S,0.0006340209495401,7.425
20050102123000.knt,OIT0010501021230.UD,2005-01-02, 12:30:00,33.745,131.933,73,4.2,OIT001,33.6783,131.5936,12,2005-01-02, 12:30:22,100Hz,60,U-D,0.0006340209495401,0.635,32.257511064952965,606,0,0,1.809303168061289,1.7206430566283373,1.5745380064575296,1.2925838675937829,0.921897114714501,0.0005683986349434,0.0005683986349434,0.0005683986349434,0.0005386341883365,0.0003970372677465,0.6358019978687244,0.6358019978687244,0.6358019978687244,0.6358019978687244,0.6358019978687244,E-W,0.0006340209495401,1.471,N-S,0.0006340209495401,1.837
20050102123000.knt,OIT0040501021230.UD,2005-01-02, 12:30:00,33.745,131.933,73,4.2,OIT004,33.5666,131.7378,7,2005-01-02, 12:30:20,100Hz,60,U-D,0.0006340209495401,2.285,26.831536401244588,769,0,0,1.4566549150342425,1.4155508838164328,1.3619559842589604,1.2987994513564722,1.0406016935316893,0.0009389602700713,0.0009389602700713,0.0009389602700713,0.0009389602700713,0.0009389602700713,1.028897153510567,1.028897153510567,1.028897153510567,1.028897153510567,1.028897153510567,E-W,0.0006340209495401,6.959,N-S,0.0006340209495401,3.949
20050102123000.knt,OIT0070501021230.UD,2005-01-02, 12:30:00,33.745,131.933,73,4.2,OIT007,33.4152,131.6148,24,2005-01-02, 12:30:23,100Hz,60,U-D,0.0006340209495401,0.779,47.05053844864195,604,0,0,0.5409740974185842,0.5613791300232064,0.5775138097064915,0.5661482374691101,0.5053840023958376,0.0007567074999853,0.0007567074999853,0.0007567074999853,0.0007567074999853,0.0007567074999853,0.780429906614199,0.780429906614199,0.780429906614199,0.780429906614199,0.780429906614199,E-W,0.0006340209495401,1.319,N-S,0.0006340209495401,0.944
20050102123000.knt,OIT0110501021230.UD,2005-01-02, 12:30:00,33.745,131.933,73,4.2,OIT011,33.2461,131.8811,7,2005-01-02, 12:30:24,100Hz,60,U-D,0.0006340209495401,1.714,55.683508178524406,574,0,0,2.505696905442174,2.1720058640386988,1.7371950609812208,1.1633868516497357,0.5900701302914401,0.0026552950479791,0.002646160199056,0.0025845434333954,0.0020566454136805,0.0015649295862746,1.116716496996142,1.116716496996142,1.116716496996142,1.116716496996142,1.116716496996142,E-W,0.0006340209495401,2.746,N-S,0.0006340209495401,3.859
20050102123000.knt,OIT0140501021230.UD,2005-01-02, 12:30:00,33.745,131.933,73,4.2,OIT014,33.0656,131.8589,8,2005-01-02, 12:30:28,100Hz,60,U-D,0.0006340209495401,1.337,75.8583105163098,324,0,0,1.1197153393094486,1.146695282432581,1.1460524114979649,1.1208019662777255,0.8519618871131022,0.0010101002745942,0.0010101002745942,0.0010101002745942,0.0010101002745942,0.0009924404143209,1.343882915593838,1.343882915593838,1.343882915593838,1.343882915593838,1.343882915593838,E-W,0.0006340209495401,2.423,N-S,0.0006340209495401,2.077
20050102123000.knt,OIT0150501021230.UD,2005-01-02, 12:30:00,33.745,131.933,73,4.2,OIT015,32.9722,131.397,260,2005-01-02, 12:30:31,100Hz,60,U-D,0.0006340209495401,1.628,99.30896779062245,287,0,0,2.8049407790942484,2.4770818263148624,2.4378439579205136,2.625373495429381,2.6971315808454523,0.0014183469026681,0.0014183469026681,0.0014183469026681,0.0014183469026681,0.0014183469026681,0.4794531477997207,0.4794531477997207,0.4794531477997207,0.4794531477997207,0.4794531477997207,E-W,0.0006340209495401,2.855,N-S,0.0006340209495401,5.177
20050102123000.knt,YMG0020501021230.UD,2005-01-02, 12:30:00,33.745,131.933,73,4.2,YMG002,34.4073,131.3987,2,2005-01-02, 12:30:30,100Hz,60,U-D,0.0006340209495401,0.921,88.57236918400983,266,0,0,0.7648488332215152,0.7493022348032352,0.7620190298930148,0.7665853561470609,0.6801776128554234,0.0007649541965133,0.0007649541965133,0.0007649541965133,0.0007649541965133,0.0007649541965133,0.9221256453851628,0.9221256453851628,0.9221256453851628,0.9221256453851628,0.9221256453851628,E-W,0.0006340209495401,1.626,N-S,0.0006340209495401,0.968
20050102123000.knt,YMG0090501021230.UD,2005-01-02, 12:30:00,33.745,131.933,73,4.2,YMG009,34.2319,131.8169,375,2005-01-02, 12:30:24,100Hz,60,U-D,0.0006340209495401,0.666,55.18879913604102,555,0,0,3.539307219637761,3.3976787467864864,2.868200450041973,2.0178363289603776,1.4800390833587644,0.0008877312687683,0.0008877312687683,0.0008877312687683,0.0006749553308211,0.0005750017254033,0.336479800827723,0.336479800827723,0.336479800827723,0.336479800827723,0.336479800827723,E-W,0.0006340209495401,2.928,N-S,0.0006340209495401,2.772
20050102123000.knt,YMG0100501021230.UD,2005-01-02, 12:30:00,33.745,131.933,73,4.2,YMG010,34.2304,131.9822,65,2005-01-02, 12:30:24,100Hz,60,U-D,0.0006340209495401,1.434,54.164295395780215,547,0,0,1.3722135000761944,1.1069143919709032,0.7849393894281571,0.5508715868536056,0.4859653210928493,0.0010118595269167,0.0009315129014613,0.0008135376141552,0.0006587075545875,0.0006587075545875,1.4320571903573645,1.4320571903573645,1.4320571903573645,1.4320571903573645,1.4320571903573645,E-W,0.0006340209495401,3.251,N-S,0.0006340209495401,3.255
