earthquake name,records name,earthquake date,earthquake time,lat,long,depth,mag,stn_code,stn_lat,stn_long,stn_height,rcd_date,rcd_time,frequency,rcd_duration,direction,scale_factor,max_pga,epi_dist,pick_index_manually,pick_index_kalkan,snr_db_kalkan,tc_5sec,tc_4sec,tc_3sec,tc_2sec,tc_1sec,Pd_5sec,Pd_4sec,Pd_3sec,Pd_2sec,Pd_1sec,Pga_5sec,Pga_4sec,Pga_3sec,Pga_2sec,Pga_1sec,Channel,Scale_factor,PGA_ew,Channel.1,Scale_factor.1,PGA_ns
20000603175400.knt,IBR0050006031754.UD,2000-06-03, 17:54:00,35.68,140.715,48,6.0,IBR005,36.3851,140.2372,63,2000-06-03, 17:55:05,100Hz,122,U-D,0.0002384185791015,11.149,89.40356099837526,1302,1346.0,30.839857846471155,1.6856758781621366,1.9990585438720745,1.5100947816113706,1.4135394279525395,0.8698258341718464,0.0205306813382133,0.0205306813382133,0.0170787459848728,0.0112096770033722,0.0040566276391085,5.74685676735879,5.74685676735879,5.74685676735879,3.6161775922616974,1.5422763345791175,E-W,0.0002384185791015,17.689,N-S,0.0002384185791015,33.381
20000603175400.knt,IBR0060006031754.UD,2000-06-03, 17:54:00,35.68,140.715,48,6.0,IBR006,36.369,140.4528,20,2000-06-03, 17:55:12,100Hz,119,U-D,0.0002384185791015,6.969,80.15976697765987,528,587.0,27.35956818127354,4.335579925745231,4.68069600751061,4.308158817115659,1.9751010359860792,4.402299550990799,0.0423579685648842,0.0423579685648842,0.0418997178163622,0.0111117509611029,0.0111117509611029,4.384979072517948,3.242296134043679,2.9661558282925826,0.9069789591646054,0.4855360076112183,E-W,0.0002384185791015,8.15,N-S,0.0002384185791015,9.843
20000603175400.knt,IBR0090006031754.UD,2000-06-03, 17:54:00,35.68,140.715,48,6.0,IBR009,36.1848,139.7037,17,2000-06-03, 17:55:18,100Hz,120,U-D,0.0002384185791015,2.443,106.9633350427788,216,221.0,16.23888067096328,9.569604264783074,10.418835027707594,12.447819786847532,26.30316003320885,30.13483332599237,0.1425421032699307,0.1425421032699307,0.1425421032699307,0.1425421032699307,0.1368729362072056,2.340925977475534,1.774179311080739,1.378568286271023,1.378568286271023,0.4178517462283923,E-W,0.0002384185791015,5.874,N-S,0.0002384185791015,5.821
20000603175400.knt,IBR0100006031754.UD,2000-06-03, 17:54:00,35.68,140.715,48,6.0,IBR010,36.1843,139.9653,23,2000-06-03, 17:55:08,100Hz,126,U-D,0.0002384185791015,5.224,87.7531505179159,976,1012.0,27.75516878891585,2.7544479025088418,4.246575951116277,3.2335776452851337,2.5198160299878323,5.174675658584119,0.041173292018334,0.041173292018334,0.041004895930357,0.0196880026587496,0.0196880026587496,3.5801638087903167,2.508713777738936,1.7263039756544911,1.2454546599097616,0.5157079599254192,E-W,0.0002384185791015,14.581,N-S,0.0002384185791015,15.718
20000603175400.knt,IBR0110006031754.UD,2000-06-03, 17:54:00,35.68,140.715,48,6.0,IBR011,36.1251,140.0903,26,2000-06-03, 17:55:03,100Hz,127,U-D,0.0002384185791015,7.786,74.9360369301001,1308,1332.0,33.04174482217626,1.6776077064529746,2.0424573360289164,1.5748154797318783,1.7346494988547905,1.2248222940625062,0.0429698126017556,0.0429698126017556,0.0358840745050104,0.0358840745050104,0.0132534332213648,5.717064199673486,4.9785880061724725,4.9785880061724725,4.347478110242743,2.297149479332473,E-W,0.0002384185791015,14.871,N-S,0.0002384185791015,16.733
20000603175400.knt,IBR0120006031754.UD,2000-06-03, 17:54:00,35.68,140.715,48,6.0,IBR012,36.1901,140.2869,24,2000-06-03, 17:55:02,100Hz,145,U-D,0.0002384185791015,9.46,68.57660785922273,1367,1378.0,30.20110262652773,1.3805203691464651,1.4150812280292764,1.5975691965007346,2.137121329186901,1.657661690005924,0.0436616379371267,0.0436616379371267,0.0436616379371267,0.0272055732415857,0.0157051103798459,6.458987698559322,6.458987698559322,6.458987698559322,6.284432525826697,3.349343392427196,E-W,0.0002384185791015,19.66,N-S,0.0002384185791015,16.422
20000603175400.knt,IBR0140006031754.UD,2000-06-03, 17:54:00,35.68,140.715,48,6.0,IBR014,36.0729,140.1947,11,2000-06-03, 17:55:02,100Hz,127,U-D,0.0002384185791015,9.215,64.08015668347353,1292,1316.0,34.34073704145692,2.176538376460208,2.500215667361231,2.0848366004806675,2.135787611414788,1.2112332211846069,0.0559665550872989,0.0559665550872989,0.0466669398455994,0.0446376884802196,0.0177418165737213,9.131495475001111,5.916967946147001,5.916967946147001,4.514431736449093,2.5139632195735526,E-W,0.0002384185791015,21.149,N-S,0.0002384185791015,17.117
20000603175400.knt,IBR0160006031754.UD,2000-06-03, 17:54:00,35.68,140.715,48,6.0,IBR016,35.9112,140.0494,20,2000-06-03, 17:55:02,100Hz,120,U-D,0.0002384185791015,17.552,65.30420543787072,1330,1355.0,31.734493366217368,2.3276414900266857,2.340217387397988,2.477214873579236,2.9328392048819087,1.494569340299327,0.1335702319952429,0.1335702319952429,0.1335702319952429,0.0856836929524144,0.0297806420743472,12.16075549142404,12.16075549142404,11.820065727111023,7.420083084531954,3.631424924858436,E-W,0.0002384185791015,28.383,N-S,0.0002384185791015,25.473
20000603175400.knt,IBR0170006031754.UD,2000-06-03, 17:54:00,35.68,140.715,48,6.0,IBR017,35.9537,140.3194,17,2000-06-03, 17:55:59,100Hz,131,U-D,0.0002384185791015,22.717,46.88900185643168,1418,1458.0,30.42301420112616,1.9490023579543727,2.0391692157116963,2.328361865867832,2.281448030537716,1.3322935535474614,0.096158508036396,0.096158508036396,0.096158508036396,0.0905828511239151,0.0305538725269366,19.673825935094246,19.673825935094246,19.673825935094246,8.896265485963017,5.790892878073041,E-W,0.0002384185791015,52.842,N-S,0.0002384185791015,39.769
20000603175400.knt,IBR0180006031754.UD,2000-06-03, 17:54:00,35.68,140.715,48,6.0,IBR018,35.977,140.6322,39,2000-06-03, 17:55:00,100Hz,119,U-D,0.0002384185791015,24.012,33.85802020360841,1247,1304.0,31.18188916227227,1.994309304578171,2.3309345212190147,2.414156804777248,0.9884836173655496,0.9109843957594376,0.1183344430582705,0.1183344430582705,0.097424807290462,0.0300839716481303,0.0058193919255788,23.8880766019184,12.449959185361452,8.796141588005806,5.582624975679433,2.4287576045233,E-W,0.0002384185791015,36.016,N-S,0.0002384185791015,31.402
20000603175400.knt,KNG0020006031754.UD,2000-06-03, 17:54:00,35.68,140.715,48,6.0,KNG002,35.4371,139.634,2,2000-06-03, 17:55:10,100Hz,119,U-D,0.0002384185791015,10.417,101.44755420614828,1146,1146.0,30.575057143550485,3.1642713426380142,3.1394997545313763,3.587778067117793,2.3930955217818286,3.6819737660638223,0.136791758943822,0.136791758943822,0.136791758943822,0.0995425555706156,0.0906453593542477,4.631449364349318,4.631449364349318,3.621127104075659,3.621127104075659,1.142237800157382,E-W,0.0002384185791015,22.614,N-S,0.0002384185791015,22.309
20000603175400.knt,KNG0050006031754.UD,2000-06-03, 17:54:00,35.68,140.715,48,6.0,KNG005,35.3194,139.549,7,2000-06-03, 17:55:10,100Hz,126,U-D,0.0002384185791015,8.828,112.9114896665957,1211,207.0,27.65157621188673,2.9361676917356845,2.89588549752484,3.101841938348445,2.583027028889344,2.013254283317483,0.0750640075434871,0.0750640075434871,0.0750640075434871,0.0447569528285692,0.02939478923796,3.1945122128388657,2.272788845181918,2.272788845181918,1.118013588862128,0.4667992461985333,E-W,0.0002384185791015,16.022,N-S,0.0002384185791015,14.691
20000603175400.knt,KNG0120006031754.UD,2000-06-03, 17:54:00,35.68,140.715,48,6.0,KNG012,35.3794,139.2048,138,2000-06-03, 17:55:14,100Hz,119,U-D,0.0002384185791015,3.305,140.6876583957548,1137,1144.0,27.03333165119972,1.6708012465265245,1.701996720312975,1.2497164934041107,1.8304934061782687,3.839209944991546,0.0230764145726482,0.0230764145726482,0.0160653561147396,0.0160653561147396,0.015374298545779,3.319639351839701,3.319639351839701,3.319639351839701,1.739871366057076,0.3311691556860003,E-W,0.0002384185791015,4.029,N-S,0.0002384185791015,6.101
20000603175400.knt,SIT0030006031754.UD,2000-06-03, 17:54:00,35.68,140.715,48,6.0,SIT003,36.072,139.6968,9,2000-06-03, 17:55:08,100Hz,161,U-D,0.0002384185791015,5.8,101.5674700059916,1213,775.0,26.3499497546978,3.256727704760172,3.5508709688355453,2.991683968877366,3.644399973444856,2.379594586317788,0.0607275767383888,0.0607275767383888,0.052470527550919,0.0291890556349496,0.0227180807258125,4.070262410344407,4.070262410344407,4.070262410344407,1.8526084604776063,1.0695526494425276,E-W,0.0002384185791015,11.118,N-S,0.0002384185791015,9.827
20000603175400.knt,SIT0070006031754.UD,2000-06-03, 17:54:00,35.68,140.715,48,6.0,SIT007,36.054,139.3912,25,2000-06-03, 17:55:21,100Hz,119,U-D,0.0002384185791015,2.15,126.32766098531933,193,270.0,22.784835013586044,2.840658522998009,3.4670311331500407,2.4584940997646925,4.999095435257726,1.5053426009049562,0.0324379880362106,0.0324379880362106,0.0222083447676851,0.0147563376721427,0.0058876305117707,1.6392927176365728,0.665542528526385,0.665542528526385,0.3642467735025555,0.1059121805617283,E-W,0.0002384185791015,4.354,N-S,0.0002384185791015,3.978
20000603175400.knt,SIT0080006031754.UD,2000-06-03, 17:54:00,35.68,140.715,48,6.0,SIT008,35.9745,139.7526,5,2000-06-03, 17:55:13,100Hz,119,U-D,0.0002384185791015,4.228,92.73883364833272,593,618.0,29.32634527586009,3.1195269397417014,3.643275944247917,3.226858646661981,5.177583912144262,2.1863769355073845,0.0623609559310802,0.0623609559310802,0.0623609559310802,0.0623609559310802,0.025357940669283,2.478600789066184,2.292123418131488,2.292123418131488,2.292123418131488,0.6475337379490079,E-W,0.0002384185791015,15.104,N-S,0.0002384185791015,15.309
20000603175400.knt,SIT0090006031754.UD,2000-06-03, 17:54:00,35.68,140.715,48,6.0,SIT009,35.9032,139.4837,22,2000-06-03, 17:55:12,100Hz,119,U-D,0.0002384185791015,3.941,113.79649494588062,1029,1035.0,23.93832290200125,3.573520302985085,3.3438845941982143,3.3527007767161088,3.997368437574271,3.732866791542551,0.0998504726661434,0.0998504726661434,0.0991747530360637,0.0340681815075264,0.026427918158676,3.94598782408839,2.306255068102001,2.2540136256335206,2.2540136256335206,1.0387520841738422,E-W,0.0002384185791015,6.606,N-S,0.0002384185791015,5.556
20000603175400.knt,SIT0100006031754.UD,2000-06-03, 17:54:00,35.68,140.715,48,6.0,SIT010,35.9065,139.6481,13,2000-06-03, 17:55:10,100Hz,138,U-D,0.0002384185791015,5.236,99.4685199926629,1008,1081.0,30.2075931586019,3.1520725779349266,4.727462893891785,2.741268432128353,5.262755062887249,2.4005153479836765,0.1160219420262533,0.1160219420262533,0.0493282348702249,0.0404390570994059,0.0133465733493141,2.661171481749092,1.2289024454894248,0.9307469340628142,0.3575306349208719,0.2148729231272532,E-W,0.0002384185791015,13.783,N-S,0.0002384185791015,7.675
20000603175400.knt,SIT0110006031754.UD,2000-06-03, 17:54:00,35.68,140.715,48,6.0,SIT011,35.8098,139.7212,2,2000-06-03, 17:55:13,100Hz,119,U-D,0.0002384185791015,4.847,90.84261338395945,672,295.0,26.69404952066409,3.331004811147547,3.2621676550639536,3.855413873422481,1.6539443772430191,2.366221111287103,0.1983889587929106,0.1983889587929106,0.1930264663623218,0.0573280286854048,0.0520331894940299,3.00375018305272,3.00375018305272,3.00375018305272,3.00375018305272,0.6386327029986294,E-W,0.0002384185791015,10.295,N-S,0.0002384185791015,14.755
20000603175400.knt,SZO0030006031754.UD,2000-06-03, 17:54:00,35.68,140.715,48,6.0,SZO003,34.8158,139.0546,149,2000-06-03, 17:55:18,100Hz,119,U-D,0.0002384185791015,5.164,178.79272150941267,1067,1089.0,26.569703906267,1.0318335046851348,1.1722602824174535,1.4008956751836237,1.8892352763094105,3.6697414145451166,0.0123245266459586,0.0123245266459586,0.0123245266459586,0.0123245266459586,0.0123245266459586,5.051364999976818,5.051364999976818,4.126738517418484,2.3755213420653507,1.4389127016602052,E-W,0.0002384185791015,13.248,N-S,0.0002384185791015,14.625
20000603175400.knt,SZO0110006031754.UD,2000-06-03, 17:54:00,35.68,140.715,48,6.0,SZO011,35.2216,138.6221,121,2000-06-03, 17:55:24,100Hz,119,U-D,0.0002384185791015,1.932,196.30503165119893,799,114.0,25.161056933002666,1.1199763559849936,1.0978138508701298,1.1499828167416597,1.5053851409371783,1.858439126879294,0.0116550169507572,0.0116550169507572,0.0116550169507572,0.0077857268956566,0.0055696588561843,1.926417205539235,1.926417205539235,1.926417205539235,0.5845774234020537,0.3035015867063487,E-W,0.0002384185791015,3.62,N-S,0.0002384185791015,4.828
20000603175400.knt,TCG0030006031754.UD,2000-06-03, 17:54:00,35.68,140.715,48,6.0,TCG003,36.8144,139.7153,398,2000-06-03, 17:55:17,100Hz,119,U-D,0.0002384185791015,0.802,154.74928247912015,976,999.0,23.59110610234165,3.146843201181545,2.845511950184257,3.114903567136304,2.7117278196583445,3.900321619746714,0.0060712975625987,0.0050628354971678,0.0031100439890668,0.0022207059866935,0.0022207059866935,0.7153170303122502,0.5504412683279045,0.4416985515321686,0.2112573617052658,0.094624467898673,E-W,0.0002384185791015,5.937,N-S,0.0002384185791015,4.537
20000603175400.knt,TCG0040006031754.UD,2000-06-03, 17:54:00,35.68,140.715,48,6.0,TCG004,36.8061,139.4204,1490,2000-06-03, 17:55:23,100Hz,119,U-D,0.0002384185791015,2.896,170.75470415834607,617,634.0,28.98805324891661,1.717556376548983,1.8216120266378504,2.750205925581871,6.078492639850464,3.537513092501779,0.011197722942938,0.0106562753898394,0.0100214237315408,0.0100214237315408,0.0073715799340556,2.016047950267364,1.6599881752679009,1.4974856889712875,0.3458745984730823,0.1520434707021255,E-W,0.0002384185791015,3.781,N-S,0.0002384185791015,4.778
20000603175400.knt,TCG0090006031754.UD,2000-06-03, 17:54:00,35.68,140.715,48,6.0,TCG009,36.7258,139.7155,361,2000-06-03, 17:55:18,100Hz,119,U-D,0.0002384185791015,7.878,146.85017344427214,765,804.0000000000001,29.117216321648733,1.698461158809635,1.2829921576398344,1.9914113252338144,5.319512916278149,5.453919200115892,0.0286750111944078,0.0168544500776536,0.0103957231560244,0.0103957231560244,0.009704354445775,4.699971531164849,4.699971531164849,1.8275052600869848,1.0779494944812915,0.3768712608557097,E-W,0.0002384185791015,24.061,N-S,0.0002384185791015,19.347
20000603175400.knt,TCG0100006031754.UD,2000-06-03, 17:54:00,35.68,140.715,48,6.0,TCG010,36.6347,139.4376,640,2000-06-03, 17:55:15,100Hz,119,U-D,0.0002384185791015,4.324,156.2714746788337,1178,1214.0,29.66811630337359,1.0961884932449557,1.1870494338123343,1.205226782913101,1.2920586294727388,1.879149163214448,0.0136576191097648,0.0126001844241735,0.0110741005141147,0.0075004635055139,0.0046741436169679,4.317868338938328,4.317868338938328,3.150011341325613,1.5642042042294655,0.7179579030641566,E-W,0.0002384185791015,6.976,N-S,0.0002384185791015,4.408
20000603175400.knt,TCG0120006031754.UD,2000-06-03, 17:54:00,35.68,140.715,48,6.0,TCG012,36.2859,139.8047,33,2000-06-03, 17:55:10,100Hz,119,U-D,0.0002384185791015,3.743,106.05502674897862,1028,1072.0,23.14907004514863,2.358667704237408,2.9101503202080696,2.9905476685981696,3.357510664336408,2.732961420790412,0.0330042829938483,0.0330042829938483,0.028010209786524,0.0182469231609372,0.011257292369341,3.748340817172057,2.123163221027654,1.2083714874432725,0.978529576321545,0.4548135358002278,E-W,0.0002384185791015,8.586,N-S,0.0002384185791015,8.717
20000603175400.knt,TCG0130006031754.UD,2000-06-03, 17:54:00,35.68,140.715,48,6.0,TCG013,36.4368,140.0225,67,2000-06-03, 17:55:09,100Hz,119,U-D,0.0002384185791015,8.037,104.67345664651276,1116,1145.0,34.76904975865514,1.6482266860992074,1.996045749423432,2.4323691166619104,2.369314078927841,1.5032825423198477,0.0245077635037486,0.0245077635037486,0.0245077635037486,0.0106994189014387,0.0059508467878372,4.669460317055036,3.507729048539597,1.7212793131426267,1.2955258019353866,0.6169905611308663,E-W,0.0002384185791015,12.574,N-S,0.0002384185791015,13.092
20000603175400.knt,TCG0140006031754.UD,2000-06-03, 17:54:00,35.68,140.715,48,6.0,TCG014,36.545,140.1742,130,2000-06-03, 17:55:08,100Hz,119,U-D,0.0002384185791015,7.3,107.7552387995724,1246,1294.0,27.996369068553552,1.1498891864101377,1.3619894015667504,1.559325240319566,2.414555833404308,1.5803061881855909,0.0169414939532945,0.0169414939532945,0.0169414939532945,0.0100828112134502,0.0044428869833105,4.87308143863976,4.494641027438512,3.895374005229712,1.0686264661451506,0.8204067534551237,E-W,0.0002384185791015,18.47,N-S,0.0002384185791015,14.895
20000603175400.knt,TKY0040006031754.UD,2000-06-03, 17:54:00,35.68,140.715,48,6.0,TKY004,35.6282,139.4034,81,2000-06-03, 17:55:11,100Hz,119,U-D,0.0002384185791015,8.371,118.6440621714315,1224,1252.0,29.338519386686738,2.594710689001516,2.602163314514366,3.2327595638192133,2.226292751696027,2.299619846830663,0.107915473368882,0.107915473368882,0.107915473368882,0.0540746485455353,0.0372134249114425,8.29037203043957,7.9975946860406,5.523292071833293,3.8188414144580647,1.488243817522962,E-W,0.0002384185791015,14.39,N-S,0.0002384185791015,11.237
20000603175400.knt,TKY0050006031754.UD,2000-06-03, 17:54:00,35.68,140.715,48,6.0,TKY005,35.5782,139.4156,109,2000-06-03, 17:55:11,100Hz,130,U-D,0.0002384185791015,4.904,117.98288528362326,1246,173.0,22.83095884225471,2.8169330150038103,2.765241972916577,3.4661552841688485,2.2560607735113365,3.2148594729886546,0.1108729368653152,0.1108729368653152,0.1108729368653152,0.0536798057474027,0.0484056837990486,4.694013549185277,4.694013549185277,4.359986193530336,2.83201830129304,1.0312648715243804,E-W,0.0002384185791015,9.732,N-S,0.0002384185791015,9.69
20000603175400.knt,TKY0060006031754.UD,2000-06-03, 17:54:00,35.68,140.715,48,6.0,TKY006,35.699,139.5029,71,2000-06-03, 17:55:09,100Hz,119,U-D,0.0002384185791015,3.846,109.48620780059711,1302,1319.0,26.797350582375188,3.2958705458889423,3.12352940871093,3.166714063944008,3.5657004750360666,1.7930330032868922,0.1452462449282045,0.1452462449282045,0.1452462449282045,0.0703907101598244,0.0310775341162949,3.766134049448101,3.766134049448101,3.249580146653972,3.120067326958698,0.947377248147826,E-W,0.0002384185791015,8.865,N-S,0.0002384185791015,7.308
20000603175400.knt,TKY0070006031754.UD,2000-06-03, 17:54:00,35.68,140.715,48,6.0,TKY007,35.7107,139.6859,34,2000-06-03, 17:55:07,100Hz,119,U-D,0.0002384185791015,8.954,92.99495287700334,1293,1314.0,25.4345383599465,3.0860690357547136,2.94420704406598,2.7742466848458323,2.89059022561022,1.7867217565220832,0.1890142248131587,0.1890142248131587,0.1890142248131587,0.0992852615431015,0.0471554378462004,9.117170273297123,7.012030854756616,7.012030854756616,6.241142940929459,3.0792746182047046,E-W,0.0002384185791015,12.859,N-S,0.0002384185791015,13.05
20000603175400.knt,TKY0090006031754.UD,2000-06-03, 17:54:00,35.68,140.715,48,6.0,TKY009,34.6874,139.4412,60,2000-06-03, 17:55:14,100Hz,119,U-D,0.0002384185791015,5.066,159.94441011931272,1198,1211.0,25.821935876356644,4.697727575040759,3.698136431023984,3.003666496654928,4.17189707286668,5.738701778709983,0.0540399094750282,0.0427734148444658,0.0350052213504543,0.0350052213504543,0.0350052213504543,5.045898945547056,5.045898945547056,2.893139814744197,2.6119424315884188,0.8064676141960173,E-W,0.0002384185791015,5.48,N-S,0.0002384185791015,6.499
20000603175400.knt,TKY0280006031754.UD,2000-06-03, 17:54:00,35.68,140.715,48,6.0,TKY028,35.6685,139.7893,-9999,2000-06-03, 17:55:07,100Hz,600,U-D,0.0002384185791015,5.395,83.62676428535508,1192,1216.0,17.56574081410509,3.314182372498109,3.448939796595356,2.9498105969390886,3.700373621313709,1.6810316720235976,0.1931979244491,0.1931979244491,0.1908523682837601,0.0903003922609226,0.05208754532765,4.962537339072807,4.962537339072807,4.936084358883791,2.811312415010427,2.664618107111015,E-W,0.0002384185791015,15.578,N-S,0.0002384185791015,11.868
20000603175400.knt,YMN0040006031754.UD,2000-06-03, 17:54:00,35.68,140.715,48,6.0,YMN004,35.702,138.7266,393,2000-06-03, 17:55:19,100Hz,119,U-D,0.0002384185791015,2.511,179.58551778902572,1150,1178.0,21.959826257919666,1.7125419980771868,1.7819187475052178,1.353042191579059,1.812479547094409,3.1350678306248563,0.022963443745057,0.022963443745057,0.0105846812221393,0.0089892368967376,0.0087021929799195,2.4958329681519618,2.4958329681519618,2.465429156537508,1.3940570468573146,0.2444235977345012,E-W,0.0002384185791015,3.878,N-S,0.0002384185791015,3.524
