earthquake name,records name,earthquake date,earthquake time,lat,long,depth,mag,stn_code,stn_lat,stn_long,stn_height,rcd_date,rcd_time,frequency,rcd_duration,direction,scale_factor,max_pga,epi_dist,pick_index_manually,pick_index_kalkan,snr_db_kalkan,tc_5sec,tc_4sec,tc_3sec,tc_2sec,tc_1sec,Pd_5sec,Pd_4sec,Pd_3sec,Pd_2sec,Pd_1sec,Pga_5sec,Pga_4sec,Pga_3sec,Pga_2sec,Pga_1sec,Channel,Scale_factor,PGA_ew,Channel.1,Scale_factor.1,PGA_ns
20000107193500.knt,GIF0110001071935.UD,2000-01-07, 19:35:00,35.868,137.582,9,3.6,GIF011,35.7593,136.9808,245,2000-01-07, 19:35:41,100Hz,119,U-D,0.0002384185791015,0.747,55.541625297118905,766,765.0,17.169311202004078,9.736672875014689,9.515832271501036,7.6101952299713185,4.917422312308514,2.4947387826669623,0.0036625184373005,0.0036625184373005,0.0035483534827083,0.0028632900182144,0.0012858776291355,0.4939046698118862,0.4939046698118862,0.4939046698118862,0.4939046698118862,0.4939046698118862,E-W,0.0002384185791015,4.408,N-S,0.0002384185791015,5.795
20000107193500.knt,GIF0120001071935.UD,2000-01-07, 19:35:00,35.868,137.582,9,3.6,GIF012,35.6365,136.4882,221,2000-01-07, 19:35:54,100Hz,119,U-D,0.0002384185791015,0.276,102.00565878701184,242,20.0,12.294942765309935,2.800024553622855,2.500867846300145,2.6218118395216234,2.547323410780189,3.5162435730207067,0.0005608046648963,0.0004842797786291,0.0004842797786291,0.0004842797786291,0.0004842797786291,0.1009963182098599,0.1009963182098599,0.1009963182098599,0.0900895163486209,0.0453598230287072,E-W,0.0002384185791015,2.159,N-S,0.0002384185791015,4.051
20000107193500.knt,GIF0180001071935.UD,2000-01-07, 19:35:00,35.868,137.582,9,3.6,GIF018,35.4887,137.5,320,2000-01-07, 19:35:37,100Hz,119,U-D,0.0002384185791015,0.993,42.82162642075349,934,934.0,18.08570177282252,1.2452434684259626,1.1961410241350956,1.411287924491185,1.2618758243550894,1.3869354746026057,0.0010930568047675,0.0007949540682099,0.0007949540682099,0.0007590054584725,0.0007117050706094,0.6562560746211171,0.6562560746211171,0.5187882212511242,0.5187882212511242,0.3889180286699831,E-W,0.0002384185791015,3.136,N-S,0.0002384185791015,1.857
20000107193500.knt,GIF0250001071935.UD,2000-01-07, 19:35:00,35.868,137.582,9,3.6,GIF025,35.7234,136.7847,351,2000-01-07, 19:35:46,100Hz,119,U-D,0.0002384185791015,0.778,73.68476237402419,572,577.0,15.423230938971956,10.316103730773946,10.735574837552276,8.574210538753803,5.66398570483819,2.6039925001868487,0.0030218988696896,0.0030218988696896,0.0028575592802255,0.0023070767936407,0.0012624259700399,0.1513303829467003,0.1159315091259991,0.1159315091259991,0.1159315091259991,0.1011204786691913,E-W,0.0002384185791015,2.192,N-S,0.0002384185791015,2.278
20000107193500.knt,GIF0260001071935.UD,2000-01-07, 19:35:00,35.868,137.582,9,3.6,GIF026,35.5912,136.7414,145,2000-01-07, 19:35:49,100Hz,119,U-D,0.0002384185791015,0.672,81.88212579120054,409,411.00000000000006,16.535554000795877,5.947140765580518,6.26658053580144,5.561836519275445,4.023293536625298,1.65586678768719,0.0018036453934191,0.0018036453934191,0.0018036453934191,0.0016215766223588,0.0010156540933224,0.3106527409760229,0.3106527409760229,0.3106527409760229,0.3106527409760229,0.3106527409760229,E-W,0.0002384185791015,1.613,N-S,0.0002384185791015,2.886
20000107193500.knt,NGN0180001071935.UD,2000-01-07, 19:35:00,35.868,137.582,9,3.6,NGN018,35.8132,137.5295,1050,2000-01-07, 19:35:26,100Hz,119,U-D,0.0002384185791015,40.251,7.7152892569702525,1472,1476.0,35.78150453240952,0.3100469665507984,0.2966923492413038,0.2587508332834764,0.2368569413659927,0.2627805859525071,0.0203909365579948,0.0203909365579948,0.0203909365579948,0.0203909365579948,0.0029677422755354,40.26220391871294,40.26220391871294,40.26220391871294,40.26220391871294,9.22482647254608,E-W,0.0002384185791015,71.431,N-S,0.0002384185791015,46.54
20000107193500.knt,NGN0190001071935.UD,2000-01-07, 19:35:00,35.868,137.582,9,3.6,NGN019,35.8562,137.7078,788,2000-01-07, 19:35:27,100Hz,119,U-D,0.0002384185791015,31.573,11.412224615431915,1403,1408.0,32.736851942498724,1.8254638007792223,1.6720114162438275,1.2086448274113937,0.6974516557095836,0.5433064233504616,0.0373578309495233,0.0373578309495233,0.0373578309495233,0.0339407007241489,0.0076927896173913,31.59054281521006,31.59054281521006,31.59054281521006,31.59054281521006,7.243888497143246,E-W,0.0002384185791015,45.542,N-S,0.0002384185791015,98.483
20000107193500.knt,NGN0200001071935.UD,2000-01-07, 19:35:00,35.868,137.582,9,3.6,NGN020,35.8282,137.9532,636,2000-01-07, 19:35:31,100Hz,119,U-D,0.0002384185791015,2.556,33.74823773528263,1402,1402.0,17.525961342760723,0.4832795838812636,0.447063340160453,0.414602722296466,0.3579663339747912,0.3184297077747505,0.0021056401186281,0.0021056401186281,0.0021056401186281,0.0021056401186281,0.0021056401186281,2.5506319415604906,2.5506319415604906,2.5506319415604906,2.5506319415604906,2.5506319415604906,E-W,0.0002384185791015,1.695,N-S,0.0002384185791015,1.826
20000107193500.knt,NGN0220001071935.UD,2000-01-07, 19:35:00,35.868,137.582,9,3.6,NGN022,35.6079,137.6125,451,2000-01-07, 19:35:33,100Hz,119,U-D,0.0002384185791015,4.042,29.052513728322285,1113,1115.0,26.447642995944328,1.7769685106654494,1.1595525633103403,1.853862104563394,3.4959719974407784,4.029959670479561,0.0113605167601141,0.0063644276379154,0.0029189434089449,0.0029189434089449,0.0027244393169714,4.000575648294108,4.000575648294108,1.9741533909837383,1.2884846101217875,1.1043210829182772,E-W,0.0002384185791015,9.046,N-S,0.0002384185791015,12.387
20000107193500.knt,NGN0240001071935.UD,2000-01-07, 19:35:00,35.868,137.582,9,3.6,NGN024,35.5232,137.8374,538,2000-01-07, 19:35:38,100Hz,119,U-D,0.0002384185791015,1.53,44.74248633746699,886,886.0,21.045685789722004,2.759242056886864,2.552805007370789,1.469498169211919,1.4398081618677598,1.417172790360932,0.0065001794573039,0.0065001794573039,0.0038729008289503,0.0035545905116377,0.0035545905116377,1.0528092435002567,1.0528092435002567,1.0528092435002567,1.0528092435002567,1.0528092435002567,E-W,0.0002384185791015,3.294,N-S,0.0002384185791015,5.831
20000109130200.knt,FKS0010001091302.UD,2000-01-09, 13:02:00,37.276,141.7,46,5.0,FKS001,37.7949,140.9196,9,2000-01-09, 13:03:38,100Hz,119,U-D,0.0002384185791015,12.084,89.80044237832108,1397,1396.0,43.28246623488592,0.7928213123320171,0.7757119216563636,0.7026939429742148,0.4983596675737532,0.466106130230524,0.0127396086917566,0.0127396086917566,0.0127396086917566,0.0127396086917566,0.0127396086917566,12.140389582134016,12.140389582134016,12.140389582134016,12.140389582134016,12.140389582134016,E-W,0.0002384185791015,15.13,N-S,0.0002384185791015,21.336
20000109130200.knt,FKS0030001091302.UD,2000-01-09, 13:02:00,37.276,141.7,46,5.0,FKS003,37.7613,140.4799,64,2000-01-09, 13:03:42,100Hz,119,U-D,0.0002384185791015,11.488,120.37774425809674,1444,1443.0,28.823215368507537,0.7180580909502867,0.6633217530034551,0.5438845735079907,0.3576949485034369,0.3171429539279053,0.017084246399145,0.017084246399145,0.017084246399145,0.017084246399145,0.017084246399145,11.474940685481451,11.474940685481451,11.474940685481451,11.474940685481451,11.474940685481451,E-W,0.0002384185791015,8.558,N-S,0.0002384185791015,8.857
20000109130200.knt,FKS0040001091302.UD,2000-01-09, 13:02:00,37.276,141.7,46,5.0,FKS004,37.6799,140.7346,488,2000-01-09, 13:03:39,100Hz,119,U-D,0.0002384185791015,12.623,96.3026165289457,1385,1400.0,26.940539458262247,0.4322160891249629,0.3896580821215176,0.309055167121794,0.2588886092558164,0.2496018129240969,0.0077677176802324,0.0077677176802324,0.0077677176802324,0.0077677176802324,0.0077677176802324,12.619393627455423,12.619393627455423,12.619393627455423,12.619393627455423,12.619393627455423,E-W,0.0002384185791015,20.156,N-S,0.0002384185791015,19.525
20000109130200.knt,FKS0050001091302.UD,2000-01-09, 13:02:00,37.276,141.7,46,5.0,FKS005,37.6385,140.9849,16,2000-01-09, 13:03:36,100Hz,119,U-D,0.0002384185791015,11.541,74.89208222048637,1426,1426.0,35.45564008895445,1.2970310147064477,1.218230918625303,0.9715797299279124,0.6827895994377843,0.670519015165725,0.0266427851089738,0.0266427851089738,0.0266427851089738,0.0231535029421681,0.0231535029421681,11.573974783447028,11.573974783447028,11.573974783447028,11.573974783447028,11.573974783447028,E-W,0.0002384185791015,13.475,N-S,0.0002384185791015,20.107
20000109130200.knt,FKS0070001091302.UD,2000-01-09, 13:02:00,37.276,141.7,46,5.0,FKS007,37.4061,140.9632,70,2000-01-09, 13:03:35,100Hz,119,U-D,0.0002384185791015,22.133,66.72323058199576,1440,1438.0,46.51479849583766,0.4565806960127796,0.4561893606931668,0.4571204135940582,0.4612178638690632,0.3866628525207768,0.0446392291063458,0.0446392291063458,0.0446392291063458,0.0446392291063458,0.0446392291063458,21.894713681478265,21.894713681478265,21.894713681478265,21.894713681478265,21.894713681478265,E-W,0.0002384185791015,27.291,N-S,0.0002384185791015,45.488
20000109130200.knt,FKS0080001091302.UD,2000-01-09, 13:02:00,37.276,141.7,46,5.0,FKS008,37.4363,140.5668,430,2000-01-09, 13:03:39,100Hz,119,U-D,0.0002384185791015,8.545,101.73262226894168,1470,1468.0,42.70318697099412,0.4075252143753262,0.4050519084459405,0.4133140571979053,0.4240554713953778,0.4277364220124547,0.0080103357094225,0.0080103357094225,0.0080103357094225,0.0080103357094225,0.0080103357094225,6.769886748831824,6.769886748831824,6.769886748831824,6.769886748831824,6.769886748831824,E-W,0.0002384185791015,24.141,N-S,0.0002384185791015,24.271
20000109130200.knt,FKS0090001091302.UD,2000-01-09, 13:02:00,37.276,141.7,46,5.0,FKS009,37.2778,140.6349,440,2000-01-09, 13:03:38,100Hz,119,U-D,0.0002384185791015,8.131,94.2395230780332,1475,1475.0,41.64300507558092,0.9799057105876404,0.9881677425879074,0.89218066582736,0.6128481614875987,0.3406260020549042,0.0114066862042678,0.0114066862042678,0.0114066862042678,0.0114066862042678,0.0114066862042678,7.891979930920072,7.891979930920072,7.891979930920072,7.891979930920072,7.891979930920072,E-W,0.0002384185791015,29.765,N-S,0.0002384185791015,17.76
20000109130200.knt,FKS0100001091302.UD,2000-01-09, 13:02:00,37.276,141.7,46,5.0,FKS010,37.2342,141.0016,50,2000-01-09, 13:03:35,100Hz,119,U-D,0.0002384185791015,16.29,61.98652706896425,1424,1422.0,41.71008367827135,0.8904547223778634,0.8308551652945031,0.7557357315016296,0.7438171374172834,0.536463164689607,0.0222572953109335,0.0222572953109335,0.0222572953109335,0.0222572953109335,0.0222572953109335,9.084953024042544,9.084953024042544,9.084953024042544,9.084953024042544,9.084953024042544,E-W,0.0002384185791015,36.024,N-S,0.0002384185791015,36.848
20000109130200.knt,FKS0110001091302.UD,2000-01-09, 13:02:00,37.276,141.7,46,5.0,FKS011,37.0911,140.9035,165,2000-01-09, 13:03:36,100Hz,119,U-D,0.0002384185791015,21.854,73.49549345309697,1447,1447.0,48.00824692234208,0.3986906086677543,0.370238006138436,0.3274441056950049,0.3283707799036817,0.3450391419011582,0.0199107287017828,0.0199107287017828,0.0199107287017828,0.0199107287017828,0.0199107287017828,15.96700303946106,15.96700303946106,15.96700303946106,15.96700303946106,15.96700303946106,E-W,0.0002384185791015,29.221,N-S,0.0002384185791015,41.315
20000109130200.knt,FKS0120001091302.UD,2000-01-09, 13:02:00,37.276,141.7,46,5.0,FKS012,36.9069,140.7929,2,2000-01-09, 13:03:38,100Hz,119,U-D,0.0002384185791015,7.647,90.3200940214552,1443,1443.0,35.30477285545773,0.9782665069612476,0.9238619067685718,0.7662168263445265,0.5056230764500336,0.3629901735473331,0.0120917082472229,0.0120917082472229,0.0120917082472229,0.0118558671698567,0.0118558671698567,5.0882539764740935,5.0882539764740935,5.0882539764740935,5.0882539764740935,5.0882539764740935,E-W,0.0002384185791015,20.135,N-S,0.0002384185791015,25.46
20000109130200.knt,FKS0140001091302.UD,2000-01-09, 13:02:00,37.276,141.7,46,5.0,FKS014,36.8683,140.43,178,2000-01-09, 13:03:55,100Hz,119,U-D,0.0002384185791015,3.114,121.45097214617458,145,120.0,28.207268071449462,5.095678478318728,5.299770203736161,5.472343023365597,4.587015865287452,3.26311391460738,0.0159396634678901,0.0159396634678901,0.0159396634678901,0.0159396634678901,0.0116765170618544,1.5739121595028598,1.5739121595028598,1.5739121595028598,1.5739121595028598,1.313930688455978,E-W,0.0002384185791015,10.825,N-S,0.0002384185791015,6.575
20000109130200.knt,FKS0160001091302.UD,2000-01-09, 13:02:00,37.276,141.7,46,5.0,FKS016,37.1228,140.1914,375,2000-01-09, 13:03:45,100Hz,119,U-D,0.0002384185791015,7.101,134.69791671248268,1375,1370.0,34.646546538910286,0.6137286832720323,0.593540703224089,0.5282441622482948,0.5508385476468635,0.5437078299639504,0.0066785407517774,0.0066785407517774,0.0066785407517774,0.0055191305245069,0.0055191305245069,6.775035867813578,6.775035867813578,6.775035867813578,3.76433398882622,3.096345003314952,E-W,0.0002384185791015,25.244,N-S,0.0002384185791015,26.486
20000109130200.knt,FKS0170001091302.UD,2000-01-09, 13:02:00,37.276,141.7,46,5.0,FKS017,37.2842,140.3689,263,2000-01-09, 13:03:42,100Hz,119,U-D,0.0002384185791015,5.47,117.77297912854807,1415,1414.0,30.67559036791455,0.8546721255246515,0.6709141198644472,0.5989467975948386,0.6654165515046684,0.7504731248546531,0.0090570050023055,0.0090570050023055,0.0090570050023055,0.0090570050023055,0.0090570050023055,3.4909515860494253,3.4909515860494253,3.4909515860494253,3.488021108642545,3.100937145229705,E-W,0.0002384185791015,9.997,N-S,0.0002384185791015,9.533
20000109130200.knt,FKS0180001091302.UD,2000-01-09, 13:02:00,37.276,141.7,46,5.0,FKS018,37.3961,140.3622,245,2000-01-09, 13:03:42,100Hz,119,U-D,0.0002384185791015,6.691,119.02567064028862,1428,1428.0,28.6575617721462,1.1489829924334465,1.1192529714509192,0.9224133904385292,0.6165205446717476,0.4457950448108736,0.0124893081122354,0.0124893081122354,0.0124583054947338,0.0124583054947338,0.0124583054947338,6.689162834362137,6.689162834362137,6.689162834362137,6.689162834362137,6.689162834362137,E-W,0.0002384185791015,7.772,N-S,0.0002384185791015,7.781
20000109130200.knt,FKS0230001091302.UD,2000-01-09, 13:02:00,37.276,141.7,46,5.0,FKS023,37.4774,139.9294,219,2000-01-09, 13:03:51,100Hz,119,U-D,0.0002384185791015,2.486,158.04649972115735,1062,657.0,23.270666010714976,3.4007282674155426,2.854797870587688,2.7614699160987053,3.6642816638036906,3.876451638739378,0.0208235166820396,0.0107667982435332,0.0105024806095861,0.0105024806095861,0.0095533088388879,1.4398466358665816,1.1433199097909637,1.1433199097909637,1.1260551174461324,0.7806422213987345,E-W,0.0002384185791015,8.037,N-S,0.0002384185791015,6.48
20000109130200.knt,FKS0240001091302.UD,2000-01-09, 13:02:00,37.276,141.7,46,5.0,FKS024,37.3957,140.1325,527,2000-01-09, 13:03:45,100Hz,119,U-D,0.0002384185791015,6.216,139.21941188713498,1410,1434.0,36.6226070119043,1.1031699089172415,1.1130047489892696,0.9026558768110508,0.688866887051784,0.5888806624876991,0.019320358233915,0.0179390625370558,0.015367462711231,0.0124044779742739,0.01217056281569,3.447549029050206,3.447549029050206,3.447549029050206,3.447549029050206,3.447549029050206,E-W,0.0002384185791015,10.586,N-S,0.0002384185791015,8.585
20000109130200.knt,FKS0310001091302.UD,2000-01-09, 13:02:00,37.276,141.7,46,5.0,FKS031,37.3364,140.8132,399,2000-01-09, 13:03:36,100Hz,119,U-D,0.0002384185791015,8.891,78.72004101276141,1482,1481.0,38.06595985939639,0.649179199282868,0.6489316735641414,0.6096405297329786,0.5194281310160308,0.4049964249872552,0.0173235691636926,0.0173235691636926,0.0173235691636926,0.0173235691636926,0.0173235691636926,8.900926546604557,8.900926546604557,8.900926546604557,8.900926546604557,8.900926546604557,E-W,0.0002384185791015,13.099,N-S,0.0002384185791015,16.29
20000109130200.knt,IBR0010001091302.UD,2000-01-09, 13:02:00,37.276,141.7,46,5.0,IBR001,36.7761,140.3569,105,2000-01-09, 13:03:44,100Hz,119,U-D,0.0002384185791015,9.096,131.5509306125888,1386,1384.0,34.56305926173788,4.829312826000415,4.44793877506951,3.3877012517098426,2.0476793846522177,0.7963368300939793,0.0252843298175272,0.0252843298175272,0.0252843298175272,0.0197940806968365,0.0070120019810063,3.083791020887462,3.083791020887462,3.083791020887462,3.083791020887462,2.657583932766421,E-W,0.0002384185791015,17.187,N-S,0.0002384185791015,16.762
20000109130200.knt,IBR0020001091302.UD,2000-01-09, 13:02:00,37.276,141.7,46,5.0,IBR002,36.7061,140.7068,9,2000-01-09, 13:03:46,100Hz,119,U-D,0.0002384185791015,7.053,108.61235805057603,853,933.0,21.61186996072913,0.9142869874494752,1.0083434709778232,1.1640171178664347,1.4080570594305932,1.474806161774985,0.004006714076694,0.004006714076694,0.004006714076694,0.004006714076694,0.004006714076694,1.1494204772346792,1.0588177229205205,1.0318313498885217,1.0318313498885217,0.7759944292557784,E-W,0.0002384185791015,12.048,N-S,0.0002384185791015,13.995
20000109130200.knt,IBR0030001091302.UD,2000-01-09, 13:02:00,37.276,141.7,46,5.0,IBR003,36.5915,140.6453,58,2000-01-09, 13:03:42,100Hz,119,U-D,0.0002384185791015,10.138,120.75024997994932,1403,1437.0,27.015463246355047,0.9654316215792996,0.8228689445749183,0.5795383474206771,0.3589774696131108,0.3077438782247413,0.0059631623118147,0.005452731078711,0.0046145806603321,0.0044696906526704,0.0026450393648099,5.007827343800858,5.007827343800858,5.007827343800858,5.007827343800858,2.725728484257639,E-W,0.0002384185791015,16.778,N-S,0.0002384185791015,21.688
20000109130200.knt,IWT0120001091302.UD,2000-01-09, 13:02:00,37.276,141.7,46,5.0,IWT012,39.3209,141.1378,64,2000-01-09, 13:03:59,100Hz,119,U-D,0.0002384185791015,2.417,232.6133806425739,1195,1257.0,28.4886282548657,4.405162731414344,3.343832864494794,2.318750572898787,1.1556735730042165,1.6573307016002117,0.0120784595885204,0.0120784595885204,0.0084559718520787,0.003513148232277,0.0015045062406463,1.3946507076694978,1.3946507076694978,1.3946507076694978,0.8017245350320038,0.2145721851094364,E-W,0.0002384185791015,8.668,N-S,0.0002384185791015,10.531
20000109130200.knt,MYG0040001091302.UD,2000-01-09, 13:02:00,37.276,141.7,46,5.0,MYG004,38.7292,141.0217,40,2000-01-09, 13:03:52,100Hz,119,U-D,0.0002384185791015,4.174,172.16996106914902,1117,1144.0,31.58132607894053,0.5806869755723786,0.5563457088034595,0.5815556796531025,0.6158195956048759,0.5599296871608432,0.0059504703046396,0.0059504703046396,0.0059504703046396,0.0059504703046396,0.0026276907469954,1.816916134720568,1.480217033826583,1.3760541742708423,1.2734133258705311,1.054973171996536,E-W,0.0002384185791015,14.373,N-S,0.0002384185791015,13.103
20000109130200.knt,MYG0110001091302.UD,2000-01-09, 13:02:00,37.276,141.7,46,5.0,MYG011,38.2972,141.5043,30,2000-01-09, 13:03:43,100Hz,119,U-D,0.0002384185791015,14.395,114.84707049153651,1223,1240.0,34.57452266613313,0.6170438849986718,0.618181570698486,0.5834092047576733,0.5375285034938804,0.5198303407015212,0.0028105528066406,0.0028105528066406,0.0028105528066406,0.0028105528066406,0.0028105528066406,3.994752059861898,3.994752059861898,3.994752059861898,2.5110440399918463,1.6157664697425396,E-W,0.0002384185791015,28.872,N-S,0.0002384185791015,31.637
20000109130200.knt,MYG0120001091302.UD,2000-01-09, 13:02:00,37.276,141.7,46,5.0,MYG012,38.3233,141.0272,2,2000-01-09, 13:03:44,100Hz,119,U-D,0.0002384185791015,10.252,130.59760384543654,1355,1356.0,36.98562834172441,2.754979210774124,1.900491583526145,0.8445288918234708,0.3975407145956618,0.5102020909018533,0.0396382271528846,0.0334009164904021,0.0190997522008958,0.0122380727867657,0.0054236973616511,5.507817546211357,5.507817546211357,5.507817546211357,5.507817546211357,2.090021525473129,E-W,0.0002384185791015,8.993,N-S,0.0002384185791015,9.04
20000109130200.knt,MYG0130001091302.UD,2000-01-09, 13:02:00,37.276,141.7,46,5.0,MYG013,38.2663,140.9293,5,2000-01-09, 13:03:46,100Hz,119,U-D,0.0002384185791015,3.922,129.2830864922892,1139,1144.0,35.28838283600143,0.6807555285028196,0.6831360822434002,0.6952577962591077,0.7728381922989299,0.7022268906843879,0.0102358507015415,0.0102358507015415,0.0102358507015415,0.0102358507015415,0.0102358507015415,1.9362054161346085,1.9362054161346085,1.9362054161346085,1.6630098514518463,1.4816620180368376,E-W,0.0002384185791015,6.51,N-S,0.0002384185791015,7.835
