earthquake name,records name,earthquake date,earthquake time,lat,long,depth,mag,stn_code,stn_lat,stn_long,stn_height,rcd_date,rcd_time,frequency,rcd_duration,direction,scale_factor,max_pga,epi_dist,pick_index_manually,pick_index_kalkan,snr_db_kalkan,tc_5sec,tc_4sec,tc_3sec,tc_2sec,tc_1sec,Pd_5sec,Pd_4sec,Pd_3sec,Pd_2sec,Pd_1sec,Pga_5sec,Pga_4sec,Pga_3sec,Pga_2sec,Pga_1sec,Channel,Scale_factor,PGA_ew,Channel.1,Scale_factor.1,PGA_ns
20050102123000.knt,YMG0130501021230.UD,2005-01-02, 12:30:00,33.745,131.933,73,4.2,YMG013,34.031,131.5348,3,2005-01-02, 12:30:23,100Hz,60,U-D,0.0006340209495401,1.784,48.60420729992338,590,0,0,3.004967437545265,2.6421252768404457,2.0458169569455324,1.3352676069850713,0.509182967738765,0.0013953130987301,0.0013953130987301,0.0013032601061664,0.0011102812644695,0.0004824361035338,0.6106749791458007,0.6106749791458007,0.6106749791458007,0.6106749791458007,0.6106749791458007,E-W,0.0006340209495401,4.308,N-S,0.0006340209495401,5.603
20050102123000.knt,YMG0140501021230.UD,2005-01-02, 12:30:00,33.745,131.933,73,4.2,YMG014,34.0544,131.8077,15,2005-01-02, 12:30:22,100Hz,60,U-D,0.0006340209495401,0.751,36.29530581827392,615,0,0,1.8989160667475489,1.97694582736064,1.7299066249264106,1.3640962124805265,1.4241455397385407,0.0006585879547624,0.0006585879547624,0.0006298153586295,0.0005570772068494,0.0005570772068494,0.5700832559712423,0.5700832559712423,0.5700832559712423,0.5700832559712423,0.3656767865010664,E-W,0.0006340209495401,2.274,N-S,0.0006340209495401,1.832
20050102123000.knt,YMG0150501021230.UD,2005-01-02, 12:30:00,33.745,131.933,73,4.2,YMG015,34.0966,132.0758,64,2005-01-02, 12:30:22,100Hz,60,U-D,0.0006340209495401,3.045,41.25675737978418,647,0,0,2.956436167193525,2.733330934784875,2.3083659269333343,1.6704287534587603,0.909578977387013,0.0029954476439632,0.0029954476439632,0.0029954476439632,0.0026361580038505,0.0019255013577335,3.045973024851521,3.045973024851521,3.045973024851521,3.045973024851521,3.045973024851521,E-W,0.0006340209495401,3.726,N-S,0.0006340209495401,3.578
20050102123000.knt,YMG0160501021230.UD,2005-01-02, 12:30:00,33.745,131.933,73,4.2,YMG016,34.1699,132.1766,7,2005-01-02, 12:30:24,100Hz,60,U-D,0.0006340209495401,1.754,52.31666755105222,524,0,0,1.2020196976502295,1.007447796633428,0.743241107683302,0.4744847359944061,0.3049301892778015,0.0014118410470027,0.0011531513115357,0.0011122377394811,0.0007464217163948,0.0007464217163948,1.7529108963947335,1.7529108963947335,1.7529108963947335,1.7529108963947335,1.7529108963947335,E-W,0.0006340209495401,2.805,N-S,0.0006340209495401,2.469
20050102123000.knt,YMG0170501021230.UD,2005-01-02, 12:30:00,33.745,131.933,73,4.2,YMG017,33.9649,132.1011,2,2005-01-02, 12:30:21,100Hz,60,U-D,0.0006340209495401,1.105,28.96275830287245,665,0,0,18.035302944110427,17.26864194018795,14.6237069122328,10.71790377408218,6.6625222719876005,0.0177078620442695,0.0177078620442695,0.0177078620442695,0.0168903462720883,0.012692179055678,1.1075341102938037,1.1075341102938037,1.1075341102938037,1.1075341102938037,1.1075341102938037,E-W,0.0006340209495401,3.594,N-S,0.0006340209495401,3.593
20050102123000.knt,YMG0180501021230.UD,2005-01-02, 12:30:00,33.745,131.933,73,4.2,YMG018,33.9091,132.3561,2,2005-01-02, 12:30:14,100Hz,60,U-D,0.0006340209495401,4.919,43.13237904071432,1455,0,0,0.2769462582117534,0.2580685756815209,0.2355751501409001,0.2291191667056693,0.1988351351320036,0.0015894804849387,0.0015894804849387,0.0015894804849387,0.0015894804849387,0.0015894804849387,4.915268937064981,4.915268937064981,4.915268937064981,4.915268937064981,4.915268937064981,E-W,0.0006340209495401,3.558,N-S,0.0006340209495401,2.628
20050103040800.knt,KGS0010501030408.UD,2005-01-03, 04:08:00,31.958,130.13,10,3.8,KGS001,32.1947,130.1763,77,2005-01-03, 04:08:19,100Hz,119,U-D,0.0002384185791015,2.903,26.678911175557204,1307,0,0,0.5419435735753457,0.8188664646379048,0.7646319144178856,0.5635338217170994,0.5023503542189061,0.0030391127289843,0.0029047173148073,0.0029047173148073,0.0029047173148073,0.0029047173148073,2.9062984785294246,1.5997647810988709,1.5997647810988709,1.5997647810988709,1.5997647810988709,E-W,0.0002384185791015,6.332,N-S,0.0002384185791015,7.469
20050103040800.knt,KGS0020501030408.UD,2005-01-03, 04:08:00,31.958,130.13,10,3.8,KGS002,32.0909,130.3532,12,2005-01-03, 04:08:18,100Hz,119,U-D,0.0002384185791015,5.17,25.712684242930987,1388,0,0,1.205765964428768,1.2077618823754048,0.976339164619576,0.6898098075560497,0.4863751879569781,0.0044817207932874,0.0044817207932874,0.0039700956588015,0.0032868179465412,0.0032868179465412,5.167531554374384,5.167531554374384,5.167531554374384,5.167531554374384,5.167531554374384,E-W,0.0002384185791015,11.744,N-S,0.0002384185791015,11.335
20050103040800.knt,KGS0030501030408.UD,2005-01-03, 04:08:00,31.958,130.13,10,3.8,KGS003,32.0559,130.5874,176,2005-01-03, 04:08:27,100Hz,119,U-D,0.0002384185791015,3.11,44.4815193563032,837,0,0,0.5519587547340847,0.5143425503934158,0.4267192639366776,0.4151106608221377,0.4728331844934076,0.0021005123148865,0.0021005123148865,0.0021005123148865,0.0021005123148865,0.0021005123148865,2.3333831871800683,2.3333831871800683,2.3333831871800683,2.3333831871800683,2.3333831871800683,E-W,0.0002384185791015,9.153,N-S,0.0002384185791015,8.255
20050103040800.knt,KGS0040501030408.UD,2005-01-03, 04:08:00,31.958,130.13,10,3.8,KGS004,32.0145,130.1927,3,2005-01-03, 04:08:15,100Hz,119,U-D,0.0002384185791015,5.565,8.627769302307483,1420,0,0,2.3777874780091013,1.8822902200489608,1.2312904394980753,1.923930016686824,2.75056336688618,0.0368969290275634,0.0294046284561851,0.0250804145273384,0.0126028259289982,0.0126028259289982,5.499502495066039,5.499502495066039,5.499502495066039,4.593370791274689,4.593370791274689,E-W,0.0002384185791015,9.232,N-S,0.0002384185791015,12.759
20050103040800.knt,KGS0050501030408.UD,2005-01-03, 04:08:00,31.958,130.13,10,3.8,KGS005,31.9006,130.4513,42,2005-01-03, 04:08:22,100Hz,119,U-D,0.0002384185791015,3.633,30.98595750075743,1084,0,0,0.5469024363052541,0.8767940264684132,0.9221968964598796,1.06434971226692,1.3668135286311511,0.0052543980396832,0.0025550574374761,0.0024289157973453,0.0024289157973453,0.0024289157973453,3.6333617492943766,1.869610564000738,1.8038958584772729,1.2023670758224745,1.170941343159762,E-W,0.0002384185791015,14.415,N-S,0.0002384185791015,23.078
20050103040800.knt,KGS0060501030408.UD,2005-01-03, 04:08:00,31.958,130.13,10,3.8,KGS006,31.906,130.7021,188,2005-01-03, 04:08:29,100Hz,119,U-D,0.0002384185791015,3.663,54.296909862413095,787,0,0,8.719008655247476,9.214348063895711,9.743268069882877,9.35495545985622,8.173378958829318,0.0184756588650278,0.0184756588650278,0.0184756588650278,0.0184756588650278,0.0184756588650278,2.7868787306498044,2.7868787306498044,2.7868787306498044,2.7868787306498044,2.7868787306498044,E-W,0.0002384185791015,6.547,N-S,0.0002384185791015,7.056
20050103040800.knt,KGS0070501030408.UD,2005-01-03, 04:08:00,31.958,130.13,10,3.8,KGS007,31.8143,130.3032,4,2005-01-03, 04:08:17,100Hz,119,U-D,0.0002384185791015,5.589,22.86333336838754,1445,0,0,0.4706821001561119,0.4275758780773229,0.3880662041569221,0.3235719105649924,0.3223912992865662,0.0082233603434628,0.0082233603434628,0.0082233603434628,0.0082233603434628,0.0082233603434628,5.642764882893305,5.642764882893305,5.642764882893305,5.642764882893305,5.642764882893305,E-W,0.0002384185791015,7.399,N-S,0.0002384185791015,9.388
20050103040800.knt,KGS0080501030408.UD,2005-01-03, 04:08:00,31.958,130.13,10,3.8,KGS008,31.7621,130.5699,15,2005-01-03, 04:08:27,100Hz,119,U-D,0.0002384185791015,1.76,46.909461009929394,852,0,0,1.7009532467550224,1.8224746346555327,1.8963759577082484,2.073708205356142,2.4720221511535363,0.0028633071140198,0.0028633071140198,0.0028633071140198,0.0028633071140198,0.0028633071140198,1.2162674476370483,1.2162674476370483,1.2162674476370483,1.2162674476370483,0.7319950477066292,E-W,0.0002384185791015,3.245,N-S,0.0002384185791015,4.123
20050103040800.knt,KGS0090501030408.UD,2005-01-03, 04:08:00,31.958,130.13,10,3.8,KGS009,31.7368,130.7613,4,2005-01-03, 04:08:36,100Hz,119,U-D,0.0002384185791015,1.161,64.50308765932007,243,0,0,5.3898552342715575,5.649686970805491,6.656322806014512,8.292415023682368,8.97804392935674,0.0044391197934984,0.0044391197934984,0.0044391197934984,0.0044391197934984,0.0044391197934984,0.4006470201918186,0.4006470201918186,0.4006470201918186,0.4006470201918186,0.3203739661389253,E-W,0.0002384185791015,2.143,N-S,0.0002384185791015,2.507
20050103040800.knt,KGS0100501030408.UD,2005-01-03, 04:08:00,31.958,130.13,10,3.8,KGS010,31.7123,130.2735,16,2005-01-03, 04:08:18,100Hz,119,U-D,0.0002384185791015,7.265,30.49889834449396,1478,0,0,0.7500609526562233,0.8638734346441935,0.8434442143981876,0.8851427996183543,0.9178397463646082,0.0091465744152547,0.0091465744152547,0.0091465744152547,0.0091465744152547,0.0091465744152547,7.309318861659094,7.309318861659094,7.309318861659094,7.309318861659094,7.309318861659094,E-W,0.0002384185791015,13.59,N-S,0.0002384185791015,6.865
20050103040800.knt,KGS0110501030408.UD,2005-01-03, 04:08:00,31.958,130.13,10,3.8,KGS011,31.5896,130.349,18,2005-01-03, 04:08:27,100Hz,119,U-D,0.0002384185791015,3.033,45.898190128359005,816,0,0,6.586333762332908,6.679075976989395,6.145471838195302,5.098713711551831,3.4614419893378168,0.0132952915848347,0.0132952915848347,0.0132952915848347,0.0127711563923862,0.0093894642596463,2.0072336259993686,2.0072336259993686,2.0072336259993686,2.0072336259993686,2.0072336259993686,E-W,0.0002384185791015,5.202,N-S,0.0002384185791015,7.595
20050103040800.knt,KGS0160501030408.UD,2005-01-03, 04:08:00,31.958,130.13,10,3.8,KGS016,31.4162,130.3225,11,2005-01-03, 04:08:35,100Hz,119,U-D,0.0002384185791015,1.722,62.9385410510702,284,0,0,8.157612991529898,8.05316775632853,9.000580486045308,10.888357219014608,13.189385076421772,0.0240675892046396,0.0240675892046396,0.0240675892046396,0.0240675892046396,0.0240675892046396,1.732274116598017,1.732274116598017,1.732274116598017,1.732274116598017,1.1858078756308994,E-W,0.0002384185791015,3.516,N-S,0.0002384185791015,2.944
20050103040800.knt,KGS0180501030408.UD,2005-01-03, 04:08:00,31.958,130.13,10,3.8,KGS018,31.3757,130.5449,51,2005-01-03, 04:08:26,100Hz,119,U-D,0.0002384185791015,6.098,75.72447578256214,1417,0,0,0.284298563345452,0.2705209483379971,0.2516111436643082,0.2294579343891782,0.2464321445726749,0.0042716739940357,0.0042716739940357,0.0042716739940357,0.0042716739940357,0.0029556993645425,6.098340638229766,6.098340638229766,6.098340638229766,6.098340638229766,5.110384202049108,E-W,0.0002384185791015,4.816,N-S,0.0002384185791015,4.386
20050103040800.knt,KGS0190501030408.UD,2005-01-03, 04:08:00,31.958,130.13,10,3.8,KGS019,31.2776,130.3008,10,2005-01-03, 04:08:36,100Hz,119,U-D,0.0002384185791015,2.507,77.36630225589761,430,0,0,6.192283838647362,5.1829197732281695,4.17960175466093,2.697102258605253,1.1979687308594005,0.0107611117362871,0.0105961080946225,0.0098665873078855,0.0087040892369007,0.0039424170862684,2.5159913323078555,2.5159913323078555,2.5159913323078555,2.5159913323078555,2.5159913323078555,E-W,0.0002384185791015,6.072,N-S,0.0002384185791015,3.727
20050103040800.knt,KGS0200501030408.UD,2005-01-03, 04:08:00,31.958,130.13,10,3.8,KGS020,31.2396,130.4915,21,2005-01-03, 04:08:28,100Hz,120,U-D,0.0002384185791015,2.62,86.91007382805988,1417,0,0,0.3207871461557224,0.2940225912066755,0.250419328298106,0.2174342999200749,0.2360759024484551,0.0024732586301124,0.0024732586301124,0.0024732586301124,0.0024732586301124,0.0024732586301124,2.6357611033229724,2.6357611033229724,2.6357611033229724,2.6357611033229724,2.6357611033229724,E-W,0.0002384185791015,2.705,N-S,0.0002384185791015,2.371
20050103040800.knt,KGS0360501030408.UD,2005-01-03, 04:08:00,31.958,130.13,10,3.8,KGS036,31.836,129.8678,6,2005-01-03, 04:08:18,100Hz,119,U-D,0.0002384185791015,5.181,28.22645328202214,1459,0,0,0.9687654807222248,1.0346621992202778,0.7283052794566097,0.4139764244549435,0.3911530865207525,0.006862994689066,0.0048505758404354,0.0035425164653153,0.0022775224909999,0.0022775224909999,5.189659023288442,4.74577678510926,4.74577678510926,4.74577678510926,4.74577678510926,E-W,0.0002384185791015,4.188,N-S,0.0002384185791015,5.088
20050103040800.knt,KMM0160501030408.UD,2005-01-03, 04:08:00,31.958,130.13,10,3.8,KMM016,32.2175,130.7257,100,2005-01-03, 04:08:24,100Hz,119,U-D,0.0002384185791015,7.972,63.10338282006429,1411,0,0,5.8965336884120365,5.3748439247013255,3.880852488536962,2.052704464890277,0.4056165792895479,0.0256352473394262,0.0256352473394262,0.0251779693524575,0.0178174677300127,0.0052779760787286,7.968160745058553,7.968160745058553,7.968160745058553,7.968160745058553,7.968160745058553,E-W,0.0002384185791015,2.988,N-S,0.0002384185791015,3.251
20050103040800.knt,KMM0210501030408.UD,2005-01-03, 04:08:00,31.958,130.13,10,3.8,KMM021,32.3792,129.9977,2,2005-01-03, 04:08:28,100Hz,119,U-D,0.0002384185791015,1.344,48.46250336615469,749,0,0,1.8011520221819644,1.611678133575709,1.2045563175729708,0.724232733679585,0.601359743625628,0.0022410715729881,0.0022410715729881,0.0022010379836374,0.0014038889464136,0.0012211484161843,0.8363515680797414,0.7849718711182272,0.7849718711182272,0.7789850663023757,0.7789850663023757,E-W,0.0002384185791015,2.417,N-S,0.0002384185791015,2.25
20050103040800.knt,KMM0220501030408.UD,2005-01-03, 04:08:00,31.958,130.13,10,3.8,KMM022,32.1945,130.0265,4,2005-01-03, 04:08:24,100Hz,119,U-D,0.0002384185791015,3.523,28.04747374113053,838,0,0,2.066608297073693,2.4120180317359305,2.274592380319782,1.9848221918965536,1.2352481623924954,0.0066745586717248,0.0066745586717248,0.0066745586717248,0.0055008304286157,0.0047631098647602,2.7717140902544224,2.7717140902544224,2.7717140902544224,2.7717140902544224,2.7717140902544224,E-W,0.0002384185791015,3.137,N-S,0.0002384185791015,2.568
20050103040800.knt,MYZ0150501030408.UD,2005-01-03, 04:08:00,31.958,130.13,10,3.8,MYZ015,31.7185,131.0621,159,2005-01-03, 04:08:40,100Hz,60,U-D,0.0006340209495401,0.819,91.9893109166305,326,0,0,2.019172467206278,1.9078675147208604,2.089919204956277,2.559846537150866,3.317692039091008,0.002742889161439,0.002742889161439,0.002742889161439,0.002742889161439,0.002742889161439,0.8168079537485319,0.8168079537485319,0.8168079537485319,0.8168079537485319,0.7421294906035361,E-W,0.0006340209495401,1.488,N-S,0.0006340209495401,1.939
20050104050600.knt,HRS0040501040506.UD,2005-01-04, 05:06:00,35.033,131.578,19,4.0,HRS004,34.7262,132.2772,586,2005-01-04, 05:07:52,100Hz,60,U-D,0.0006340209495401,1.623,72.33069140200125,691,0,0,2.112709517922964,2.045579415811398,1.7300461346716671,1.2391920819755031,0.7603501583993407,0.0012708825799518,0.0012708825799518,0.0011537173673257,0.0011216644124353,0.000858417331446,1.3015247044636755,1.3015247044636755,1.3015247044636755,1.3015247044636755,1.3015247044636755,E-W,0.0006340209495401,3.879,N-S,0.0006340209495401,3.78
20050104050600.knt,HRS0050501040506.UD,2005-01-04, 05:06:00,35.033,131.578,19,4.0,HRS005,34.777,133.2807,480,2005-01-04, 05:07:16,100Hz,60,U-D,0.0006340209495401,0.868,157.8568271671913,1502,0,0,0.5137129469946193,0.4825993449261067,0.4818686269207505,0.529398209076681,0.5905678453471424,0.0014971985788458,0.0014971985788458,0.0014971985788458,0.0014971985788458,0.0014971985788458,0.8648709568176175,0.8648709568176175,0.8648709568176175,0.7543522215883912,0.7543522215883912,E-W,0.0006340209495401,1.515,N-S,0.0006340209495401,1.119
20050104050600.knt,HRS0090501040506.UD,2005-01-04, 05:06:00,35.033,131.578,19,4.0,HRS009,34.4926,132.2794,219,2005-01-04, 05:07:57,100Hz,60,U-D,0.0006340209495401,1.481,87.8402742995774,431,0,0,2.4816942184820943,2.040318877596105,1.6381136030824683,1.5629002764856323,1.9292626275526776,0.0020377211832374,0.0018838107088969,0.0018838107088969,0.0018838107088969,0.0018838107088969,1.1328298363345848,1.1328298363345848,1.1328298363345848,1.1328298363345848,1.1328298363345848,E-W,0.0006340209495401,2.459,N-S,0.0006340209495401,2.583
20050104050600.knt,SMN0080501040506.UD,2005-01-04, 05:06:00,35.033,131.578,19,4.0,SMN008,34.8523,132.5308,335,2005-01-04, 05:07:47,100Hz,63,U-D,0.0006340209495401,2.467,89.14073816926198,1461,0,0,0.1751957660558132,0.1707032151830747,0.170046366054665,0.1708384374657303,0.1868735746809662,0.0008033152768001,0.0008033152768001,0.0008033152768001,0.0008033152768001,0.0008033152768001,2.465712964516324,2.465712964516324,2.465712964516324,2.465712964516324,2.465712964516324,E-W,0.0006340209495401,3.817,N-S,0.0006340209495401,4.664
20050104050600.knt,SMN0090501040506.UD,2005-01-04, 05:06:00,35.033,131.578,19,4.0,SMN009,35.0112,132.2227,20,2005-01-04, 05:07:49,100Hz,60,U-D,0.0006340209495401,2.554,58.75691182910287,769,0,0,2.990378519856096,2.9450220865133474,2.760222932051094,2.4585099957470264,1.985673854311817,0.0037835010091037,0.0037835010091037,0.0037835010091037,0.0037835010091037,0.0036744257750756,2.519049333886556,2.519049333886556,2.519049333886556,2.519049333886556,2.519049333886556,E-W,0.0006340209495401,6.265,N-S,0.0006340209495401,4.891
20050104050600.knt,SMN0120501040506.UD,2005-01-04, 05:06:00,35.033,131.578,19,4.0,SMN012,34.3529,131.9352,300,2005-01-04, 05:07:55,100Hz,60,U-D,0.0006340209495401,1.019,82.37361349470129,558,0,0,0.3708529997313222,0.3992631067228602,0.4198681122735739,0.4326003001604074,0.3852776290824176,0.0003323321853536,0.0003323321853536,0.0003323321853536,0.0003323321853536,0.0003323321853536,0.4935120202325992,0.4935120202325992,0.4935120202325992,0.4935120202325992,0.4935120202325992,E-W,0.0006340209495401,2.482,N-S,0.0006340209495401,1.824
20050104050600.knt,SMN0130501040506.UD,2005-01-04, 05:06:00,35.033,131.578,19,4.0,SMN013,34.669,131.8458,27,2005-01-04, 05:07:45,100Hz,60,U-D,0.0006340209495401,1.323,47.27986613158644,1005,0,0,0.8563843355860964,0.895908133352119,0.9128111267133386,0.8166078521262267,0.6911544739759304,0.0008239935482838,0.0008239935482838,0.0008239935482838,0.0008239935482838,0.0008239935482838,0.9872977832531272,0.9872977832531272,0.9872977832531272,0.9872977832531272,0.9872977832531272,E-W,0.0006340209495401,3.064,N-S,0.0006340209495401,2.392
20050104050600.knt,SMN0140501040506.UD,2005-01-04, 05:06:00,35.033,131.578,19,4.0,SMN014,34.4668,131.7752,150,2005-01-04, 05:07:50,100Hz,60,U-D,0.0006340209495401,2.309,65.48572156601527,796,0,0,0.9859287529581974,0.9792145822356908,0.9468694965340352,0.8511954947313793,0.7105786931024278,0.0009723873615336,0.0009723873615336,0.0009723873615336,0.0009723873615336,0.0009723873615336,1.3524462671446649,1.3524462671446649,1.3524462671446649,1.3524462671446649,1.3524462671446649,E-W,0.0006340209495401,4.601,N-S,0.0006340209495401,4.814
20050104050600.knt,YMG0010501040506.UD,2005-01-04, 05:06:00,35.033,131.578,19,4.0,YMG001,34.6173,131.6019,6,2005-01-04, 05:07:44,100Hz,61,U-D,0.0006340209495401,4.424,46.275183151243226,1076,0,0,0.281548258549032,0.3511750168384197,0.4230730666744432,0.3996377086972325,0.2869335204760597,0.0005443646736618,0.0005443646736618,0.0005443646736618,0.0005443646736618,0.0005175282621536,2.484970254597455,1.3671450531947524,1.2483675383535544,1.2483675383535544,1.2483675383535544,E-W,0.0006340209495401,8.572,N-S,0.0006340209495401,8.202
20050104050600.knt,YMG0090501040506.UD,2005-01-04, 05:06:00,35.033,131.578,19,4.0,YMG009,34.2319,131.8169,375,2005-01-04, 05:07:58,100Hz,60,U-D,0.0006340209495401,0.629,91.72062264246446,400,0,0,1.6561610976237344,1.7831667785861385,1.966409388810056,2.2568302025270865,2.5690564197386743,0.0004646175484216,0.0004646175484216,0.0004646175484216,0.0004646175484216,0.0004646175484216,0.185830492065898,0.185830492065898,0.185830492065898,0.185830492065898,0.185830492065898,E-W,0.0006340209495401,2.403,N-S,0.0006340209495401,2.376
