earthquake name,records name,earthquake date,earthquake time,lat,long,depth,mag,stn_code,stn_lat,stn_long,stn_height,rcd_date,rcd_time,frequency,rcd_duration,direction,scale_factor,max_pga,epi_dist,pick_index_manually,pick_index_kalkan,snr_db_kalkan,tc_5sec,tc_4sec,tc_3sec,tc_2sec,tc_1sec,Pd_5sec,Pd_4sec,Pd_3sec,Pd_2sec,Pd_1sec,Pga_5sec,Pga_4sec,Pga_3sec,Pga_2sec,Pga_1sec,Channel,Scale_factor,PGA_ew,Channel.1,Scale_factor.1,PGA_ns
20021021010600.knt,FKS0120210210106.UD,2002-10-21, 01:06:00,36.368,141.124,50,5.2,FKS012,36.9069,140.7929,2,2002-10-21, 01:06:14,100Hz,119,U-D,0.0002384185791015,5.317,66.80951952074912,1433,1433.0,26.84872945275462,2.193431982071047,2.180517676441842,1.680547615972494,1.0293033233728437,0.8025166340315169,0.0206479017062568,0.0206479017062568,0.0203483564189572,0.0175198401947546,0.0175198401947546,5.280909836647594,5.280909836647594,5.280909836647594,5.280909836647594,5.280909836647594,E-W,0.0002384185791015,9.276,N-S,0.0002384185791015,10.436
20021021010600.knt,FKS0130210210106.UD,2002-10-21, 01:06:00,36.368,141.124,50,5.2,FKS013,37.09,140.5563,320,2002-10-21, 01:06:19,100Hz,119,U-D,0.0002384185791015,6.767,94.89414847185154,1297,1318.0,25.940296875966435,5.142941151069183,4.7242844799297234,3.57386794731997,2.211045104136188,1.0474024122490633,0.0238412797982819,0.0238412797982819,0.0230200075454483,0.0114602846096156,0.0063936282312636,4.214049860286186,3.526880347228317,2.7060827144267474,2.160739742342276,1.1602063485015337,E-W,0.0002384185791015,10.738,N-S,0.0002384185791015,11.92
20021021010600.knt,FKS0140210210106.UD,2002-10-21, 01:06:00,36.368,141.124,50,5.2,FKS014,36.8683,140.43,178,2002-10-21, 01:06:27,100Hz,119,U-D,0.0002384185791015,2.692,83.25296324485379,379,377.0,33.883456325145666,1.150654895380924,1.0474828858491865,1.0419179995447436,1.0296545892279874,0.7883194658716264,0.0119403424211463,0.0119403424211463,0.0119403424211463,0.0119403424211463,0.0118900652846915,2.518968191060002,2.518968191060002,2.202673353370612,2.202673353370612,2.202673353370612,E-W,0.0002384185791015,7.824,N-S,0.0002384185791015,6.621
20021021010600.knt,FKS0150210210106.UD,2002-10-21, 01:06:00,36.368,141.124,50,5.2,FKS015,37.0217,140.3775,315,2002-10-21, 01:06:31,100Hz,119,U-D,0.0002384185791015,2.386,98.55611731197487,186,180.0,28.289000038872445,3.115798570333164,3.235941326279196,3.372033341491357,3.3175422718308267,3.355385514836517,0.0212876451513497,0.0212876451513497,0.0212876451513497,0.0212876451513497,0.0212876451513497,1.892357725824372,1.892357725824372,1.892357725824372,1.494517173147672,1.411160541751502,E-W,0.0002384185791015,5.278,N-S,0.0002384185791015,4.97
20021021010600.knt,FKS0160210210106.UD,2002-10-21, 01:06:00,36.368,141.124,50,5.2,FKS016,37.1228,140.1914,375,2002-10-21, 01:06:23,100Hz,119,U-D,0.0002384185791015,8.58,118.1047960835608,1271,1296.0,22.160370310187226,0.7031700560032693,0.7115154228715641,0.7347909235832871,0.7750705800197193,0.7680725534720838,0.0134873717797644,0.0134873717797644,0.0134873717797644,0.0134873717797644,0.0134873717797644,3.9779845323200687,3.9779845323200687,3.9779845323200687,3.1115424778695977,2.0918860321975368,E-W,0.0002384185791015,21.113,N-S,0.0002384185791015,21.029
20021021010600.knt,FKS0170210210106.UD,2002-10-21, 01:06:00,36.368,141.124,50,5.2,FKS017,37.2842,140.3689,263,2002-10-21, 01:06:23,100Hz,119,U-D,0.0002384185791015,6.6,122.04779813687011,1289,1309.0,26.0889536073428,0.667941144235983,0.6548810206603806,0.7160583135836252,0.803974663107223,1.0079046678673182,0.0063548358031947,0.0063548358031947,0.0063548358031947,0.0063548358031947,0.0063548358031947,2.4825255687565804,2.4825255687565804,2.336100420745075,1.819348946049319,1.1766705411562872,E-W,0.0002384185791015,9.193,N-S,0.0002384185791015,8.996
20021021010600.knt,FKS0180210210106.UD,2002-10-21, 01:06:00,36.368,141.124,50,5.2,FKS018,37.3961,140.3622,245,2002-10-21, 01:06:23,100Hz,119,U-D,0.0002384185791015,5.94,132.88886055211916,1441,1440.0,42.79341808917052,0.6250353581214414,0.6150798090662852,0.6304706811797429,0.486964887050043,0.4018080822391849,0.0097834992632985,0.0097834992632985,0.0097834992632985,0.00725925096261,0.0064265134421705,5.36692883924949,5.36692883924949,5.36692883924949,5.36692883924949,4.612623982444214,E-W,0.0002384185791015,13.536,N-S,0.0002384185791015,11.499
20021021010600.knt,FKS0190210210106.UD,2002-10-21, 01:06:00,36.368,141.124,50,5.2,FKS019,37.603,140.4368,235,2002-10-21, 01:06:36,100Hz,119,U-D,0.0002384185791015,5.997,150.2783282016801,332,388.0,25.90084831700477,7.052074733063802,6.808376553715836,7.247138985010506,9.41681874135082,19.8602241482658,0.0247686961810837,0.0247686961810837,0.0247686961810837,0.0247686961810837,0.0247686961810837,2.247108792672555,2.247108792672555,2.247108792672555,1.2458113049228716,0.3745562987538114,E-W,0.0002384185791015,12.077,N-S,0.0002384185791015,15.351
20021021010600.knt,FKS0230210210106.UD,2002-10-21, 01:06:00,36.368,141.124,50,5.2,FKS023,37.4774,139.9294,219,2002-10-21, 01:06:37,100Hz,119,U-D,0.0002384185791015,2.554,162.7682961035044,510,515.0,23.31395303403505,7.703077585822471,7.0625126285308895,5.527860627615681,2.9128475771828928,2.599548981435335,0.0191597368022515,0.0191597368022515,0.0182814944137029,0.0096307481618878,0.0067552815606181,0.7704075011481945,0.7704075011481945,0.7704075011481945,0.4326312254131049,0.3127496737455778,E-W,0.0002384185791015,13.005,N-S,0.0002384185791015,8.906
20021021010600.knt,FKS0240210210106.UD,2002-10-21, 01:06:00,36.368,141.124,50,5.2,FKS024,37.3957,140.1325,527,2002-10-21, 01:06:26,100Hz,119,U-D,0.0002384185791015,6.072,144.34307805367837,1267,1326.0,40.251322752834014,0.6281641496694695,0.6636937038323786,0.844034423764312,0.8573203511537432,1.397241445813884,0.0075155226695893,0.0074746155493683,0.0057601290882518,0.005200759113128,0.005200759113128,2.959002852520661,2.959002852520661,2.959002852520661,1.344643381385173,0.5885196040122703,E-W,0.0002384185791015,12.966,N-S,0.0002384185791015,9.935
20021021010600.knt,FKS0310210210106.UD,2002-10-21, 01:06:00,36.368,141.124,50,5.2,FKS031,37.3364,140.8132,399,2002-10-21, 01:06:21,100Hz,119,U-D,0.0002384185791015,3.249,111.17519012953376,1266,1264.0,37.44827633524813,0.5355204220425354,0.5545129459224647,0.5763698818430363,0.6113670934884569,0.8153137069571204,0.0040527175844643,0.0040527175844643,0.0040527175844643,0.0040527175844643,0.0040527175844643,3.243143001199236,3.243143001199236,3.243143001199236,3.243143001199236,1.711813270096538,E-W,0.0002384185791015,5.203,N-S,0.0002384185791015,5.506
20021021010600.knt,GNM0030210210106.UD,2002-10-21, 01:06:00,36.368,141.124,50,5.2,GNM003,36.6578,139.0784,462,2002-10-21, 01:06:34,100Hz,119,U-D,0.0002384185791015,2.085,185.62951413522697,1053,1075.0,26.92291650159318,0.6458462446213861,0.6589260080932381,0.6459789448921689,0.84610041976312,0.842686539134972,0.0047526284843656,0.0047526284843656,0.0047526284843656,0.0044661829116411,0.0036316789449197,2.06995055381664,2.06995055381664,2.06995055381664,1.7535018068285766,0.6459624647830629,E-W,0.0002384185791015,3.928,N-S,0.0002384185791015,3.372
20021021010600.knt,IBR0010210210106.UD,2002-10-21, 01:06:00,36.368,141.124,50,5.2,IBR001,36.7761,140.3569,105,2002-10-21, 01:06:16,100Hz,119,U-D,0.0002384185791015,13.245,82.16955937993359,1481,1476.0,41.29202115402546,1.888318042618793,1.5365955607728643,1.0426274788540515,0.594296503107752,0.4571796069835654,0.0348265329732042,0.0348265329732042,0.0285624666895779,0.0202393635044282,0.0202393635044282,13.211117861724048,13.211117861724048,13.211117861724048,13.211117861724048,8.684166038991142,E-W,0.0002384185791015,22.165,N-S,0.0002384185791015,20.166
20021021010600.knt,IBR0020210210106.UD,2002-10-21, 01:06:00,36.368,141.124,50,5.2,IBR002,36.7061,140.7068,9,2002-10-21, 01:06:13,100Hz,119,U-D,0.0002384185791015,11.279,52.94038648360805,1401,1399.0,43.6652948738932,0.7106207915936675,0.7409640939133518,0.7332015050562511,0.7014916300515314,0.7034529265761663,0.031532478175794,0.031532478175794,0.031532478175794,0.031532478175794,0.031532478175794,4.908514804399958,4.908514804399958,4.908514804399958,4.908514804399958,4.908514804399958,E-W,0.0002384185791015,27.862,N-S,0.0002384185791015,33.844
20021021010600.knt,IBR0030210210106.UD,2002-10-21, 01:06:00,36.368,141.124,50,5.2,IBR003,36.5915,140.6453,58,2002-10-21, 01:06:12,100Hz,119,U-D,0.0002384185791015,26.818,49.491706946706216,1454,1452.0,47.0434131903401,0.6240215419173243,0.6624428312177764,0.6855428416281963,0.7340399945549438,0.8811089258476679,0.0221122163936273,0.0221122163936273,0.0221122163936273,0.0221122163936273,0.0221122163936273,11.16963275313776,11.153992457716466,11.153992457716466,11.153992457716466,9.96079072766926,E-W,0.0002384185791015,51.968,N-S,0.0002384185791015,49.996
20021021010600.knt,IBR0040210210106.UD,2002-10-21, 01:06:00,36.368,141.124,50,5.2,IBR004,36.5273,140.4094,51,2002-10-21, 01:06:16,100Hz,119,U-D,0.0002384185791015,13.161,66.32638273458039,1290,1311.0,24.60501098715991,0.9628131982735048,1.0150238925342745,1.0639115749418226,1.1093027079086888,1.0297023247718144,0.0194216610463518,0.0194216610463518,0.0194216610463518,0.0194216610463518,0.0194216610463518,6.891280354056821,6.891280354056821,6.891280354056821,6.891280354056821,4.981457573388189,E-W,0.0002384185791015,32.022,N-S,0.0002384185791015,31.703
20021021010600.knt,IBR0050210210106.UD,2002-10-21, 01:06:00,36.368,141.124,50,5.2,IBR005,36.3851,140.2372,63,2002-10-21, 01:06:16,100Hz,119,U-D,0.0002384185791015,13.213,79.41512399441876,1426,1425.0,39.68422513475916,0.4113312089367335,0.4305061701774547,0.4179834331534489,0.4645068472964328,0.5522123771883475,0.0150463731369577,0.0150463731369577,0.0150463731369577,0.0150463731369577,0.0150463731369577,8.572439490786405,8.572439490786405,8.572439490786405,8.572439490786405,8.572439490786405,E-W,0.0002384185791015,21.321,N-S,0.0002384185791015,32.813
20021021010600.knt,IBR0060210210106.UD,2002-10-21, 01:06:00,36.368,141.124,50,5.2,IBR006,36.369,140.4528,20,2002-10-21, 01:06:14,100Hz,119,U-D,0.0002384185791015,17.886,60.09679389524627,1445,1443.0,45.40460638018836,0.7673443708824782,0.7990684860391406,0.8158814269104583,0.8288307249905495,0.7244516928034345,0.0368415674446852,0.0368415674446852,0.0368415674446852,0.0368415674446852,0.0368415674446852,17.926464174745902,17.926464174745902,17.926464174745902,17.926464174745902,11.850614709040538,E-W,0.0002384185791015,20.975,N-S,0.0002384185791015,20.171
20021021010600.knt,IBR0070210210106.UD,2002-10-21, 01:06:00,36.368,141.124,50,5.2,IBR007,36.3523,140.5955,24,2002-10-21, 01:06:12,100Hz,119,U-D,0.0002384185791015,11.823,47.3571789035632,1465,1465.0,38.627683529632975,0.9108046963461476,0.9735860598971648,1.0260498960219064,0.9926490732954334,1.059596149910656,0.0346175813414851,0.0346175813414851,0.0346175813414851,0.0346175813414851,0.0346175813414851,6.722146326660179,6.47020486198891,6.47020486198891,6.47020486198891,4.446551378490527,E-W,0.0002384185791015,20.991,N-S,0.0002384185791015,22.001
20021021010600.knt,IBR0080210210106.UD,2002-10-21, 01:06:00,36.368,141.124,50,5.2,IBR008,36.3062,139.9828,20,2002-10-21, 01:06:32,100Hz,119,U-D,0.0002384185791015,4.841,102.45024598484748,135,158.0,14.25479506307197,7.871572213860839,8.655663419096573,8.734396983517385,8.42439056676601,6.082632475731982,0.0507827756399412,0.0507827756399412,0.0507827756399412,0.0507827756399412,0.0349804079932817,2.704511132323941,2.704511132323941,2.704511132323941,2.704511132323941,1.697189396494352,E-W,0.0002384185791015,9.188,N-S,0.0002384185791015,8.05
20021021010600.knt,IBR0100210210106.UD,2002-10-21, 01:06:00,36.368,141.124,50,5.2,IBR010,36.1843,139.9653,23,2002-10-21, 01:06:21,100Hz,119,U-D,0.0002384185791015,5.147,105.85753137058968,1264,1262.0,39.30214024006594,0.794124968508782,0.9189095695649434,1.0050760096221985,0.882384578784259,0.743597080633401,0.0085085197815155,0.0085085197815155,0.0085085197815155,0.0085085197815155,0.0085085197815155,2.9110117686077595,2.0671124260424483,2.0671124260424483,2.0671124260424483,1.6413759694110617,E-W,0.0002384185791015,11.321,N-S,0.0002384185791015,9.699
20021021010600.knt,IBR0110210210106.UD,2002-10-21, 01:06:00,36.368,141.124,50,5.2,IBR011,36.1251,140.0903,26,2002-10-21, 01:06:18,100Hz,119,U-D,0.0002384185791015,7.219,96.55265859129454,1437,457.0,22.243254409940832,0.8193091231884488,0.7673953716598759,0.7277121016005996,0.6166437339483378,0.576969161719164,0.0092454454310993,0.0092454454310993,0.0092454454310993,0.0092454454310993,0.0092454454310993,7.247038350251765,7.247038350251765,7.247038350251765,7.247038350251765,4.1178325376442215,E-W,0.0002384185791015,12.674,N-S,0.0002384185791015,10.661
20021021010600.knt,IBR0120210210106.UD,2002-10-21, 01:06:00,36.368,141.124,50,5.2,IBR012,36.1901,140.2869,24,2002-10-21, 01:06:16,100Hz,119,U-D,0.0002384185791015,7.013,77.6003315665361,1396,1389.0,27.65508112155939,0.7301787698516342,0.7688288763295169,0.7737208311112127,0.7615320236621491,0.9098859466078572,0.0088121087472534,0.0088121087472534,0.0088121087472534,0.0088121087472534,0.0088121087472534,4.052929403069461,4.052929403069461,4.052929403069461,4.052929403069461,2.720573602780353,E-W,0.0002384185791015,12.164,N-S,0.0002384185791015,11.312
20021021010600.knt,IBR0130210210106.UD,2002-10-21, 01:06:00,36.368,141.124,50,5.2,IBR013,36.1587,140.4892,28,2002-10-21, 01:06:14,100Hz,119,U-D,0.0002384185791015,30.121,61.488745569618665,1456,1452.0,51.30851125225608,0.4734336003799773,0.4653143966685417,0.4530587299568693,0.4221575967823071,0.4609062361587029,0.0376837561218443,0.0376837561218443,0.0376837561218443,0.0376837561218443,0.0376837561218443,30.218973280589847,30.218973280589847,30.218973280589847,30.218973280589847,17.68378874110101,E-W,0.0002384185791015,38.603,N-S,0.0002384185791015,45.692
20021021010600.knt,IBR0140210210106.UD,2002-10-21, 01:06:00,36.368,141.124,50,5.2,IBR014,36.0729,140.1947,11,2002-10-21, 01:06:17,100Hz,119,U-D,0.0002384185791015,9.09,89.58923283235092,1449,1447.0,40.63112804603709,0.7230124771290124,0.6806842263905469,0.7012250052024069,0.6910685612243869,0.7228011655571069,0.0098603792939315,0.0098603792939315,0.0098603792939315,0.0098603792939315,0.0098603792939315,5.385963255717284,5.385963255717284,5.385963255717284,5.385963255717284,3.904813348480445,E-W,0.0002384185791015,13.318,N-S,0.0002384185791015,13.524
20021021010600.knt,IBR0160210210106.UD,2002-10-21, 01:06:00,36.368,141.124,50,5.2,IBR016,35.9112,140.0494,20,2002-10-21, 01:06:28,100Hz,119,U-D,0.0002384185791015,6.994,109.04894081229908,608,603.0,30.83308996879661,3.3830511474134,3.25503566217646,3.037777458025328,2.0112419288050982,1.573649630878611,0.0221981261908269,0.0221981261908269,0.0221981261908269,0.0170244067417965,0.0103897666690844,5.666808073627743,5.666808073627743,4.281558462845556,4.281558462845556,2.597671600049515,E-W,0.0002384185791015,12.134,N-S,0.0002384185791015,10.877
20021021010600.knt,IBR0170210210106.UD,2002-10-21, 01:06:00,36.368,141.124,50,5.2,IBR017,35.9537,140.3194,17,2002-10-21, 01:06:21,100Hz,119,U-D,0.0002384185791015,8.5,85.6723327950785,993,1027.0,28.82898480596014,9.250603557488176,11.521828331110008,12.799780040447423,16.84547686468126,21.044905133304745,0.0487665698554134,0.0487665698554134,0.0487665698554134,0.0487665698554134,0.0487665698554134,4.100950721180784,2.6680921718352497,2.426800841501512,2.282280789588837,0.7532093803084172,E-W,0.0002384185791015,11.557,N-S,0.0002384185791015,13.101
20021021010600.knt,IBR0180210210106.UD,2002-10-21, 01:06:00,36.368,141.124,50,5.2,IBR018,35.977,140.6322,39,2002-10-21, 01:06:15,100Hz,119,U-D,0.0002384185791015,13.295,61.95962638462754,1374,1372.0,28.251284818314325,0.6918523675480716,0.7533684128423621,0.8106648678269283,0.7759035174137217,0.7213143448071277,0.012531152690663,0.012531152690663,0.012531152690663,0.012531152690663,0.012531152690663,6.247139838152676,6.10992109733527,6.10992109733527,6.10992109733527,2.610006043191195,E-W,0.0002384185791015,36.713,N-S,0.0002384185791015,38.244
20021021010600.knt,TCG0010210210106.UD,2002-10-21, 01:06:00,36.368,141.124,50,5.2,TCG001,36.9417,140.0828,255,2002-10-21, 01:06:22,100Hz,119,U-D,0.0002384185791015,4.451,112.6769282445578,1294,1291.0,37.17122755210728,0.8719573297511608,0.8799939026252928,0.9145874381438744,0.8999543050484327,1.0273798955497986,0.0121986843344231,0.0121986843344231,0.0121986843344231,0.0121986843344231,0.0121986843344231,2.50445193020369,2.50445193020369,2.50445193020369,2.50445193020369,1.608608499279985,E-W,0.0002384185791015,6.831,N-S,0.0002384185791015,5.784
20021021010600.knt,TCG0030210210106.UD,2002-10-21, 01:06:00,36.368,141.124,50,5.2,TCG003,36.8144,139.7153,398,2002-10-21, 01:06:25,100Hz,119,U-D,0.0002384185791015,0.958,135.20704135822123,1246,1267.0,22.99965884221416,3.2563812801931333,3.366799224962412,4.2816928619108605,5.146508670126821,5.402436569837589,0.0054319352694328,0.0054319352694328,0.0054319352694328,0.0054319352694328,0.0054319352694328,0.9586771062648048,0.9586771062648048,0.9586771062648048,0.9504847897907752,0.7695560343925365,E-W,0.0002384185791015,10.882,N-S,0.0002384185791015,8.68
20021021010600.knt,TCG0060210210106.UD,2002-10-21, 01:06:00,36.368,141.124,50,5.2,TCG006,36.7639,140.1297,122,2002-10-21, 01:06:19,100Hz,119,U-D,0.0002384185791015,5.889,99.111807128968,1412,1411.0,40.93415565592189,0.7019017774201063,0.6766134728509586,0.7017556457259174,0.7347294338311194,0.6895487902460579,0.0199368716981788,0.0199368716981788,0.0199368716981788,0.0199368716981788,0.0199368716981788,5.782578366097362,5.782578366097362,5.782578366097362,5.782578366097362,3.9645965924905697,E-W,0.0002384185791015,7.194,N-S,0.0002384185791015,9.757
20021021010600.knt,TCG0090210210106.UD,2002-10-21, 01:06:00,36.368,141.124,50,5.2,TCG009,36.7258,139.7155,361,2002-10-21, 01:06:29,100Hz,119,U-D,0.0002384185791015,9.31,131.96096454824874,791,831.0,26.211090862104,4.382339227264198,4.723225289424423,5.368724092283944,6.426248383355578,7.34806367937353,0.0238604815490066,0.0238604815490066,0.0238604815490066,0.0238604815490066,0.0237373694883854,3.8409658435485663,3.8409658435485663,3.8409658435485663,2.620130746173101,1.626136766606867,E-W,0.0002384185791015,18.671,N-S,0.0002384185791015,17.963
20021021010600.knt,TCG0120210210106.UD,2002-10-21, 01:06:00,36.368,141.124,50,5.2,TCG012,36.2859,139.8047,33,2002-10-21, 01:06:22,100Hz,119,U-D,0.0002384185791015,4.379,118.5394963846009,1353,1349.0,30.111552371200386,0.7850259572523953,0.7765592060000349,0.7788571380213601,0.8710404937256824,0.8974595411060243,0.0095576271745908,0.0095576271745908,0.0095576271745908,0.0095576271745908,0.0095576271745908,3.06159396241056,3.06159396241056,3.06159396241056,2.909450121957063,1.594888639195329,E-W,0.0002384185791015,8.834,N-S,0.0002384185791015,10.748
20021021010600.knt,TCG0130210210106.UD,2002-10-21, 01:06:00,36.368,141.124,50,5.2,TCG013,36.4368,140.0225,67,2002-10-21, 01:06:19,100Hz,119,U-D,0.0002384185791015,7.272,98.87716863933896,1397,1396.0,42.393888988980095,0.7901766465995367,0.764603613649402,0.8093031689046394,0.8546325693266593,0.8979044524078627,0.0157073428498116,0.0157073428498116,0.0157073428498116,0.0157073428498116,0.0157073428498116,6.957969291178811,6.957969291178811,6.957969291178811,6.657734869077504,4.894833999349074,E-W,0.0002384185791015,14.343,N-S,0.0002384185791015,11.813
20021021010600.knt,TCG0140210210106.UD,2002-10-21, 01:06:00,36.368,141.124,50,5.2,TCG014,36.545,140.1742,130,2002-10-21, 01:06:17,100Hz,119,U-D,0.0002384185791015,16.117,87.19519399771823,1450,1449.0,50.21284384122832,0.4997653011374521,0.4901699378752593,0.4765835546044746,0.4553416357289988,0.5758176269903348,0.0247547727733385,0.0247547727733385,0.0247547727733385,0.0247547727733385,0.0247547727733385,16.046046502823238,16.046046502823238,16.046046502823238,16.046046502823238,9.49871790535128,E-W,0.0002384185791015,44.775,N-S,0.0002384185791015,57.338
