earthquake name,records name,earthquake date,earthquake time,lat,long,depth,mag,stn_code,stn_lat,stn_long,stn_height,rcd_date,rcd_time,frequency,rcd_duration,direction,scale_factor,max_pga,epi_dist,pick_index_manually,pick_index_kalkan,snr_db_kalkan,tc_5sec,tc_4sec,tc_3sec,tc_2sec,tc_1sec,Pd_5sec,Pd_4sec,Pd_3sec,Pd_2sec,Pd_1sec,Pga_5sec,Pga_4sec,Pga_3sec,Pga_2sec,Pga_1sec,Channel,Scale_factor,PGA_ew,Channel.1,Scale_factor.1,PGA_ns
20021023062200.knt,HRS0010210230622.UD,2002-10-23, 06:22:00,35.151,132.674,11,4.4,HRS001,35.0337,132.9018,566,2002-10-23, 06:22:35,100Hz,119,U-D,0.0002384185791015,19.689,24.48845033920774,1443,1443.0,44.40948464900999,0.2282443614348754,0.1598041483494323,0.1786401450052391,0.1684405367866031,0.1376140106164155,0.0055996798140857,0.0052711372136795,0.0039325756333627,0.0039325756333627,0.0039325756333627,19.683976682886986,19.683976682886986,12.932908264641991,12.932908264641991,12.932908264641991,E-W,0.0002384185791015,22.721,N-S,0.0002384185791015,39.375
20021023062200.knt,HRS0030210230622.UD,2002-10-23, 06:22:00,35.151,132.674,11,4.4,HRS003,34.8143,132.8418,156,2002-10-23, 06:22:43,100Hz,119,U-D,0.0002384185791015,2.729,40.44015719579875,910,913.0,28.314476880731387,3.0054357398193368,3.5092343837293325,3.4834988951079,3.262559652540819,2.699224457775808,0.003766281901334,0.003766281901334,0.003766281901334,0.003766281901334,0.003766281901334,2.405934929862073,1.8663545529418069,1.8663545529418069,1.8663545529418069,1.8663545529418069,E-W,0.0002384185791015,9.382,N-S,0.0002384185791015,6.487
20021023062200.knt,HRS0040210230622.UD,2002-10-23, 06:22:00,35.151,132.674,11,4.4,HRS004,34.7262,132.2772,586,2002-10-23, 06:22:48,100Hz,119,U-D,0.0002384185791015,1.663,59.49322368519789,699,700.0,23.42699637465461,1.7196406947413343,1.28942160754824,0.8864141008812016,0.3806651002181921,0.2286364353397822,0.001868119767573,0.0014729340919625,0.0013800434363511,0.0009097351349754,0.0009097351349754,1.6605800899325445,1.6605800899325445,1.6605800899325445,1.6605800899325445,1.6605800899325445,E-W,0.0002384185791015,4.649,N-S,0.0002384185791015,5.255
20021023062200.knt,HRS0050210230622.UD,2002-10-23, 06:22:00,35.151,132.674,11,4.4,HRS005,34.777,133.2807,480,2002-10-23, 06:22:42,100Hz,119,U-D,0.0002384185791015,4.596,69.1806741902629,1461,1470.0,27.111334954272888,1.3623413210432247,1.3189521577957242,1.0432687033323895,0.5415434133211343,0.1767056222109145,0.003903860939476,0.003903860939476,0.003903860939476,0.0031044477089381,0.0013296277972493,4.584443583848749,4.584443583848749,4.584443583848749,4.584443583848749,4.584443583848749,E-W,0.0002384185791015,7.255,N-S,0.0002384185791015,8.074
20021023062200.knt,HRS0080210230622.UD,2002-10-23, 06:22:00,35.151,132.674,11,4.4,HRS008,34.6107,132.7193,202,2002-10-23, 06:22:48,100Hz,119,U-D,0.0002384185791015,1.147,60.22055298597869,708,707.0,24.20593599447161,3.771882946766784,3.536591278270422,3.0780043257483523,2.63062977614529,2.0858344649838214,0.0026932553199401,0.0026932553199401,0.0026932553199401,0.0026932553199401,0.0026826795506124,0.8961927211499301,0.8961927211499301,0.8961927211499301,0.8961927211499301,0.8961927211499301,E-W,0.0002384185791015,2.468,N-S,0.0002384185791015,2.515
20021023062200.knt,HRS0090210230622.UD,2002-10-23, 06:22:00,35.151,132.674,11,4.4,HRS009,34.4926,132.2794,219,2002-10-23, 06:22:54,100Hz,119,U-D,0.0002384185791015,2.076,81.5919676608231,446,459.0,20.197889025676645,7.097332803282389,5.762949350303733,4.453360569460322,3.961202843170486,5.454857378814257,0.006637564416743,0.006637564416743,0.006637564416743,0.006637564416743,0.006637564416743,0.7433906706039196,0.7433906706039196,0.7433906706039196,0.7433906706039196,0.7261301592710532,E-W,0.0002384185791015,5.76,N-S,0.0002384185791015,7.584
20021023062200.knt,HRS0100210230622.UD,2002-10-23, 06:22:00,35.151,132.674,11,4.4,HRS010,34.5887,133.0501,346,2002-10-23, 06:22:52,100Hz,119,U-D,0.0002384185791015,2.137,71.32061769163039,516,528.0,22.373429677251657,1.7724999195408166,1.82582075120028,1.8062174678667025,1.256538054871335,0.5562212863040011,0.0017058672254408,0.0017058672254408,0.0017058672254408,0.0016425910230096,0.0008446383716965,1.067653865059242,1.067653865059242,1.067653865059242,1.067653865059242,1.067653865059242,E-W,0.0002384185791015,12.16,N-S,0.0002384185791015,6.974
20021023062200.knt,HRS0210210230622.UD,2002-10-23, 06:22:00,35.151,132.674,11,4.4,HRS021,34.9529,133.1171,325,2002-10-23, 06:22:39,100Hz,120,U-D,0.0002384185791015,8.446,45.9573144376373,1389,1405.0,22.768108579227203,0.4787314795625213,0.341585547656372,0.3192087912048513,0.3546678924400829,0.3988320738196714,0.002073712247539,0.0018034723811478,0.0018034723811478,0.0018034723811478,0.0018034723811478,3.869928787326508,3.869928787326508,3.869928787326508,3.869928787326508,3.869928787326508,E-W,0.0002384185791015,16.063,N-S,0.0002384185791015,24.255
20021023062200.knt,OKY0010210230622.UD,2002-10-23, 06:22:00,35.151,132.674,11,4.4,OKY001,35.1945,133.7314,334,2002-10-23, 06:22:58,100Hz,119,U-D,0.0002384185791015,1.383,96.23127196388016,290,294.0,7.968542164891696,1.6901716484449552,1.7185081666930715,1.397697853354191,1.0182957769929215,0.828740481689283,0.0011387118766017,0.0011387118766017,0.0011306006836816,0.0010508308191134,0.0010508308191134,1.3799432755468164,1.3799432755468164,1.3799432755468164,1.3799432755468164,1.3799432755468164,E-W,0.0002384185791015,3.109,N-S,0.0002384185791015,2.058
20021023062200.knt,OKY0130210230622.UD,2002-10-23, 06:22:00,35.151,132.674,11,4.4,OKY013,34.5095,133.5099,6,2002-10-23, 06:22:01,100Hz,119,U-D,0.0002384185791015,1.245,104.44659094911094,144,148.0,18.221160770175203,2.987687247138642,2.97941754602118,3.1946919539329888,3.486009490602571,3.208816912516052,0.0011482958297875,0.0011482958297875,0.0011482958297875,0.0011482958297875,0.0011482958297875,0.2940560384987172,0.2940560384987172,0.2940560384987172,0.2940560384987172,0.2940560384987172,E-W,0.0002384185791015,2.342,N-S,0.0002384185791015,3.778
20021023062200.knt,SMN0040210230622.UD,2002-10-23, 06:22:00,35.151,132.674,11,4.4,SMN004,35.2881,132.9004,45,2002-10-23, 06:22:35,100Hz,119,U-D,0.0002384185791015,12.246,25.6003155486228,1438,1442.0,26.72263839012696,0.5632756339651801,0.29668897063276,0.8543811404903101,0.5008882355615246,0.2737970915533885,0.0110727033264981,0.005354052647562,0.0024616019820078,0.0017603150254156,0.001271806234754,12.263690497822813,12.263690497822813,4.775098817799813,4.775098817799813,4.775098817799813,E-W,0.0002384185791015,17.568,N-S,0.0002384185791015,27.801
20021023062200.knt,SMN0050210230622.UD,2002-10-23, 06:22:00,35.151,132.674,11,4.4,SMN005,35.3611,132.7449,9,2002-10-23, 06:22:35,100Hz,119,U-D,0.0002384185791015,20.487,24.23281547983981,1452,1455.0,20.89618883964386,0.2702370567282331,0.2486996730313775,0.2112013530185676,0.2074545049210016,0.1847302350250821,0.0069972807873671,0.0069972807873671,0.0069972807873671,0.0069972807873671,0.0069972807873671,20.45972620819957,20.45972620819957,20.45972620819957,20.45972620819957,20.45972620819957,E-W,0.0002384185791015,4.011,N-S,0.0002384185791015,8.151
20021023062200.knt,SMN0060210230622.UD,2002-10-23, 06:22:00,35.151,132.674,11,4.4,SMN006,35.1942,132.4978,36,2002-10-23, 06:22:34,100Hz,119,U-D,0.0002384185791015,6.834,16.72022883172674,1412,1412.0,32.97338429464233,0.5515644498008886,0.434159306308994,0.3782161755114012,0.2821805697487383,0.2643118925409053,0.0066280883102708,0.0066280883102708,0.0066280883102708,0.0060260637961083,0.0060260637961083,6.841806173347256,6.841806173347256,6.841806173347256,6.841806173347256,6.841806173347256,E-W,0.0002384185791015,12.143,N-S,0.0002384185791015,10.407
20021023062200.knt,SMN0070210230622.UD,2002-10-23, 06:22:00,35.151,132.674,11,4.4,SMN007,35.0807,132.5914,67,2002-10-23, 06:22:33,100Hz,119,U-D,0.0002384185791015,38.981,10.84207902768186,1438,1438.0,47.88889885604042,0.8380808970104215,0.8278995843073961,0.7307003453326696,0.5826499032595732,0.3278544006544236,0.0179504771119099,0.0179504771119099,0.0179504771119099,0.0125833882957403,0.008394077834067,39.045638232905546,39.045638232905546,39.045638232905546,39.045638232905546,39.045638232905546,E-W,0.0002384185791015,56.302,N-S,0.0002384185791015,79.052
20021023062200.knt,SMN0080210230622.UD,2002-10-23, 06:22:00,35.151,132.674,11,4.4,SMN008,34.8523,132.5308,335,2002-10-23, 06:22:37,100Hz,120,U-D,0.0002384185791015,3.595,35.68316910309824,1427,1427.0,30.54587554223415,1.1370903993324948,1.1328035107632315,0.9164812875494552,0.5452617980795814,0.4954675241247083,0.003306589446376,0.003306589446376,0.003306589446376,0.0029104018867009,0.0029104018867009,3.5871487758821234,3.5871487758821234,3.5871487758821234,3.5871487758821234,3.5871487758821234,E-W,0.0002384185791015,2.835,N-S,0.0002384185791015,5.106
20021023062200.knt,SMN0090210230622.UD,2002-10-23, 06:22:00,35.151,132.674,11,4.4,SMN009,35.0112,132.2227,20,2002-10-23, 06:22:44,100Hz,119,U-D,0.0002384185791015,5.672,43.90979833122435,840,840.0,22.67257739401889,7.1276815259165405,7.281424458087478,7.211314132307997,6.425203969141971,5.489617251495775,0.0077703554855981,0.0077703554855981,0.0077703554855981,0.0077703554855981,0.0077703554855981,1.8140458826681376,1.8140458826681376,1.8140458826681376,1.8140458826681376,1.8140458826681376,E-W,0.0002384185791015,7.819,N-S,0.0002384185791015,8.586
20021023062200.knt,SMN0150210230622.UD,2002-10-23, 06:22:00,35.151,132.674,11,4.4,SMN015,35.3644,133.1704,32,2002-10-23, 06:22:46,100Hz,119,U-D,0.0002384185791015,1.776,50.936643763892405,762,768.0,19.564735177908844,2.376736093705333,2.4578559402800755,2.375941177187383,2.2662880947003883,1.7250912915538406,0.0016451257747414,0.0016451257747414,0.0016451257747414,0.0016451257747414,0.0016241277058724,1.776594107323458,1.776594107323458,1.776594107323458,1.776594107323458,1.776594107323458,E-W,0.0002384185791015,3.732,N-S,0.0002384185791015,1.034
20021023062200.knt,SMN0160210230622.UD,2002-10-23, 06:22:00,35.151,132.674,11,4.4,SMN016,35.1957,132.8146,210,2002-10-23, 06:22:33,100Hz,120,U-D,0.0002384185791015,18.18,13.712002945514724,1464,1472.0,26.83133543138741,0.924230672333703,0.8719134193884249,0.756247251875172,1.1199099513249762,0.4498031836971339,0.018502083103177,0.018502083103177,0.018502083103177,0.0083128033308176,0.0040039367652573,18.100331561124367,18.100331561124367,18.100331561124367,7.785807744465877,7.785807744465877,E-W,0.0002384185791015,19.164,N-S,0.0002384185791015,40.748
20021023062200.knt,TTR0070210230622.UD,2002-10-23, 06:22:00,35.151,132.674,11,4.4,TTR007,35.2826,133.4876,155,2002-10-23, 06:22:53,100Hz,119,U-D,0.0002384185791015,0.702,75.34475505637627,443,442.0,20.76764086990337,2.531522444875649,2.5066727466080256,2.559250933262208,2.924675388571872,2.9460527841380504,0.0017396528913177,0.0017396528913177,0.0017396528913177,0.0017396528913177,0.0017396528913177,0.5882275672098006,0.5882275672098006,0.5882275672098006,0.5882275672098006,0.5882275672098006,E-W,0.0002384185791015,1.966,N-S,0.0002384185791015,2.329
20021024061300.knt,HRS0010210240613.UD,2002-10-24, 06:13:00,35.34,133.402,12,3.6,HRS001,35.0337,132.9018,566,2002-10-24, 06:13:33,100Hz,119,U-D,0.0002384185791015,1.355,56.800634173004624,717,722.0,22.071497560411927,1.764464090148399,1.857666793103253,1.839485605444596,1.2906577974535685,0.8569765624501996,0.00082176225114,0.00082176225114,0.00082176225114,0.0006937872717962,0.0005973374363662,0.4654497349758103,0.4654497349758103,0.4654497349758103,0.4654497349758103,0.4654497349758103,E-W,0.0002384185791015,7.527,N-S,0.0002384185791015,9.527
20021024061300.knt,HRS0210210240613.UD,2002-10-24, 06:13:00,35.34,133.402,12,3.6,HRS021,34.9529,133.1171,325,2002-10-24, 06:13:25,100Hz,119,U-D,0.0002384185791015,6.025,50.23688767684363,1438,1445.0,28.96588738559329,2.0769265545967746,2.011644192747937,1.7375131845998864,1.2390046359210576,0.5829074096184519,0.004525336640789,0.004525336640789,0.004525336640789,0.0044395999342094,0.0033514102842299,6.037088725503686,6.037088725503686,6.037088725503686,6.037088725503686,6.037088725503686,E-W,0.0002384185791015,2.984,N-S,0.0002384185791015,3.245
20021024061300.knt,OKY0010210240613.UD,2002-10-24, 06:13:00,35.34,133.402,12,3.6,OKY001,35.1945,133.7314,334,2002-10-24, 06:13:22,100Hz,119,U-D,0.0002384185791015,3.959,34.00115029446217,1458,1462.0,11.98874232308643,1.6663468359819695,1.7136708987864473,1.507176969906113,1.207411451172367,0.5131614177414082,0.0016575437464857,0.0016575437464857,0.0016575437464857,0.0016575437464857,0.0013469262220925,3.964380152777095,3.964380152777095,3.964380152777095,3.964380152777095,3.964380152777095,E-W,0.0002384185791015,5.032,N-S,0.0002384185791015,2.479
20021024061300.knt,SMN0010210240613.UD,2002-10-24, 06:13:00,35.34,133.402,12,3.6,SMN001,35.5372,133.1612,2,2002-10-24, 06:13:26,100Hz,119,U-D,0.0002384185791015,1.889,30.930933557433367,1013,1008.0,21.56767886088553,1.8823910113931768,2.9914716543837274,4.237737583639102,3.9030391782778793,2.4138920448198427,0.0031901882502908,0.0026641095029997,0.0026641095029997,0.0026641095029997,0.0021740408338527,1.884824624655231,1.2997526684261655,0.8057484736181258,0.8057484736181258,0.8057484736181258,E-W,0.0002384185791015,5.286,N-S,0.0002384185791015,6.463
20021024061300.knt,TTR0060210240613.UD,2002-10-24, 06:13:00,35.34,133.402,12,3.6,TTR006,35.5106,133.6303,20,2002-10-24, 06:13:25,100Hz,119,U-D,0.0002384185791015,2.556,28.06728196150887,1075,1075.0,21.08702260186629,0.951603376493212,1.1169161323601609,2.143703319815039,2.611312013853148,2.0866758951784403,0.001554246821992,0.0012891163860587,0.0012096208774848,0.0012096208774848,0.0011711076060968,2.5572181378250587,2.5572181378250587,0.5867331531708134,0.5867331531708134,0.5867331531708134,E-W,0.0002384185791015,6.095,N-S,0.0002384185791015,9.368
20021024061300.knt,TTR0070210240613.UD,2002-10-24, 06:13:00,35.34,133.402,12,3.6,TTR007,35.2826,133.4876,155,2002-10-24, 06:13:19,100Hz,119,U-D,0.0002384185791015,11.262,10.053157613111678,1395,1397.0,33.60715655498596,7.064139312029515,6.785578353185455,5.327022880028553,3.8150287864049366,1.23615949143089,0.0313511687593748,0.0313511687593748,0.0310693286700005,0.0234753552732632,0.009333171104765,11.240516414742856,11.240516414742856,11.240516414742856,11.240516414742856,11.240516414742856,E-W,0.0002384185791015,11.389,N-S,0.0002384185791015,9.529
20021024061300.knt,TTR0080210240613.UD,2002-10-24, 06:13:00,35.34,133.402,12,3.6,TTR008,35.4258,133.3301,2,2002-10-24, 06:13:21,100Hz,120,U-D,0.0002384185791015,6.408,11.554622341420265,1201,1201.0,19.31715118646646,0.4243811195289981,0.3783256289888397,0.3697115451533173,0.2747243133766895,0.4816092738548577,0.0089852181116962,0.0078475214495155,0.0057674292359393,0.0020534833896542,0.0009031348025919,6.412972447674335,6.412972447674335,4.886478668698503,3.972008857918583,2.036346836397436,E-W,0.0002384185791015,12.258,N-S,0.0002384185791015,8.321
20021024095200.knt,HRS0010210240952.UD,2002-10-24, 09:52:00,35.338,133.402,12,3.6,HRS001,35.0337,132.9018,566,2002-10-24, 09:52:03,100Hz,119,U-D,0.0002384185791015,5.277,56.668013556817485,783,787.0,29.162320288264866,1.9996374676515465,1.637120590114107,1.2343712074902475,1.184181086604814,1.4458566625926064,0.0012851473432416,0.0012851473432416,0.0012851473432416,0.0012851473432416,0.0012851473432416,0.7212696101690872,0.7212696101690872,0.7212696101690872,0.7212696101690872,0.6190730931256204,E-W,0.0002384185791015,12.065,N-S,0.0002384185791015,15.976
20021024095200.knt,HRS0210210240952.UD,2002-10-24, 09:52:00,35.338,133.402,12,3.6,HRS021,34.9529,133.1171,325,2002-10-24, 09:52:02,100Hz,119,U-D,0.0002384185791015,3.126,50.04663820739186,801,800.0,24.488721708645024,1.1730406199012833,1.1984634856221448,1.2181262566464506,1.1913161919128834,0.9351679539462888,0.0019922805398333,0.0019922805398333,0.0019922805398333,0.0019922805398333,0.0019922805398333,3.090546545483253,3.090546545483253,3.090546545483253,3.090546545483253,3.090546545483253,E-W,0.0002384185791015,5.896,N-S,0.0002384185791015,2.479
20021024095200.knt,OKY0050210240952.UD,2002-10-24, 09:52:00,35.338,133.402,12,3.6,OKY005,35.0098,133.7317,134,2002-10-24, 09:52:02,100Hz,119,U-D,0.0002384185791015,1.502,47.221136262558105,736,556.0,13.30817859544579,24.716390399569303,27.30116192185353,29.1834891441048,24.711617529499133,18.232031791978496,0.0107261951828584,0.0107261951828584,0.0107261951828584,0.0106689528980735,0.0094941724907797,0.4381794853585175,0.4381794853585175,0.4381794853585175,0.4381794853585175,0.4381794853585175,E-W,0.0002384185791015,2.249,N-S,0.0002384185791015,2.234
20021024095200.knt,SMN0010210240952.UD,2002-10-24, 09:52:00,35.338,133.402,12,3.6,SMN001,35.5372,133.1612,2,2002-10-24, 09:52:57,100Hz,119,U-D,0.0002384185791015,1.325,31.089176177079583,980,979.0,18.147410855251263,3.520553018024803,6.428988145141694,10.116038276397632,9.228062824283732,6.674463640828538,0.0040073707365204,0.0040073707365204,0.0040073707365204,0.0040073707365204,0.0035239007609374,1.317069769284425,0.9019607543313628,0.5456156028718705,0.5456156028718705,0.5456156028718705,E-W,0.0002384185791015,4.899,N-S,0.0002384185791015,5.535
20021024095200.knt,SMN0030210240952.UD,2002-10-24, 09:52:00,35.338,133.402,12,3.6,SMN003,35.1795,133.0929,332,2002-10-24, 09:52:57,100Hz,119,U-D,0.0002384185791015,2.129,33.14022408421209,1002,1001.0,12.656832200779156,1.786847214298939,3.318798366829347,4.049566617562935,4.745152736083727,5.024097218757385,0.0017243648939434,0.0017243648939434,0.0017243648939434,0.0017243648939434,0.0017243648939434,2.132848889089701,1.068435936781105,1.068435936781105,1.068435936781105,1.068435936781105,E-W,0.0002384185791015,4.73,N-S,0.0002384185791015,6.751
20021024095200.knt,SMN0040210240952.UD,2002-10-24, 09:52:00,35.338,133.402,12,3.6,SMN004,35.2881,132.9004,45,2002-10-24, 09:52:01,100Hz,119,U-D,0.0002384185791015,1.65,45.84996354029138,788,776.0,13.104306874395771,11.17618643477082,12.082416159885367,12.518423480914166,10.892663003288495,7.950444938397191,0.0053214178599067,0.0053214178599067,0.0053214178599067,0.0052687845219372,0.004322254585735,0.7359084756355646,0.7359084756355646,0.7359084756355646,0.7359084756355646,0.7359084756355646,E-W,0.0002384185791015,3.653,N-S,0.0002384185791015,2.486
20021024095200.knt,TTR0060210240952.UD,2002-10-24, 09:52:00,35.338,133.402,12,3.6,TTR006,35.5106,133.6303,20,2002-10-24, 09:52:56,100Hz,119,U-D,0.0002384185791015,1.082,28.218252721546182,1042,55.00000000000001,14.5517792056331,2.638974308960379,3.846655343642111,4.215158218032432,2.250412385208449,2.197648043720499,0.0025137958439655,0.0025137958439655,0.0024203957018139,0.0016871992231843,0.0010946715436351,1.071374151417136,1.071374151417136,0.4306521147057508,0.3042212166185372,0.3042212166185372,E-W,0.0002384185791015,2.817,N-S,0.0002384185791015,3.957
20021024095200.knt,TTR0070210240952.UD,2002-10-24, 09:52:00,35.338,133.402,12,3.6,TTR007,35.2826,133.4876,155,2002-10-24, 09:52:49,100Hz,119,U-D,0.0002384185791015,12.275,9.913530238385311,1461,1459.0,36.99015142412106,6.460997619256465,5.972563024984262,4.808265922038848,4.825252328759888,1.970240601144943,0.0687199109710037,0.0687199109710037,0.0687199109710037,0.0580436175725958,0.023026584502216,12.238685980528809,12.238685980528809,12.238685980528809,12.238685980528809,12.238685980528809,E-W,0.0002384185791015,27.014,N-S,0.0002384185791015,16.186
20021024095200.knt,TTR0080210240952.UD,2002-10-24, 09:52:00,35.338,133.402,12,3.6,TTR008,35.4258,133.3301,2,2002-10-24, 09:52:51,100Hz,120,U-D,0.0002384185791015,5.09,11.738962426329,1266,1266.0,12.5305600179139,0.4233110290969691,0.3854442248927202,0.3645403861988499,0.2206250241519695,0.2083900404246936,0.0090343137138236,0.0077456530977655,0.0048093082555338,0.0018919884254919,0.0015256599688866,5.096766045902702,5.096766045902702,5.096766045902702,4.417908882582188,2.969767750597802,E-W,0.0002384185791015,12.824,N-S,0.0002384185791015,10.064
