earthquake name,records name,earthquake date,earthquake time,lat,long,depth,mag,stn_code,stn_lat,stn_long,stn_height,rcd_date,rcd_time,frequency,rcd_duration,direction,scale_factor,max_pga,epi_dist,pick_index_manually,pick_index_kalkan,snr_db_kalkan,tc_5sec,tc_4sec,tc_3sec,tc_2sec,tc_1sec,Pd_5sec,Pd_4sec,Pd_3sec,Pd_2sec,Pd_1sec,Pga_5sec,Pga_4sec,Pga_3sec,Pga_2sec,Pga_1sec,Channel,Scale_factor,PGA_ew,Channel.1,Scale_factor.1,PGA_ns
20050109185900.knt,MIE0030501091859.UD,2005-01-09, 18:59:00,35.312,136.85,13,4.7,MIE003,34.9704,136.6357,2,2005-01-09, 19:00:44,100Hz,63,U-D,0.0006340209495401,4.623,42.69069547918025,952,0,0,2.7101459490636235,2.99418149932227,3.475670821216862,4.36268781880316,4.601884875912396,0.004032686060936,0.004032686060936,0.004032686060936,0.004032686060936,0.004032686060936,1.6754663571590651,1.6754663571590651,1.6754663571590651,1.6754663571590651,1.1326597603031072,E-W,0.0006340209495401,11.41,N-S,0.0006340209495401,9.462
20050109185900.knt,MIE0040501091859.UD,2005-01-09, 18:59:00,35.312,136.85,13,4.7,MIE004,34.8569,136.4493,79,2005-01-09, 19:00:42,100Hz,70,U-D,0.0006340209495401,5.125,62.3713017285526,1460,0,0,0.3309438160777512,0.333146779617297,0.3170185385613718,0.3120821037966396,0.375898312834735,0.0034087206706837,0.0034087206706837,0.0034087206706837,0.0034087206706837,0.0034087206706837,4.41214769707947,4.41214769707947,4.41214769707947,4.41214769707947,4.41214769707947,E-W,0.0006340209495401,9.474,N-S,0.0006340209495401,12.041
20050109185900.knt,MIE0050501091859.UD,2005-01-09, 18:59:00,35.312,136.85,13,4.7,MIE005,34.7677,136.1151,134,2005-01-09, 19:00:56,100Hz,60,U-D,0.0006340209495401,1.035,90.21868955125134,440,0,0,2.9304160168821194,2.583304640175144,1.9913800633612924,1.6472733581389054,2.7009500196837086,0.0031391723994664,0.0024230031331825,0.0017786800572634,0.0016841052535811,0.0016841052535811,0.6100608659075181,0.6100608659075181,0.546412790523527,0.4769056734249149,0.3388944153774528,E-W,0.0006340209495401,2.653,N-S,0.0006340209495401,2.412
20050109185900.knt,MIE0070501091859.UD,2005-01-09, 18:59:00,35.312,136.85,13,4.7,MIE007,34.651,136.3404,82,2005-01-09, 19:00:49,100Hz,74,U-D,0.0006340209495401,6.557,86.93499895512117,1082,0,0,0.4428582247689509,0.522075853399355,0.5780210695785982,0.7981770105931147,1.316944196478784,0.0013223304523626,0.0013223304523626,0.0013223304523626,0.0013223304523626,0.0013223304523626,1.74865098074875,1.6084821666570992,1.6084821666570992,1.4180629929538004,0.8950169787929524,E-W,0.0006340209495401,8.695,N-S,0.0006340209495401,9.352
20050109185900.knt,MIE0080501091859.UD,2005-01-09, 18:59:00,35.312,136.85,13,4.7,MIE008,34.6285,136.1073,221,2005-01-09, 19:00:01,100Hz,60,U-D,0.0006340209495401,1.505,101.76372081530468,130,0,0,2.819520617553078,3.145198562851037,3.1455641626574136,3.04035615169581,7.399135517166352,0.0027283162636975,0.0027283162636975,0.0027283162636975,0.0024896078608611,0.0020834611905586,0.5143386062740152,0.5143386062740152,0.5143386062740152,0.5143386062740152,0.165951789759778,E-W,0.0006340209495401,3.057,N-S,0.0006340209495401,2.987
20050109185900.knt,MIE0100501091859.UD,2005-01-09, 18:59:00,35.312,136.85,13,4.7,MIE010,34.4908,136.7334,19,2005-01-09, 19:00:57,100Hz,60,U-D,0.0006340209495401,1.102,91.93028595242129,398,0,0,0.6946786285772066,0.7878559912104769,1.0675796043913814,1.4892824067959116,0.985085054673331,0.0008289791463963,0.0008289791463963,0.0008289791463963,0.0005985612671158,0.0005240047701935,0.4149876111006506,0.4149876111006506,0.3224108873614048,0.2564517942491364,0.2520499623467649,E-W,0.0006340209495401,3.303,N-S,0.0006340209495401,2.913
20050109185900.knt,MIE0170501091859.UD,2005-01-09, 18:59:00,35.312,136.85,13,4.7,MIE017,34.3624,136.3348,118,2005-01-09, 19:00:04,100Hz,60,U-D,0.0006340209495401,0.711,115.58628926392312,140,0,0,2.737401078310565,3.30381541641283,3.882459582852723,3.478197726743037,2.586326281627457,0.0013221483357172,0.0013221483357172,0.0013221483357172,0.0013221483357172,0.0012300947188369,0.6659881989425528,0.6659881989425528,0.6659881989425528,0.6659881989425528,0.6659881989425528,E-W,0.0006340209495401,4.607,N-S,0.0006340209495401,2.579
20050109185900.knt,NGN0170501091859.UD,2005-01-09, 18:59:00,35.312,136.85,13,4.7,NGN017,35.9748,137.8255,927,2005-01-09, 19:00:03,100Hz,60,U-D,0.0006340209495401,3.886,114.89898897064828,149,0,0,1.9487138751870448,2.001161969745173,1.9701966053086224,1.845390495411169,2.296900613885134,0.0055135065493725,0.0055135065493725,0.0055135065493725,0.0055135065493725,0.0045951096138223,1.4898931742459067,1.4898931742459067,1.4898931742459067,1.4898931742459067,1.0126945678005703,E-W,0.0006340209495401,6.528,N-S,0.0006340209495401,12.405
20050109185900.knt,NGN0180501091859.UD,2005-01-09, 18:59:00,35.312,136.85,13,4.7,NGN018,35.8132,137.5295,1050,2005-01-09, 19:00:44,100Hz,65,U-D,0.0006340209495401,4.653,82.96803045774226,1533,0,0,0.3844153592368766,0.3648158168175838,0.338596527740628,0.3460250772258888,0.3613219612200516,0.0019893401309218,0.0019893401309218,0.0019893401309218,0.0019893401309218,0.0019893401309218,2.0315754416448906,2.0315754416448906,2.0315754416448906,2.0315754416448906,2.0315754416448906,E-W,0.0006340209495401,13.295,N-S,0.0006340209495401,8.729
20050109185900.knt,NGN0190501091859.UD,2005-01-09, 18:59:00,35.312,136.85,13,4.7,NGN019,35.8562,137.7078,788,2005-01-09, 19:00:47,100Hz,68,U-D,0.0006340209495401,10.371,98.38142888124592,1478,0,0,0.346066520359031,0.3273589445760608,0.3156814312164873,0.3209011339373508,0.3290921591766359,0.0016970607507481,0.0016970607507481,0.0016970607507481,0.0016970607507481,0.0016970607507481,1.5558391343218267,1.5558391343218267,1.5558391343218267,1.5558391343218267,1.5558391343218267,E-W,0.0006340209495401,19.369,N-S,0.0006340209495401,14.742
20050109185900.knt,NGN0210501091859.UD,2005-01-09, 18:59:00,35.312,136.85,13,4.7,NGN021,35.7304,137.9341,679,2005-01-09, 19:00:01,100Hz,60,U-D,0.0006340209495401,0.621,108.58358821613292,219,0,0,0.8397729169117788,0.8365269851944505,0.8431607988133265,0.8625909679464608,1.048495984994169,0.0025666371316856,0.0022241225224039,0.0022241225224039,0.0022241225224039,0.0009949904697289,0.3646584680324067,0.3646584680324067,0.3646584680324067,0.3646584680324067,0.2323653963117075,E-W,0.0006340209495401,2.915,N-S,0.0006340209495401,2.084
20050109185900.knt,NGN0220501091859.UD,2005-01-09, 18:59:00,35.312,136.85,13,4.7,NGN022,35.6079,137.6125,451,2005-01-09, 19:00:44,100Hz,64,U-D,0.0006340209495401,7.083,76.49723717713552,1431,0,0,0.4925092399715171,0.4724198022771748,0.4749062583863073,0.4815416609737661,0.5043683036995618,0.0049155476787947,0.0049155476787947,0.0049155476787947,0.0049155476787947,0.0049155476787947,7.048781760390157,7.048781760390157,7.048781760390157,7.048781760390157,7.048781760390157,E-W,0.0006340209495401,9.753,N-S,0.0006340209495401,8.084
20050109185900.knt,NGN0230501091859.UD,2005-01-09, 18:59:00,35.312,136.85,13,4.7,NGN023,35.5787,138.0338,674,2005-01-09, 19:00:01,100Hz,60,U-D,0.0006340209495401,1.199,111.2611195082126,222,0,0,1.1523298307827905,1.7150767836321283,1.952574590103833,2.256268570425886,2.6428682488099824,0.0019338263483096,0.0018571132973502,0.0018571132973502,0.0018571132973502,0.0014867101823772,0.7019797779197439,0.6493741238038108,0.6493741238038108,0.6493741238038108,0.5283743490763487,E-W,0.0006340209495401,2.763,N-S,0.0006340209495401,4.435
20050109185900.knt,NGN0240501091859.UD,2005-01-09, 18:59:00,35.312,136.85,13,4.7,NGN024,35.5232,137.8374,538,2005-01-09, 19:00:47,100Hz,71,U-D,0.0006340209495401,3.948,92.50659038347338,1386,0,0,0.4481276790933254,0.4113411216478229,0.4180469463192702,0.4268845645409497,0.4411247672177373,0.0047395049944686,0.0047395049944686,0.0047395049944686,0.004195377795752,0.0036696093840204,2.6523149172210894,2.6523149172210894,2.6523149172210894,2.6523149172210894,2.6523149172210894,E-W,0.0006340209495401,7.633,N-S,0.0006340209495401,6.63
20050109185900.knt,NGN0250501091859.UD,2005-01-09, 18:59:00,35.312,136.85,13,4.7,NGN025,35.2807,137.8567,400,2005-01-09, 19:00:56,100Hz,60,U-D,0.0006340209495401,1.57,91.4283804053331,432,0,0,4.553374454305067,4.358359188435396,3.653477711294229,4.624629312218674,6.492775445725362,0.0167292912298123,0.0146756172588482,0.0146756172588482,0.0146756172588482,0.0146756172588482,1.4647805697249487,1.4647805697249487,1.4647805697249487,1.4647805697249487,1.4647805697249487,E-W,0.0006340209495401,3.926,N-S,0.0006340209495401,4.637
20050109185900.knt,SIG0010501091859.UD,2005-01-09, 18:59:00,35.312,136.85,13,4.7,SIG001,35.5398,136.2065,141,2005-01-09, 19:00:49,100Hz,60,U-D,0.0006340209495401,3.51,63.57110762395652,730,0,0,28.96595165899409,30.592295237834907,29.34844962350198,23.270581551977184,15.542375282620377,0.9453679163529286,0.9453679163529286,0.9453679163529286,0.943767517786547,0.8405418614794561,1.5338869352041469,1.5338869352041469,1.5338869352041469,1.5338869352041469,1.4515171289988429,E-W,0.0006340209495401,6.526,N-S,0.0006340209495401,8.365
20050109185900.knt,SIG0020501091859.UD,2005-01-09, 18:59:00,35.312,136.85,13,4.7,SIG002,35.4215,136.0243,95,2005-01-09, 19:00:44,100Hz,64,U-D,0.0006340209495401,3.924,75.85405595560862,1440,0,0,0.555365592084836,0.5232786759288051,0.5194309788136731,0.52599524689785,0.5683693131503937,0.0025807865141225,0.0022799643271826,0.0022799643271826,0.0022799643271826,0.0022799643271826,3.932600361877504,3.932600361877504,3.932600361877504,3.932600361877504,3.932600361877504,E-W,0.0006340209495401,3.403,N-S,0.0006340209495401,3.609
20050109185900.knt,SIG0030501091859.UD,2005-01-09, 18:59:00,35.312,136.85,13,4.7,SIG003,35.377,136.264,86,2005-01-09, 19:00:47,100Hz,60,U-D,0.0006340209495401,3.683,53.63954312542616,780,0,0,6.238100178808587,6.836432933673435,6.638032637064393,6.144745458906483,5.050887594622036,0.0200063507067335,0.0200063507067335,0.0200063507067335,0.0200063507067335,0.0197739679165581,3.689814508742733,3.689814508742733,3.689814508742733,3.689814508742733,3.689814508742733,E-W,0.0006340209495401,5.312,N-S,0.0006340209495401,6.087
20050109185900.knt,SIG0040501091859.UD,2005-01-09, 18:59:00,35.312,136.85,13,4.7,SIG004,35.3476,135.9184,187,2005-01-09, 19:00:45,100Hz,64,U-D,0.0006340209495401,5.788,84.60423374111464,1477,0,0,0.3113651341231673,0.2993397448598832,0.2815010059735766,0.2612135621612815,0.2597788788681306,0.0019319932562837,0.0019319932562837,0.0019319932562837,0.0019319932562837,0.0019319932562837,5.78755134893695,5.78755134893695,5.78755134893695,5.78755134893695,5.78755134893695,E-W,0.0006340209495401,3.325,N-S,0.0006340209495401,4.231
20050109185900.knt,SIG0050501091859.UD,2005-01-09, 18:59:00,35.312,136.85,13,4.7,SIG005,35.2493,136.2421,93,2005-01-09, 19:00:40,100Hz,62,U-D,0.0006340209495401,1.932,55.61893956552987,1513,0,0,0.5713465380661907,0.5767767744690195,0.5755304282149483,0.5775165794760626,0.5568202777823131,0.0046375034893558,0.0046375034893558,0.0046375034893558,0.0046375034893558,0.0046375034893558,1.9416102894859464,1.9416102894859464,1.9416102894859464,1.9416102894859464,1.9416102894859464,E-W,0.0006340209495401,2.522,N-S,0.0006340209495401,3.157
20050109185900.knt,SIG0070501091859.UD,2005-01-09, 18:59:00,35.312,136.85,13,4.7,SIG007,35.1339,136.0957,90,2005-01-09, 19:00:52,100Hz,60,U-D,0.0006340209495401,3.026,71.32244272764271,571,0,0,12.186474364357984,10.310891763493188,7.672090374172304,4.548427506828408,1.738502749283934,0.0645001495523744,0.0645001495523744,0.0604204330411586,0.0473352365796546,0.020261285568682,3.03578336611369,3.03578336611369,3.03578336611369,3.03578336611369,1.8322478975502163,E-W,0.0006340209495401,2.171,N-S,0.0006340209495401,1.868
20050109185900.knt,SIG0080501091859.UD,2005-01-09, 18:59:00,35.312,136.85,13,4.7,SIG008,35.0701,136.2946,218,2005-01-09, 19:00:42,100Hz,63,U-D,0.0006340209495401,5.793,57.19058019316019,1344,0,0,0.4896157188973362,0.4950939847068817,0.5074068545235197,0.5465165667180049,0.5275803374996446,0.00337496668889,0.00337496668889,0.00337496668889,0.00337496668889,0.00337496668889,3.73633893314096,3.73633893314096,3.73633893314096,3.715744499243778,3.580069708458563,E-W,0.0006340209495401,11.421,N-S,0.0006340209495401,10.779
20050109185900.knt,SIG0090501091859.UD,2005-01-09, 18:59:00,35.312,136.85,13,4.7,SIG009,35.0051,136.0854,136,2005-01-09, 19:00:53,100Hz,60,U-D,0.0006340209495401,4.556,77.43375235880238,566,0,0,2.9881321113374875,2.6689818862100103,2.1078774073771567,1.4026262189959495,0.4434770485105474,0.0075259228729038,0.0075259228729038,0.0068928102954782,0.0056286587476425,0.0017852818375306,4.546461914958001,4.546461914958001,4.546461914958001,4.546461914958001,4.546461914958001,E-W,0.0006340209495401,2.703,N-S,0.0006340209495401,3.024
20050109185900.knt,SIG0110501091859.UD,2005-01-09, 18:59:00,35.312,136.85,13,4.7,SIG011,34.8779,136.0587,283,2005-01-09, 19:00:55,100Hz,60,U-D,0.0006340209495401,3.016,86.67619494748148,505,0,0,6.886513271839334,5.54043238720791,3.955993352790083,2.56652311812846,2.718935986582108,0.0214558801771597,0.0211061304300234,0.0174023238701978,0.0139812876912147,0.0139812876912147,2.4247656604754786,2.4247656604754786,2.4247656604754786,2.4247656604754786,2.4247656604754786,E-W,0.0006340209495401,6.54,N-S,0.0006340209495401,5.784
20050109185900.knt,SIG0120501091859.UD,2005-01-09, 18:59:00,35.312,136.85,13,4.7,SIG012,34.9043,136.2307,230,2005-01-09, 19:00:51,100Hz,60,U-D,0.0006340209495401,2.421,72.30998350085667,684,0,0,2.4358665348466806,2.4023914605985848,2.183200393768113,1.7909800450922102,1.2736973523913808,0.0054664054788128,0.0054664054788128,0.0054664054788128,0.0054664054788128,0.0054535486580056,2.413700939416635,2.413700939416635,2.413700939416635,2.413700939416635,2.2695607900797725,E-W,0.0006340209495401,9.729,N-S,0.0006340209495401,5.177
20050109185900.knt,SZO0220501091859.UD,2005-01-09, 18:59:00,35.312,136.85,13,4.7,SZO022,35.0916,137.8136,136,2005-01-09, 19:00:47,100Hz,68,U-D,0.0006340209495401,2.055,90.91788258241633,1302,0,0,0.3465123100727752,0.3200640637644708,0.3262844701210634,0.3493399584185164,0.4646305505888083,0.0012316775577278,0.0011360682005713,0.000976291503704,0.0008685658166793,0.000564993700095,0.8130574170366566,0.8130574170366566,0.8130574170366566,0.809688067728424,0.4242076643634951,E-W,0.0006340209495401,5.887,N-S,0.0006340209495401,5.28
20050109185900.knt,SZO0230501091859.UD,2005-01-09, 18:59:00,35.312,136.85,13,4.7,SZO023,34.8738,137.8164,46,2005-01-09, 19:00:58,100Hz,60,U-D,0.0006340209495401,1.843,100.52284100306008,340,0,0,1.8945575393853864,2.2541619854365145,2.6297380708955007,3.5776603845528467,5.603987446090796,0.0024089789565547,0.0024089789565547,0.0024089789565547,0.0024089789565547,0.0024089789565547,0.4856453692629154,0.3911081207687679,0.3911081207687679,0.2840312890346578,0.1542848573478951,E-W,0.0006340209495401,2.597,N-S,0.0006340209495401,3.128
20050109185900.knt,SZO0250501091859.UD,2005-01-09, 18:59:00,35.312,136.85,13,4.7,SZO025,34.7194,137.5314,4,2005-01-09, 19:00:57,100Hz,60,U-D,0.0006340209495401,1.082,90.5130183211366,320,0,0,0.9640383241072852,1.1908433189869714,1.0604284177089662,0.9933440457131232,1.3058482269015923,0.0024055843178482,0.0010796516801712,0.0010435048794312,0.0007846734292094,0.0007521447217655,0.6032483436368963,0.3251224602517323,0.2931907289191676,0.2505151907558591,0.1371108978408437,E-W,0.0006340209495401,1.575,N-S,0.0006340209495401,3.016
20050109193000.knt,HKD1050501091930.UD,2005-01-09, 19:30:00,42.04,142.447,68,4.1,HKD105,42.4825,142.0543,6,2005-01-09, 19:31:43,100Hz,119,U-D,0.0002384185791015,1.99,58.86734285919498,1408,0,0,0.7764166555378132,0.6194228683734234,0.4545960554816007,0.4509017008631226,0.4327437166808938,0.0042348889445547,0.0042348889445547,0.0042348889445547,0.0042348889445547,0.0042348889445547,2.004612760161616,2.004612760161616,2.004612760161616,2.004612760161616,2.004612760161616,E-W,0.0002384185791015,2.316,N-S,0.0002384185791015,2.251
20050109193000.knt,HKD1060501091930.UD,2005-01-09, 19:30:00,42.04,142.447,68,4.1,HKD106,42.3414,142.3688,4,2005-01-09, 19:31:50,100Hz,119,U-D,0.0002384185791015,1.656,34.1277704148756,533,0,0,1.8501517212606005,1.3434060230941514,0.740372225908985,0.8494123850227024,1.5500277210724396,0.0030142001008523,0.0027419598764301,0.0016288822889413,0.0009808873503816,0.0009808873503816,0.8232961048345275,0.8232961048345275,0.8232961048345275,0.3331526628323893,0.24243221172504,E-W,0.0002384185791015,4.026,N-S,0.0002384185791015,4.526
20050109193000.knt,HKD1080501091930.UD,2005-01-09, 19:30:00,42.04,142.447,68,4.1,HKD108,42.2528,142.5643,42,2005-01-09, 19:31:47,100Hz,119,U-D,0.0002384185791015,2.021,25.562163101800905,681,0,0,3.4410239852145,3.244834933521892,2.759528568452667,1.890659280054357,1.1753902039588948,0.0081254660596355,0.0081254660596355,0.0077972184832112,0.0068492724547394,0.0047172105433118,2.021026544641148,2.021026544641148,2.021026544641148,2.021026544641148,2.021026544641148,E-W,0.0002384185791015,6.049,N-S,0.0002384185791015,7.621
20050109193000.knt,HKD1280501091930.UD,2005-01-09, 19:30:00,42.04,142.447,68,4.1,HKD128,42.7655,141.8221,33,2005-01-09, 19:31:59,100Hz,119,U-D,0.0002384185791015,2.599,95.6060858433637,151,0,0,6.557447962250793,7.204187024991251,7.897944034908829,8.585446138831916,7.143032336173477,0.021697960989611,0.021697960989611,0.021697960989611,0.021697960989611,0.0194163295560702,1.8285533482691485,1.8285533482691485,1.8285533482691485,1.8285533482691485,1.8285533482691485,E-W,0.0002384185791015,2.469,N-S,0.0002384185791015,3.713
20050109201500.knt,FKS0220501092015.UD,2005-01-09, 20:15:00,37.265,138.943,10,4.2,FKS022,37.6002,139.6467,159,2005-01-09, 20:16:09,100Hz,119,U-D,0.0002384185791015,2.24,72.45586786822886,409,0,0,3.38043531203463,2.9047396827220653,2.634343349900298,2.878868755076801,3.708647710901489,0.0039851939370205,0.0039851939370205,0.0039851939370205,0.0039851939370205,0.0039851939370205,0.6783232014222601,0.6783232014222601,0.6783232014222601,0.6783232014222601,0.5026623688511092,E-W,0.0002384185791015,3.414,N-S,0.0002384185791015,3.255
20050109201500.knt,FKS0250501092015.UD,2005-01-09, 20:15:00,37.265,138.943,10,4.2,FKS025,37.3077,139.9,415,2005-01-09, 20:16:12,100Hz,119,U-D,0.0002384185791015,2.626,84.79717845129468,305,0,0,0.5641784047038607,0.5199647730658061,0.421764280372076,0.3473987351918297,0.3298616982577894,0.0016736818787087,0.0016736818787087,0.0016736818787087,0.0016736818787087,0.0016736818787087,0.8478551393223598,0.8478551393223598,0.8478551393223598,0.8478551393223598,0.8478551393223598,E-W,0.0002384185791015,3.317,N-S,0.0002384185791015,3.616
20050109201500.knt,FKS0260501092015.UD,2005-01-09, 20:15:00,37.265,138.943,10,4.2,FKS026,37.266,139.5386,492,2005-01-09, 20:16:02,100Hz,119,U-D,0.0002384185791015,3.669,52.70656419363628,804,0,0,1.7006629940611884,1.584892745350743,1.4498572974325634,1.32233388274704,1.1764556158821406,0.0051380362611056,0.0051380362611056,0.0051380362611056,0.0051380362611056,0.0051380362611056,3.065566701398527,3.065566701398527,3.065566701398527,3.065566701398527,3.065566701398527,E-W,0.0002384185791015,9.144,N-S,0.0002384185791015,9.924
20050109201500.knt,FKS0280501092015.UD,2005-01-09, 20:15:00,37.265,138.943,10,4.2,FKS028,37.3491,139.3144,375,2005-01-09, 20:16:53,100Hz,119,U-D,0.0002384185791015,11.605,34.15339193656052,1401,0,0,2.62605665728098,2.8302722376872995,2.8535791972353923,2.7396240937578287,2.303755435856403,0.0306344352788751,0.0306344352788751,0.0306344352788751,0.0306344352788751,0.0306344352788751,11.552566213382864,11.552566213382864,11.552566213382864,11.552566213382864,11.552566213382864,E-W,0.0002384185791015,11.656,N-S,0.0002384185791015,13.546
