earthquake name,records name,earthquake date,earthquake time,lat,long,depth,mag,stn_code,stn_lat,stn_long,stn_height,rcd_date,rcd_time,frequency,rcd_duration,direction,scale_factor,max_pga,epi_dist,pick_index_manually,pick_index_kalkan,snr_db_kalkan,tc_5sec,tc_4sec,tc_3sec,tc_2sec,tc_1sec,Pd_5sec,Pd_4sec,Pd_3sec,Pd_2sec,Pd_1sec,Pga_5sec,Pga_4sec,Pga_3sec,Pga_2sec,Pga_1sec,Channel,Scale_factor,PGA_ew,Channel.1,Scale_factor.1,PGA_ns
20010104131800.knt,NIG0240101041318.UD,2001-01-04, 13:18:00,36.961,138.759,14.0,5.1,NIG024,37.1268,138.444,80.0,2001-01-04, 13:19:29,100Hz,119.0,U-D,0.0002384185791015,14.337,33.488678527480026,1409.0,1410.0,44.88232992701931,1.3923635731987805,1.5059185366852528,1.8257523802167828,1.5798961605397026,1.2291823287395531,0.0745124602007505,0.0551162462207874,0.0551162462207874,0.0519331910200972,0.0510629119229322,6.239637755016302,5.126791389249005,5.126791389249005,5.126791389249005,4.947791943375446,E-W,0.0002384185791015,65.855,N-S,0.0002384185791015,80.238
20010104131800.knt,NIG0250101041318.UD,2001-01-04, 13:18:00,36.961,138.759,14.0,5.1,NIG025,37.1607,138.2235,11.0,2001-01-04, 13:19:40,100Hz,119.0,U-D,0.0002384185791015,26.414,52.44904619549565,629.0,624.0,27.89125706577222,8.272255652524802,7.645299801330101,6.827639477488294,4.9494258183634505,2.2792950124648304,0.1753802210094034,0.1753802210094034,0.1753802210094034,0.1380771595544874,0.0971941998684089,6.0209377837746105,6.0209377837746105,5.751199025437442,5.751199025437442,5.751199025437442,E-W,0.0002384185791015,48.563,N-S,0.0002384185791015,61.939
20010104131800.knt,NIG0260101041318.UD,2001-01-04, 13:18:00,36.961,138.759,14.0,5.1,NIG026,37.0228,138.2507,70.0,2001-01-04, 13:19:31,100Hz,119.0,U-D,0.0002384185791015,9.833,45.66395616369349,1409.0,1409.0,29.970208068160304,1.4965967046869928,1.3995828955330951,1.2911356101203146,1.2269881410267451,0.9532121982560676,0.053950237113031,0.053950237113031,0.0529106978670459,0.0456297463257938,0.0456297463257938,9.932854379018828,9.932854379018828,9.932854379018828,9.932854379018828,9.932854379018828,E-W,0.0002384185791015,36.563,N-S,0.0002384185791015,22.862
20010104131800.knt,NIG0270101041318.UD,2001-01-04, 13:18:00,36.961,138.759,14.0,5.1,NIG027,37.0235,137.8624,106.0,2001-01-04, 13:19:36,100Hz,119.0,U-D,0.0002384185791015,4.786,79.93236268694464,1417.0,1418.0,31.67339230956772,2.439651778368832,2.3471681885895888,1.3234981027579678,1.028419963571462,0.980062916240202,0.0274910791564744,0.0274910791564744,0.019211897110402,0.0157146345742631,0.0157146345742631,3.770627020884833,3.770627020884833,3.770627020884833,3.770627020884833,3.220371781348253,E-W,0.0002384185791015,21.388,N-S,0.0002384185791015,15.463
20010104131800.knt,NIG0280101041318.UD,2001-01-04, 13:18:00,36.961,138.759,14.0,5.1,NIG028,37.4261,138.8862,-9999.0,2001-01-04, 13:19:32,200Hz,180.0,U-D,0.0002384185791015,9.253,52.92984431902272,2860.0,2860.0,24.50106065831114,1.7480965931656376,1.480331915788722,1.313352622516096,1.2690214694664543,1.1048991904124477,0.0334582018059308,0.0334582018059308,0.0321267494028714,0.0321267494028714,0.0268689547292072,2.9293911039532405,2.9293911039532405,2.775789289160789,2.775789289160789,2.11140966440271,E-W,0.0002384185791015,18.575,N-S,0.0002384185791015,18.443
20010104131800.knt,SIT0010101041318.UD,2001-01-04, 13:18:00,36.961,138.759,14.0,5.1,SIT001,36.2428,139.1937,46.0,2001-01-04, 13:19:50,100Hz,119.0,U-D,0.0002384185791015,1.482,88.78837676174328,249.0,245.00000000000003,15.936102294810716,7.162023647516324,7.518280853486863,9.209928858753605,10.6683856494891,10.193401723105046,0.0438444183981318,0.0438444183981318,0.0438444183981318,0.0438444183981318,0.0438444183981318,1.475874412650059,1.475874412650059,1.475874412650059,1.475874412650059,1.3450208443068,E-W,0.0002384185791015,2.298,N-S,0.0002384185791015,2.629
20010104131800.knt,SIT0040101041318.UD,2001-01-04, 13:18:00,36.961,138.759,14.0,5.1,SIT004,36.1179,139.1045,140.0,2001-01-04, 13:19:50,100Hz,119.0,U-D,0.0002384185791015,8.529,98.69892429093969,323.0,352.0,19.25463301338956,12.316711409239996,13.840155853205928,18.698051863237765,26.894138636443436,32.79026034861969,0.0554970598337777,0.0554970598337777,0.0554970598337777,0.0554970598337777,0.0554970598337777,1.1372781173374715,1.1372781173374715,1.1372781173374715,1.1372781173374715,0.8186388042958206,E-W,0.0002384185791015,31.739,N-S,0.0002384185791015,36.905
20010104131800.knt,TCG0020101041318.UD,2001-01-04, 13:18:00,36.961,138.759,14.0,5.1,TCG002,36.99,139.8033,618.0,2001-01-04, 13:19:39,100Hz,119.0,U-D,0.0002384185791015,3.457,92.8236789521812,1352.0,1368.0,21.496829107460695,0.9200113916584138,0.7744403933501969,0.7810917310868373,0.8347605815302988,1.011915740727529,0.006965750273573,0.0065177788200832,0.0065177788200832,0.0065177788200832,0.0065177788200832,3.4560239804097885,3.4560239804097885,3.4560239804097885,3.4560239804097885,3.4560239804097885,E-W,0.0002384185791015,5.87,N-S,0.0002384185791015,5.76
20010104131800.knt,TCG0030101041318.UD,2001-01-04, 13:18:00,36.961,138.759,14.0,5.1,TCG003,36.8144,139.7153,398.0,2001-01-04, 13:19:48,100Hz,119.0,U-D,0.0002384185791015,0.685,86.59645034279627,377.0,377.0,16.667726204371704,1.4037999916574275,1.310672491541953,1.3501222651025024,1.1562744278710857,0.6826853847448084,0.0019814473242629,0.0019814473242629,0.0019814473242629,0.0018617798213663,0.0013894599248503,0.6849639315340904,0.6849639315340904,0.6849639315340904,0.6849639315340904,0.6849639315340904,E-W,0.0002384185791015,4.015,N-S,0.0002384185791015,4.152
20010104131800.knt,TCG0040101041318.UD,2001-01-04, 13:18:00,36.961,138.759,14.0,5.1,TCG004,36.8061,139.4204,1490.0,2001-01-04, 13:19:33,100Hz,119.0,U-D,0.0002384185791015,9.447,61.29456652954094,1440.0,1440.0,29.14733982553257,0.7034467769597944,0.5940424938338763,0.4357863945870279,0.387976212042227,0.4644167829522712,0.0176716371900616,0.0176716371900616,0.0083529204596906,0.0083529204596906,0.0083529204596906,9.452047594401671,9.452047594401671,9.452047594401671,9.452047594401671,7.75823304047705,E-W,0.0002384185791015,11.441,N-S,0.0002384185791015,10.652
20010104131800.knt,TCG0050101041318.UD,2001-01-04, 13:18:00,36.961,138.759,14.0,5.1,TCG005,36.8061,139.9264,197.0,2001-01-04, 13:19:43,100Hz,119.0,U-D,0.0002384185791015,1.201,105.24683620493222,1229.0,1219.0,24.664988464236,1.5000630895683351,1.5823565165009528,1.516269162092025,1.3783688383411918,1.4274667468048488,0.023077796748704,0.023077796748704,0.023077796748704,0.019129835151603,0.019129835151603,1.195162191149734,1.195162191149734,1.195162191149734,1.195162191149734,0.9412849744422752,E-W,0.0002384185791015,4.075,N-S,0.0002384185791015,4.886
20010104131800.knt,TCG0070101041318.UD,2001-01-04, 13:18:00,36.961,138.759,14.0,5.1,TCG007,36.5692,139.8861,138.0,2001-01-04, 13:19:55,100Hz,119.0,U-D,0.0002384185791015,1.243,109.44346569590216,46.0,68.0,11.032772771226837,1.0893949678516417,1.0889708686422512,1.1049722342133517,1.0530382285578177,0.9947450781897884,0.0084084025563812,0.0084084025563812,0.0084084025563812,0.0084084025563812,0.0079749708435242,0.9392946511286449,0.9392946511286449,0.9392946511286449,0.9392946511286449,0.8292068964791568,E-W,0.0002384185791015,3.706,N-S,0.0002384185791015,3.049
20010104131800.knt,TCG0090101041318.UD,2001-01-04, 13:18:00,36.961,138.759,14.0,5.1,TCG009,36.7258,139.7155,361.0,2001-01-04, 13:19:49,100Hz,119.0,U-D,0.0002384185791015,10.37,89.04270821457672,336.0,359.0,18.125188931762118,2.083022925045952,1.838766359100067,1.8845423744262684,2.088492015290236,3.454259887838258,0.0222840841937656,0.0222840841937656,0.0222840841937656,0.0222840841937656,0.0222840841937656,3.7002454021954505,3.7002454021954505,3.7002454021954505,3.7002454021954505,3.4957783785091525,E-W,0.0002384185791015,9.04,N-S,0.0002384185791015,9.837
20010104131800.knt,TCG0100101041318.UD,2001-01-04, 13:18:00,36.961,138.759,14.0,5.1,TCG010,36.6347,139.4376,640.0,2001-01-04, 13:19:35,100Hz,119.0,U-D,0.0002384185791015,7.804,70.47887632483439,1386.0,1405.0,22.618204261757757,0.6216511649189738,0.5534108227413487,0.5655336871510849,0.5390692282486967,0.490373796140247,0.0083984616346232,0.0083984616346232,0.0083984616346232,0.0083984616346232,0.0033745166229429,7.720969778566584,7.720969778566584,7.720969778566584,7.720969778566584,3.853228314881524,E-W,0.0002384185791015,9.896,N-S,0.0002384185791015,11.281
20010104131800.knt,TCG0110101041318.UD,2001-01-04, 13:18:00,36.961,138.759,14.0,5.1,TCG011,36.3867,139.6145,93.0,2001-01-04, 13:19:52,100Hz,119.0,U-D,0.0002384185791015,1.632,99.4937942275402,174.0,175.0,3.785146955351131,13.117426346099004,15.803569848042756,20.722033071381933,24.625490220751416,18.11867049118521,0.1441434017530825,0.1441434017530825,0.1441434017530825,0.1441434017530825,0.1406564197950953,1.2748181964557577,1.2748181964557577,1.2748181964557577,1.2748181964557577,0.773497420466193,E-W,0.0002384185791015,2.573,N-S,0.0002384185791015,2.758
20010104131800.knt,TCG0140101041318.UD,2001-01-04, 13:18:00,36.961,138.759,14.0,5.1,TCG014,36.545,140.1742,130.0,2001-01-04, 13:19:46,100Hz,119.0,U-D,0.0002384185791015,2.699,134.2986233551408,1323.0,1406.0,19.00773418345095,1.4202547042519813,1.1045793958176926,0.7406512717693988,0.7507118672393164,1.6693711337896762,0.0075790349626024,0.0075790349626024,0.0056989742793521,0.0056989742793521,0.003442975918745,2.7170065723627164,2.7170065723627164,2.7170065723627164,2.7170065723627164,1.1471452238465092,E-W,0.0002384185791015,4.313,N-S,0.0002384185791015,5.268
20010104150800.knt,GNM0010101041508.UD,2001-01-04, 15:08:00,36.956,138.759,14.0,3.7,GNM001,36.7722,139.2248,810.0,2001-01-04, 15:08:13,100Hz,119.0,U-D,0.0002384185791015,14.424,46.20460165704591,1356.0,1368.0,25.05180720032117,5.198509852691529,4.999007685217165,3.922913236630569,2.1338851749652465,0.5237125137245147,0.0232415415306106,0.0232415415306106,0.0232415415306106,0.0186681151561392,0.0064492421284014,8.761703598847362,8.761703598847362,8.761703598847362,8.761703598847362,8.761703598847362,E-W,0.0002384185791015,9.307,N-S,0.0002384185791015,11.187
20010104150800.knt,GNM0020101041508.UD,2001-01-04, 15:08:00,36.956,138.759,14.0,3.7,GNM002,36.7819,138.9695,494.0,2001-01-04, 15:08:09,100Hz,119.0,U-D,0.0002384185791015,9.275,26.933514633539566,1444.0,1444.0,34.50991155921461,0.2547158641958748,0.2487903967109732,0.7205148018454762,0.4846947557369819,0.2287278386217543,0.0032655255645201,0.0032655255645201,0.0013531575087183,0.001323133309619,0.0011430194513812,9.249766792472798,9.249766792472798,1.7230179410397473,1.7230179410397473,1.7230179410397473,E-W,0.0002384185791015,12.336,N-S,0.0002384185791015,22.797
20010104150800.knt,NIG0190101041508.UD,2001-01-04, 15:08:00,36.956,138.759,14.0,3.7,NIG019,37.3057,138.7898,52.0,2001-01-04, 15:08:18,100Hz,119.0,U-D,0.0002384185791015,0.894,38.980612068876695,835.0,833.0,18.678633830238724,2.653098764211796,3.071665465266212,3.985300648860792,4.436692270511152,4.831081091394402,0.0028978280896156,0.0028978280896156,0.0028978280896156,0.0028978280896156,0.0028978280896156,0.8994128135312518,0.8994128135312518,0.4756036182367866,0.4756036182367866,0.4756036182367866,E-W,0.0002384185791015,2.141,N-S,0.0002384185791015,5.218
20010104150800.knt,NIG0210101041508.UD,2001-01-04, 15:08:00,36.956,138.759,14.0,3.7,NIG021,37.1281,138.7468,147.0,2001-01-04, 15:08:12,100Hz,119.0,U-D,0.0002384185791015,2.448,19.16725679491,1099.0,1080.0,24.722530669128616,6.8129112634338815,6.390162214489859,4.509923253030014,4.56371930203418,4.168216289759803,0.0228826205668973,0.0191228997496492,0.0138945247066404,0.007628466752321,0.00392242712251,2.463862357758356,2.463862357758356,2.463862357758356,1.5434152058877524,0.9228062774105128,E-W,0.0002384185791015,7.567,N-S,0.0002384185791015,9.163
20010104150800.knt,NIG0220101041508.UD,2001-01-04, 15:08:00,36.956,138.759,14.0,3.7,NIG022,37.0364,138.8462,182.0,2001-01-04, 15:08:07,100Hz,119.0,U-D,0.0002384185791015,16.585,11.82777118106184,1423.0,1425.0,33.20770061244054,1.100580094728852,0.840380438034867,0.4307707471809429,0.2541612453741502,0.2153451718925388,0.0205537283134099,0.0205537283134099,0.0154826849557208,0.00940403000075,0.0049785302637105,16.624071843979237,16.624071843979237,16.624071843979237,16.624071843979237,16.624071843979237,E-W,0.0002384185791015,21.098,N-S,0.0002384185791015,37.322
20010104150800.knt,NIG0230101041508.UD,2001-01-04, 15:08:00,36.956,138.759,14.0,3.7,NIG023,37.0147,138.6529,241.0,2001-01-04, 15:08:07,100Hz,119.0,U-D,0.0002384185791015,6.805,11.4636053655449,1437.0,1439.0,30.75866353898741,2.721390732371072,2.8143508496547978,2.4923445896653997,1.6011574557931822,0.5135823488919034,0.0208525759118164,0.0208525759118164,0.0208525759118164,0.0143559055394119,0.0068154708239547,6.803757209749166,6.803757209749166,6.803757209749166,6.803757209749166,6.803757209749166,E-W,0.0002384185791015,25.981,N-S,0.0002384185791015,18.196
20010104223100.knt,FKS0220101042231.UD,2001-01-04, 22:31:00,37.423,139.715,6.0,3.6,FKS022,37.6002,139.6467,159.0,2001-01-04, 22:31:49,100Hz,119.0,U-D,0.0002384185791015,3.195,20.6041070436439,1119.0,1115.0,28.695893357632954,2.1796861630313558,2.609345118598886,4.41189465004951,6.3320082986863815,6.859031935665728,0.0151907024479564,0.0151907024479564,0.0151907024479564,0.0151907024479564,0.0151907024479564,3.1832851750505364,3.1832851750505364,2.254393052226257,2.0333387126871862,2.0333387126871862,E-W,0.0002384185791015,14.474,N-S,0.0002384185791015,11.905
20010104223100.knt,FKS0230101042231.UD,2001-01-04, 22:31:00,37.423,139.715,6.0,3.6,FKS023,37.4774,139.9294,219.0,2001-01-04, 22:31:50,100Hz,119.0,U-D,0.0002384185791015,2.133,19.869453409341236,1076.0,660.0,16.10881561565299,0.5422816165152547,0.5236743235460449,0.8931621828531765,0.6680597222770694,0.8254510804524212,0.0044468318942753,0.0044468318942753,0.0026341308873712,0.001498061437002,0.0013435629645871,1.9844224474169163,1.9844224474169163,1.9844224474169163,0.6641494762765785,0.5984284254049856,E-W,0.0002384185791015,5.686,N-S,0.0002384185791015,4.516
20010104223100.knt,FKS0260101042231.UD,2001-01-04, 22:31:00,37.423,139.715,6.0,3.6,FKS026,37.266,139.5386,492.0,2001-01-04, 22:31:50,100Hz,119.0,U-D,0.0002384185791015,2.855,23.40799395569154,1116.0,1113.0,27.01908298011636,0.6456129249819823,0.6234782893556189,0.7509510486714924,0.5837777046107298,0.4195510782921796,0.0053646246948244,0.0053646246948244,0.0036962957658921,0.0034200161229731,0.0034124244846127,2.856120768334698,2.856120768334698,2.856120768334698,2.856120768334698,2.856120768334698,E-W,0.0002384185791015,12.277,N-S,0.0002384185791015,8.571
20010104223100.knt,FKS0300101042231.UD,2001-01-04, 22:31:00,37.423,139.715,6.0,3.6,FKS030,37.453,139.5133,360.0,2001-01-04, 22:31:48,100Hz,119.0,U-D,0.0002384185791015,2.038,18.1178468254569,1155.0,1153.0,16.81269706852173,0.8465361074573041,0.800112731664075,0.8221920441671121,0.6007891227958723,0.701697511902876,0.0064641341252722,0.0064641341252722,0.0064641341252722,0.0034850507702455,0.0034850507702455,2.0299994068930287,2.0299994068930287,2.0299994068930287,1.1472570677041074,0.7572304467314328,E-W,0.0002384185791015,3.1,N-S,0.0002384185791015,4.129
20010105051500.knt,EHM0040101050515.UD,2001-01-05, 05:15:00,33.778,132.529,47.0,4.0,EHM004,34.0624,132.9982,3.0,2001-01-05, 05:15:27,100Hz,119.0,U-D,0.0002384185791015,1.11,53.613412944707946,549.0,548.0,22.91912673477204,0.8247158231705397,0.8041897471762142,0.7098345604368159,0.4439466191241663,0.2937737271575373,0.0016504252691533,0.0016504252691533,0.0016504252691533,0.0012672380367663,0.0012672380367663,1.1029301106245213,1.1029301106245213,1.1029301106245213,1.1029301106245213,1.1029301106245213,E-W,0.0002384185791015,2.625,N-S,0.0002384185791015,1.788
20010105051500.knt,EHM0070101050515.UD,2001-01-05, 05:15:00,33.778,132.529,47.0,4.0,EHM007,33.9621,132.7722,1.0,2001-01-05, 05:15:21,100Hz,119.0,U-D,0.0002384185791015,5.359,30.38458670688655,901.0,901.0,4.073093196222634,30.659334473137424,35.7656718584245,46.728477005755565,75.24090068408012,140.4751621738175,0.3497414731534526,0.3497414731534526,0.3497414731534526,0.3497414731534526,0.3497414731534526,2.523331767074556,2.4873069157338183,2.4873069157338183,2.4873069157338183,2.4873069157338183,E-W,0.0002384185791015,9.309,N-S,0.0002384185791015,13.87
20010105051500.knt,EHM0090101050515.UD,2001-01-05, 05:15:00,33.778,132.529,47.0,4.0,EHM009,33.6324,132.7963,250.0,2001-01-05, 05:15:21,100Hz,119.0,U-D,0.0002384185791015,5.817,29.555005407817056,897.0,951.0,15.842007116542554,0.7790823220184455,0.8783137464850375,0.978872310210874,0.7735617257657271,0.9341542999724248,0.0015791212442159,0.0015791212442159,0.0012450718468326,0.0007934619070542,0.0005927687597137,2.069413927703609,2.069413927703609,1.3210426187433086,1.0482328639488354,0.8217343340758766,E-W,0.0002384185791015,15.012,N-S,0.0002384185791015,9.666
20010105051500.knt,EHM0100101050515.UD,2001-01-05, 05:15:00,33.778,132.529,47.0,4.0,EHM010,33.4506,132.6881,151.0,2001-01-05, 05:15:24,100Hz,119.0,U-D,0.0002384185791015,2.405,39.27334604204864,695.0,711.0,23.25919277271444,4.377207751482487,5.172037413343073,5.16943115719233,4.898227898904781,2.7996859115682784,0.00493530776974,0.00493530776974,0.00493530776974,0.0044060393812591,0.0025849118877621,1.25763560856179,0.8976920667023788,0.8325542947409306,0.8325542947409306,0.8325542947409306,E-W,0.0002384185791015,4.257,N-S,0.0002384185791015,6.337
20010105051500.knt,EHM0110101050515.UD,2001-01-05, 05:15:00,33.778,132.529,47.0,4.0,EHM011,33.4496,132.4336,10.0,2001-01-05, 05:15:23,100Hz,119.0,U-D,0.0002384185791015,3.283,37.569818562749056,768.0,776.0,27.043978742928616,4.667555958000079,4.982114284563469,6.098313279922123,6.4748666508032064,6.345761477539309,0.0057018299611839,0.0057018299611839,0.0057018299611839,0.0057018299611839,0.0056176669712305,1.603332612511338,1.603332612511338,1.2341063903214184,1.2341063903214184,1.146451304409739,E-W,0.0002384185791015,8.972,N-S,0.0002384185791015,13.009
20010105051500.knt,EHM0120101050515.UD,2001-01-05, 05:15:00,33.778,132.529,47.0,4.0,EHM012,33.2217,132.5727,37.0,2001-01-05, 05:15:28,100Hz,119.0,U-D,0.0002384185791015,1.789,61.99030927460597,560.0,565.0,24.541416760173888,2.885179162103264,1.4589411804685863,1.0960100683619425,0.9204360228354193,0.8331419617628399,0.0057133976169819,0.0033202067378188,0.0017550802131259,0.0017550802131259,0.0017550802131259,1.1205407597776025,1.1205407597776025,1.1205407597776025,1.1205407597776025,0.9509773222970188,E-W,0.0002384185791015,4.958,N-S,0.0002384185791015,6.719
20010105051500.knt,EHM0130101050515.UD,2001-01-05, 05:15:00,33.778,132.529,47.0,4.0,EHM013,33.3924,132.1141,18.0,2001-01-05, 05:15:26,100Hz,59.0,U-D,0.0002384185791015,2.128,57.58050819138467,688.0,688.0,28.24947240493105,9.485006917189311,8.609901208174298,6.177811073211998,3.0549425065280267,2.3481201237352907,0.009017031879476,0.009017031879476,0.0084305742097919,0.0046318720067195,0.0007590836559064,0.7783208416076415,0.7783208416076415,0.7783208416076415,0.7766958216320208,0.2966965862643854,E-W,0.0002384185791015,7.671,N-S,0.0002384185791015,3.465
20010105051500.knt,EHM0140101050515.UD,2001-01-05, 05:15:00,33.778,132.529,47.0,4.0,EHM014,32.9453,132.5047,1.0,2001-01-05, 05:15:35,100Hz,119.0,U-D,0.0002384185791015,2.664,92.61951300715864,227.0,241.0,20.25558405581456,9.334349164676528,10.229002381441278,11.767956264252042,13.437463149879523,12.747951142590544,0.010207717721593,0.010207717721593,0.010207717721593,0.010207717721593,0.0100948220263287,1.3229589045966534,1.3229589045966534,1.3229589045966534,1.3229589045966534,1.3229589045966534,E-W,0.0002384185791015,7.829,N-S,0.0002384185791015,6.939
