earthquake name,records name,earthquake date,earthquake time,lat,long,depth,mag,stn_code,stn_lat,stn_long,stn_height,rcd_date,rcd_time,frequency,rcd_duration,direction,scale_factor,max_pga,epi_dist,pick_index_manually,pick_index_kalkan,snr_db_kalkan,tc_5sec,tc_4sec,tc_3sec,tc_2sec,tc_1sec,Pd_5sec,Pd_4sec,Pd_3sec,Pd_2sec,Pd_1sec,Pga_5sec,Pga_4sec,Pga_3sec,Pga_2sec,Pga_1sec,Channel,Scale_factor,PGA_ew,Channel.1,Scale_factor.1,PGA_ns
19960527053800.knt,SZO0199605270538.UD,1996-05-27, 05:38:00,34.903,138.197,30,4.7,SZO019,34.7699,137.9981,37,1996-05-27, 05:38:23,100Hz,59,U-D,0.0002384185791015,4.363,23.42166076976688,1454,1453.0,37.03423339090588,0.6110669882056013,0.5601181602360704,0.5287238129536537,0.5605927116287359,0.587977080389127,0.004446612495033,0.0035503790178872,0.0035503790178872,0.0035503790178872,0.0035503790178872,2.509497715452042,2.509497715452042,2.509497715452042,2.509497715452042,2.509497715452042,E-W,0.0002384185791015,11.578,N-S,0.0002384185791015,16.825
19960527053800.knt,SZO0209605270538.UD,1996-05-27, 05:38:00,34.903,138.197,30,4.7,SZO020,34.9394,138.076,142,1996-05-27, 05:38:21,100Hz,59,U-D,0.0002384185791015,10.981,11.751009482215991,1454,1457.0,26.667867546885414,0.4797399996119793,0.4344856948020468,0.4201193438155349,0.3659869174226193,0.2421431541678883,0.0117190409885601,0.0117190409885601,0.0076079466053392,0.0076079466053392,0.0076079466053392,10.937687124163103,10.937687124163103,10.937687124163103,10.937687124163103,10.937687124163103,E-W,0.0002384185791015,39.263,N-S,0.0002384185791015,67.144
19960527053800.knt,SZO0219605270538.UD,1996-05-27, 05:38:00,34.903,138.197,30,4.7,SZO021,35.0969,138.1332,441,1996-05-27, 05:38:22,100Hz,59,U-D,0.0002384185791015,2.742,22.330121049547746,1420,1419.0,32.86285201032678,1.2177219089135545,1.063152726309751,1.0583005241827912,0.545564647035447,0.3859202527837615,0.0047880303034306,0.0043793785716584,0.003144712258221,0.0020328530598355,0.001613679103613,2.7562728042368048,2.7562728042368048,2.7562728042368048,2.7562728042368048,2.7562728042368048,E-W,0.0002384185791015,10.685,N-S,0.0002384185791015,8.322
19960527053800.knt,SZO0239605270538.UD,1996-05-27, 05:38:00,34.903,138.197,30,4.7,SZO023,34.8738,137.8164,46,1996-05-27, 05:38:24,100Hz,59,U-D,0.0002384185791015,2.994,34.86586727209748,1452,1450.0,37.0004445726924,4.204217108734119,4.473721442795496,3.8498519508441142,2.5686201731358422,0.909297351236785,0.0308287173098299,0.0308287173098299,0.0307829504639062,0.0248639938385426,0.0106605303025717,2.981250079158597,2.981250079158597,2.981250079158597,2.981250079158597,2.981250079158597,E-W,0.0002384185791015,2.812,N-S,0.0002384185791015,2.371
19960527053800.knt,SZO0269605270538.UD,1996-05-27, 05:38:00,34.903,138.197,30,4.7,SZO026,34.9816,137.8975,133,1996-05-27, 05:38:23,100Hz,59,U-D,0.0002384185791015,7.795,28.664257089082074,1446,1434.0,26.46839448756496,0.554915867428662,0.6368741025041328,0.5987094798498367,0.4811021657108288,0.349081843693087,0.0102612082699043,0.0102612082699043,0.0102612082699043,0.0102612082699043,0.0102612082699043,7.799903565744532,7.799903565744532,7.799903565744532,7.799903565744532,7.799903565744532,E-W,0.0002384185791015,27.38,N-S,0.0002384185791015,21.569
19960527053800.knt,YMN0079605270538.UD,1996-05-27, 05:38:00,34.903,138.197,30,4.7,YMN007,35.2791,138.4649,123,1996-05-27, 05:38:33,100Hz,59,U-D,0.0002384185791015,2.338,48.40520726306864,685,620.0,8.87882697065557,22.774896097880333,22.058813093822152,19.50208152305485,14.555457099317527,9.22508108556384,0.1140985722674582,0.1140985722674582,0.1140985722674582,0.1111611396060252,0.0894438947176662,2.322032795636744,2.322032795636744,2.322032795636744,2.322032795636744,2.322032795636744,E-W,0.0002384185791015,5.002,N-S,0.0002384185791015,4.431
19960527053800.knt,YMN0099605270538.UD,1996-05-27, 05:38:00,34.903,138.197,30,4.7,YMN009,35.4965,138.4627,234,1996-05-27, 05:38:40,100Hz,59,U-D,0.0002384185791015,2.052,70.27137191996825,306,304.0,30.340392968550358,4.2610256726162685,3.5718119146722724,3.720286812339852,4.24013052457103,6.729887614266572,0.0078107399139721,0.0076789168788221,0.0076789168788221,0.0076789168788221,0.0076789168788221,0.6065498646761918,0.6065498646761918,0.6065498646761918,0.6065498646761918,0.5247861867847237,E-W,0.0002384185791015,4.695,N-S,0.0002384185791015,5.043
19960529173700.knt,GIF0129605291737.UD,1996-05-29, 17:37:00,35.003,135.647,17,3.9,GIF012,35.6365,136.4882,221,1996-05-29, 17:37:16,100Hz,59,U-D,0.0002384185791015,0.524,103.85912834894394,221,227.0,17.680764452330575,11.38119862266584,11.73319232130244,15.0981047946884,21.790007409220276,25.109784793512198,0.0065010907739136,0.0065010907739136,0.0065010907739136,0.0065010907739136,0.0065010907739136,0.3292191283358407,0.3292191283358407,0.3292191283358407,0.3292191283358407,0.2310063587750887,E-W,0.0002384185791015,3.534,N-S,0.0002384185791015,1.594
19960529173700.knt,GIF0269605291737.UD,1996-05-29, 17:37:00,35.003,135.647,17,3.9,GIF026,35.5912,136.7414,145,1996-05-29, 17:37:20,100Hz,59,U-D,0.0002384185791015,0.463,118.92051967994006,90,91.0,11.705914149167793,7.346097250829271,6.952996702107636,10.14206476962479,12.451066960570335,7.662768770343042,0.0056080817208705,0.0044719541439161,0.0044719541439161,0.0044719541439161,0.0038644956291914,0.1348033202124353,0.1348033202124353,0.1348033202124353,0.1348033202124353,0.1348033202124353,E-W,0.0002384185791015,2.705,N-S,0.0002384185791015,1.462
19960529173700.knt,HYG0159605291737.UD,1996-05-29, 17:37:00,35.003,135.647,17,3.9,HYG015,34.9515,135.2713,195,1996-05-29, 17:37:53,100Hz,299,U-D,0.0002384185791015,5.335,34.70603343675931,1435,381.0,13.894992468144016,1.2670266612570278,1.0347889034562718,0.6112223309960033,0.2243250002007963,0.1572237959107014,0.0037384347211368,0.0026561536573233,0.0021487572361259,0.0009344548146109,0.0008921120256224,5.331881908731313,5.331881908731313,5.331881908731313,5.331881908731313,5.331881908731313,E-W,0.0002384185791015,6.683,N-S,0.0002384185791015,4.91
19960529173700.knt,KYT0109605291737.UD,1996-05-29, 17:37:00,35.003,135.647,17,3.9,KYT010,35.2098,135.7738,402,1996-05-29, 17:37:51,100Hz,299,U-D,0.0002384185791015,4.513,25.725900799606823,1478,1478.0,25.86714361571083,1.5545722144834997,1.5004317211600202,1.631474520579727,1.008263519390931,0.3168123826863904,0.0035753696647266,0.0035753696647266,0.003345758851151,0.0026616566440981,0.00154793004983,4.409089313480351,4.409089313480351,4.409089313480351,4.409089313480351,4.409089313480351,E-W,0.0002384185791015,11.089,N-S,0.0002384185791015,12.462
19960529173700.knt,KYT0119605291737.UD,1996-05-29, 17:37:00,35.003,135.647,17,3.9,KYT011,35.017,135.5638,101,1996-05-29, 17:37:49,100Hz,59,U-D,0.0002384185791015,10.428,7.735648966638217,1470,1479.0,32.16859280208218,1.0387369238382562,0.6740929658141097,0.3564390887201381,0.2426408686963916,0.2073730068107418,0.0146210068272821,0.0141000458794664,0.0105241996655132,0.0030158131026752,0.0013446214628221,10.424108769836575,10.424108769836575,10.424108769836575,10.424108769836575,6.478255355545333,E-W,0.0002384185791015,16.975,N-S,0.0002384185791015,34.492
19960529173700.knt,KYT0129605291737.UD,1996-05-29, 17:37:00,35.003,135.647,17,3.9,KYT012,34.9962,135.8188,89,1996-05-29, 17:37:50,100Hz,59,U-D,0.0002384185791015,30.666,15.666829302955188,1457,1469.0,25.58393394444712,0.3962014857804414,0.2286573329328334,0.1436856919747292,0.2313579902931186,0.3075533987261942,0.0062732658085197,0.004852267283719,0.0047595549901034,0.0016532525150778,0.0016486561538292,30.76412758249034,30.76412758249034,30.76412758249034,8.971535143932412,7.328753107605726,E-W,0.0002384185791015,64.019,N-S,0.0002384185791015,50.035
19960529173700.knt,MIE0059605291737.UD,1996-05-29, 17:37:00,35.003,135.647,17,3.9,MIE005,34.7677,136.1151,134,1996-05-29, 17:37:56,100Hz,59,U-D,0.0002384185791015,3.673,50.075651058724524,1386,1390.0,22.487911403041508,1.5985127166611337,1.6193913013598902,1.5268661580231315,1.147822526682505,0.8058187173960635,0.002730623840235,0.002730623840235,0.002730623840235,0.0025440999055978,0.0020301783546107,3.6747710188497815,3.6747710188497815,3.6747710188497815,3.6747710188497815,3.6747710188497815,E-W,0.0002384185791015,3.947,N-S,0.0002384185791015,4.453
19960529173700.knt,NAR0029605291737.UD,1996-05-29, 17:37:00,35.003,135.647,17,3.9,NAR002,34.6683,135.8352,90,1996-05-29, 17:37:00,100Hz,59,U-D,0.0002384185791015,1.642,40.98946566774079,873,867.0,22.208386683531742,6.982204861724496,7.66928138336272,8.876593482180517,9.34647636520886,9.99622045543772,0.0063014355691608,0.0063014355691608,0.0063014355691608,0.0063014355691608,0.0063014355691608,0.9460751171160467,0.9460751171160467,0.9460751171160467,0.9460751171160467,0.945786252711038,E-W,0.0002384185791015,5.82,N-S,0.0002384185791015,5.921
19960529173700.knt,NAR0049605291737.UD,1996-05-29, 17:37:00,35.003,135.647,17,3.9,NAR004,34.5277,135.9526,311,1996-05-29, 17:37:05,100Hz,59,U-D,0.0002384185791015,4.513,59.77020246503754,646,663.0,15.808885322426487,18.89962100783102,17.181672978517103,13.878706643514835,9.703446366134614,5.4430205651274015,0.0423744662750888,0.0423744662750888,0.042255863544064,0.0378290544445767,0.0258909494802448,1.5160857910702157,1.5160857910702157,1.5160857910702157,1.5160857910702157,1.309029053112577,E-W,0.0002384185791015,4.257,N-S,0.0002384185791015,8.566
19960529173700.knt,NAR0069605291737.UD,1996-05-29, 17:37:00,35.003,135.647,17,3.9,NAR006,34.3383,135.9541,330,1996-05-29, 17:37:10,100Hz,59,U-D,0.0002384185791015,2.198,79.06701186066923,435,472.0,20.267206782699432,5.726414792068995,5.47764762636052,4.471697839014934,7.19132685195042,7.125060557622381,0.0041257741821974,0.0041257741821974,0.0038223138034643,0.0031169552953703,0.0023984477683475,0.9613185426769848,0.9613185426769848,0.9613185426769848,0.4030932505446425,0.3518918751699702,E-W,0.0002384185791015,3.027,N-S,0.0002384185791015,2.636
19960529173700.knt,OSK0019605291737.UD,1996-05-29, 17:37:00,35.003,135.647,17,3.9,OSK001,34.9659,135.4069,208,1996-05-29, 17:37:51,100Hz,59,U-D,0.0002384185791015,6.533,22.25940356569683,1448,1448.0,32.36731398893883,0.4164110366028145,0.612037094921128,0.9493603115734311,0.9614416748375134,0.9792753947722928,0.0068140174904122,0.0053219595344215,0.0053219595344215,0.0053219595344215,0.0053219595344215,6.540869951491636,6.540869951491636,6.540869951491636,6.540869951491636,6.540869951491636,E-W,0.0002384185791015,16.428,N-S,0.0002384185791015,12.837
19960529173700.knt,SIG0029605291737.UD,1996-05-29, 17:37:00,35.003,135.647,17,3.9,SIG002,35.4215,136.0243,95,1996-05-29, 17:37:04,100Hz,59,U-D,0.0002384185791015,2.946,57.796413013927946,717,717.0,22.923634340123247,1.1654289944947007,1.2667569566741532,1.1500763158885323,1.296111401686712,1.5142703389284238,0.0012147812682017,0.0012147812682017,0.0012147812682017,0.0012147812682017,0.0012147812682017,0.6187263328627804,0.6187263328627804,0.6187263328627804,0.6187263328627804,0.6187263328627804,E-W,0.0002384185791015,2.271,N-S,0.0002384185791015,3.853
19960529173700.knt,SIG0049605291737.UD,1996-05-29, 17:37:00,35.003,135.647,17,3.9,SIG004,35.3476,135.9184,187,1996-05-29, 17:37:00,100Hz,59,U-D,0.0002384185791015,4.293,45.5712012152944,891,891.0,32.46418724625886,4.277855419266698,4.3739011384959285,4.335911907176294,3.8049165730327097,2.7631197079893104,0.0050129003036203,0.0050129003036203,0.0050129003036203,0.0050129003036203,0.0049332299288575,4.290905636884346,4.290905636884346,4.290905636884346,4.290905636884346,4.290905636884346,E-W,0.0002384185791015,3.444,N-S,0.0002384185791015,3.699
19960529173700.knt,SIG0059605291737.UD,1996-05-29, 17:37:00,35.003,135.647,17,3.9,SIG005,35.2493,136.2421,93,1996-05-29, 17:37:05,100Hz,59,U-D,0.0002384185791015,0.989,60.65609194976897,643,642.0,15.189300843455957,2.419883095087489,2.534769874525592,2.775171312758072,2.761291983864032,2.286946694357437,0.0021337660847826,0.0021337660847826,0.0021337660847826,0.0021337660847826,0.0015994222257059,0.8350346405284927,0.8350346405284927,0.8350346405284927,0.8350346405284927,0.621098299841583,E-W,0.0002384185791015,3.217,N-S,0.0002384185791015,2.754
19960529173700.knt,SIG0089605291737.UD,1996-05-29, 17:37:00,35.003,135.647,17,3.9,SIG008,35.0701,136.2946,218,1996-05-29, 17:37:57,100Hz,59,U-D,0.0002384185791015,4.148,59.43074504683552,1442,1440.0,33.348619968362854,1.2449173311405917,1.140625055863553,1.1550337613337356,1.0300950901758976,0.783896728855395,0.0032045017451288,0.0032045017451288,0.0032045017451288,0.0032045017451288,0.0029848028371304,4.148174447651444,4.148174447651444,4.148174447651444,4.148174447651444,4.148174447651444,E-W,0.0002384185791015,2.553,N-S,0.0002384185791015,2.31
19960529173700.knt,SIG0099605291737.UD,1996-05-29, 17:37:00,35.003,135.647,17,3.9,SIG009,35.0051,136.0854,136,1996-05-29, 17:37:54,100Hz,59,U-D,0.0002384185791015,7.293,39.93057996317053,1421,1419.0,24.948411836168013,1.2449660369091395,1.001398801023717,0.7374641991727362,0.71707982782617,0.7470648589741058,0.0042679621101062,0.0042679621101062,0.0042679621101062,0.0042679621101062,0.0042679621101062,7.303986794244493,7.303986794244493,7.303986794244493,7.303986794244493,7.303986794244493,E-W,0.0002384185791015,5.273,N-S,0.0002384185791015,8.573
19960529173700.knt,SIG0109605291737.UD,1996-05-29, 17:37:00,35.003,135.647,17,3.9,SIG010,34.9718,135.8965,110,1996-05-29, 17:37:55,100Hz,59,U-D,0.0002384185791015,2.772,22.992579067653065,1068,1060.0,26.23416805799261,1.9189469551473803,2.6193939049726187,3.316068638073721,3.63987933948449,3.6774327984790074,0.0109458196607962,0.0109458196607962,0.0109458196607962,0.0109458196607962,0.0109458196607962,2.7579376099919037,2.7579376099919037,2.7579376099919037,2.594337226592122,2.594337226592122,E-W,0.0002384185791015,3.327,N-S,0.0002384185791015,3.019
19960529173700.knt,SIG0119605291737.UD,1996-05-29, 17:37:00,35.003,135.647,17,3.9,SIG011,34.8779,136.0587,283,1996-05-29, 17:37:54,100Hz,59,U-D,0.0002384185791015,8.312,40.02234852299436,1426,1429.0,27.53487902392829,1.322847151930613,1.3785488824001424,1.1985547163558368,0.6993792849961337,0.6168438360512242,0.0042651921847387,0.0042651921847387,0.0042188151987355,0.0031970877567637,0.0031970877567637,8.327447826813632,8.327447826813632,8.327447826813632,8.327447826813632,8.327447826813632,E-W,0.0002384185791015,10.614,N-S,0.0002384185791015,8.453
19960529173700.knt,SIG0129605291737.UD,1996-05-29, 17:37:00,35.003,135.647,17,3.9,SIG012,34.9043,136.2307,230,1996-05-29, 17:37:56,100Hz,59,U-D,0.0002384185791015,6.968,54.31695974434444,1461,1462.0,31.61911534487793,1.389619372933301,1.3813228370604556,1.0678931743431477,0.6234867561196065,0.5044419285647047,0.0030252403582642,0.0030252403582642,0.0026611535150224,0.0022232303092907,0.0022232303092907,6.9437526791514745,6.9437526791514745,6.9437526791514745,6.9437526791514745,6.9437526791514745,E-W,0.0002384185791015,5.611,N-S,0.0002384185791015,4.986
19960602183700.knt,KGS0329606021837.UD,1996-06-02, 18:37:00,27.504,128.498,50,5.7,KGS032,28.1388,129.3206,2,1996-06-02, 18:38:18,100Hz,59,U-D,0.0002384185791015,3.142,107.36123465713597,239,259.0,27.525360428352844,6.689125256400599,7.939384005996728,9.65730533156525,10.187809738772616,10.182827626566214,0.0398759108642773,0.0398759108642773,0.0398759108642773,0.0398759108642773,0.0362786005826715,1.501716139414756,1.3315776927964982,1.1366721863172788,1.1366721863172788,1.1366721863172788,E-W,0.0002384185791015,11.12,N-S,0.0002384185791015,7.354
19960602183700.knt,KGS0339606021837.UD,1996-06-02, 18:37:00,27.504,128.498,50,5.7,KGS033,27.6882,128.9427,135,1996-06-02, 18:38:59,100Hz,73,U-D,0.0002384185791015,39.259,48.37310834058144,1391,1393.0,54.30506660044092,0.7126221660631743,0.8302011436014215,0.9720368400892876,0.9573618658763128,1.0510896530167553,0.0267481437731476,0.0267481437731476,0.0267481437731476,0.0267481437731476,0.0267481437731476,15.014244255698127,13.200218896941486,11.522110001281044,11.522110001281044,9.63049340539627,E-W,0.0002384185791015,61.073,N-S,0.0002384185791015,61.155
19960602183700.knt,KGS0349606021837.UD,1996-06-02, 18:37:00,27.504,128.498,50,5.7,KGS034,27.334,128.5743,24,1996-06-02, 18:38:56,100Hz,59,U-D,0.0002384185791015,25.422,20.348114376877643,1420,1433.0,37.22388919857436,1.040329797144761,1.1032104092860755,1.0996732875831154,1.0806205246293037,1.0766020072370566,0.1623847981021101,0.1623847981021101,0.1623847981021101,0.1623847981021101,0.1623847981021101,18.700047194233917,18.700047194233917,18.700047194233917,18.700047194233917,18.700047194233917,E-W,0.0002384185791015,96.556,N-S,0.0002384185791015,76.021
19960602183700.knt,KGS0359606021837.UD,1996-06-02, 18:37:00,27.504,128.498,50,5.7,KGS035,27.0522,128.4241,44,1996-06-02, 18:38:59,100Hz,64,U-D,0.0002384185791015,34.961,50.76596963450963,1392,1403.0,36.97249601144729,0.5826450206525403,0.6067336841659139,0.6428237215353252,0.6023625988975876,0.5710358848030522,0.0644352846546076,0.0644352846546076,0.0644352846546076,0.0644352846546076,0.0644352846546076,23.431317899715225,23.431317899715225,23.431317899715225,23.431317899715225,23.431317899715225,E-W,0.0002384185791015,86.157,N-S,0.0002384185791015,85.144
19960602183700.knt,OKN0019606021837.UD,1996-06-02, 18:37:00,27.504,128.498,50,5.7,OKN001,26.7402,128.1736,7,1996-06-02, 18:38:05,100Hz,299,U-D,0.0002384185791015,8.522,90.7960913562457,1292,1307.0,29.922484986892268,0.5080811765571167,0.5223622881898382,0.5413702425977152,0.5517868113996889,1.0471118355409064,0.0095864865101293,0.0095864865101293,0.0095864865101293,0.0095864865101293,0.0069699596783628,3.943032259916965,3.795751367911151,3.795751367911151,2.931057596597165,2.029044431389998,E-W,0.0002384185791015,34.721,N-S,0.0002384185791015,28.788
19960602183700.knt,OKN0029606021837.UD,1996-06-02, 18:37:00,27.504,128.498,50,5.7,OKN002,26.5916,127.9767,3,1996-06-02, 18:38:15,100Hz,62,U-D,0.0002384185791015,5.219,113.83368787358134,622,639.0,28.815817542310832,6.603946466553051,6.708219425902771,6.205035159466602,5.905054687900922,3.21589295509749,0.0292428273790121,0.0292428273790121,0.0292428273790121,0.0253594662703936,0.0177823376579357,1.857241601899489,1.857241601899489,1.5733620939701891,1.050331008729814,0.4372990809488725,E-W,0.0002384185791015,14.407,N-S,0.0002384185791015,13.404
19960602204500.knt,FKS0239606022045.UD,1996-06-02, 20:45:00,37.053,139.347,12,4.3,FKS023,37.4774,139.9294,219,1996-06-02, 20:46:56,100Hz,59,U-D,0.0002384185791015,1.821,69.8798336316443,464,465.00000000000006,18.969104212497623,1.9802446407453012,1.6015451302139916,1.3849600647950733,1.2799636347605976,1.6112453671035734,0.0061536046937594,0.0049139017653339,0.0049139017653339,0.0049139017653339,0.0049139017653339,1.680325886391211,1.680325886391211,1.680325886391211,1.680325886391211,1.636187178838734,E-W,0.0002384185791015,4.69,N-S,0.0002384185791015,5.338
19960602204500.knt,FKS0259606022045.UD,1996-06-02, 20:45:00,37.053,139.347,12,4.3,FKS025,37.3077,139.9,415,1996-06-02, 20:46:45,100Hz,59,U-D,0.0002384185791015,4.099,56.58884780140409,1285,1315.0,26.523407188452477,0.4319799183938781,0.4172300121517417,0.4290368319895055,0.4656097282842747,0.5312144815633434,0.0011497931964894,0.0011497931964894,0.0011497931964894,0.0011497931964894,0.0010407872353827,1.1043167316332672,1.1043167316332672,1.1043167316332672,1.1043167316332672,0.9352063639278632,E-W,0.0002384185791015,8.932,N-S,0.0002384185791015,6.675
19960602204500.knt,FKS0299606022045.UD,1996-06-02, 20:45:00,37.053,139.347,12,4.3,FKS029,37.0609,139.4135,850,1996-06-02, 20:46:35,100Hz,299,U-D,0.0002384185791015,129.952,5.966078830012328,1461,1475.0,15.494789174005671,0.4520461530746083,0.4509735619589378,0.4453449907676085,0.440632226231782,0.3470488524215986,0.0749957928710563,0.0749957928710563,0.0749957928710563,0.0749957928710563,0.0185650561214273,129.78360344060997,129.78360344060997,129.78360344060997,129.78360344060997,66.94285071133207,E-W,0.0002384185791015,350.082,N-S,0.0002384185791015,305.932
