earthquake name,records name,earthquake date,earthquake time,lat,long,depth,mag,stn_code,stn_lat,stn_long,stn_height,rcd_date,rcd_time,frequency,rcd_duration,direction,scale_factor,max_pga,epi_dist,pick_index_manually,pick_index_kalkan,snr_db_kalkan,tc_5sec,tc_4sec,tc_3sec,tc_2sec,tc_1sec,Pd_5sec,Pd_4sec,Pd_3sec,Pd_2sec,Pd_1sec,Pga_5sec,Pga_4sec,Pga_3sec,Pga_2sec,Pga_1sec,Channel,Scale_factor,PGA_ew,Channel.1,Scale_factor.1,PGA_ns
20010104131800.knt,FKS0160101041318.UD,2001-01-04, 13:18:00,36.961,138.759,14.0,5.1,FKS016,37.1228,140.1914,375.0,2001-01-04, 13:19:45,100Hz,119.0,U-D,0.0002384185791015,4.16,128.3984449868464,1370.0,1374.0,15.81021104669015,1.1864062454226088,1.07066577095719,1.0739590176103904,0.874674778175888,1.0682469091621076,0.0169352346140048,0.0111123633402571,0.0111123633402571,0.0111123633402571,0.0106902158618179,4.144841237874882,4.144841237874882,4.144841237874882,4.144841237874882,4.144841237874882,E-W,0.0002384185791015,4.568,N-S,0.0002384185791015,6.731
20010104131800.knt,FKS0220101041318.UD,2001-01-04, 13:18:00,36.961,138.759,14.0,5.1,FKS022,37.6002,139.6467,159.0,2001-01-04, 13:19:42,100Hz,119.0,U-D,0.0002384185791015,5.627,105.9246089613694,1265.0,711.0,21.80128825855496,0.8992122961688515,0.9161531260483085,0.925365722628449,0.9199552961839692,0.8047024596289822,0.0147622361118795,0.0147622361118795,0.0147622361118795,0.0147622361118795,0.0112276652575305,2.414268989100472,2.414268989100472,2.414268989100472,2.414268989100472,1.8236293585796963,E-W,0.0002384185791015,11.943,N-S,0.0002384185791015,10.168
20010104131800.knt,FKS0240101041318.UD,2001-01-04, 13:18:00,36.961,138.759,14.0,5.1,FKS024,37.3957,140.1325,527.0,2001-01-04, 13:19:45,100Hz,119.0,U-D,0.0002384185791015,4.789,130.93286634916814,1360.0,1360.0,32.73413143710236,0.8776785559563398,0.891180917486807,0.9093907634882532,0.8501550293142215,0.7183958405991229,0.0260532379973565,0.0260532379973565,0.0260532379973565,0.0260532379973565,0.0260532379973565,4.842335867090729,4.842335867090729,4.842335867090729,4.842335867090729,4.842335867090729,E-W,0.0002384185791015,7.418,N-S,0.0002384185791015,6.52
20010104131800.knt,FKS0250101041318.UD,2001-01-04, 13:18:00,36.961,138.759,14.0,5.1,FKS025,37.3077,139.9,415.0,2001-01-04, 13:19:41,100Hz,119.0,U-D,0.0002384185791015,11.592,108.24308694610713,1408.0,1436.0,20.108734943543546,1.1286884589488984,1.1114025334200528,0.9152277221293952,0.7034707573377391,0.7840404232245254,0.0242432823563469,0.0242432823563469,0.0242432823563469,0.0242432823563469,0.0242432823563469,6.782444855194414,6.782444855194414,6.782444855194414,6.782444855194414,4.678640761380869,E-W,0.0002384185791015,16.24,N-S,0.0002384185791015,15.645
20010104131800.knt,FKS0260101041318.UD,2001-01-04, 13:18:00,36.961,138.759,14.0,5.1,FKS026,37.266,139.5386,492.0,2001-01-04, 13:19:37,100Hz,119.0,U-D,0.0002384185791015,8.479,76.9990421999489,1293.0,1300.0,39.67807744697428,0.7970231287561149,0.7995273403476199,0.7941022945613649,0.7901555496872187,0.884899101647073,0.022012464203901,0.022012464203901,0.022012464203901,0.022012464203901,0.0199423891091694,8.451937889085164,8.451937889085164,8.451937889085164,8.451937889085164,5.40479988604337,E-W,0.0002384185791015,13.756,N-S,0.0002384185791015,19.23
20010104131800.knt,FKS0270101041318.UD,2001-01-04, 13:18:00,36.961,138.759,14.0,5.1,FKS027,37.07,139.6808,830.0,2001-01-04, 13:19:37,100Hz,119.0,U-D,0.0002384185791015,7.167,82.73527177137935,1367.0,1383.0,30.83710031352572,2.589296989682879,2.566960976149649,1.9873582461778436,1.3103033042650545,0.9031685153057192,0.0151674542318017,0.0151674542318017,0.0141388549531169,0.0141388549531169,0.0071026849141292,7.154517379652772,7.154517379652772,7.154517379652772,7.154517379652772,4.130749968832415,E-W,0.0002384185791015,22.284,N-S,0.0002384185791015,27.93
20010104131800.knt,FKS0290101041318.UD,2001-01-04, 13:18:00,36.961,138.759,14.0,5.1,FKS029,37.0159,139.3801,957.0,2001-01-04, 13:19:32,100Hz,119.0,U-D,0.0002384185791015,18.345,55.50131786623623,1423.0,1423.0,42.78313236418451,1.3580960452402135,1.2063456923925482,1.035625955086697,0.7641680701336719,0.7803513642278291,0.0108355301649158,0.0108355301649158,0.0108355301649158,0.0108355301649158,0.0108355301649158,7.777628742956102,7.777628742956102,7.777628742956102,7.777628742956102,6.671968825010536,E-W,0.0002384185791015,22.973,N-S,0.0002384185791015,54.07
20010104131800.knt,FKS0300101041318.UD,2001-01-04, 13:18:00,36.961,138.759,14.0,5.1,FKS030,37.453,139.5133,360.0,2001-01-04, 13:19:39,100Hz,119.0,U-D,0.0002384185791015,5.992,86.34461714196334,1252.0,1282.0,20.682444367131552,0.8637979929540774,0.8753864799636399,0.8884103342287222,0.9402120212259094,0.995832564267622,0.012068615383225,0.012068615383225,0.012068615383225,0.012068615383225,0.011031937822887,2.636338986319259,2.636338986319259,2.636338986319259,2.535865581315041,1.5242937379393409,E-W,0.0002384185791015,7.715,N-S,0.0002384185791015,10.003
20010104131800.knt,GNM0010101041318.UD,2001-01-04, 13:18:00,36.961,138.759,14.0,5.1,GNM001,36.7722,139.2248,810.0,2001-01-04, 13:19:31,100Hz,119.0,U-D,0.0002384185791015,37.011,46.45198964300241,1379.0,1399.0,30.16339601310378,0.9885191309813984,0.9015761491898584,0.8595460868236057,0.5837870171463599,0.3417140716425127,0.02619217298821,0.02619217298821,0.02619217298821,0.0246114108144577,0.0071783346788702,29.25341080694998,29.25341080694998,29.25341080694998,29.25341080694998,18.642236462363503,E-W,0.0002384185791015,37.029,N-S,0.0002384185791015,51.214
20010104131800.knt,GNM0020101041318.UD,2001-01-04, 13:18:00,36.961,138.759,14.0,5.1,GNM002,36.7819,138.9695,494.0,2001-01-04, 13:19:27,100Hz,119.0,U-D,0.0002384185791015,37.129,27.33544573804292,1458.0,1466.0,39.20997179362074,0.6327951940279459,0.487378283223579,0.5536270483493718,0.3045126808290444,0.321010038700611,0.0455097435994396,0.0257702479665116,0.0157236627775078,0.0090311843259251,0.0081958288627645,37.1574435280846,34.64657966990345,18.08429026255055,18.08429026255055,14.310640245347912,E-W,0.0002384185791015,112.065,N-S,0.0002384185791015,73.887
20010104131800.knt,GNM0030101041318.UD,2001-01-04, 13:18:00,36.961,138.759,14.0,5.1,GNM003,36.6578,139.0784,462.0,2001-01-04, 13:19:33,100Hz,119.0,U-D,0.0002384185791015,14.433,44.10440164457224,1153.0,1215.0,23.7690616351072,1.0303106159531763,1.1251336109508427,0.8404961747337663,0.5920440320248822,1.1838483714967851,0.0128616437091679,0.0128616437091679,0.0115891407412395,0.0067925384148282,0.0061392657744112,7.23785646066462,7.23785646066462,7.23785646066462,7.23785646066462,3.214032584375482,E-W,0.0002384185791015,28.894,N-S,0.0002384185791015,26.622
20010104131800.knt,GNM0040101041318.UD,2001-01-04, 13:18:00,36.961,138.759,14.0,5.1,GNM004,36.6172,138.5918,1222.0,2001-01-04, 13:19:31,100Hz,120.0,U-D,0.0002384185791015,5.859,41.02593430715103,1309.0,1322.0,30.37732573357009,2.267297195704605,1.9311013884963315,1.9802189018772585,1.7919198638408378,0.6973640265646969,0.0452002663275971,0.0285489440827825,0.0241156726415526,0.0236617552234254,0.0068296732135594,2.936831044940437,2.936831044940437,2.936831044940437,2.2181929969259078,2.0814269545549724,E-W,0.0002384185791015,16.396,N-S,0.0002384185791015,15.041
20010104131800.knt,GNM0050101041318.UD,2001-01-04, 13:18:00,36.961,138.759,14.0,5.1,GNM005,36.5133,138.5177,900.0,2001-01-04, 13:19:40,100Hz,119.0,U-D,0.0002384185791015,1.569,54.2271814881998,672.0,632.0,25.316024608719783,2.225852743239064,1.6064899474453285,1.4304951996353277,0.7814125742268282,0.6159112639496666,0.0339260020728712,0.0207181007361152,0.0146140605588903,0.0057158176968414,0.0011373904292761,1.4742945843670758,1.4742945843670758,1.4742945843670758,1.4742945843670758,0.2911876677348372,E-W,0.0002384185791015,3.239,N-S,0.0002384185791015,2.532
20010104131800.knt,GNM0060101041318.UD,2001-01-04, 13:18:00,36.961,138.759,14.0,5.1,GNM006,36.5103,138.7523,549.0,2001-01-04, 13:19:31,100Hz,119.0,U-D,0.0002384185791015,15.997,50.11910973760828,1441.0,1455.0,23.582255440621744,0.7230737622987748,0.642193822377417,0.5684350748849011,0.4202334220594673,0.3574151457523998,0.0080153267319652,0.0080153267319652,0.0080153267319652,0.0056812031681561,0.0054941013825749,6.91520762294685,6.91520762294685,6.91520762294685,6.91520762294685,6.91520762294685,E-W,0.0002384185791015,15.9,N-S,0.0002384185791015,13.899
20010104131800.knt,GNM0070101041318.UD,2001-01-04, 13:18:00,36.961,138.759,14.0,5.1,GNM007,36.4619,139.0101,186.0,2001-01-04, 13:19:41,100Hz,119.0,U-D,0.0002384185791015,5.361,59.84106932826997,663.0,663.0,23.952097043685043,3.6841944177690618,4.393560417672041,4.082792741709755,2.565756505749337,1.8647488630137297,0.0185428194373355,0.0185428194373355,0.0174349474283944,0.0102498626377649,0.0063707021316042,2.426685210142995,2.426685210142995,2.426685210142995,2.426685210142995,2.426685210142995,E-W,0.0002384185791015,8.859,N-S,0.0002384185791015,11.624
20010104131800.knt,GNM0080101041318.UD,2001-01-04, 13:18:00,36.961,138.759,14.0,5.1,GNM008,36.3478,139.1368,77.0,2001-01-04, 13:19:46,100Hz,119.0,U-D,0.0002384185791015,1.772,76.05892298446699,434.0,455.0,18.69545746753473,1.286241560440912,0.9406160947995597,0.7847393697305398,0.792396751777097,0.6335187773492861,0.0064044983862681,0.0035337161050289,0.0035337161050289,0.0035337161050289,0.0019236664193847,1.0642487856656275,1.0642487856656275,1.0642487856656275,1.0642487856656275,1.0642487856656275,E-W,0.0002384185791015,2.914,N-S,0.0002384185791015,3.488
20010104131800.knt,GNM0090101041318.UD,2001-01-04, 13:18:00,36.961,138.759,14.0,5.1,GNM009,36.4106,139.3251,114.0,2001-01-04, 13:19:46,100Hz,119.0,U-D,0.0002384185791015,4.043,79.33297980612572,438.0,437.0,12.443203866989547,8.446260249000368,6.654886170499503,5.30197985136094,5.239697647834871,6.755099716218792,0.0852131113107173,0.0852131113107173,0.0852131113107173,0.0852131113107173,0.0852131113107173,2.9809919922699573,2.9809919922699573,2.9809919922699573,2.9809919922699573,2.9809919922699573,E-W,0.0002384185791015,13.384,N-S,0.0002384185791015,11.478
20010104131800.knt,GNM0130101041318.UD,2001-01-04, 13:18:00,36.961,138.759,14.0,5.1,GNM013,36.3181,139.0176,93.0,2001-01-04, 13:19:38,100Hz,119.0,U-D,0.0002384185791015,4.404,75.11843304858752,1254.0,1261.0,17.07081184970494,0.8501540338351601,0.8476027337441626,0.6888917943299685,0.4163268140279049,0.2706565257251099,0.0072178865894765,0.0072178865894765,0.0072178865894765,0.0053069541436864,0.0053069541436864,4.4064286893851365,4.4064286893851365,4.4064286893851365,4.4064286893851365,4.4064286893851365,E-W,0.0002384185791015,16.519,N-S,0.0002384185791015,14.055
20010104131800.knt,GNM0150101041318.UD,2001-01-04, 13:18:00,36.961,138.759,14.0,5.1,GNM015,36.2287,138.7579,296.0,2001-01-04, 13:19:46,100Hz,119.0,U-D,0.0002384185791015,1.171,81.42810399616509,445.0,470.0,19.06867764279288,4.979208776791232,6.6605717320122295,4.7838039322688655,2.8301329433595868,1.676280692429646,0.0105978201692311,0.0105978201692311,0.0100839359751224,0.0045078575925237,0.0019863363483569,0.7954315508706473,0.7954315508706473,0.7954315508706473,0.7152037536740757,0.610997054850322,E-W,0.0002384185791015,4.427,N-S,0.0002384185791015,1.627
20010104131800.knt,GNM0160101041318.UD,2001-01-04, 13:18:00,36.961,138.759,14.0,5.1,GNM016,36.1162,138.9251,344.0,2001-01-04, 13:19:49,100Hz,119.0,U-D,0.0002384185791015,2.835,95.10229514493103,353.0,379.0,21.563739587839205,7.490901296315612,6.166565434462929,5.692213188927815,7.146245425194436,12.619879586959504,0.0093286917150967,0.0090917553880761,0.0081845617115854,0.0081845617115854,0.0081845617115854,0.6638284102534269,0.6638284102534269,0.5881366379652971,0.5881366379652971,0.4195365557310958,E-W,0.0002384185791015,6.061,N-S,0.0002384185791015,7.154
20010104131800.knt,NGN0010101041318.UD,2001-01-04, 13:18:00,36.961,138.759,14.0,5.1,NGN001,36.8514,138.366,315.0,2001-01-04, 13:19:29,100Hz,119.0,U-D,0.0002384185791015,24.686,37.0072583034714,1429.0,1428.0,37.41359447210784,1.0856590740052836,0.9540030224646664,0.8870104468681641,0.879820259295755,0.9125846038565016,0.0615421158795599,0.0556821664717822,0.0556821664717822,0.0556821664717822,0.0556821664717822,24.645524992026097,24.645524992026097,24.645524992026097,24.645524992026097,22.07552744067707,E-W,0.0002384185791015,50.203,N-S,0.0002384185791015,59.577
20010104131800.knt,NGN0030101041318.UD,2001-01-04, 13:18:00,36.961,138.759,14.0,5.1,NGN003,36.7403,138.4129,581.0,2001-01-04, 13:19:29,100Hz,119.0,U-D,0.0002384185791015,23.193,39.37765649672684,1420.0,1439.0,21.09943158029616,1.7798680629771677,1.5714481767632884,1.3139864533206378,0.7983603897900163,0.5866124654523377,0.0621556759742292,0.0272579434655342,0.0272579434655342,0.0191248584017973,0.0188990932680269,23.256769800196537,23.256769800196537,23.256769800196537,23.256769800196537,23.256769800196537,E-W,0.0002384185791015,35.986,N-S,0.0002384185791015,33.399
20010104131800.knt,NGN0040101041318.UD,2001-01-04, 13:18:00,36.961,138.759,14.0,5.1,NGN004,36.6486,138.1938,360.0,2001-01-04, 13:19:34,100Hz,119.0,U-D,0.0002384185791015,4.812,61.14596645064183,1318.0,1334.0,19.807115254926742,1.8057323524945432,1.68849609034031,1.7799422192717664,1.62027714656116,1.4734822161506045,0.0174007229231349,0.0174007229231349,0.0174007229231349,0.0174007229231349,0.0174007229231349,3.589224362694851,3.589224362694851,3.589224362694851,3.589224362694851,3.589224362694851,E-W,0.0002384185791015,8.051,N-S,0.0002384185791015,8.87
20010104131800.knt,NGN0050101041318.UD,2001-01-04, 13:18:00,36.961,138.759,14.0,5.1,NGN005,36.6981,137.8544,700.0,2001-01-04, 13:19:49,100Hz,119.0,U-D,0.0002384185791015,0.98,85.65444550430522,219.0,219.0,21.043221069101666,2.2106827669546503,2.613615659769417,2.9538329842036317,2.787013284305159,1.874766522337609,0.0253066249998148,0.0253066249998148,0.0253066249998148,0.0253066249998148,0.0154706620842417,0.968945990996348,0.968945990996348,0.968945990996348,0.968945990996348,0.8411915423800916,E-W,0.0002384185791015,1.921,N-S,0.0002384185791015,2.601
20010104131800.knt,NGN0060101041318.UD,2001-01-04, 13:18:00,36.961,138.759,14.0,5.1,NGN006,36.5086,137.8507,733.0,2001-01-04, 13:19:39,100Hz,119.0,U-D,0.0002384185791015,3.53,95.29906754587572,1404.0,1396.0,20.78235898032568,1.2226796276180534,0.8459463593225964,0.8698888622437811,0.8797498259828525,0.760108609017803,0.013827349254279,0.0098538488366264,0.0098538488366264,0.0098538488366264,0.0098538488366264,3.5216451800184303,3.5216451800184303,3.5216451800184303,3.5216451800184303,2.80626470986145,E-W,0.0002384185791015,9.302,N-S,0.0002384185791015,7.824
20010104131800.knt,NIG0050101041318.UD,2001-01-04, 13:18:00,36.961,138.759,14.0,5.1,NIG005,37.9204,138.4981,4.0,2001-01-04, 13:19:54,100Hz,119.0,U-D,0.0002384185791015,4.272,109.13864208891012,11.0,55.00000000000001,11.6495364558999,7.977504919868894,7.942966302677502,6.72633146169369,5.169575350876249,3.288169040042096,0.0173470504588078,0.0173470504588078,0.0173470504588078,0.0112007962283631,0.0075061624199653,1.4226637535051805,1.4226637535051805,1.4226637535051805,1.4226637535051805,0.5788706536419539,E-W,0.0002384185791015,11.03,N-S,0.0002384185791015,6.426
20010104131800.knt,NIG0150101041318.UD,2001-01-04, 13:18:00,36.961,138.759,14.0,5.1,NIG015,37.6935,139.1886,34.0,2001-01-04, 13:19:49,100Hz,119.0,U-D,0.0002384185791015,2.361,89.87206664451365,280.0,292.0,14.568743526916387,10.719089658990203,10.619345938068742,12.998042924115726,18.4758321087579,39.69795631326219,0.1170228738740706,0.1170228738740706,0.1170228738740706,0.1170228738740706,0.1170228738740706,1.1353896360476308,1.1353896360476308,1.1353896360476308,1.1353896360476308,0.940663580769174,E-W,0.0002384185791015,4.3,N-S,0.0002384185791015,5.148
20010104131800.knt,NIG0170101041318.UD,2001-01-04, 13:18:00,36.961,138.759,14.0,5.1,NIG017,37.4416,138.8431,22.0,2001-01-04, 13:19:32,100Hz,119.0,U-D,0.0002384185791015,8.387,53.95687816254208,1447.0,1461.0,24.90232494923704,2.3431144179831005,2.4330465921311824,2.303961257914682,1.2553064346755245,0.7097569793381205,0.0289734362565266,0.0289734362565266,0.0275741621037841,0.0146061649159764,0.0140193310812372,8.341676577315665,8.341676577315665,8.341676577315665,8.341676577315665,8.341676577315665,E-W,0.0002384185791015,24.651,N-S,0.0002384185791015,23.965
20010104131800.knt,NIG0180101041318.UD,2001-01-04, 13:18:00,36.961,138.759,14.0,5.1,NIG018,37.3724,138.5579,10.0,2001-01-04, 13:19:34,100Hz,120.0,U-D,0.0002384185791015,7.543,49.09361298667822,1183.0,1178.0,28.37205562793372,1.42610313028215,1.6264108610809496,1.3516325451826277,1.2072241460173525,1.2140053984264154,0.0308531807194122,0.0308531807194122,0.0265421065426785,0.0265421065426785,0.0265421065426785,2.6191278080804192,2.6191278080804192,2.6191278080804192,2.6191278080804192,2.6191278080804192,E-W,0.0002384185791015,22.94,N-S,0.0002384185791015,32.625
20010104131800.knt,NIG0190101041318.UD,2001-01-04, 13:18:00,36.961,138.759,14.0,5.1,NIG019,37.3057,138.7898,52.0,2001-01-04, 13:19:30,100Hz,123.0,U-D,0.0002384185791015,13.48,38.42601639748942,1437.0,1430.0,47.16919817353969,0.9717636808502884,0.9408116841254864,0.643750350269985,0.5516516448185423,0.4822918364369898,0.0623051089462848,0.0574973481971638,0.0158243152392594,0.0144866474295227,0.0135428842585876,11.288683094907196,11.288683094907196,8.267121239870901,8.267121239870901,8.267121239870901,E-W,0.0002384185791015,111.014,N-S,0.0002384185791015,114.165
20010104131800.knt,NIG0200101041318.UD,2001-01-04, 13:18:00,36.961,138.759,14.0,5.1,NIG020,37.2332,138.962,93.0,2001-01-04, 13:19:29,100Hz,119.0,U-D,0.0002384185791015,12.667,35.2172785239334,1387.0,1382.0,36.44126779316628,2.1813686773080145,2.736090642394217,2.5334254500721216,1.7732075116855746,1.022423018166127,0.0452849153208387,0.0428763271069941,0.0413728372043112,0.0323711045853129,0.0269155061740699,8.620730127375968,5.650388906454971,5.650388906454971,5.650388906454971,4.578315261689067,E-W,0.0002384185791015,20.313,N-S,0.0002384185791015,24.28
20010104131800.knt,NIG0210101041318.UD,2001-01-04, 13:18:00,36.961,138.759,14.0,5.1,NIG021,37.1281,138.7468,147.0,2001-01-04, 13:19:27,100Hz,119.0,U-D,0.0002384185791015,51.849,18.61219447818816,1410.0,1423.0,32.4695305906608,0.7956642153936307,0.703531391111684,0.7474580820690004,0.7225397344770665,0.655384681978118,0.2110255110118492,0.2079708158632586,0.0736682276149167,0.0637622423636858,0.0462848910709515,51.57422581338407,51.57422581338407,51.57422581338407,22.34677615682805,22.15998228405265,E-W,0.0002384185791015,246.118,N-S,0.0002384185791015,158.79
20010104131800.knt,NIG0220101041318.UD,2001-01-04, 13:18:00,36.961,138.759,14.0,5.1,NIG022,37.0364,138.8462,182.0,2001-01-04, 13:19:25,100Hz,119.0,U-D,0.0002384185791015,163.107,11.413169247641948,1420.0,1430.0,42.64328249740703,0.7088065793240872,0.7163083615059676,0.7133490204591963,0.736008205422203,1.0959961241189866,0.4471543191754129,0.4471543191754129,0.4471543191754129,0.2068026504736331,0.1892159961966499,164.16718709699424,164.16718709699424,164.16718709699424,78.10981467918043,78.04078423470654,E-W,0.0002384185791015,296.381,N-S,0.0002384185791015,270.635
20010104131800.knt,NIG0230101041318.UD,2001-01-04, 13:18:00,36.961,138.759,14.0,5.1,NIG023,37.0147,138.6529,241.0,2001-01-04, 13:19:25,100Hz,143.0,U-D,0.0002384185791015,69.529,11.156149472761212,1436.0,1436.0,56.2534388993099,1.0451723400822654,1.0682871918457593,1.220927158394207,0.942208486521797,0.8688175489911023,0.8536213130059411,0.8536213130059411,0.8536213130059411,0.3215436351989579,0.2169134968392945,68.87652620603488,68.87652620603488,68.87652620603488,68.87652620603488,68.87652620603488,E-W,0.0002384185791015,411.559,N-S,0.0002384185791015,231.685
