earthquake name,records name,earthquake date,earthquake time,lat,long,depth,mag,stn_code,stn_lat,stn_long,stn_height,rcd_date,rcd_time,frequency,rcd_duration,direction,scale_factor,max_pga,epi_dist,pick_index_manually,pick_index_kalkan,snr_db_kalkan,tc_5sec,tc_4sec,tc_3sec,tc_2sec,tc_1sec,Pd_5sec,Pd_4sec,Pd_3sec,Pd_2sec,Pd_1sec,Pga_5sec,Pga_4sec,Pga_3sec,Pga_2sec,Pga_1sec,Channel,Scale_factor,PGA_ew,Channel.1,Scale_factor.1,PGA_ns
19990119023500.knt,AOM0049901190235.UD,1999-01-19, 02:35:00,41.553,141.446,86,4.4,AOM004,41.4051,141.4472,29,1999-01-19, 02:36:08,100Hz,119,U-D,0.0002384185791015,3.192,16.446033485761053,420,411.00000000000006,27.26517193489839,4.743356645799912,3.85644703759089,3.1137020046586144,3.089060815033256,3.783800422500671,0.0114563932363553,0.0114563932363553,0.0114563932363553,0.0114563932363553,0.0114563932363553,3.196331657880089,3.196331657880089,3.196331657880089,3.196331657880089,3.196331657880089,E-W,0.0002384185791015,5.281,N-S,0.0002384185791015,6.686
19990119023500.knt,AOM0059901190235.UD,1999-01-19, 02:35:00,41.553,141.446,86,4.4,AOM005,41.2948,141.1972,10,1999-01-19, 02:36:10,100Hz,119,U-D,0.0002384185791015,3.125,35.420650298319195,343,344.0,25.62448256574244,5.368519912187824,4.81083271673,4.8853523577193165,5.234091710373144,5.232279283061018,0.0246790622586669,0.0246790622586669,0.0246790622586669,0.0246790622586669,0.0246790622586669,1.901257725856248,1.901257725856248,1.901257725856248,1.901257725856248,1.901257725856248,E-W,0.0002384185791015,5.348,N-S,0.0002384185791015,7.485
19990119023500.knt,AOM0079901190235.UD,1999-01-19, 02:35:00,41.553,141.446,86,4.4,AOM007,41.2256,141.3958,10,1999-01-19, 02:36:59,100Hz,119,U-D,0.0002384185791015,6.999,36.64529252525728,1437,1436.0,40.76194415947823,0.5379925222800958,0.5621956016732951,0.537139005707756,0.45374991292703,0.4350701416999133,0.0067387410575142,0.0067387410575142,0.0067387410575142,0.0067387410575142,0.0067387410575142,6.358920427216558,6.358920427216558,6.358920427216558,6.358920427216558,6.358920427216558,E-W,0.0002384185791015,24.21,N-S,0.0002384185791015,12.875
19990119023500.knt,AOM0099901190235.UD,1999-01-19, 02:35:00,41.553,141.446,86,4.4,AOM009,40.9665,141.3733,10,1999-01-19, 02:36:14,100Hz,119,U-D,0.0002384185791015,3.732,65.49832845512242,137,162.0,10.912587972646406,1.969610616221959,1.999828548163038,1.9689752126622664,1.5646125838543563,0.9221393027503548,0.006862569029004,0.006862569029004,0.006862569029004,0.006862569029004,0.006862569029004,3.755330142329667,3.755330142329667,3.755330142329667,3.755330142329667,3.755330142329667,E-W,0.0002384185791015,4.349,N-S,0.0002384185791015,4.538
19990119023500.knt,HKD1589901190235.UD,1999-01-19, 02:35:00,41.553,141.446,86,4.4,HKD158,41.8345,141.1411,6,1999-01-19, 02:36:59,100Hz,119,U-D,0.0002384185791015,6.246,40.2575440376491,1433,1445.0,28.174230694667813,1.5841922422172552,1.474723808051474,1.056109632034199,0.5236909221389067,0.2491982032050319,0.0074542068772306,0.0074542068772306,0.0064923939238229,0.0035290334947454,0.0023712247895045,4.455204164553481,4.455204164553481,4.455204164553481,4.455204164553481,4.455204164553481,E-W,0.0002384185791015,6.167,N-S,0.0002384185791015,7.564
19990119023500.knt,HKD1599901190235.UD,1999-01-19, 02:35:00,41.553,141.446,86,4.4,HKD159,41.7162,141.0025,35,1999-01-19, 02:36:01,100Hz,119,U-D,0.0002384185791015,12.852,41.08295041105632,1226,1240.0,29.61639543356098,0.5139648043831943,0.5163609418434402,0.397442859607051,0.2899967668238857,0.360691579084118,0.0021296934083615,0.0021296934083615,0.0020795616443013,0.0015280057611646,0.0015280057611646,2.982335415510167,2.982335415510167,2.982335415510167,2.982335415510167,1.8533431158247584,E-W,0.0002384185791015,19.319,N-S,0.0002384185791015,17.421
19990122070200.knt,IWT0079901220702.UD,1999-01-22, 07:02:00,38.603,143.163,0,5.5,IWT007,39.2701,141.8561,11,1999-01-22, 07:03:38,100Hz,178,U-D,0.0002384185791015,1.745,135.19990592001645,1220,1245.0,22.82061351493201,1.7599090707054983,1.4458746469811752,1.183290263826215,0.9364397105257448,0.8834523924440643,0.0069436001936903,0.0063928116661642,0.004610561045461,0.0029743122782858,0.0028537443409227,1.4036168375854114,1.4036168375854114,1.2513714108208165,1.0564807643199683,0.5689036735493687,E-W,0.0002384185791015,7.13,N-S,0.0002384185791015,6.498
19990122070200.knt,IWT0129901220702.UD,1999-01-22, 07:02:00,38.603,143.163,0,5.5,IWT012,39.3209,141.1378,64,1999-01-22, 07:03:59,100Hz,175,U-D,0.0002384185791015,1.981,192.4325070138556,4,28.000000000000004,15.878919764402236,10.364797486367914,10.970572885774706,8.726359527009263,5.390158108222744,1.743808238677621,0.0370879567044591,0.0370879567044591,0.0364651134687365,0.0274029980577051,0.0093984691292294,0.756111244628753,0.6224978721906931,0.5423386676502315,0.4811797517967259,0.283619248194754,E-W,0.0002384185791015,5.021,N-S,0.0002384185791015,4.141
19990122070200.knt,IWT0209901220702.UD,1999-01-22, 07:02:00,38.603,143.163,0,5.5,IWT020,39.7841,141.3295,690,1999-01-22, 07:03:59,100Hz,119,U-D,0.0002384185791015,1.926,205.4529059168812,2,154.0,22.12056268399365,7.880808901073781,7.953103025037756,7.495943938724613,6.780623201914105,2.928566210364487,0.0149174368395952,0.014239104048072,0.014239104048072,0.014239104048072,0.0094872549663696,0.679297291615842,0.2575396060357051,0.1489717532164894,0.0701611302939146,0.0457786905073253,E-W,0.0002384185791015,5.361,N-S,0.0002384185791015,4.97
19990122070200.knt,MYG0019901220702.UD,1999-01-22, 07:02:00,38.603,143.163,0,5.5,MYG001,38.9015,141.5684,48,1999-01-22, 07:03:40,100Hz,177,U-D,0.0002384185791015,3.015,142.2037392503995,1121,1189.0,24.814052177135963,0.7574459818590482,0.7190730721330906,0.767785547768004,1.0311969683632531,2.287545713450664,0.0042680275731435,0.0039843853284463,0.0039843853284463,0.0039843853284463,0.0039843853284463,3.0112182014483304,2.828154984631218,2.828154984631218,2.2186130362015155,0.2822121549284792,E-W,0.0002384185791015,4.746,N-S,0.0002384185791015,6.79
19990122070200.knt,MYG0029901220702.UD,1999-01-22, 07:02:00,38.603,143.163,0,5.5,MYG002,38.7262,141.5109,79,1999-01-22, 07:03:42,100Hz,173,U-D,0.0002384185791015,1.427,144.09068902992783,952,993.0,26.01347669289794,1.779861327630028,1.950070155382237,1.5978784579157082,1.5737134407990303,1.4422620439954683,0.0051704823484938,0.0051704823484938,0.0033267255515802,0.0033267255515802,0.0020066006571913,1.126079311710129,1.126079311710129,1.126079311710129,0.8867420001092227,0.1626706855645158,E-W,0.0002384185791015,4.124,N-S,0.0002384185791015,3.746
19990122070200.knt,MYG0119901220702.UD,1999-01-22, 07:02:00,38.603,143.163,0,5.5,MYG011,38.2972,141.5043,30,1999-01-22, 07:03:40,100Hz,182,U-D,0.0002384185791015,2.544,148.38944851775477,1228,1305.0,25.40080944089676,0.951829964978992,1.0587303800434746,1.1672379822881347,1.5974755947235315,2.4399035431588048,0.0024207240760557,0.0024207240760557,0.0024207240760557,0.0024207240760557,0.0024207240760557,1.3674794215728474,1.3674794215728474,1.3674794215728474,1.193258850982994,0.3735731119384747,E-W,0.0002384185791015,8.145,N-S,0.0002384185791015,8.336
19990124093700.knt,KGS0069901240937.UD,1999-01-24, 09:37:00,30.587,131.248,49,6.2,KGS006,31.906,130.7021,188,1999-01-24, 09:38:40,100Hz,119,U-D,0.0002384185791015,3.161,155.57604736843723,544,605.0,26.837836946026847,4.372004258194495,3.3253144851450926,2.238261140155672,2.4993021689670347,2.53909778366805,0.0293264005649737,0.0212072288698803,0.0111273334384138,0.0111273334384138,0.011002459675055,1.5083798617727922,1.436772330731383,0.7192417195192169,0.7192417195192169,0.2547771548618594,E-W,0.0002384185791015,6.267,N-S,0.0002384185791015,5.234
19990124093700.knt,KGS0089901240937.UD,1999-01-24, 09:37:00,30.587,131.248,49,6.2,KGS008,31.7621,130.5699,15,1999-01-24, 09:38:38,100Hz,119,U-D,0.0002384185791015,5.018,145.7222672842651,654,634.0,25.53585984393081,2.8198329744960957,3.315309392472934,2.3461209197861312,2.768534356050402,3.5201476452430653,0.0346950624686875,0.0346950624686875,0.0261458468732586,0.0261458468732586,0.0261458468732586,1.4485359093729764,1.2598612195621162,1.2598612195621162,0.987625118432621,0.4671757295984517,E-W,0.0002384185791015,8.62,N-S,0.0002384185791015,5.262
19990124093700.knt,KGS0099901240937.UD,1999-01-24, 09:37:00,30.587,131.248,49,6.2,KGS009,31.7368,130.7613,4,1999-01-24, 09:38:33,100Hz,130,U-D,0.0002384185791015,3.927,135.97996634692672,1046,1097.0,29.1391675783786,2.586177313284812,2.9451818255904696,2.056442013360576,2.455624390799916,3.768654695219316,0.0322055681371417,0.0322055681371417,0.021953429434209,0.021953429434209,0.021953429434209,2.933809824037361,2.2549119160717166,2.1570899403734534,2.1570899403734534,0.7548356739383816,E-W,0.0002384185791015,9.962,N-S,0.0002384185791015,11.861
19990124093700.knt,KGS0109901240937.UD,1999-01-24, 09:37:00,30.587,131.248,49,6.2,KGS010,31.7123,130.2735,16,1999-01-24, 09:38:34,100Hz,119,U-D,0.0002384185791015,7.364,155.74427140475754,1147,980.0,25.9758377662808,2.622171775027641,2.704040177625348,1.717182640570751,2.053818492570892,3.153254309600425,0.0643050378107572,0.0643050378107572,0.0382538004026834,0.0382538004026834,0.0382538004026834,2.9833116907213446,2.9833116907213446,2.9833116907213446,1.827802093127395,1.7970486235555894,E-W,0.0002384185791015,11.516,N-S,0.0002384185791015,8.044
19990124093700.knt,KGS0119901240937.UD,1999-01-24, 09:37:00,30.587,131.248,49,6.2,KGS011,31.5896,130.349,18,1999-01-24, 09:38:32,100Hz,119,U-D,0.0002384185791015,5.431,140.55871983283572,1148,1189.0,23.549567143568492,2.485084485350985,2.622261236567433,1.8229526354284988,2.133636232914009,3.3730502268878992,0.052756086409188,0.052756086409188,0.0355925190118059,0.0355925190118059,0.0355925190118059,5.476769146210636,5.476769146210636,3.393218179390692,2.4685907028541774,1.6089160450431068,E-W,0.0002384185791015,18.449,N-S,0.0002384185791015,14.138
19990124093700.knt,KGS0139901240937.UD,1999-01-24, 09:37:00,30.587,131.248,49,6.2,KGS013,31.5973,130.9938,118,1999-01-24, 09:38:28,100Hz,119,U-D,0.0002384185791015,6.509,114.91814402527396,1300,1318.0,24.83258163380532,1.7819746738859388,1.810144383638552,1.518504799882892,1.8419982695431376,2.303068059337895,0.0375066236573172,0.0375066236573172,0.0302797592617862,0.0302797592617862,0.0302797592617862,6.442016100631022,6.06625423364988,2.866651106886809,2.866651106886809,2.242559229247592,E-W,0.0002384185791015,15.201,N-S,0.0002384185791015,13.235
19990124093700.knt,KGS0149901240937.UD,1999-01-24, 09:37:00,30.587,131.248,49,6.2,KGS014,31.496,130.6999,3,1999-01-24, 09:38:27,100Hz,119,U-D,0.0002384185791015,6.941,113.76731821873648,1310,1331.0,34.97095490165829,1.9901169834521877,1.9798474957878391,1.8206252754500096,2.003162357235347,2.5194369818332265,0.0684441530162779,0.0684441530162779,0.0448586563350924,0.0448586563350924,0.043625348256879,4.451076734355724,4.335730748723819,4.294592650364323,2.642803428457511,0.4400770260900701,E-W,0.0002384185791015,17.356,N-S,0.0002384185791015,13.959
19990124093700.knt,KGS0159901240937.UD,1999-01-24, 09:37:00,30.587,131.248,49,6.2,KGS015,31.4304,131.011,34,1999-01-24, 09:38:25,100Hz,119,U-D,0.0002384185791015,45.913,96.46336673229922,1306,1418.0,19.51609944348904,0.6296614336230494,0.6054325650639298,0.5548343478458743,0.6051839126357778,1.9304109939926364,0.0751497348380817,0.0751497348380817,0.0580736663507354,0.0568498772182506,0.0377084701540441,46.097251833453086,40.74277856265083,27.570247375010517,25.599689891320807,3.4862040922685784,E-W,0.0002384185791015,77.398,N-S,0.0002384185791015,102.273
19990124093700.knt,KGS0169901240937.UD,1999-01-24, 09:37:00,30.587,131.248,49,6.2,KGS016,31.4162,130.3225,11,1999-01-24, 09:38:28,100Hz,119,U-D,0.0002384185791015,9.744,127.60135639272714,1351,1397.0,27.03757409343861,1.5540747208325958,1.6710037160787388,1.348299405486134,1.9633060060904295,2.279401092747146,0.0565354355038194,0.0565354355038194,0.0452690915401729,0.0452690915401729,0.0452690915401729,9.735340383552584,9.735340383552584,5.491890343907374,4.42922138057548,1.2293669236370517,E-W,0.0002384185791015,16.312,N-S,0.0002384185791015,15.434
19990124093700.knt,KGS0179901240937.UD,1999-01-24, 09:37:00,30.587,131.248,49,6.2,KGS017,31.3954,130.8702,64,1999-01-24, 09:38:25,100Hz,119,U-D,0.0002384185791015,32.691,96.83521225401203,1274,1351.0,35.47896406008273,1.846265665822402,1.456219398437525,0.9870733793171812,0.879865835081238,1.04290861273411,0.2120016716391276,0.2079814952100709,0.1065481756207075,0.0725557951305153,0.041866278163674,32.806069123542414,32.806069123542414,32.806069123542414,17.567128644402892,2.2928410930088523,E-W,0.0002384185791015,47.045,N-S,0.0002384185791015,61.962
19990124093700.knt,KGS0189901240937.UD,1999-01-24, 09:37:00,30.587,131.248,49,6.2,KGS018,31.3757,130.5449,51,1999-01-24, 09:38:26,100Hz,119,U-D,0.0002384185791015,17.584,110.37982356943408,1363,1451.0,27.474906702509543,1.2818494360227972,1.3217672478780191,1.023438419573678,1.955840848537322,2.655887199241179,0.0843536692090267,0.0843536692090267,0.0532734980459751,0.0532734980459751,0.0532734980459751,17.548793918270444,17.548793918270444,17.548793918270444,6.068991130111806,1.7455980037211565,E-W,0.0002384185791015,29.352,N-S,0.0002384185791015,23.429
19990124093700.knt,KGS0199901240937.UD,1999-01-24, 09:37:00,30.587,131.248,49,6.2,KGS019,31.2776,130.3008,10,1999-01-24, 09:38:27,100Hz,119,U-D,0.0002384185791015,9.796,118.56942011465053,1324,1360.0,34.01500886657975,2.554968847466636,2.629195033732475,1.9713392120040196,2.3887718198839782,2.476021556883436,0.0568548891054231,0.0568548891054231,0.0470522161291296,0.0470522161291296,0.0470522161291296,9.749818422604942,9.749818422604942,9.53319990329485,9.53319990329485,1.8950885344926456,E-W,0.0002384185791015,15.249,N-S,0.0002384185791015,19.449
19990124093700.knt,KGS0209901240937.UD,1999-01-24, 09:37:00,30.587,131.248,49,6.2,KGS020,31.2396,130.4915,21,1999-01-24, 09:38:25,100Hz,120,U-D,0.0002384185791015,20.54,102.34303337347778,1371,1461.0,23.98388034965174,1.9280732628852024,2.0600245739529117,1.9131825787328969,1.7663035831588625,2.3831464259324395,0.1628428466489618,0.1628428466489618,0.0965784044989316,0.0965784044989316,0.0814411104880922,20.706227680693093,20.706227680693093,14.660160582277088,14.660160582277088,1.2489755874506752,E-W,0.0002384185791015,20.746,N-S,0.0002384185791015,18.416
19990124093700.knt,KGS0229901240937.UD,1999-01-24, 09:37:00,30.587,131.248,49,6.2,KGS022,31.2804,131.0504,12,1999-01-24, 09:38:18,100Hz,119,U-D,0.0002384185791015,19.005,79.37254078758495,1336,1399.0,33.28307050973141,1.2065416323042146,1.3472211461516477,1.490906582814388,1.5903713115961375,2.3354660341102047,0.0271942178383794,0.0271942178383794,0.0271942178383794,0.026188330875886,0.0239251906124549,18.93551880338356,18.93551880338356,9.941880163673666,9.941880163673666,2.959237431398726,E-W,0.0002384185791015,25.154,N-S,0.0002384185791015,28.941
19990124093700.knt,KGS0239901240937.UD,1999-01-24, 09:37:00,30.587,131.248,49,6.2,KGS023,31.199,130.849,179,1999-01-24, 09:38:21,100Hz,119,U-D,0.0002384185791015,76.913,77.97725933325064,1416,1470.0,31.412619738688385,1.0104979680622166,0.9554387672367476,0.6869435791963073,0.4966527356704455,1.43323936346155,0.2367018897662973,0.2367018897662973,0.2367018897662973,0.0967624178324861,0.051332075776029,76.96385529219351,75.33514836513916,75.33514836513916,44.84889152611048,7.807834924973286,E-W,0.0002384185791015,64.623,N-S,0.0002384185791015,80.27
19990124093700.knt,KGS0249901240937.UD,1999-01-24, 09:37:00,30.587,131.248,49,6.2,KGS024,31.0888,130.6982,75,1999-01-24, 09:38:22,100Hz,119,U-D,0.0002384185791015,30.441,76.60755608233251,1325,1384.0,25.0525223638439,1.350795019488159,1.3398515643080315,1.0101386060238036,1.074656667826728,1.909749851594432,0.120562402174089,0.120562402174089,0.0812592711094399,0.0812592711094399,0.0683162383699581,30.80281154941889,30.80281154941889,28.607732682693992,18.95008081216903,14.22615788839576,E-W,0.0002384185791015,55.509,N-S,0.0002384185791015,55.863
19990124093700.knt,KGS0269901240937.UD,1999-01-24, 09:37:00,30.587,131.248,49,6.2,KGS026,30.5202,130.9543,115,1999-01-24, 09:38:16,100Hz,119,U-D,0.0002384185791015,134.985,29.087875136690567,1336,1413.0,28.885841190763507,1.439711928379692,1.322183510395098,1.0857542557172497,1.064667554604929,1.281392117147633,0.3589075486740723,0.3589075486740723,0.3589075486740723,0.3361635815052047,0.1779478584419463,135.51822298280138,135.51822298280138,135.51822298280138,83.10048672971627,36.63331713999228,E-W,0.0002384185791015,121.646,N-S,0.0002384185791015,125.878
19990124093700.knt,KGS0279901240937.UD,1999-01-24, 09:37:00,30.587,131.248,49,6.2,KGS027,30.3488,130.8829,15,1999-01-24, 09:38:18,100Hz,119,U-D,0.0002384185791015,77.136,43.88541926996114,1318,1404.0,25.62088981285429,1.989596635792356,1.7677996825934836,1.4131708224761117,1.3959756813859652,1.8519834284264336,0.200547226740059,0.200547226740059,0.200547226740059,0.200547226740059,0.0857243329603598,77.44212732915017,77.44212732915017,77.44212732915017,77.44212732915017,9.435722034323296,E-W,0.0002384185791015,58.289,N-S,0.0002384185791015,91.844
19990124093700.knt,KGS0289901240937.UD,1999-01-24, 09:37:00,30.587,131.248,49,6.2,KGS028,30.4208,130.5769,4,1999-01-24, 09:38:20,100Hz,119,U-D,0.0002384185791015,61.069,66.89785519289052,1397,1454.0,32.592345660568995,0.7934277834539373,0.78469121447922,1.0973102513575368,0.8781375425091327,0.6462471996811245,0.0749812102509204,0.0749812102509204,0.0749812102509204,0.0495910811113314,0.0125061117649741,60.929324810972346,56.97974708227764,37.66489584455525,17.488567949574545,6.312650873448663,E-W,0.0002384185791015,156.975,N-S,0.0002384185791015,183.92
19990124093700.knt,KGS0299901240937.UD,1999-01-24, 09:37:00,30.587,131.248,49,6.2,KGS029,30.2363,130.5553,60,1999-01-24, 09:38:21,100Hz,119,U-D,0.0002384185791015,25.542,77.02720908474711,1419,1484.0,30.196938458085945,0.8138350109163291,0.7532395873197556,0.8049472357879387,0.65751588686906,0.372716442633523,0.0454031210639177,0.0454031210639177,0.0454031210639177,0.0265178042713978,0.0061998456748516,25.65967751279923,25.65967751279923,25.65967751279923,14.933753238220596,3.52718177846212,E-W,0.0002384185791015,38.795,N-S,0.0002384185791015,34.789
19990124093700.knt,KGS0319901240937.UD,1999-01-24, 09:37:00,30.587,131.248,49,6.2,KGS031,28.3571,129.3937,2,1999-01-24, 09:38:57,100Hz,119,U-D,0.0002384185791015,3.823,306.0965717559817,737,771.0,30.535966436117704,5.32674316418629,5.434816427027067,5.459599925382371,4.111777276153272,2.8223965068082366,0.0200937580257544,0.0200937580257544,0.0182346956055128,0.0159890288650206,0.0079807818387809,1.2306017234980808,1.2306017234980808,1.2306017234980808,1.2306017234980808,0.5704704389975884,E-W,0.0002384185791015,5.271,N-S,0.0002384185791015,5.523
19990124093700.knt,KMM0149901240937.UD,1999-01-24, 09:37:00,30.587,131.248,49,6.2,KMM014,32.3987,130.8244,265,1999-01-24, 09:38:42,100Hz,119,U-D,0.0002384185791015,2.965,205.4159887129952,1001,1026.0,28.84158264110315,5.42767085066416,5.1219507707187,5.105854436231726,7.629086756345682,24.056638691494324,0.0248490520661806,0.0223299186600658,0.0210699239504893,0.0210699239504893,0.0210699239504893,2.6877465709342667,1.9928832933706984,1.7788545554291777,1.7788545554291777,0.4413014144599024,E-W,0.0002384185791015,5.011,N-S,0.0002384185791015,4.537
19990124093700.knt,MYZ0069901240937.UD,1999-01-24, 09:37:00,30.587,131.248,49,6.2,MYZ006,32.2565,131.5609,22,1999-01-24, 09:38:39,100Hz,119,U-D,0.0002384185791015,4.355,187.998892531418,1039,1073.0,23.361776941129023,1.4462520196811763,1.727976550009018,1.0041769490076635,1.4285051186860194,2.574522513738481,0.0118356335909814,0.0118356335909814,0.0058716897493949,0.0042752664792537,0.0042752664792537,4.10911782981054,4.10911782981054,3.0599872341383025,2.5319354218927885,1.0693738916993252,E-W,0.0002384185791015,7.209,N-S,0.0002384185791015,9.23
