earthquake name,records name,earthquake date,earthquake time,lat,long,depth,mag,stn_code,stn_lat,stn_long,stn_height,rcd_date,rcd_time,frequency,rcd_duration,direction,scale_factor,max_pga,epi_dist,pick_index_manually,pick_index_kalkan,snr_db_kalkan,tc_5sec,tc_4sec,tc_3sec,tc_2sec,tc_1sec,Pd_5sec,Pd_4sec,Pd_3sec,Pd_2sec,Pd_1sec,Pga_5sec,Pga_4sec,Pga_3sec,Pga_2sec,Pga_1sec,Channel,Scale_factor,PGA_ew,Channel.1,Scale_factor.1,PGA_ns
19960511144600.knt,HYG0179605111446.UD,1996-05-11, 14:46:00,34.52,134.964,10,4.0,HYG017,34.8593,134.5445,24,1996-05-11, 14:47:05,100Hz,59,U-D,0.0002384185791015,1.83,53.80064467303331,822,821.0000000000001,23.71837493498759,3.0231738864454933,2.879143969443521,2.3650947181745,2.4073186407599243,2.272842202868879,0.002759657704892,0.002759657704892,0.002759657704892,0.002759657704892,0.002759657704892,1.6632673854633016,1.6632673854633016,1.6632673854633016,1.6632673854633016,1.6632673854633016,E-W,0.0002384185791015,2.134,N-S,0.0002384185791015,3.546
19960511144600.knt,HYG0189605111446.UD,1996-05-11, 14:46:00,34.52,134.964,10,4.0,HYG018,34.8143,134.687,9,1996-05-11, 14:47:02,100Hz,59,U-D,0.0002384185791015,2.382,41.38424786251686,919,921.0,22.673657409860333,2.2697375115280427,2.3376995303473884,2.2309068900659312,1.8920980417276776,1.5470614592622942,0.0033604596213714,0.0033604596213714,0.0033604596213714,0.0033604596213714,0.0033604596213714,2.376544724241791,2.376544724241791,2.376544724241791,2.376544724241791,2.376544724241791,E-W,0.0002384185791015,4.838,N-S,0.0002384185791015,3.075
19960511144600.knt,HYG0199605111446.UD,1996-05-11, 14:46:00,34.52,134.964,10,4.0,HYG019,34.832,134.8236,45,1996-05-11, 14:47:01,100Hz,59,U-D,0.0002384185791015,8.688,36.99224839069642,937,543.0,17.85169170719051,0.6094355124326528,2.7359627954550447,3.648577811747148,4.376553868157477,4.860874897952463,0.0047984488567231,0.0034104135680088,0.0034104135680088,0.0034104135680088,0.0034104135680088,8.645374149972236,1.5026978371151818,1.2974272054156155,1.2974272054156155,1.2974272054156155,E-W,0.0002384185791015,17.563,N-S,0.0002384185791015,8.398
19960511144600.knt,HYG0209605111446.UD,1996-05-11, 14:46:00,34.52,134.964,10,4.0,HYG020,34.7976,134.9899,75,1996-05-11, 14:47:59,100Hz,59,U-D,0.0002384185791015,1.254,30.958477574424577,1051,1049.0,26.645880726100096,0.8094813473355549,1.2977324096593457,1.6956146944381154,1.786114614501925,2.1361806242658488,0.0022283249766434,0.0021003384794967,0.0021003384794967,0.0021003384794967,0.0021003384794967,1.241076002246158,1.127514896785113,1.127514896785113,1.127514896785113,1.127514896785113,E-W,0.0002384185791015,1.406,N-S,0.0002384185791015,3.16
19960511144600.knt,HYG0219605111446.UD,1996-05-11, 14:46:00,34.52,134.964,10,4.0,HYG021,34.6898,135.1583,90,1996-05-11, 14:47:58,100Hz,59,U-D,0.0002384185791015,2.538,25.93686898818804,1083,801.0,16.250210695420122,3.875284444964426,3.9450730105404728,4.327597108390082,4.42037015667397,6.044527251365254,0.0153787066766528,0.0153787066766528,0.0091840445388822,0.0078907029160402,0.0078907029160402,2.521665341929765,2.521665341929765,1.324435032329624,1.324435032329624,1.324435032329624,E-W,0.0002384185791015,8.936,N-S,0.0002384185791015,4.256
19960511144600.knt,HYG0239605111446.UD,1996-05-11, 14:46:00,34.52,134.964,10,4.0,HYG023,34.6444,134.9999,2,1996-05-11, 14:47:52,100Hz,59,U-D,0.0002384185791015,25.764,14.21772749110695,1486,1486.0,26.439233580252758,0.4683178538334146,0.4794030321189803,0.5275541860349015,0.5203493927089491,0.3223787303115136,0.0111099731434869,0.0111099731434869,0.0111099731434869,0.0097224599438966,0.0097224599438966,25.75361166923036,25.75361166923036,25.75361166923036,25.75361166923036,25.75361166923036,E-W,0.0002384185791015,19.073,N-S,0.0002384185791015,20.425
19960511144600.knt,HYG0249605111446.UD,1996-05-11, 14:46:00,34.52,134.964,10,4.0,HYG024,34.5321,134.9902,6,1996-05-11, 14:47:51,100Hz,59,U-D,0.0002384185791015,54.425,2.751569234519682,1481,1481.0,39.333404895825545,0.3390664461371652,0.3344121994621592,0.3170287274480959,0.2483610779236345,0.1809109870548856,0.0348994384625305,0.0348994384625305,0.0348994384625305,0.0299460200953459,0.0192576792835336,54.4663161595863,54.4663161595863,54.4663161595863,54.4663161595863,54.4663161595863,E-W,0.0002384185791015,59.816,N-S,0.0002384185791015,65.493
19960511144600.knt,HYG0259605111446.UD,1996-05-11, 14:46:00,34.52,134.964,10,4.0,HYG025,34.3405,134.9014,10,1996-05-11, 14:47:57,100Hz,59,U-D,0.0002384185791015,3.506,20.768835660892652,1117,1117.0,31.18241582604524,0.868051891328857,0.9374452302141728,2.5799891388573264,4.1710431499890745,4.358181243933079,0.002743881058157,0.0024129389083166,0.0024129389083166,0.0024129389083166,0.0024129389083166,3.514763363148605,3.514763363148605,1.4461008163938425,1.0339757974212698,1.0339757974212698,E-W,0.0002384185791015,4.727,N-S,0.0002384185791015,5.89
19960511144600.knt,HYG0269605111446.UD,1996-05-11, 14:46:00,34.52,134.964,10,4.0,HYG026,34.4149,134.7925,70,1996-05-11, 14:47:55,100Hz,59,U-D,0.0002384185791015,4.492,19.589856437858916,1280,1286.0,29.630265882374545,0.8510908142950033,0.9262523927465808,1.3690905139544278,0.9986137451035068,0.5210174228536548,0.0034256128596759,0.0034256128596759,0.0034256128596759,0.002493704925859,0.0014600803464128,4.491185538768765,4.491185538768765,2.3441136133775635,2.3441136133775635,2.3441136133775635,E-W,0.0002384185791015,11.536,N-S,0.0002384185791015,9.299
19960511144600.knt,KGW0019605111446.UD,1996-05-11, 14:46:00,34.52,134.964,10,4.0,KGW001,34.5466,134.2814,2,1996-05-11, 14:47:00,100Hz,59,U-D,0.0002384185791015,3.409,62.597344387674326,1466,1474.0,17.936932107579473,3.4277566582583328,3.4628066920387446,3.320425710190859,2.697025337011551,1.7207307354159398,0.0035006771904167,0.0035006771904167,0.0035006771904167,0.0035006771904167,0.0030285273823044,3.418190279087087,3.418190279087087,3.418190279087087,3.418190279087087,3.418190279087087,E-W,0.0002384185791015,3.679,N-S,0.0002384185791015,1.979
19960511144600.knt,KGW0029605111446.UD,1996-05-11, 14:46:00,34.52,134.964,10,4.0,KGW002,34.4727,134.3139,4,1996-05-11, 14:47:00,100Hz,59,U-D,0.0002384185791015,3.411,59.808496901546434,1431,1432.0,15.054987004612965,0.5668358815629087,0.5567816014745038,0.4843639137719565,0.3690555910490812,0.3387948391315247,0.0011717808791629,0.0011717808791629,0.0011717808791629,0.0011717808791629,0.0011717808791629,3.412789988124847,3.412789988124847,3.412789988124847,3.412789988124847,3.412789988124847,E-W,0.0002384185791015,5.468,N-S,0.0002384185791015,6.216
19960511144600.knt,TKS0019605111446.UD,1996-05-11, 14:46:00,34.52,134.964,10,4.0,TKS001,34.203,134.6098,2,1996-05-11, 14:47:06,100Hz,299,U-D,0.0002384185791015,1.215,47.95326400598736,670,537.0,13.69334780250945,4.194891275846973,4.476649797806816,4.319469164905607,4.1877985664353625,3.8404217041649535,0.0039071019728047,0.0039071019728047,0.0039071019728047,0.0039071019728047,0.0039071019728047,1.178720318214138,1.178720318214138,1.178720318214138,1.178720318214138,1.178720318214138,E-W,0.0002384185791015,2.731,N-S,0.0002384185791015,1.787
19960523183600.knt,IWT0039605231836.UD,1996-05-23, 18:36:00,38.653,142.313,39,5.0,IWT003,40.0083,141.8861,9,1996-05-23, 18:37:58,100Hz,59,U-D,0.0002384185791015,4.764,155.11033389155577,1046,1114.0,30.062271795295707,0.3997757443047985,0.3777976638385828,0.4919685112771622,0.9238722312059726,2.2151030368778017,0.0016747611547332,0.0015300460448183,0.0015300460448183,0.0015300460448183,0.0015300460448183,3.512872714002865,3.4580572348567222,3.087281149868013,1.6148402648282418,1.092257496653124,E-W,0.0002384185791015,6.289,N-S,0.0002384185791015,7.104
19960523183600.knt,IWT0049605231836.UD,1996-05-23, 18:36:00,38.653,142.313,39,5.0,IWT004,39.7369,141.9697,8,1996-05-23, 18:37:04,100Hz,299,U-D,0.0002384185791015,8.216,124.10167978159856,64,26.0,11.813811457499394,5.801654473526859,5.8050576222260375,5.626605297444193,4.638223406130508,2.905818326279775,0.0161126331265996,0.0161126331265996,0.0161126331265996,0.014775976727526,0.0095683799341677,3.208557650990913,3.208557650990913,3.208557650990913,3.208557650990913,2.1780210933193427,E-W,0.0002384185791015,9.953,N-S,0.0002384185791015,12.654
19960523183600.knt,IWT0059605231836.UD,1996-05-23, 18:36:00,38.653,142.313,39,5.0,IWT005,39.6472,141.9464,4,1996-05-23, 18:37:02,100Hz,299,U-D,0.0002384185791015,13.964,114.98070921425982,118,164.0,12.467937715883377,4.189299755111183,5.008074257414311,5.369002609134944,6.528248592900697,6.209548746789068,0.0160456366891706,0.0160456366891706,0.0160456366891706,0.0159389609026665,0.0134958319556139,2.9005687857885154,2.9005687857885154,2.9005687857885154,2.38649590904052,1.4520155566732402,E-W,0.0002384185791015,10.915,N-S,0.0002384185791015,15.207
19960523183600.knt,IWT0069605231836.UD,1996-05-23, 18:36:00,38.653,142.313,39,5.0,IWT006,39.4806,141.9652,4,1996-05-23, 18:37:57,100Hz,299,U-D,0.0002384185791015,12.692,96.79946826978218,2,462.0,2.8333226949379844,13.51993564975498,14.054992023059706,11.23361368645044,6.691210670613319,2.8928753965896026,1.109531718954002,1.109531718954002,1.109531718954002,0.9137718435867024,0.3920184180057809,1.3042255011175077,1.2288216763981892,1.2288216763981892,1.2288216763981892,1.2288216763981892,E-W,0.0002384185791015,19.756,N-S,0.0002384185791015,20.659
19960523183600.knt,IWT0079605231836.UD,1996-05-23, 18:36:00,38.653,142.313,39,5.0,IWT007,39.2701,141.8561,11,1996-05-23, 18:37:44,100Hz,79,U-D,0.0002384185791015,77.451,79.17718453396844,1441,1455.0,33.38364657645605,1.4039308151147485,1.5163879564587484,1.377044859526459,0.8790691324624906,0.230880663953571,0.0197456570885725,0.0197456570885725,0.0197456570885725,0.0168235227071582,0.0060166152256413,26.29606490113636,26.29606490113636,26.29606490113636,20.11874253679686,20.11874253679686,E-W,0.0002384185791015,187.534,N-S,0.0002384185791015,214.639
19960523183600.knt,IWT0089605231836.UD,1996-05-23, 18:36:00,38.653,142.313,39,5.0,IWT008,39.0815,141.7083,50,1996-05-23, 18:37:43,100Hz,59,U-D,0.0002384185791015,16.667,70.7885135399485,1432,1437.0,40.374525733396815,0.6214053267962298,0.627224988137324,0.5548873048209132,0.5475471703737064,0.4432370622042897,0.0082753357618436,0.0082753357618436,0.0082753357618436,0.0082753357618436,0.0082753357618436,7.384992774228535,7.384992774228535,7.384992774228535,7.384992774228535,7.384992774228535,E-W,0.0002384185791015,23.249,N-S,0.0002384185791015,36.877
19960523183600.knt,IWT0099605231836.UD,1996-05-23, 18:36:00,38.653,142.313,39,5.0,IWT009,39.0187,141.4031,150,1996-05-23, 18:37:45,100Hz,77,U-D,0.0002384185791015,19.334,88.68253278358311,1480,1490.0,37.47022680271674,0.876917369576557,0.93917464657672,0.9823360717809372,0.9715031648357302,1.114495694462993,0.0074798291024375,0.0074798291024375,0.0074798291024375,0.0074798291024375,0.0074798291024375,9.427755136412536,9.427755136412536,9.427755136412536,9.427755136412536,9.427755136412536,E-W,0.0002384185791015,48.561,N-S,0.0002384185791015,96.767
19960523183600.knt,IWT0109605231836.UD,1996-05-23, 18:36:00,38.653,142.313,39,5.0,IWT010,38.9334,141.1173,37,1996-05-23, 18:37:49,100Hz,60,U-D,0.0002384185791015,11.876,108.21529123878128,1374,1380.0,28.952856104901947,3.997014220207214,4.142928803546938,4.275355622792899,4.066455784763561,6.877773726122566,0.0285864086483119,0.0285864086483119,0.0285864086483119,0.0285864086483119,0.0257346705078187,5.347165290828516,5.347165290828516,5.347165290828516,5.347165290828516,3.4944358874504253,E-W,0.0002384185791015,24.358,N-S,0.0002384185791015,35.912
19960523183600.knt,IWT0119605231836.UD,1996-05-23, 18:36:00,38.653,142.313,39,5.0,IWT011,39.1454,141.152,45,1996-05-23, 18:37:58,100Hz,59,U-D,0.0002384185791015,6.547,114.4192751361542,569,608.0,26.218630435761145,0.7034089876443654,0.6472450110583311,0.5535724386553517,0.5495048859093504,0.5591631040363002,0.0033202398411291,0.0028961047012474,0.0022907235731597,0.0020606065217042,0.0017132986320296,2.759401296537186,1.6066271928758362,1.6066271928758362,1.3070853391836197,0.9870331921369802,E-W,0.0002384185791015,9.038,N-S,0.0002384185791015,9.515
19960523183600.knt,IWT0129605231836.UD,1996-05-23, 18:36:00,38.653,142.313,39,5.0,IWT012,39.3209,141.1378,64,1996-05-23, 18:37:52,100Hz,74,U-D,0.0002384185791015,11.079,125.82623086428858,1326,1370.0,32.16117449587581,0.6690133573660281,0.3813584948044624,0.3440547790782302,0.4605185436053292,0.6190751694533332,0.0045839146410149,0.0025987968042238,0.0019559962794796,0.0019559962794796,0.0011883571507514,2.2678434650673687,2.2678434650673687,2.2678434650673687,1.5218727937041423,1.3135751901962396,E-W,0.0002384185791015,40.302,N-S,0.0002384185791015,22.935
19960523183600.knt,IWT0139605231836.UD,1996-05-23, 18:36:00,38.653,142.313,39,5.0,IWT013,39.3367,141.5378,272,1996-05-23, 18:37:48,100Hz,64,U-D,0.0002384185791015,31.964,101.3291358879882,1352,1367.0,44.46887764618602,1.6518733526293736,1.562836079763639,1.2050356814272762,0.6584294062639395,0.4939124799109287,0.0084771392152785,0.0084771392152785,0.008227056595568,0.0058723761178978,0.0034834742900586,5.58895348903518,5.58895348903518,5.58895348903518,5.58895348903518,5.58895348903518,E-W,0.0002384185791015,43.062,N-S,0.0002384185791015,72.62
19960523183600.knt,IWT0149605231836.UD,1996-05-23, 18:36:00,38.653,142.313,39,5.0,IWT014,39.4844,141.147,86,1996-05-23, 18:37:06,100Hz,59,U-D,0.0002384185791015,5.305,136.6697727756293,66,87.0,24.5063925284686,1.705213797234696,1.8842087561180816,2.037504285761454,1.7544457285086157,1.5412681946543747,0.0067751591899813,0.0067751591899813,0.0067751591899813,0.0067751591899813,0.0042101296623615,1.5559793915056588,1.5559793915056588,1.5559793915056588,1.5559793915056588,1.0064669980725771,E-W,0.0002384185791015,8.605,N-S,0.0002384185791015,12.697
19960523183600.knt,IWT0179605231836.UD,1996-05-23, 18:36:00,38.653,142.313,39,5.0,IWT017,39.6336,141.4376,630,1996-05-23, 18:37:53,100Hz,299,U-D,0.0002384185791015,15.776,132.62017120850263,1294,1310.0,31.24376650143628,2.253169861984727,2.1882629406118124,1.8770487473589168,1.0684946236076485,0.6942801917601937,0.0091309494562072,0.0091309494562072,0.0084768577416157,0.0060069403817777,0.0028784265394039,3.7788413220956687,3.585996846505193,3.559153198438455,3.559153198438455,2.376456161270055,E-W,0.0002384185791015,29.442,N-S,0.0002384185791015,37.515
19960523183600.knt,IWT0189605231836.UD,1996-05-23, 18:36:00,38.653,142.313,39,5.0,IWT018,39.6953,141.1478,125,1996-05-23, 18:37:55,100Hz,63,U-D,0.0002384185791015,7.003,153.3626408950687,1395,1400.0,31.55737673085192,1.5536442411563176,1.6035456909192314,1.4881101056953527,1.1850765373864691,0.905750636037216,0.004141519919226,0.004141519919226,0.004141519919226,0.004141519919226,0.0031332796411021,2.1842367900639323,2.1842367900639323,2.1842367900639323,2.1842367900639323,2.066789283284535,E-W,0.0002384185791015,12.822,N-S,0.0002384185791015,12.897
19960523183600.knt,IWT0209605231836.UD,1996-05-23, 18:36:00,38.653,142.313,39,5.0,IWT020,39.7841,141.3295,690,1996-05-23, 18:37:02,100Hz,63,U-D,0.0002384185791015,10.595,151.64570139008526,670,719.0,27.92869529317329,1.680885900694953,1.7059938954232563,1.9038641578184552,1.9251047682384377,2.048237471940417,0.0049974321154828,0.0043290873138581,0.0043290873138581,0.0043290873138581,0.0038400037545502,1.9052679226020977,1.9052679226020977,1.9052679226020977,1.8718393600340504,0.9796581213941372,E-W,0.0002384185791015,15.809,N-S,0.0002384185791015,12.548
19960523183600.knt,IWT0219605231836.UD,1996-05-23, 18:36:00,38.653,142.313,39,5.0,IWT021,39.9203,141.082,282,1996-05-23, 18:37:02,100Hz,67,U-D,0.0002384185791015,4.106,176.29609955524984,1057,1093.0,36.81401629092975,1.2610341077598242,1.2319416842924298,1.204314561440048,0.8370013333725818,0.656603528671598,0.0031437878714941,0.0031437878714941,0.0024604772859539,0.0019308870648295,0.0010094058828739,1.1306660645673468,1.1306660645673468,0.8704697603565288,0.6252170573863948,0.522826905134711,E-W,0.0002384185791015,17.939,N-S,0.0002384185791015,22.757
19960523183600.knt,MYG0019605231836.UD,1996-05-23, 18:36:00,38.653,142.313,39,5.0,MYG001,38.9015,141.5684,48,1996-05-23, 18:37:43,100Hz,65,U-D,0.0002384185791015,40.916,70.21201736080744,1437,1437.0,54.89342212483473,0.2678674366332821,0.267484455692103,0.2460468614614305,0.2070627638966983,0.1594185275930081,0.0153658546748232,0.0153658546748232,0.0153658546748232,0.0153658546748232,0.0153658546748232,40.94271048650478,40.94271048650478,40.94271048650478,40.94271048650478,40.94271048650478,E-W,0.0002384185791015,84.43,N-S,0.0002384185791015,47.089
19960523183600.knt,MYG0029605231836.UD,1996-05-23, 18:36:00,38.653,142.313,39,5.0,MYG002,38.7262,141.5109,79,1996-05-23, 18:37:43,100Hz,80,U-D,0.0002384185791015,35.745,70.09026022521184,1437,1470.0,27.54006358737208,1.3967615343684057,1.4519039442675534,1.1678903470788322,0.6283753574975837,0.3449006785302377,0.0134817219614873,0.0134817219614873,0.0128654863983725,0.008606975900609,0.0048093912623274,9.678977187106252,8.44842917309171,8.44842917309171,8.44842917309171,8.203467099772961,E-W,0.0002384185791015,68.756,N-S,0.0002384185791015,140.981
19960523183600.knt,MYG0039605231836.UD,1996-05-23, 18:36:00,38.653,142.313,39,5.0,MYG003,38.7348,141.3106,28,1996-05-23, 18:37:46,100Hz,63,U-D,0.0002384185791015,21.183,87.46934626396144,1371,1383.0,41.76405871264112,0.3201794008027638,0.3604881592109748,0.3970348258985705,0.3982802110315795,0.4396494952323088,0.0033913012949047,0.0033913012949047,0.0033913012949047,0.0033913012949047,0.0033913012949047,7.974139159941235,6.07408868710243,5.796032462528056,5.796032462528056,4.555664899742062,E-W,0.0002384185791015,47.464,N-S,0.0002384185791015,50.337
19960523183600.knt,MYG0049605231836.UD,1996-05-23, 18:36:00,38.653,142.313,39,5.0,MYG004,38.7292,141.0217,40,1996-05-23, 18:37:50,100Hz,70,U-D,0.0002384185791015,10.232,112.39172107823494,1352,1367.0,33.56127279520529,0.4971002881500338,0.5139642011701873,0.4834697480481109,0.4904267750036405,0.5731963003539425,0.0056324767141842,0.0056324767141842,0.0056324767141842,0.0056324767141842,0.0056324767141842,5.072951235164605,5.072951235164605,5.072951235164605,5.072951235164605,3.042332498004213,E-W,0.0002384185791015,40.344,N-S,0.0002384185791015,37.155
19960523183600.knt,MYG0059605231836.UD,1996-05-23, 18:36:00,38.653,142.313,39,5.0,MYG005,38.7992,140.6507,300,1996-05-23, 18:37:56,100Hz,66,U-D,0.0002384185791015,8.509,145.11295342581573,1184,1216.0,33.61077910176452,1.516661018658574,1.4715232627727397,1.2703541407615715,1.281937516072021,1.115635976133755,0.0069250831370978,0.0069090333616045,0.0037264194572926,0.0035690652131441,0.0034429109198318,3.561782682535012,3.561782682535012,3.561782682535012,3.561782682535012,1.480954989959958,E-W,0.0002384185791015,16.18,N-S,0.0002384185791015,16.066
19960523183600.knt,MYG0069605231836.UD,1996-05-23, 18:36:00,38.653,142.313,39,5.0,MYG006,38.5801,140.9654,20,1996-05-23, 18:37:51,100Hz,66,U-D,0.0002384185791015,6.802,117.36013605017642,1331,1178.0,28.936565310380903,0.7483389297370197,0.6229034489757583,0.6567628405440872,0.7495598691908579,0.3914891564098615,0.0085382229801293,0.0085382229801293,0.0085382229801293,0.0085382229801293,0.0035720174170349,5.304714512624713,5.304714512624713,5.304714512624713,5.304714512624713,4.182919373964555,E-W,0.0002384185791015,18.982,N-S,0.0002384185791015,17.532
19960523183600.knt,MYG0089605231836.UD,1996-05-23, 18:36:00,38.653,142.313,39,5.0,MYG008,38.5766,141.4518,5,1996-05-23, 18:37:44,100Hz,64,U-D,0.0002384185791015,23.644,75.30423596827542,1414,1426.0,34.474207917366535,0.5108556386851724,0.4043416028646087,0.3630524202845065,0.3511963599128038,0.1922951693899726,0.0061762738871506,0.0061762738871506,0.0052213677421911,0.0044478526830667,0.0041829245225555,18.208948552512364,18.208948552512364,18.208948552512364,18.208948552512364,18.208948552512364,E-W,0.0002384185791015,25.352,N-S,0.0002384185791015,41.742
