earthquake name,records name,earthquake date,earthquake time,lat,long,depth,mag,stn_code,stn_lat,stn_long,stn_height,rcd_date,rcd_time,frequency,rcd_duration,direction,scale_factor,max_pga,epi_dist,pick_index_manually,pick_index_kalkan,snr_db_kalkan,tc_5sec,tc_4sec,tc_3sec,tc_2sec,tc_1sec,Pd_5sec,Pd_4sec,Pd_3sec,Pd_2sec,Pd_1sec,Pga_5sec,Pga_4sec,Pga_3sec,Pga_2sec,Pga_1sec,Channel,Scale_factor,PGA_ew,Channel.1,Scale_factor.1,PGA_ns
19990128102500.knt,NGN0149901281025.UD,1999-01-28, 10:25:00,36.37,137.997,9,4.7,NGN014,36.0932,138.483,856,1999-01-28, 10:26:57,100Hz,119,U-D,0.0002384185791015,7.23,53.362006838329656,1341,1341.0,16.88967377923573,3.635178148014075,3.5334944395589374,3.6650282118922535,3.761973580728817,3.690519036833644,0.0224207738205038,0.0224207738205038,0.0224207738205038,0.0224207738205038,0.0224207738205038,2.508825838474584,2.508825838474584,2.508825838474584,2.508825838474584,2.508825838474584,E-W,0.0002384185791015,23.726,N-S,0.0002384185791015,19.245
19990128102500.knt,NGN0159901281025.UD,1999-01-28, 10:25:00,36.37,137.997,9,4.7,NGN015,36.0454,138.1116,761,1999-01-28, 10:26:56,100Hz,119,U-D,0.0002384185791015,7.857,37.52981693262984,1207,1226.0,25.33081763962647,0.5980348020204739,0.6213996912099979,0.62997781932416,0.6169349992132149,0.887141320409611,0.0124731061603334,0.0124731061603334,0.0117392599168176,0.0073748814735304,0.0073748814735304,3.031164219427294,3.031164219427294,2.598166226046389,1.6413705664074654,1.442090055901721,E-W,0.0002384185791015,17.834,N-S,0.0002384185791015,14.32
19990128102500.knt,NGN0169901281025.UD,1999-01-28, 10:25:00,36.37,137.997,9,4.7,NGN016,35.9151,138.2421,970,1999-01-28, 10:26:57,100Hz,119,U-D,0.0002384185791015,5.695,55.16323523316486,1401,1402.0,29.23580602047632,0.4692128172808062,0.4801542122031666,0.4346751305048365,0.403412881361478,0.3532405866411023,0.0030543624937701,0.0030543624937701,0.0030543624937701,0.0030543624937701,0.0030543624937701,4.461100713294531,4.461100713294531,4.461100713294531,4.461100713294531,4.461100713294531,E-W,0.0002384185791015,13.205,N-S,0.0002384185791015,12.345
19990128102500.knt,NGN0179901281025.UD,1999-01-28, 10:25:00,36.37,137.997,9,4.7,NGN017,35.9748,137.8255,927,1999-01-28, 10:26:55,100Hz,119,U-D,0.0002384185791015,8.667,46.56255582117917,1435,1429.0,11.463079532271404,2.7774067638114346,2.8163368218981413,2.998612375127536,3.286827175454033,3.677384000411143,0.0394204777742294,0.0394204777742294,0.0394204777742294,0.0394204777742294,0.0394204777742294,3.217732242115928,3.217732242115928,3.217732242115928,3.217732242115928,3.217732242115928,E-W,0.0002384185791015,25.849,N-S,0.0002384185791015,32.107
19990128102500.knt,NGN0209901281025.UD,1999-01-28, 10:25:00,36.37,137.997,9,4.7,NGN020,35.8282,137.9532,636,1999-01-28, 10:26:58,100Hz,119,U-D,0.0002384185791015,4.737,60.373796492309,1385,1387.0,25.41327554680787,3.911885616486952,3.635390987974426,2.7154761372369225,1.4404640707063072,0.5514683310844661,0.0197207176652495,0.0197207176652495,0.0189872000846746,0.0152393651032419,0.0050900617724442,3.1689527699324795,3.1689527699324795,3.1689527699324795,3.1689527699324795,3.1689527699324795,E-W,0.0002384185791015,12.805,N-S,0.0002384185791015,8.783
19990128102500.knt,NGN0219901281025.UD,1999-01-28, 10:25:00,36.37,137.997,9,4.7,NGN021,35.7304,137.9341,679,1999-01-28, 10:26:08,100Hz,119,U-D,0.0002384185791015,2.362,71.34472178824916,557,562.0,25.097727822082383,2.5853374926833363,2.3757173800813742,1.808817676598624,1.2382719109341294,0.7300186302140959,0.0090467847659239,0.0090467847659239,0.0076100798581709,0.0065432102382081,0.0038258886591849,1.174836143884516,1.174836143884516,1.174836143884516,0.9175954934866644,0.9175954934866644,E-W,0.0002384185791015,9.099,N-S,0.0002384185791015,8.676
19990128102500.knt,NGN0229901281025.UD,1999-01-28, 10:25:00,36.37,137.997,9,4.7,NGN022,35.6079,137.6125,451,1999-01-28, 10:26:13,100Hz,119,U-D,0.0002384185791015,2.89,91.53054235221433,350,347.0,30.622837358966443,1.8979577438925737,1.7807527870657864,1.73700105568149,1.871093637192747,2.68051590492575,0.0068896776786141,0.0068896776786141,0.0068896776786141,0.0068896776786141,0.0068896776786141,2.0098641623502638,2.0098641623502638,1.775816908502518,1.775816908502518,1.775816908502518,E-W,0.0002384185791015,6.029,N-S,0.0002384185791015,6.872
19990128102500.knt,NGN0249901281025.UD,1999-01-28, 10:25:00,36.37,137.997,9,4.7,NGN024,35.5232,137.8374,538,1999-01-28, 10:26:04,100Hz,119,U-D,0.0002384185791015,6.657,95.24958776990984,1338,1340.0,28.83848018572589,0.8813251130784446,0.8175963872313283,0.8256119019291336,0.5555858887563239,0.4389102449382969,0.0098421211067824,0.0098421211067824,0.0060114644158192,0.0054825267560119,0.0052497910358998,3.224852577617673,3.224852577617673,3.0980908639951736,3.0980908639951736,2.25168902376469,E-W,0.0002384185791015,15.894,N-S,0.0002384185791015,12.303
19990128102500.knt,NIG0279901281025.UD,1999-01-28, 10:25:00,36.37,137.997,9,4.7,NIG027,37.0235,137.8624,106,1999-01-28, 10:26:09,100Hz,119,U-D,0.0002384185791015,2.041,73.6501178600084,480,492.0,21.799613758443652,0.687413616277558,0.551417164389044,0.4298853877984229,0.3299375975650042,0.364031124085177,0.0029849162129169,0.0029849162129169,0.0029849162129169,0.0029849162129169,0.0029849162129169,1.5855176173790655,1.5855176173790655,1.5855176173790655,1.5855176173790655,1.5855176173790655,E-W,0.0002384185791015,4.552,N-S,0.0002384185791015,7.101
19990128102500.knt,SIT0049901281025.UD,1999-01-28, 10:25:00,36.37,137.997,9,4.7,SIT004,36.1179,139.1045,140,1999-01-28, 10:26:17,100Hz,119,U-D,0.0002384185791015,1.132,103.1994534112912,94,99.0,8.349728297403956,2.547689856917961,2.723676053713154,2.807570125764096,2.5808832947094613,1.8560837636242211,0.0034660599417306,0.0034660599417306,0.0034660599417306,0.0034660599417306,0.0029779282717281,0.4575759348184994,0.4575759348184994,0.4563438658786782,0.4563438658786782,0.2675417034043722,E-W,0.0002384185791015,5.661,N-S,0.0002384185791015,3.194
19990128102500.knt,SIT0069901281025.UD,1999-01-28, 10:25:00,36.37,137.997,9,4.7,SIT006,35.9954,139.0709,207,1999-01-28, 10:26:18,100Hz,119,U-D,0.0002384185791015,1.243,104.99702736122772,47,46.0,22.702123498763427,1.8014532247628765,1.8411625865132488,1.7680954980218375,1.211231356046938,0.9736022730561928,0.0048313267001876,0.0048313267001876,0.0048313267001876,0.0046873100752756,0.001678895360985,0.5386858455532094,0.5386858455532094,0.5386858455532094,0.5386858455532094,0.2157811698593178,E-W,0.0002384185791015,7.073,N-S,0.0002384185791015,6.832
19990128102500.knt,SIT0149901281025.UD,1999-01-28, 10:25:00,36.37,137.997,9,4.7,SIT014,35.9954,138.801,748,1999-01-28, 10:26:02,100Hz,119,U-D,0.0002384185791015,4.475,83.31767200881117,1299,1328.0,27.581397406702614,0.6646827335497528,0.6763952432460928,0.6780027448002833,0.7291852810454758,0.6438967593197071,0.0021538533047835,0.0021538533047835,0.0021538533047835,0.0021538533047835,0.0021538533047835,2.5713442667576447,2.5713442667576447,2.5713442667576447,2.5713442667576447,2.5713442667576447,E-W,0.0002384185791015,8.281,N-S,0.0002384185791015,8.273
19990130070600.knt,NGN0059901300706.UD,1999-01-30, 07:06:00,36.87,137.697,9,3.8,NGN005,36.6981,137.8544,700,1999-01-30, 07:06:23,100Hz,119,U-D,0.0002384185791015,5.81,23.70331614636562,1221,1222.0,31.09203173190164,0.5046542442184,0.5009937800459604,0.6506887964593994,0.9207388213197716,0.6562645110749749,0.0044399053998254,0.0044399053998254,0.0035896399403998,0.0023822495324417,0.0018247542805152,5.823633215908412,5.823633215908412,4.838856691478245,2.6162701972758264,2.6162701972758264,E-W,0.0002384185791015,9.861,N-S,0.0002384185791015,12.32
19990130070600.knt,NIG0269901300706.UD,1999-01-30, 07:06:00,36.87,137.697,9,3.8,NIG026,37.0228,138.2507,70,1999-01-30, 07:06:33,100Hz,119,U-D,0.0002384185791015,2.093,52.05625894549177,1,199.0,9.326020588637329,3.3823421039371557,3.4521438708278014,5.106376061004322,5.01643941186513,3.23207340867376,0.0007267772909502,0.0004542089323446,0.0004542089323446,0.000440442811047,0.0002882175866452,0.5777789161861508,0.2470695923675346,0.1339124239044724,0.0943276976447554,0.0692394150627498,E-W,0.0002384185791015,4.722,N-S,0.0002384185791015,9.467
19990130070600.knt,NIG0279901300706.UD,1999-01-30, 07:06:00,36.87,137.697,9,3.8,NIG027,37.0235,137.8624,106,1999-01-30, 07:06:21,100Hz,119,U-D,0.0002384185791015,11.033,22.525018151300745,1407,1411.0,29.920925129431424,1.6135973295430552,1.751847666691341,1.824539538133584,1.13790873345959,0.2548225836409314,0.0152795357266911,0.0152795357266911,0.0150397401243233,0.0125909487560655,0.0046429437679104,10.997978021678472,10.997978021678472,10.997978021678472,10.997978021678472,10.997978021678472,E-W,0.0002384185791015,19.174,N-S,0.0002384185791015,9.217
19990130070600.knt,TYM0029901300706.UD,1999-01-30, 07:06:00,36.87,137.697,9,3.8,TYM002,36.866,136.9747,3,1999-01-30, 07:06:37,100Hz,119,U-D,0.0002384185791015,2.6,64.25585863302648,568,564.0,17.626588957216267,2.464816383229353,2.397917334759676,1.951234821449524,1.261075610538189,0.8240329338997635,0.0036511763025521,0.0036511763025521,0.0033453501673836,0.0032283717772512,0.0032283717772512,2.6062824331176127,2.6062824331176127,2.6062824331176127,2.6062824331176127,2.6062824331176127,E-W,0.0002384185791015,1.891,N-S,0.0002384185791015,2.807
19990130070600.knt,TYM0039901300706.UD,1999-01-30, 07:06:00,36.87,137.697,9,3.8,TYM003,36.8163,137.4192,46,1999-01-30, 07:06:26,100Hz,119,U-D,0.0002384185791015,2.206,25.4315326962422,1023,1024.0,27.481507598390746,0.7113793329994167,0.9009812620780302,1.1992963669136956,1.4295151684994234,1.4957929276260165,0.0034014515984362,0.0034014515984362,0.0034014515984362,0.0034014515984362,0.0034014515984362,2.210414198438017,2.210414198438017,1.684313324540618,1.684313324540618,1.684313324540618,E-W,0.0002384185791015,3.88,N-S,0.0002384185791015,5.638
19990130070600.knt,TYM0049901300706.UD,1999-01-30, 07:06:00,36.87,137.697,9,3.8,TYM004,36.8624,137.5274,114,1999-01-30, 07:06:20,100Hz,119,U-D,0.0002384185791015,25.866,15.11130442578377,1438,1439.0,31.639639493828305,0.5547879418118524,0.5257438385099406,0.4933430074927056,0.3068032939615103,0.19951136545806,0.0126604818660482,0.0126604818660482,0.0126604818660482,0.009511883589437,0.009511883589437,25.85074656137796,25.85074656137796,25.85074656137796,25.85074656137796,25.85074656137796,E-W,0.0002384185791015,10.417,N-S,0.0002384185791015,25.803
19990130070600.knt,TYM0059901300706.UD,1999-01-30, 07:06:00,36.87,137.697,9,3.8,TYM005,36.7824,137.0803,2,1999-01-30, 07:06:36,100Hz,119,U-D,0.0002384185791015,2.549,55.74795875197373,569,579.0,13.352717804865431,0.875370452623748,0.8732359148479848,0.802760237352584,0.640017892983464,0.3462698557694859,0.0015205997394204,0.0015205997394204,0.0015205997394204,0.0013512181186022,0.0013512181186022,2.537973039011225,2.537973039011225,2.537973039011225,2.537973039011225,2.537973039011225,E-W,0.0002384185791015,6.276,N-S,0.0002384185791015,4.607
19990130070600.knt,TYM0119901300706.UD,1999-01-30, 07:06:00,36.87,137.697,9,3.8,TYM011,36.5781,137.385,390,1999-01-30, 07:06:30,100Hz,119,U-D,0.0002384185791015,2.433,42.74039298623658,860,874.0,21.98026607178617,1.0683772336599242,1.0581672071967452,1.0627060609221182,1.1157942217240135,1.1325549689289431,0.0022286651413284,0.0022286651413284,0.0022286651413284,0.0022286651413284,0.0022286651413284,2.215576654870841,2.215576654870841,2.215576654870841,2.215576654870841,2.215576654870841,E-W,0.0002384185791015,3.079,N-S,0.0002384185791015,3.435
19990130070600.knt,TYM0129901300706.UD,1999-01-30, 07:06:00,36.87,137.697,9,3.8,TYM012,36.4411,137.0353,681,1999-01-30, 07:06:39,100Hz,119,U-D,0.0002384185791015,1.545,75.885414711149,491,507.0,18.998762172032816,3.899443018494725,4.049853222775473,3.666270112348831,3.003004604275996,2.772175522524196,0.0011212160561749,0.0011212160561749,0.0011212160561749,0.0010650521156935,0.0009833735183084,0.4439869525072422,0.4439869525072422,0.4439869525072422,0.4439869525072422,0.427959348726639,E-W,0.0002384185791015,2.919,N-S,0.0002384185791015,1.83
19990201015200.knt,FKS0019902010152.UD,1999-02-01, 01:52:00,37.12,141.547,49,5.1,FKS001,37.7949,140.9196,9,1999-02-01, 01:52:07,100Hz,119,U-D,0.0002384185791015,17.299,93.26586290897532,1428,1424.0,46.15563216898543,0.5883607099138151,0.6078379038314946,0.6340688557817518,0.6663283639670717,0.6538922854228005,0.020165990470208,0.020165990470208,0.020165990470208,0.020165990470208,0.020165990470208,7.269486764883368,7.269486764883368,7.179649568590281,7.179649568590281,7.179649568590281,E-W,0.0002384185791015,65.004,N-S,0.0002384185791015,43.038
19990201015200.knt,FKS0029902010152.UD,1999-02-01, 01:52:00,37.12,141.547,49,5.1,FKS002,37.8449,140.6013,42,1999-02-01, 01:52:10,100Hz,119,U-D,0.0002384185791015,5.252,116.01796199664945,1460,1463.0,38.65269631395819,0.6256450171953954,0.6245434307016761,0.6379610590247246,0.6571264042784343,0.6221272453580313,0.0230816835873785,0.0230816835873785,0.0230816835873785,0.0230816835873785,0.0230816835873785,5.179772933680232,5.179772933680232,5.179772933680232,5.179772933680232,5.179772933680232,E-W,0.0002384185791015,17.84,N-S,0.0002384185791015,20.747
19990201015200.knt,FKS0049902010152.UD,1999-02-01, 01:52:00,37.12,141.547,49,5.1,FKS004,37.6799,140.7346,488,1999-02-01, 01:52:08,100Hz,119,U-D,0.0002384185791015,11.855,95.00468472098562,1349,1380.0,25.53851226786632,0.8059991942145304,0.8754103450138166,0.9599544141599424,0.9551292683420592,0.879728876406051,0.0112140037575924,0.0112140037575924,0.0112140037575924,0.0112140037575924,0.0112140037575924,7.033065551239284,7.033065551239284,7.033065551239284,7.033065551239284,7.033065551239284,E-W,0.0002384185791015,19.155,N-S,0.0002384185791015,25.652
19990201015200.knt,FKS0059902010152.UD,1999-02-01, 01:52:00,37.12,141.547,49,5.1,FKS005,37.6385,140.9849,16,1999-02-01, 01:52:05,100Hz,119,U-D,0.0002384185791015,10.319,76.0972054290064,1424,1420.0,37.15812327974548,0.6798196510047445,0.6866172081707651,0.6891558227279182,0.6912574951946541,0.6177913869692584,0.0314227325802628,0.0314227325802628,0.0314227325802628,0.0314227325802628,0.0314227325802628,10.25111432155276,10.25111432155276,10.25111432155276,10.25111432155276,10.25111432155276,E-W,0.0002384185791015,22.235,N-S,0.0002384185791015,15.341
19990201015200.knt,FKS0069902010152.UD,1999-02-01, 01:52:00,37.12,141.547,49,5.1,FKS006,37.5031,140.7588,472,1999-02-01, 01:52:10,100Hz,119,U-D,0.0002384185791015,9.793,81.69292208078726,982,981.0,43.95478095174596,1.402854188172491,1.4558152254307215,1.3507823313339749,1.1373430315614037,0.8771311479236391,0.0193854659664982,0.0193854659664982,0.0193854659664982,0.0193854659664982,0.0193854659664982,3.9131367468496663,3.7325553377848046,3.7325553377848046,3.7325553377848046,2.9214801405673105,E-W,0.0002384185791015,30.73,N-S,0.0002384185791015,32.036
19990201015200.knt,FKS0079902010152.UD,1999-02-01, 01:52:00,37.12,141.547,49,5.1,FKS007,37.4061,140.9632,70,1999-02-01, 01:52:03,100Hz,119,U-D,0.0002384185791015,35.685,60.67292116051726,1450,1450.0,48.08833320497051,0.5664724529361082,0.5501768447123769,0.5423728421888622,0.5508690981137763,0.5767227420855224,0.0637278421400636,0.0637278421400636,0.0637278421400636,0.0637278421400636,0.0637278421400636,35.76756001436062,35.76756001436062,35.76756001436062,35.76756001436062,35.76756001436062,E-W,0.0002384185791015,54.516,N-S,0.0002384185791015,52.654
19990201015200.knt,FKS0089902010152.UD,1999-02-01, 01:52:00,37.12,141.547,49,5.1,FKS008,37.4363,140.5668,430,1999-02-01, 01:52:07,100Hz,119,U-D,0.0002384185791015,8.034,93.5860622986562,1436,1435.0,43.10002932992825,1.0475699458463157,1.0507447209366994,1.0978272994577023,1.02202319943568,0.7294213958373565,0.008765174723231,0.008765174723231,0.008765174723231,0.008765174723231,0.008765174723231,5.230834482956057,5.230834482956057,5.230834482956057,5.230834482956057,5.173023203241692,E-W,0.0002384185791015,24.795,N-S,0.0002384185791015,21.075
19990201015200.knt,FKS0099902010152.UD,1999-02-01, 01:52:00,37.12,141.547,49,5.1,FKS009,37.2778,140.6349,440,1999-02-01, 01:52:06,100Hz,119,U-D,0.0002384185791015,8.428,82.6691613173974,1403,1399.0,42.03120331975437,1.3031179011161735,1.2901379908651134,1.251124063365194,1.169520411961371,0.9345314145935016,0.0178420827030904,0.0178420827030904,0.0178420827030904,0.0178420827030904,0.0178420827030904,3.941998691225484,3.941998691225484,3.941998691225484,3.941998691225484,3.86138910609272,E-W,0.0002384185791015,26.206,N-S,0.0002384185791015,22.302
19990201015200.knt,FKS0109902010152.UD,1999-02-01, 01:52:00,37.12,141.547,49,5.1,FKS010,37.2342,141.0016,50,1999-02-01, 01:52:02,100Hz,119,U-D,0.0002384185791015,10.92,49.96138235930649,1472,1474.0,39.18562465456967,1.0811655600442018,1.124757877770035,1.1018750957865977,1.1463992940613408,0.8606472731035815,0.0479685237041533,0.0479685237041533,0.0479685237041533,0.0479685237041533,0.0479685237041533,10.722987123998864,10.722987123998864,10.722987123998864,10.722987123998864,10.722987123998864,E-W,0.0002384185791015,32.025,N-S,0.0002384185791015,38.371
19990201015200.knt,FKS0119902010152.UD,1999-02-01, 01:52:00,37.12,141.547,49,5.1,FKS011,37.0911,140.9035,165,1999-02-01, 01:52:03,100Hz,119,U-D,0.0002384185791015,20.538,57.15638644044377,1432,1433.0,45.97909936118625,0.7113058505495717,0.6840208963596701,0.6986863440311276,0.6434494283997749,0.7368863325630112,0.0295368128517439,0.0295368128517439,0.0295368128517439,0.0295368128517439,0.0295368128517439,20.427106292105425,20.427106292105425,20.427106292105425,20.427106292105425,20.427106292105425,E-W,0.0002384185791015,21.151,N-S,0.0002384185791015,32.45
19990201015200.knt,FKS0129902010152.UD,1999-02-01, 01:52:00,37.12,141.547,49,5.1,FKS012,36.9069,140.7929,2,1999-02-01, 01:52:13,100Hz,119,U-D,0.0002384185791015,5.794,71.02445401314858,580,580.0,33.95640899601581,2.75685002369123,2.515684984762757,1.9395385149592763,1.4291039794623082,0.9066893402782064,0.024754210755766,0.0233747159841162,0.0209174128372614,0.0158253578866706,0.0156756953715344,3.18245300686391,3.18245300686391,3.18245300686391,3.18245300686391,2.09114105270058,E-W,0.0002384185791015,10.462,N-S,0.0002384185791015,13.171
19990201015200.knt,FKS0139902010152.UD,1999-02-01, 01:52:00,37.12,141.547,49,5.1,FKS013,37.09,140.5563,320,1999-02-01, 01:52:07,100Hz,119,U-D,0.0002384185791015,5.201,87.91960165996785,1375,1372.0,38.812873073447165,0.8906992200262155,0.9061240847469636,0.9048868668623008,0.924634300708737,0.8739389982756005,0.0091377258325601,0.0091377258325601,0.0091377258325601,0.0091377258325601,0.0091377258325601,3.002211897231546,3.002211897231546,3.002211897231546,3.002211897231546,2.528689142623316,E-W,0.0002384185791015,10.963,N-S,0.0002384185791015,12.464
19990201015200.knt,FKS0149902010152.UD,1999-02-01, 01:52:00,37.12,141.547,49,5.1,FKS014,36.8683,140.43,178,1999-02-01, 01:52:20,100Hz,119,U-D,0.0002384185791015,2.61,103.07368477142909,283,285.0,27.389432103750103,3.706498019002792,3.525476070825638,3.700003368220543,3.8579320260972874,3.785192036753173,0.0284005560513659,0.0284005560513659,0.0284005560513659,0.0284005560513659,0.0284005560513659,2.2304218740978703,2.2304218740978703,2.2304218740978703,2.2304218740978703,2.2304218740978703,E-W,0.0002384185791015,6.885,N-S,0.0002384185791015,5.51
19990201015200.knt,FKS0159902010152.UD,1999-02-01, 01:52:00,37.12,141.547,49,5.1,FKS015,37.0217,140.3775,315,1999-02-01, 01:52:21,100Hz,119,U-D,0.0002384185791015,1.427,104.33313247569248,204,200.0,29.8260633995912,1.3637383276451664,1.3968695852606776,1.4347787106284675,1.4353173556733196,1.6686731515901638,0.0128374111631477,0.0128374111631477,0.0128374111631477,0.0128374111631477,0.0128374111631477,1.4149371368161143,1.4149371368161143,1.4149371368161143,1.4149371368161143,1.1877905103399888,E-W,0.0002384185791015,2.658,N-S,0.0002384185791015,3.903
