earthquake name,records name,earthquake date,earthquake time,lat,long,depth,mag,stn_code,stn_lat,stn_long,stn_height,rcd_date,rcd_time,frequency,rcd_duration,direction,scale_factor,max_pga,epi_dist,pick_index_manually,pick_index_kalkan,snr_db_kalkan,tc_5sec,tc_4sec,tc_3sec,tc_2sec,tc_1sec,Pd_5sec,Pd_4sec,Pd_3sec,Pd_2sec,Pd_1sec,Pga_5sec,Pga_4sec,Pga_3sec,Pga_2sec,Pga_1sec,Channel,Scale_factor,PGA_ew,Channel.1,Scale_factor.1,PGA_ns
19990109120600.knt,HKD0719901091206.UD,1999-01-09, 12:06:00,44.103,147.396,121,5.6,HKD071,43.2326,145.2604,38,1999-01-09, 12:07:12,100Hz,119,U-D,0.0002384185791015,5.464,197.15373750353916,1286,367.0,34.22379516683779,1.0981678958004557,1.1286789247626383,1.1614824345788757,0.9756988897912524,0.4384177212280595,0.0065671542724174,0.0065671542724174,0.0065671542724174,0.0065671542724174,0.0022641964381437,4.682008842540654,4.682008842540654,4.682008842540654,4.682008842540654,2.5167911726717493,E-W,0.0002384185791015,16.002,N-S,0.0002384185791015,20.839
19990109120600.knt,HKD0729901091206.UD,1999-01-09, 12:06:00,44.103,147.396,121,5.6,HKD072,43.1948,145.5209,46,1999-01-09, 12:07:10,100Hz,119,U-D,0.0002384185791015,8.654,181.540344950572,1356,1388.0,29.405595036287725,1.1935241507821193,0.7911885674820632,0.5785563457403908,0.5965788897688832,0.5484539190588895,0.0087498845774503,0.0072513106326362,0.0051614420708722,0.0051614420708722,0.0028044015125558,3.843345281774136,3.843345281774136,3.843345281774136,3.843345281774136,2.554498782970411,E-W,0.0002384185791015,29.55,N-S,0.0002384185791015,20.586
19990109120600.knt,HKD0739901091206.UD,1999-01-09, 12:06:00,44.103,147.396,121,5.6,HKD073,43.3327,145.6003,36,1999-01-09, 12:07:09,100Hz,119,U-D,0.0002384185791015,7.486,167.81242387823409,1296,1296.0,26.34905117514283,0.6585624120415898,0.6751229609301462,0.700282608927938,0.7265384603368806,1.4006042976375388,0.0071011498294921,0.0071011498294921,0.0071011498294921,0.0071011498294921,0.0071011498294921,7.499437236672273,7.499437236672273,7.499437236672273,7.499437236672273,4.020999120959671,E-W,0.0002384185791015,15.912,N-S,0.0002384185791015,24.807
19990109120600.knt,HKD0749901091206.UD,1999-01-09, 12:06:00,44.103,147.396,121,5.6,HKD074,43.3687,145.8028,16,1999-01-09, 12:07:07,100Hz,119,U-D,0.0002384185791015,8.949,151.82144813273635,1311,1335.0,30.851979902500325,0.5878187105524418,0.6137646397000134,0.6344841264776682,0.6044087007552643,1.2109764305949255,0.0061279567733723,0.0061279567733723,0.0061279567733723,0.0058726609664089,0.0039290088701557,6.748260202886247,6.748260202886247,6.748260202886247,6.748260202886247,2.265497052907846,E-W,0.0002384185791015,28.735,N-S,0.0002384185791015,18.477
19990109120600.knt,HKD1599901091206.UD,1999-01-09, 12:06:00,44.103,147.396,121,5.6,HKD159,41.7162,141.0025,35,1999-01-09, 12:07:53,100Hz,119,U-D,0.0002384185791015,1.594,584.2056241901964,1,32.0,10.97383607008984,2.6587887162686847,1.6244332593911015,0.3577822666551628,0.3892959800651114,0.3689891446794872,0.0010717867528794,0.0006582117307044,0.0001148993073225,0.0001148993073225,9.313083000917956e-05,0.1303839481854712,0.118752661561241,0.0913847020589165,0.0913847020589165,0.0913847020589165,E-W,0.0002384185791015,6.466,N-S,0.0002384185791015,6.17
19990109230000.knt,HYG0109901092300.UD,1999-01-09, 23:00:00,35.003,135.53,15,3.4,HYG010,35.0593,135.1777,195,1999-01-09, 23:00:26,100Hz,119,U-D,0.0002384185791015,1.536,32.68237678218995,1040,1044.0,18.13943831998605,1.434254771016433,2.091836368294148,2.253905994612568,2.3094352498411315,2.4930619757204244,0.001697982648864,0.001697982648864,0.001697982648864,0.001697982648864,0.001697982648864,1.540447057241153,1.540447057241153,1.540447057241153,1.540447057241153,1.540447057241153,E-W,0.0002384185791015,5.742,N-S,0.0002384185791015,3.493
19990109230000.knt,HYG0159901092300.UD,1999-01-09, 23:00:00,35.003,135.53,15,3.4,HYG015,34.9515,135.2713,195,1999-01-09, 23:00:24,100Hz,119,U-D,0.0002384185791015,7.672,24.256045334607457,1119,1121.0,25.63901162619367,1.0623646583842534,1.1228760207798527,2.42933103198793,2.5600220545206978,2.4483814957181527,0.0054995293360824,0.0054995293360824,0.0054995293360824,0.0054995293360824,0.0054995293360824,7.642199359755241,7.642199359755241,3.404569873996784,3.404569873996784,3.404569873996784,E-W,0.0002384185791015,22.788,N-S,0.0002384185791015,20.414
19990109230000.knt,KYT0089901092300.UD,1999-01-09, 23:00:00,35.003,135.53,15,3.4,KYT008,35.2612,135.3966,100,1999-01-09, 23:00:26,100Hz,119,U-D,0.0002384185791015,0.97,31.168237683637635,1005,1012.0,15.786315091649456,3.5955907657771973,5.78571389043171,8.667314192468385,12.424921060984914,16.915709893201544,0.0016024969512231,0.0016024969512231,0.0016024969512231,0.0016024969512231,0.0016024969512231,0.969161756008182,0.7624597287798481,0.4817692988102934,0.3712779417315663,0.3712779417315663,E-W,0.0002384185791015,4.877,N-S,0.0002384185791015,4.18
19990109230000.knt,KYT0119901092300.UD,1999-01-09, 23:00:00,35.003,135.53,15,3.4,KYT011,35.017,135.5638,101,1999-01-09, 23:00:18,100Hz,119,U-D,0.0002384185791015,19.43,3.44955508333098,1474,1474.0,35.28328944968936,1.8556099607166097,1.8138477632301568,1.2320893330393836,0.7233430851498359,0.2377579094959438,0.0111317432486249,0.0111317432486249,0.0101684737720497,0.006376358504447,0.0027962020659479,19.45833061826387,19.45833061826387,19.45833061826387,19.45833061826387,19.45833061826387,E-W,0.0002384185791015,28.131,N-S,0.0002384185791015,37.272
19990109230000.knt,KYT0129901092300.UD,1999-01-09, 23:00:00,35.003,135.53,15,3.4,KYT012,34.9962,135.8188,89,1999-01-09, 23:00:25,100Hz,119,U-D,0.0002384185791015,5.797,26.316491399704017,1030,1031.0,29.16703763847356,1.3271718438674118,1.4611501261932238,1.599028737431867,1.699922015924666,1.6497371809763863,0.0035642140279835,0.0035642140279835,0.0035642140279835,0.0035642140279835,0.0035642140279835,5.807542497561927,5.807542497561927,5.807542497561927,5.807542497561927,5.807542497561927,E-W,0.0002384185791015,3.741,N-S,0.0002384185791015,6.4
19990109230000.knt,OSK0019901092300.UD,1999-01-09, 23:00:00,35.003,135.53,15,3.4,OSK001,34.9707,135.39,224,1999-01-09, 23:00:21,100Hz,119,U-D,0.0002384185791015,15.847,13.25008336992502,1264,1310.0,13.451420056941489,0.3972218084237072,0.2659350795601811,0.2885068777514442,0.6676515974675274,0.661035989184463,0.0055424073884531,0.0048948090598503,0.0048059616893279,0.0016832978843621,0.0016832978843621,15.875561030281933,15.875561030281933,15.875561030281933,2.269235842620068,2.269235842620068,E-W,0.0002384185791015,17.723,N-S,0.0002384185791015,21.782
19990109230000.knt,OSK0029901092300.UD,1999-01-09, 23:00:00,35.003,135.53,15,3.4,OSK002,34.8573,135.5958,34,1999-01-09, 23:00:23,100Hz,119,U-D,0.0002384185791015,2.06,17.27594028581811,1127,817.0,16.39493329602982,0.967968024075158,0.9467514526782864,1.374802024358694,1.552024011463267,1.44886124768213,0.0038439020080288,0.0017661738555121,0.0014232778655024,0.0010552036718084,0.0010059644612213,2.052635577953412,2.052635577953412,1.6776821725830164,1.3536901859716397,1.3536901859716397,E-W,0.0002384185791015,4.224,N-S,0.0002384185791015,5.109
19990109230000.knt,SIG0109901092300.UD,1999-01-09, 23:00:00,35.003,135.53,15,3.4,SIG010,34.9718,135.8965,110,1999-01-09, 23:00:22,100Hz,119,U-D,0.0002384185791015,4.029,33.56773385415212,1453,1453.0,20.07586931049993,1.7487162119448272,1.3417279403168492,0.6801123980662174,0.2068097377903518,0.1316137028700077,0.0029790253396229,0.0028475111578242,0.0020431970578599,0.0007678467972376,0.0007678467972376,4.025565632771556,4.025565632771556,4.025565632771556,4.025565632771556,4.025565632771556,E-W,0.0002384185791015,2.244,N-S,0.0002384185791015,2.125
19990109232200.knt,EHM0059901092322.UD,1999-01-09, 23:22:00,33.553,132.447,50,3.9,EHM005,33.7974,132.9141,136,1999-01-09, 23:22:44,100Hz,119,U-D,0.0002384185791015,0.753,51.056780576288006,562,564.0,11.231662815852273,6.963871800240431,6.150369063234181,4.339593098370076,2.39676393333649,2.3836402864793595,0.0031017276203053,0.0031017276203053,0.0029081183547647,0.0016496971163577,0.0016496971163577,0.3783571490249375,0.3783571490249375,0.3783571490249375,0.3783571490249375,0.3783571490249375,E-W,0.0002384185791015,2.602,N-S,0.0002384185791015,1.93
19990109232200.knt,EHM0099901092322.UD,1999-01-09, 23:22:00,33.553,132.447,50,3.9,EHM009,33.6324,132.7963,250,1999-01-09, 23:22:41,100Hz,119,U-D,0.0002384185791015,1.178,33.53671180106818,662,662.0,21.902459980862407,2.4655846222180853,2.327253950179943,1.9250452882920257,1.7944597195892835,2.1536075729792987,0.0017778353407518,0.0015920307817604,0.001576491938874,0.001576491938874,0.001576491938874,1.0097066452396888,1.0097066452396888,1.0097066452396888,1.0097066452396888,0.7403320809872067,E-W,0.0002384185791015,4.023,N-S,0.0002384185791015,3.275
19990109232200.knt,EHM0109901092322.UD,1999-01-09, 23:22:00,33.553,132.447,50,3.9,EHM010,33.4506,132.6881,151,1999-01-09, 23:22:38,100Hz,119,U-D,0.0002384185791015,4.322,25.0879724365246,902,912.0,22.773444894452663,0.9118508036139248,0.778578304403659,0.5152531731567259,0.2905850037744721,0.2499013105906047,0.0014996515448575,0.0014437151709727,0.001198242098566,0.0008490370368607,0.0007307210539416,1.3541869526651835,1.3541869526651835,1.3541869526651835,1.3541869526651835,1.3541869526651835,E-W,0.0002384185791015,6.406,N-S,0.0002384185791015,6.473
19990109232200.knt,EHM0119901092322.UD,1999-01-09, 23:22:00,33.553,132.447,50,3.9,EHM011,33.4496,132.4336,10,1999-01-09, 23:22:36,100Hz,119,U-D,0.0002384185791015,2.841,11.56449476509988,984,988.0,23.44300116125285,3.995880094437591,3.782014814219478,2.8948710539970066,1.904335802028342,1.0333694683257482,0.004983700583737,0.0047085095541583,0.0037957523436067,0.0025253731711665,0.0015404719586074,1.6099785063448475,1.6099785063448475,1.6099785063448475,1.6099785063448475,1.6099785063448475,E-W,0.0002384185791015,10.801,N-S,0.0002384185791015,10.019
19990109232200.knt,EHM0129901092322.UD,1999-01-09, 23:22:00,33.553,132.447,50,3.9,EHM012,33.2217,132.5727,37,1999-01-09, 23:22:40,100Hz,119,U-D,0.0002384185791015,2.0,38.64328581757045,805,818.0,19.120666960804915,6.815702545172157,7.638398242593279,8.491110344009748,9.618128257302018,11.961390919719774,0.0048263162580988,0.0048263162580988,0.0048263162580988,0.0048263162580988,0.0048263162580988,0.749205129178453,0.749205129178453,0.749205129178453,0.749205129178453,0.749205129178453,E-W,0.0002384185791015,5.528,N-S,0.0002384185791015,4.153
19990109232200.knt,EHM0139901092322.UD,1999-01-09, 23:22:00,33.553,132.447,50,3.9,EHM013,33.3924,132.1141,18,1999-01-09, 23:22:39,100Hz,119,U-D,0.0002384185791015,1.706,35.66963773683429,848,862.0000000000001,20.761724357056,8.596303768588836,10.149868357396272,8.993130364458182,5.46284757801782,2.212172471837184,0.0138411330053964,0.0138411330053964,0.0138411330053964,0.0117745451967707,0.004938579516312,1.299069321981137,1.299069321981137,1.299069321981137,1.299069321981137,1.299069321981137,E-W,0.0002384185791015,6.17,N-S,0.0002384185791015,4.803
19990109232200.knt,EHM0149901092322.UD,1999-01-09, 23:22:00,33.553,132.447,50,3.9,EHM014,32.9453,132.5047,1,1999-01-09, 23:22:46,100Hz,119,U-D,0.0002384185791015,2.898,67.78584510365926,519,522.0,14.12428601567293,7.976444595171016,6.13763498603937,4.2678401574346445,3.262455989745312,3.999796132649037,0.007480678513924,0.0069512627050447,0.0052172517427729,0.0051047398306302,0.0051047398306302,0.9506443667694932,0.9506443667694932,0.9506443667694932,0.9506443667694932,0.9506443667694932,E-W,0.0002384185791015,8.231,N-S,0.0002384185791015,5.487
19990109232200.knt,EHM0159901092322.UD,1999-01-09, 23:22:00,33.553,132.447,50,3.9,EHM015,33.6105,132.4814,4,1999-01-09, 23:22:31,100Hz,89,U-D,0.0002384185791015,3.307,7.143841344340794,1464,1473.0,21.589697515265293,0.7456276850785191,0.7239723118722753,0.702569986896752,0.7079803965049326,0.5661090064018168,0.0029314664730366,0.0029314664730366,0.0029314664730366,0.0029314664730366,0.0029314664730366,3.325806346029758,3.325806346029758,3.325806346029758,3.325806346029758,3.325806346029758,E-W,0.0002384185791015,6.705,N-S,0.0002384185791015,5.592
19990109232200.knt,KOC0129901092322.UD,1999-01-09, 23:22:00,33.553,132.447,50,3.9,KOC012,33.1967,132.9758,150,1999-01-09, 23:22:46,100Hz,119,U-D,0.0002384185791015,0.954,63.09312418604334,498,498.00000000000006,11.937076029261087,0.8976701668124937,0.7219158940799683,0.734565286646748,0.6620655975998528,0.5213490470064155,0.0007085115996077,0.0006101304625472,0.0006101304625472,0.0006101304625472,0.0006101304625472,0.9581114622490492,0.9581114622490492,0.9581114622490492,0.9581114622490492,0.9581114622490492,E-W,0.0002384185791015,3.535,N-S,0.0002384185791015,4.666
19990109232200.knt,KOC0159901092322.UD,1999-01-09, 23:22:00,33.553,132.447,50,3.9,KOC015,32.937,132.7252,2,1999-01-09, 23:22:48,100Hz,119,U-D,0.0002384185791015,2.542,73.21907107531923,393,411.00000000000006,22.570287499931812,0.8102193403532663,0.7785055543991708,0.7660605866047311,0.7917750367606877,0.8676769986843068,0.0017484464165908,0.0017484464165908,0.0017484464165908,0.0017484464165908,0.0017484464165908,2.172646628034776,2.172646628034776,2.172646628034776,2.172646628034776,2.172646628034776,E-W,0.0002384185791015,4.537,N-S,0.0002384185791015,4.328
19990109232200.knt,YMG0179901092322.UD,1999-01-09, 23:22:00,33.553,132.447,50,3.9,YMG017,33.9649,132.1011,2,1999-01-09, 23:22:43,100Hz,119,U-D,0.0002384185791015,1.893,55.85929591053648,664,324.0,13.282296680137849,1.9949908309436784,1.6240883550059075,1.542572698956138,1.4685729468915047,1.4819821177578354,0.0017124471506177,0.0010493069979823,0.0010493069979823,0.0010493069979823,0.0010493069979823,0.7473731651672928,0.7473731651672928,0.7473731651672928,0.7473731651672928,0.7473731651672928,E-W,0.0002384185791015,4.235,N-S,0.0002384185791015,3.823
19990109232200.knt,YMG0189901092322.UD,1999-01-09, 23:22:00,33.553,132.447,50,3.9,YMG018,33.9091,132.3561,2,1999-01-09, 23:22:40,100Hz,119,U-D,0.0002384185791015,1.431,40.47894211995814,785,785.0,24.200069949267817,5.804654982862676,6.393053171360576,6.898718736910723,7.203487638626129,7.181712643140757,0.0043306036963322,0.0043306036963322,0.0043306036963322,0.0043306036963322,0.0043306036963322,0.8853577893486,0.8853577893486,0.8853577893486,0.8853577893486,0.8853577893486,E-W,0.0002384185791015,3.343,N-S,0.0002384185791015,6.789
19990109232200.knt,YMG0199901092322.UD,1999-01-09, 23:22:00,33.553,132.447,50,3.9,YMG019,33.8388,132.1205,90,1999-01-09, 23:22:41,100Hz,119,U-D,0.0002384185791015,4.618,43.84419789778664,731,740.0,22.816094043214736,5.559286207731834,5.203424519237396,5.0648160330866165,3.734847941468306,2.599354474826978,0.0037179968514435,0.0037179968514435,0.0037179968514435,0.0032496908239686,0.0025199634976721,1.2881792836573502,1.2881792836573502,1.2881792836573502,1.2881792836573502,1.2881792836573502,E-W,0.0002384185791015,4.363,N-S,0.0002384185791015,3.832
19990111091000.knt,FKI0039901110910.UD,1999-01-11, 09:10:00,36.053,136.747,9,4.3,FKI003,36.0444,136.2279,9,1999-01-11, 09:10:55,100Hz,119,U-D,0.0002384185791015,1.343,46.67838807408651,774,20.0,14.696853383763615,1.3787416253554403,1.3671324373893767,1.3590600290388974,0.8162530381893832,0.5388945055808947,0.0049476862885763,0.0049476862885763,0.0049476862885763,0.0032218717316215,0.0027630984318436,0.6968305028125107,0.6968305028125107,0.6968305028125107,0.6968305028125107,0.6968305028125107,E-W,0.0002384185791015,3.44,N-S,0.0002384185791015,1.631
19990111091000.knt,FKI0049901110910.UD,1999-01-11, 09:10:00,36.053,136.747,9,4.3,FKI004,35.9789,136.4865,175,1999-01-11, 09:10:45,100Hz,119,U-D,0.0002384185791015,4.441,24.83605580153002,1393,1393.0,28.55282724465452,0.9622745358208228,1.184147951008194,0.6961240300709436,0.54771249477634,0.5134481252827497,0.0170864137896268,0.0170864137896268,0.0062809278351825,0.0057286511966565,0.0057286511966565,4.430945085083962,4.430945085083962,4.430945085083962,4.430945085083962,4.430945085083962,E-W,0.0002384185791015,11.07,N-S,0.0002384185791015,12.435
19990111091000.knt,FKI0119901110910.UD,1999-01-11, 09:10:00,36.053,136.747,9,4.3,FKI011,35.9053,136.6706,432,1999-01-11, 09:10:44,100Hz,119,U-D,0.0002384185791015,9.706,17.804264198686607,1377,1387.0,31.16034015317568,1.536861091830328,1.3805428601296978,1.150119809418594,0.9017928482432078,0.6687726421637012,0.0229303668759183,0.0229303668759183,0.0229303668759183,0.0046826887751323,0.0035675994234931,9.76457588667989,9.76457588667989,9.76457588667989,5.330514857431362,5.239689925887917,E-W,0.0002384185791015,40.869,N-S,0.0002384185791015,20.304
19990111091000.knt,GIF0029901110910.UD,1999-01-11, 09:10:00,36.053,136.747,9,4.3,GIF002,36.2734,137.0253,570,1999-01-11, 09:10:51,100Hz,119,U-D,0.0002384185791015,3.222,34.99695357483841,1002,1010.0,24.769317148323857,3.296540613283122,5.894770051455565,6.717044512043809,7.058253702855156,6.577711682231505,0.0098863210887121,0.0098863210887121,0.0098863210887121,0.0098863210887121,0.0098863210887121,3.2269713261505597,1.1141650964928704,1.1141650964928704,1.1141650964928704,0.914945795975848,E-W,0.0002384185791015,10.615,N-S,0.0002384185791015,7.988
19990111091000.knt,GIF0059901110910.UD,1999-01-11, 09:10:00,36.053,136.747,9,4.3,GIF005,36.1536,137.2514,562,1999-01-11, 09:10:55,100Hz,119,U-D,0.0002384185791015,1.435,46.67578490337243,810,270.0,11.040212855687228,1.6184781617256,1.6796886581380617,1.8790288154874568,0.7967761203842475,0.693321163331149,0.0029191803363571,0.0029191803363571,0.0029191803363571,0.001542179118349,0.0008858108624963,1.0373002606551305,1.0373002606551305,0.8707121208379649,0.6363834237590776,0.5090657117434684,E-W,0.0002384185791015,4.133,N-S,0.0002384185791015,3.231
19990111091000.knt,GIF0069901110910.UD,1999-01-11, 09:10:00,36.053,136.747,9,4.3,GIF006,36.0333,136.9528,792,1999-01-11, 09:10:46,100Hz,119,U-D,0.0002384185791015,5.467,18.632551687947103,1207,1226.0,25.539821170163005,1.233567300135435,1.2777816501653063,0.9696158225024212,1.0910862359263398,0.7223790255683646,0.0294383381620128,0.0294383381620128,0.0194106949706863,0.0061776936925728,0.0035016826299729,5.487886182084625,5.487886182084625,5.189560012170125,2.535590986682261,1.4135010140586846,E-W,0.0002384185791015,8.529,N-S,0.0002384185791015,7.872
19990111091000.knt,GIF0079901110910.UD,1999-01-11, 09:10:00,36.053,136.747,9,4.3,GIF007,36.0378,137.4861,995,1999-01-11, 09:10:00,100Hz,119,U-D,0.0002384185791015,4.213,66.47142361823835,647,676.0,21.2980825485416,3.6875814057878986,3.662062098313752,4.475934511931232,5.345241517997517,6.552438560904346,0.0038037391484195,0.0038037391484195,0.0038037391484195,0.0038037391484195,0.0034896443669258,1.259207604141514,1.259207604141514,0.9476867425682844,0.7955059571540243,0.4784147712204409,E-W,0.0002384185791015,6.755,N-S,0.0002384185791015,6.487
19990111091000.knt,GIF0089901110910.UD,1999-01-11, 09:10:00,36.053,136.747,9,4.3,GIF008,35.9515,137.26,522,1999-01-11, 09:10:55,100Hz,119,U-D,0.0002384185791015,2.241,47.50747172023319,813,822.0000000000001,22.688952463634365,6.247979394881296,6.361294942495456,5.992041992070798,3.795744188779583,4.09360052497856,0.0088130857844296,0.0088130857844296,0.0088130857844296,0.005021391183694,0.0028569611008441,0.6435614775702958,0.6435614775702958,0.5590524386584088,0.4681772458839505,0.3364625448556944,E-W,0.0002384185791015,2.558,N-S,0.0002384185791015,2.535
19990111091000.knt,GIF0099901110910.UD,1999-01-11, 09:10:00,36.053,136.747,9,4.3,GIF009,35.9219,136.8311,450,1999-01-11, 09:10:43,100Hz,119,U-D,0.0002384185791015,15.454,16.42447009686046,1462,1468.0,30.539057912247543,1.0782134287998486,0.6395153399297488,0.6424882296844863,0.993341835973959,0.3739094575299497,0.0311917220935751,0.0242363555391642,0.0242363555391642,0.0098311704503619,0.0031317848615999,15.60107533048339,15.60107533048339,15.60107533048339,5.708040966771474,5.708040966771474,E-W,0.0002384185791015,41.139,N-S,0.0002384185791015,64.389
