earthquake name,records name,earthquake date,earthquake time,lat,long,depth,mag,stn_code,stn_lat,stn_long,stn_height,rcd_date,rcd_time,frequency,rcd_duration,direction,scale_factor,max_pga,epi_dist,pick_index_manually,pick_index_kalkan,snr_db_kalkan,tc_5sec,tc_4sec,tc_3sec,tc_2sec,tc_1sec,Pd_5sec,Pd_4sec,Pd_3sec,Pd_2sec,Pd_1sec,Pga_5sec,Pga_4sec,Pga_3sec,Pga_2sec,Pga_1sec,Channel,Scale_factor,PGA_ew,Channel.1,Scale_factor.1,PGA_ns
19970123144400.knt,MYG0049701231444.UD,1997-01-23, 14:44:00,38.886,141.014,10,3.8,MYG004,38.7292,141.0217,40.0,1997-01-23, 14:44:32,100Hz,59,U-D,0.0002384185791015,4.01,17.44812564417727,1403,1398.0,30.5262540991924,0.6071086065335752,0.6414962830884049,0.4789715578181281,0.3359064407968972,0.2278007418656014,0.0050776252703029,0.0049985780033844,0.0036339595743033,0.0022087635678894,0.0010797563820663,4.036357428708623,2.610114029251425,2.3210123981630364,2.3210123981630364,2.3210123981630364,E-W,0.0002384185791015,13.726,N-S,0.0002384185791015,16.899
19970123144400.knt,MYG0059701231444.UD,1997-01-23, 14:44:00,38.886,141.014,10,3.8,MYG005,38.7992,140.6507,300.0,1997-01-23, 14:44:41,100Hz,59,U-D,0.0002384185791015,2.844,32.91121854079185,722,752.0,22.622644192880266,9.067901105055816,15.365536572584524,17.321798542539845,17.817627850821268,14.028354783453976,0.0132452707572385,0.0132452707572385,0.0132452707572385,0.0132452707572385,0.0125414567922984,2.574134386462209,0.8508787686442514,0.7827898595724324,0.4163968926504156,0.3745635373864081,E-W,0.0002384185791015,6.584,N-S,0.0002384185791015,5.074
19970123144400.knt,YMT0059701231444.UD,1997-01-23, 14:44:00,38.886,141.014,10,3.8,YMT005,38.607,140.1621,350.0,1997-01-23, 14:44:51,100Hz,59,U-D,0.0002384185791015,1.756,80.12858669152183,163,163.0,16.207283540499983,3.323940284212413,3.3303375202912866,3.6541102930554143,2.323708248798125,2.3263612550318613,0.0011605507353033,0.0011242936428315,0.0008424199141566,0.0005595788350236,0.0005373697088526,0.3053456747877413,0.3053456747877413,0.2100456170558422,0.2100456170558422,0.2100456170558422,E-W,0.0002384185791015,3.27,N-S,0.0002384185791015,3.168
19970127002600.knt,CHB0019701270026.UD,1997-01-27, 00:26:00,35.753,140.08,77,4.2,CHB001,35.9595,139.8733,13.0,1997-01-27, 00:27:53,100Hz,59,U-D,0.0002384185791015,8.579,29.56778022448366,1437,1441.0,24.611164172582782,0.4885387708054574,0.473465295984374,0.5218098043678775,0.3969504302049002,0.3276099523062162,0.0052959535032935,0.0052959535032935,0.0052959535032935,0.0045463633349503,0.0040488467717292,8.593924863308688,8.593924863308688,8.593924863308688,8.593924863308688,8.593924863308688,E-W,0.0002384185791015,14.677,N-S,0.0002384185791015,18.436
19970127002600.knt,CHB0029701270026.UD,1997-01-27, 00:26:00,35.753,140.08,77,4.2,CHB002,35.7868,139.9031,14.0,1997-01-27, 00:27:53,100Hz,59,U-D,0.0002384185791015,4.021,16.396533140290188,1403,1415.0,31.59597102375196,0.8707046276717813,0.7910623013998885,0.725606282421676,0.748881415523312,0.5240197764907043,0.0053733801094121,0.0042586028829911,0.0042586028829911,0.0040121655656498,0.0037788541757093,4.0258591104769215,3.7018210076107696,3.7018210076107696,3.7018210076107696,3.7018210076107696,E-W,0.0002384185791015,11.26,N-S,0.0002384185791015,15.413
19970127002600.knt,CHB0039701270026.UD,1997-01-27, 00:26:00,35.753,140.08,77,4.2,CHB003,35.7943,140.0564,28.0,1997-01-27, 00:27:53,100Hz,59,U-D,0.0002384185791015,6.794,5.061891695705673,1335,1345.0,29.22356004015253,0.3822346104488187,0.4067920815689544,0.380625928318439,0.3816593123833446,0.4665475738658604,0.0051186235575094,0.0051186235575094,0.0051186235575094,0.0051186235575094,0.0051186235575094,6.784026330329475,6.590645632452996,6.590645632452996,6.590645632452996,6.190750297590243,E-W,0.0002384185791015,12.405,N-S,0.0002384185791015,11.009
19970127002600.knt,CHB0089701270026.UD,1997-01-27, 00:26:00,35.753,140.08,77,4.2,CHB008,35.6537,139.9023,4.0,1997-01-27, 00:27:02,100Hz,59,U-D,0.0002384185791015,4.193,19.47762571527396,516,533.0,22.783434003906606,3.4075501037744647,2.545247973614885,1.9638667095882496,1.3839920419101306,1.001240500803659,0.0137734817203172,0.011575114627089,0.0077309142178831,0.0064875064663828,0.0052272206346336,2.648473378628349,2.648473378628349,2.648473378628349,2.648473378628349,2.648473378628349,E-W,0.0002384185791015,7.986,N-S,0.0002384185791015,7.994
19970127002600.knt,CHB0099701270026.UD,1997-01-27, 00:26:00,35.753,140.08,77,4.2,CHB009,35.6082,140.1022,4.0,1997-01-27, 00:27:02,100Hz,59,U-D,0.0002384185791015,2.725,16.225399573376976,500,498.00000000000006,21.74914998784687,1.8614430341407848,1.800065054966528,1.5355180695847688,1.453277346096557,1.5847574243874376,0.0100871958342765,0.0100871958342765,0.0100871958342765,0.0100871958342765,0.0100871958342765,2.659830945354571,2.659830945354571,2.659830945354571,2.078264380702138,2.078264380702138,E-W,0.0002384185791015,6.862,N-S,0.0002384185791015,6.458
19970127002600.knt,CHB0129701270026.UD,1997-01-27, 00:26:00,35.753,140.08,77,4.2,CHB012,35.5727,140.3333,62.0,1997-01-27, 00:27:54,100Hz,59,U-D,0.0002384185791015,2.713,30.42359009962279,1368,1382.0,32.34650513503077,1.0446679151793663,0.8703846503466873,0.8618108665397478,0.7644536098090101,0.3716517778694896,0.0081499969109993,0.0081499969109993,0.0081499969109993,0.0081499969109993,0.0039451973371849,2.7068044736951125,2.7068044736951125,2.7068044736951125,2.7068044736951125,2.6971042295151038,E-W,0.0002384185791015,3.934,N-S,0.0002384185791015,4.196
19970127002600.knt,CHB0149701270026.UD,1997-01-27, 00:26:00,35.753,140.08,77,4.2,CHB014,35.4769,140.0489,7.0,1997-01-27, 00:27:04,100Hz,59,U-D,0.0002384185791015,5.213,30.829366873315603,379,382.0,23.136294786741715,0.9409420714699764,0.818056285864926,1.030998928848215,1.1681880020829023,1.2668105419399711,0.0033804757467539,0.0033804757467539,0.0033804757467539,0.0033804757467539,0.0033804757467539,1.386222730148602,1.386222730148602,1.386222730148602,1.386222730148602,1.386222730148602,E-W,0.0002384185791015,8.855,N-S,0.0002384185791015,8.063
19970127002600.knt,CHB0159701270026.UD,1997-01-27, 00:26:00,35.753,140.08,77,4.2,CHB015,35.3738,139.9159,2.0,1997-01-27, 00:27:05,100Hz,59,U-D,0.0002384185791015,4.696,44.70150460303677,377,381.0,32.97538877212124,2.994079649438348,2.889505476159721,3.0556751289869597,3.480711861317516,3.902111912251707,0.0107713937373302,0.0107713937373302,0.0107713937373302,0.0107713937373302,0.0107713937373302,2.8256387239122547,2.8256387239122547,2.8256387239122547,2.8256387239122547,1.6060177085218952,E-W,0.0002384185791015,6.633,N-S,0.0002384185791015,10.699
19970127002600.knt,CHB0179701270026.UD,1997-01-27, 00:26:00,35.753,140.08,77,4.2,CHB017,35.2988,140.0755,31.0,1997-01-27, 00:27:05,100Hz,59,U-D,0.0002384185791015,3.201,50.50637745051807,418,431.00000000000006,30.30570515587418,5.132002832533356,4.600398797957334,3.789026580644556,4.203270107386126,5.487582678310433,0.0174522039572338,0.0174522039572338,0.0174522039572338,0.0174522039572338,0.0174522039572338,1.9592054296413544,1.7037336193578865,1.7037336193578865,1.7037336193578865,1.7037336193578865,E-W,0.0002384185791015,7.46,N-S,0.0002384185791015,7.311
19970127002600.knt,CHB0189701270026.UD,1997-01-27, 00:26:00,35.753,140.08,77,4.2,CHB018,35.1577,140.3222,56.0,1997-01-27, 00:27:10,100Hz,59,U-D,0.0002384185791015,1.186,69.73472338613716,6,32.0,13.699672549377306,12.519817157413964,12.678683744650826,10.402083748597596,6.405218084824427,2.990508025147192,0.0239733379845615,0.0239733379845615,0.0239733379845615,0.0187373938156145,0.0083870713627305,0.6452525613813768,0.6452525613813768,0.6452525613813768,0.6452525613813768,0.6452525613813768,E-W,0.0002384185791015,2.306,N-S,0.0002384185791015,1.749
19970127002600.knt,CHB0219701270026.UD,1997-01-27, 00:26:00,35.753,140.08,77,4.2,CHB021,34.9083,139.8979,6.0,1997-01-27, 00:27:12,100Hz,59,U-D,0.0002384185791015,1.046,95.36790593839396,83,109.0,15.68562344499378,5.329530662616938,4.859587726273644,3.767689393832848,2.035759083385104,1.1726751377357316,0.0048202452469253,0.0048202452469253,0.0046206899766354,0.0032375928371585,0.0013956869231747,1.0506720198735733,1.0506720198735733,1.0506720198735733,1.0506720198735733,1.0506720198735733,E-W,0.0002384185791015,3.089,N-S,0.0002384185791015,4.087
19970127002600.knt,CHB0229701270026.UD,1997-01-27, 00:26:00,35.753,140.08,77,4.2,CHB022,35.3083,139.8598,7.0,1997-01-27, 00:27:06,100Hz,59,U-D,0.0002384185791015,6.042,53.31216840548923,344,405.0,19.45794608805777,7.717835167884197,7.946356979309723,9.109610304978782,12.33374310400911,17.015887668562158,0.0179249003512047,0.0179249003512047,0.0179249003512047,0.0179249003512047,0.0179249003512047,1.0361646996921916,0.8944463354363746,0.6946775163821055,0.6946775163821055,0.5563583941811668,E-W,0.0002384185791015,10.627,N-S,0.0002384185791015,9.782
19970127002600.knt,GNM0099701270026.UD,1997-01-27, 00:26:00,35.753,140.08,77,4.2,GNM009,36.4106,139.3251,114.0,1997-01-27, 00:27:12,100Hz,59,U-D,0.0002384185791015,2.933,99.74368036207778,126,126.0,22.70838633547449,8.018249327060666,9.816647391440895,10.643977676646122,9.67316232345815,7.8955056002124,0.0145148482224988,0.0145148482224988,0.0145148482224988,0.0143728277774406,0.0117701547487251,2.100655466408143,2.100655466408143,1.702441003807363,1.702441003807363,1.1048206658774666,E-W,0.0002384185791015,7.432,N-S,0.0002384185791015,6.319
19970127002600.knt,IBR0049701270026.UD,1997-01-27, 00:26:00,35.753,140.08,77,4.2,IBR004,36.5273,140.4094,51.0,1997-01-27, 00:27:11,100Hz,59,U-D,0.0002384185791015,3.211,91.03748246922196,94,119.0,24.3400135638736,4.407902575668135,5.82104261832118,6.121566351359403,6.271098327868728,4.967765459983998,0.0104143870394888,0.0104143870394888,0.0104143870394888,0.0104143870394888,0.0094588564711318,3.139645342284281,2.008492594411386,2.008492594411386,2.008492594411386,1.7576971083862671,E-W,0.0002384185791015,11.289,N-S,0.0002384185791015,8.52
19970127002600.knt,IBR0059701270026.UD,1997-01-27, 00:26:00,35.753,140.08,77,4.2,IBR005,36.3851,140.2372,63.0,1997-01-27, 00:27:57,100Hz,59,U-D,0.0002384185791015,5.088,71.6923420562899,1258,1265.0,32.48766340937111,1.3664352088866265,1.4379073194213805,1.2192863080471914,0.7776998807962807,0.2519914945413849,0.0088134828722385,0.0088134828722385,0.0088134828722385,0.0056721565406492,0.0013814457012361,4.135183842265437,4.074923241764107,4.074923241764107,3.070744726549598,2.617679421573892,E-W,0.0002384185791015,6.914,N-S,0.0002384185791015,11.447
19970127002600.knt,IBR0099701270026.UD,1997-01-27, 00:26:00,35.753,140.08,77,4.2,IBR009,36.1848,139.7037,17.0,1997-01-27, 00:27:06,100Hz,59,U-D,0.0002384185791015,1.45,58.75498130587692,297,297.0,26.17497308078994,2.765120473484702,3.1531735712711124,3.634527825449684,4.548717566580342,5.2375333298685325,0.0030977221476249,0.0030977221476249,0.0030977221476249,0.0030977221476249,0.0030977221476249,1.246521799561682,0.9268331038533084,0.9268331038533084,0.9268331038533084,0.9268331038533084,E-W,0.0002384185791015,2.128,N-S,0.0002384185791015,2.304
19970127002600.knt,IBR0109701270026.UD,1997-01-27, 00:26:00,35.753,140.08,77,4.2,IBR010,36.1843,139.9653,23.0,1997-01-27, 00:27:03,100Hz,59,U-D,0.0002384185791015,3.256,49.05665125280897,463,469.00000000000006,29.963600913884672,4.169807957015201,3.471146530074845,2.919766927857593,2.996186251576889,4.487995341789625,0.0094236910981314,0.0076272537453171,0.0076272537453171,0.0076272537453171,0.0076272537453171,1.6522543042513755,1.6522543042513755,1.6522543042513755,1.6522543042513755,0.9844226331318632,E-W,0.0002384185791015,6.458,N-S,0.0002384185791015,5.1
19970127002600.knt,IBR0119701270026.UD,1997-01-27, 00:26:00,35.753,140.08,77,4.2,IBR011,36.1251,140.0903,26.0,1997-01-27, 00:27:01,100Hz,59,U-D,0.0002384185791015,2.137,41.38602176448549,595,594.0,32.2013118432252,1.864090642423768,1.4531254932564086,1.1132202880543842,0.5796858667471646,0.4818556746637613,0.0041886189508295,0.0034003104017697,0.0031641919132912,0.0016614259975732,0.0015955259479113,2.1283796719815937,2.1283796719815937,2.1283796719815937,2.1283796719815937,2.1283796719815937,E-W,0.0002384185791015,4.345,N-S,0.0002384185791015,5.039
19970127002600.knt,IBR0129701270026.UD,1997-01-27, 00:26:00,35.753,140.08,77,4.2,IBR012,36.1901,140.2869,24.0,1997-01-27, 00:27:54,100Hz,59,U-D,0.0002384185791015,5.624,52.04756526837847,1388,136.0,17.80029645259625,0.5612936452259603,0.4470360663115196,0.3873526247096224,0.4144846849647381,0.4884639528387909,0.0036029717213441,0.0033567242240516,0.0033321056173407,0.0033321056173407,0.0033321056173407,5.632375332967544,5.632375332967544,5.632375332967544,5.632375332967544,4.6623637392721164,E-W,0.0002384185791015,9.818,N-S,0.0002384185791015,5.768
19970127002600.knt,IBR0139701270026.UD,1997-01-27, 00:26:00,35.753,140.08,77,4.2,IBR013,36.1587,140.4892,28.0,1997-01-27, 00:27:55,100Hz,59,U-D,0.0002384185791015,12.928,58.23767462074157,1365,1380.0,31.940967968362852,0.2460559005897931,0.2594802570349147,0.2673774603142261,0.2612566522074137,0.2945998315499767,0.0063592125059104,0.0063592125059104,0.0063592125059104,0.0063592125059104,0.0063592125059104,12.98276229330709,12.98276229330709,12.98276229330709,12.98276229330709,12.98276229330709,E-W,0.0002384185791015,15.446,N-S,0.0002384185791015,12.095
19970127002600.knt,IBR0149701270026.UD,1997-01-27, 00:26:00,35.753,140.08,77,4.2,IBR014,36.0729,140.1947,11.0,1997-01-27, 00:27:03,100Hz,59,U-D,0.0002384185791015,3.091,37.04071822569339,370,377.0,24.71852918293124,6.311606161004078,5.294953809676334,4.359485950987533,4.726618375045563,6.4801871554985,0.0239151752219526,0.0239151752219526,0.0239151752219526,0.0239151752219526,0.0239151752219526,3.073545217442249,3.073545217442249,3.073545217442249,3.073545217442249,3.073545217442249,E-W,0.0002384185791015,6.012,N-S,0.0002384185791015,5.499
19970127002600.knt,IBR0159701270026.UD,1997-01-27, 00:26:00,35.753,140.08,77,4.2,IBR015,36.0693,139.908,14.0,1997-01-27, 00:27:04,100Hz,59,U-D,0.0002384185791015,3.564,38.43102363077836,303,302.0,33.18094347325837,3.7192949006119593,4.26515990416438,4.96528097991194,5.935407033635359,6.715383432110544,0.0085862772123658,0.0085862772123658,0.0085862772123658,0.0085862772123658,0.0085862772123658,1.701348724607349,1.6385468040816396,1.6385468040816396,1.6385468040816396,1.3832330085580806,E-W,0.0002384185791015,5.557,N-S,0.0002384185791015,5.282
19970127002600.knt,IBR0169701270026.UD,1997-01-27, 00:26:00,35.753,140.08,77,4.2,IBR016,35.9112,140.0494,20.0,1997-01-27, 00:27:52,100Hz,59,U-D,0.0002384185791015,8.481,17.806020240425546,1430,1428.0,33.253985206791015,0.5129828790294404,0.4517693933840658,0.4356548015411097,0.343015888974881,0.3248460244460545,0.0066903954489605,0.0057768018833179,0.0057768018833179,0.0057768018833179,0.0057768018833179,8.481613291689191,8.481613291689191,8.481613291689191,8.481613291689191,8.481613291689191,E-W,0.0002384185791015,11.689,N-S,0.0002384185791015,11.792
19970127002600.knt,IBR0179701270026.UD,1997-01-27, 00:26:00,35.753,140.08,77,4.2,IBR017,35.9537,140.3194,17.0,1997-01-27, 00:27:53,100Hz,59,U-D,0.0002384185791015,7.985,31.04135288958144,1368,1378.0,32.856144727675016,1.4352711892572498,1.384088871060747,0.9968959021272092,0.7500357942673489,0.6852195519484581,0.0124091842715002,0.0124091842715002,0.0097596255312255,0.0090022857481402,0.0074977639940369,7.959479287346214,7.959479287346214,7.959479287346214,7.959479287346214,7.959479287346214,E-W,0.0002384185791015,7.308,N-S,0.0002384185791015,9.525
19970127002600.knt,KNG0019701270026.UD,1997-01-27, 00:26:00,35.753,140.08,77,4.2,KNG001,35.5291,139.7062,2.0,1997-01-27, 00:27:04,100Hz,59,U-D,0.0002384185791015,8.185,41.96245925096946,436,440.00000000000006,29.32802905764092,5.415011679141159,5.087964645977558,4.897329007388964,5.623692967566646,8.583122522706162,0.0270913240865808,0.0270913240865808,0.0270913240865808,0.0270913240865808,0.0270913240865808,2.53001193448254,2.53001193448254,2.53001193448254,2.53001193448254,1.999337105647522,E-W,0.0002384185791015,8.039,N-S,0.0002384185791015,12.957
19970127002600.knt,KNG0029701270026.UD,1997-01-27, 00:26:00,35.753,140.08,77,4.2,KNG002,35.4371,139.634,2.0,1997-01-27, 00:27:06,100Hz,59,U-D,0.0002384185791015,4.574,53.4797787122206,350,350.0,23.91961378122528,1.6468466978645944,2.020421956602835,2.4018407965150144,2.6060811361283585,3.997301390250127,0.0062473169557872,0.0062473169557872,0.0062473169557872,0.0062473169557872,0.0062473169557872,1.9360256656510957,1.882351297189968,1.566891401547505,1.566891401547505,1.0289818349304578,E-W,0.0002384185791015,6.185,N-S,0.0002384185791015,6.131
19970127002600.knt,KNG0039701270026.UD,1997-01-27, 00:26:00,35.753,140.08,77,4.2,KNG003,35.2727,139.6579,26.0,1997-01-27, 00:27:09,100Hz,59,U-D,0.0002384185791015,1.862,65.66487040825083,115,114.0,28.24147555618231,4.779858495844232,5.363730059841827,6.121858597885811,6.174980373444759,4.203552241424628,0.0054124087642603,0.0054124087642603,0.0054124087642603,0.0054124087642603,0.0041778835865996,0.944590711871354,0.944590711871354,0.944590711871354,0.944590711871354,0.944590711871354,E-W,0.0002384185791015,4.356,N-S,0.0002384185791015,5.149
19970127002600.knt,KNG0049701270026.UD,1997-01-27, 00:26:00,35.753,140.08,77,4.2,KNG004,35.1441,139.6218,31.0,1997-01-27, 00:27:10,100Hz,59,U-D,0.0002384185791015,2.403,79.41556475059883,145,156.0,25.90127505133378,5.901992425613602,6.812946891614887,7.959210151142207,7.956150313194794,6.3815014884169,0.0107951123891509,0.0107951123891509,0.0107951123891509,0.0107951123891509,0.0100832789971709,1.0594623024955885,0.94044175000103,0.94044175000103,0.94044175000103,0.8404476474821234,E-W,0.0002384185791015,4.776,N-S,0.0002384185791015,4.708
19970127002600.knt,KNG0059701270026.UD,1997-01-27, 00:26:00,35.753,140.08,77,4.2,KNG005,35.3194,139.549,7.0,1997-01-27, 00:27:09,100Hz,59,U-D,0.0002384185791015,3.353,68.067013052394,214,90.0,20.421256664132763,0.8357317543046636,0.9198781579301863,1.0235564364784842,0.8041599826748345,0.6702652370656812,0.0014163776643231,0.0014163776643231,0.0014163776643231,0.0014163776643231,0.0014101818149902,0.8183534280437241,0.7106468756193551,0.7106468756193551,0.7106468756193551,0.7106468756193551,E-W,0.0002384185791015,4.017,N-S,0.0002384185791015,6.324
19970127002600.knt,KNG0069701270026.UD,1997-01-27, 00:26:00,35.753,140.08,77,4.2,KNG006,35.4544,139.5387,60.0,1997-01-27, 00:27:08,100Hz,59,U-D,0.0002384185791015,2.407,59.13836423040394,183,173.0,31.289110780477685,3.9269898915288,4.536166944732108,4.78891864481484,4.591557639397167,3.760369745300181,0.0072120524625865,0.0072120524625865,0.0072120524625865,0.0072120524625865,0.0053877786678423,1.289022230096726,1.143107411000412,1.143107411000412,1.143107411000412,1.143107411000412,E-W,0.0002384185791015,5.744,N-S,0.0002384185791015,4.256
19970127002600.knt,KNG0089701270026.UD,1997-01-27, 00:26:00,35.753,140.08,77,4.2,KNG008,35.5751,139.3265,120.0,1997-01-27, 00:27:09,100Hz,59,U-D,0.0002384185791015,3.9,70.88718190548158,146,150.0,15.065150419483622,2.281420352454574,2.3661502922447,2.3757298434455385,2.03646355108567,1.6528624170380064,0.0092358601291181,0.0092358601291181,0.0092358601291181,0.0092358601291181,0.0086271738999959,3.8919561386219,3.8919561386219,3.8919561386219,3.8919561386219,3.8919561386219,E-W,0.0002384185791015,5.548,N-S,0.0002384185791015,5.558
19970127002600.knt,KNG0099701270026.UD,1997-01-27, 00:26:00,35.753,140.08,77,4.2,KNG009,35.4424,139.3618,20.0,1997-01-27, 00:27:09,100Hz,59,U-D,0.0002384185791015,3.853,73.54921013242543,210,196.0,22.348085210358303,4.184875623381863,4.819694892892064,4.999917041560551,4.557091570014283,3.778084677044512,0.0090670615282663,0.0090670615282663,0.0090670615282663,0.0090670615282663,0.0086424847277567,1.210064817428394,1.210064817428394,1.210064817428394,1.210064817428394,0.799734456196511,E-W,0.0002384185791015,4.988,N-S,0.0002384185791015,5.934
