earthquake name,records name,earthquake date,earthquake time,lat,long,depth,mag,stn_code,stn_lat,stn_long,stn_height,rcd_date,rcd_time,frequency,rcd_duration,direction,scale_factor,max_pga,epi_dist,pick_index_manually,pick_index_kalkan,snr_db_kalkan,tc_5sec,tc_4sec,tc_3sec,tc_2sec,tc_1sec,Pd_5sec,Pd_4sec,Pd_3sec,Pd_2sec,Pd_1sec,Pga_5sec,Pga_4sec,Pga_3sec,Pga_2sec,Pga_1sec,Channel,Scale_factor,PGA_ew,Channel.1,Scale_factor.1,PGA_ns
20010106114800.knt,FKI0110101061148.UD,2001-01-06, 11:48:00,35.378,137.095,48.0,4.6,FKI011,35.9053,136.6706,432.0,2001-01-06, 11:48:26,100Hz,119.0,U-D,0.0002384185791015,6.787,70.06155542776237,1468.0,1484.0,28.91656243939753,1.1519597253040617,1.0185523457801158,0.7680480339482656,0.4844154742232069,0.3564999642201206,0.0053970649394986,0.0053970649394986,0.0046463760977993,0.0038400994907312,0.00307155106722,4.909966727409576,4.909966727409576,4.909966727409576,4.909966727409576,4.909966727409576,E-W,0.0002384185791015,43.605,N-S,0.0002384185791015,16.082
20010106114800.knt,GIF0010101061148.UD,2001-01-06, 11:48:00,35.378,137.095,48.0,4.6,GIF001,36.2742,136.8978,478.0,2001-01-06, 11:48:43,100Hz,119.0,U-D,0.0002384185791015,2.065,101.22633419348634,165.0,166.0,26.484782511649144,2.4550704622730883,2.4322387630871622,2.684062637265886,2.867169520047008,2.523487126577876,0.0110164918154815,0.0110164918154815,0.0110164918154815,0.0110164918154815,0.0110164918154815,0.7857202290858731,0.7857202290858731,0.7857202290858731,0.7857202290858731,0.7702344659566621,E-W,0.0002384185791015,5.135,N-S,0.0002384185791015,6.784
20010106114800.knt,GIF0050101061148.UD,2001-01-06, 11:48:00,35.378,137.095,48.0,4.6,GIF005,36.1536,137.2514,562.0,2001-01-06, 11:48:39,100Hz,119.0,U-D,0.0002384185791015,3.283,87.38956350595572,358.0,354.0,17.33097975722088,1.14745986988928,1.3038151889735088,1.4328566880851985,1.3594929359441164,2.0748388535812987,0.0041836420510947,0.0041836420510947,0.0041836420510947,0.0041836420510947,0.0041836420510947,1.3984780865702946,1.3984780865702946,1.3984780865702946,1.3984780865702946,0.7233423051927586,E-W,0.0002384185791015,14.852,N-S,0.0002384185791015,12.622
20010106114800.knt,GIF0060101061148.UD,2001-01-06, 11:48:00,35.378,137.095,48.0,4.6,GIF006,36.0333,136.9528,792.0,2001-01-06, 11:48:27,100Hz,119.0,U-D,0.0002384185791015,7.26,73.98859448193696,1405.0,1427.0,21.16697145793826,0.65766350681405,0.6659815136029176,0.6514024363035885,0.6258612200924445,0.7133007259067583,0.0079627984240647,0.0079627984240647,0.0079627984240647,0.0079627984240647,0.0079627984240647,2.7299368368711705,2.7299368368711705,2.7299368368711705,2.560201886598007,1.981026344527329,E-W,0.0002384185791015,19.156,N-S,0.0002384185791015,31.419
20010106114800.knt,GIF0070101061148.UD,2001-01-06, 11:48:00,35.378,137.095,48.0,4.6,GIF007,36.0378,137.4861,995.0,2001-01-06, 11:48:28,100Hz,119.0,U-D,0.0002384185791015,14.237,81.42221925830664,1394.0,1394.0,35.052022231418775,0.5896405712222615,0.5355611862808309,0.4336374157067993,0.3471746065024385,0.2748263464351371,0.0066705995510948,0.0066453441255161,0.0057727874695179,0.0054541729998695,0.0054541729998695,7.037366269553075,7.037366269553075,7.037366269553075,7.037366269553075,7.037366269553075,E-W,0.0002384185791015,103.092,N-S,0.0002384185791015,40.996
20010106114800.knt,GIF0080101061148.UD,2001-01-06, 11:48:00,35.378,137.095,48.0,4.6,GIF008,35.9515,137.26,522.0,2001-01-06, 11:48:26,100Hz,119.0,U-D,0.0002384185791015,9.974,65.48919288610244,1394.0,1394.0,33.16447900495813,0.45168680203516,0.446018437459583,0.4496206553677712,0.4449264534093297,0.4609548891795862,0.0120418208519922,0.0120418208519922,0.0120418208519922,0.0120418208519922,0.0120418208519922,10.048719385814838,10.048719385814838,10.048719385814838,10.048719385814838,10.048719385814838,E-W,0.0002384185791015,20.339,N-S,0.0002384185791015,11.899
20010106114800.knt,GIF0100101061148.UD,2001-01-06, 11:48:00,35.378,137.095,48.0,4.6,GIF010,35.8029,137.245,362.0,2001-01-06, 11:48:24,100Hz,119.0,U-D,0.0002384185791015,13.899,49.155059381074906,1401.0,1401.0,42.18970358354685,0.4623776670895468,0.461650137038152,0.4500636399755635,0.4103904336660504,0.4323972735140128,0.0251858185015179,0.0251858185015179,0.0251858185015179,0.0251858185015179,0.0251858185015179,13.9063661744999,13.9063661744999,13.9063661744999,13.9063661744999,13.9063661744999,E-W,0.0002384185791015,20.143,N-S,0.0002384185791015,15.267
20010106114800.knt,GIF0110101061148.UD,2001-01-06, 11:48:00,35.378,137.095,48.0,4.6,GIF011,35.7593,136.9808,245.0,2001-01-06, 11:48:23,100Hz,119.0,U-D,0.0002384185791015,8.392,43.63867794264792,1451.0,1457.0,39.313772378265966,0.5578876102692406,0.4723773568311205,0.3829536166865218,0.3598440553730066,0.3563487064014387,0.0091004286250743,0.0091004286250743,0.0091004286250743,0.0091004286250743,0.0091004286250743,8.417137634703375,8.417137634703375,8.417137634703375,8.417137634703375,8.417137634703375,E-W,0.0002384185791015,57.856,N-S,0.0002384185791015,86.827
20010106114800.knt,GIF0120101061148.UD,2001-01-06, 11:48:00,35.378,137.095,48.0,4.6,GIF012,35.6365,136.4882,221.0,2001-01-06, 11:48:26,100Hz,119.0,U-D,0.0002384185791015,10.947,61.99230475329512,1383.0,1380.0,40.88135657665874,0.5329554427473953,0.5436036607993502,0.4503805748606009,0.4092684122298803,0.455055653112159,0.0052918180996719,0.0052918180996719,0.0052918180996719,0.0052918180996719,0.0052918180996719,6.267824204734748,6.267824204734748,6.267824204734748,6.267824204734748,6.267824204734748,E-W,0.0002384185791015,46.359,N-S,0.0002384185791015,31.734
20010106114800.knt,GIF0130101061148.UD,2001-01-06, 11:48:00,35.378,137.095,48.0,4.6,GIF013,35.6637,137.1617,230.0,2001-01-06, 11:48:22,100Hz,119.0,U-D,0.0002384185791015,19.235,32.33681472695272,1434.0,1439.0,26.955548849337173,4.846080769985028,4.9019404618987625,4.39987113481603,2.9723293624376947,1.1752647985972884,0.0477421131615427,0.0477421131615427,0.0477421131615427,0.0466204221309373,0.0257725483358702,19.28729822171305,19.28729822171305,19.28729822171305,19.28729822171305,19.28729822171305,E-W,0.0002384185791015,46.59,N-S,0.0002384185791015,50.273
20010106114800.knt,GIF0140101061148.UD,2001-01-06, 11:48:00,35.378,137.095,48.0,4.6,GIF014,35.6576,137.4258,463.0,2001-01-06, 11:48:23,100Hz,119.0,U-D,0.0002384185791015,8.304,43.161846056702096,1437.0,1436.0,23.026847433144315,1.2681357527991606,1.271052212209374,1.163417914240826,0.7848109819703699,0.6667017901685567,0.0195482052058741,0.0195482052058741,0.0195482052058741,0.0195482052058741,0.0195482052058741,8.393053231551038,8.393053231551038,8.393053231551038,8.393053231551038,8.393053231551038,E-W,0.0002384185791015,10.393,N-S,0.0002384185791015,8.139
20010106114800.knt,GIF0150101061148.UD,2001-01-06, 11:48:00,35.378,137.095,48.0,4.6,GIF015,35.5454,136.9072,96.0,2001-01-06, 11:48:22,100Hz,119.0,U-D,0.0002384185791015,24.444,25.214690337706145,1421.0,1425.0,32.42940942064256,0.3429960402884513,0.344253129083408,0.3355674687425292,0.3270373010196392,0.3330343427788501,0.0066797062260698,0.0066797062260698,0.0066797062260698,0.0066797062260698,0.0066797062260698,10.427956428713252,10.427956428713252,10.427956428713252,10.427956428713252,10.3623594346954,E-W,0.0002384185791015,125.945,N-S,0.0002384185791015,59.981
20010106114800.knt,GIF0160101061148.UD,2001-01-06, 11:48:00,35.378,137.095,48.0,4.6,GIF016,35.5424,137.1191,145.0,2001-01-06, 11:48:21,100Hz,119.0,U-D,0.0002384185791015,12.319,18.41029801127586,1451.0,1450.0,40.05623822842784,1.2720083945968723,1.1898624345708944,0.975410076484178,0.7037641533676255,0.5737919042815043,0.0194531797635905,0.0194531797635905,0.0194531797635905,0.0194531797635905,0.0194531797635905,12.403163268609289,12.403163268609289,12.403163268609289,12.403163268609289,12.403163268609289,E-W,0.0002384185791015,33.65,N-S,0.0002384185791015,27.275
20010106114800.knt,GIF0170101061148.UD,2001-01-06, 11:48:00,35.378,137.095,48.0,4.6,GIF017,35.487,136.5679,42.0,2001-01-06, 11:48:24,100Hz,119.0,U-D,0.0002384185791015,18.562,49.27001943227254,1442.0,1442.0,41.52084195752291,0.9689698418883128,0.9385114364127676,0.7565599327788176,0.5133707809024481,0.4547436548307294,0.0126803101252824,0.0126803101252824,0.0126803101252824,0.012359319433941,0.012359319433941,18.613263503472805,18.613263503472805,18.613263503472805,18.613263503472805,18.613263503472805,E-W,0.0002384185791015,16.868,N-S,0.0002384185791015,28.36
20010106114800.knt,GIF0180101061148.UD,2001-01-06, 11:48:00,35.378,137.095,48.0,4.6,GIF018,35.4887,137.5,320.0,2001-01-06, 11:48:23,100Hz,119.0,U-D,0.0002384185791015,12.932,38.70282296740195,1388.0,1387.0,34.198240386502775,0.6727293075989514,0.6311675859896811,0.5360689752340798,0.529218291393955,0.5938227336442262,0.0161515204888922,0.0161515204888922,0.0161515204888922,0.0161515204888922,0.0161515204888922,12.900480523684305,12.900480523684305,12.900480523684305,12.900480523684305,12.900480523684305,E-W,0.0002384185791015,18.145,N-S,0.0002384185791015,19.025
20010106114800.knt,GIF0190101061148.UD,2001-01-06, 11:48:00,35.378,137.095,48.0,4.6,GIF019,35.4495,137.4039,275.0,2001-01-06, 11:48:22,100Hz,119.0,U-D,0.0002384185791015,10.246,29.100426864015056,1411.0,1417.0,34.05803946915889,1.589132328809218,1.5051252994776456,1.2233010165802105,0.7501160902448716,0.4829683673979783,0.0264649470915678,0.0264649470915678,0.0232150250401871,0.0218545302651748,0.0218545302651748,10.23867992247985,10.23867992247985,10.23867992247985,10.23867992247985,10.23867992247985,E-W,0.0002384185791015,22.663,N-S,0.0002384185791015,22.662
20010106114800.knt,GIF0200101061148.UD,2001-01-06, 11:48:00,35.378,137.095,48.0,4.6,GIF020,35.4243,136.7553,13.0,2001-01-06, 11:48:22,100Hz,119.0,U-D,0.0002384185791015,21.455,31.216760089584525,1472.0,1479.0,33.18662698129271,2.262434823109991,2.1401892642424105,1.7527856953621308,1.0346829841501877,0.4816933750144797,0.0279684365533714,0.0279684365533714,0.0279429989180372,0.0213321267763419,0.0156273604635352,21.53690063317632,21.53690063317632,21.53690063317632,21.53690063317632,21.53690063317632,E-W,0.0002384185791015,21.294,N-S,0.0002384185791015,24.853
20010106114800.knt,GIF0210101061148.UD,2001-01-06, 11:48:00,35.378,137.095,48.0,4.6,GIF021,35.4426,137.0,72.0,2001-01-06, 11:48:21,100Hz,119.0,U-D,0.0002384185791015,15.255,11.212582584040732,1443.0,1453.0,29.708012995550177,0.7650118970572909,0.7153033545655068,0.5865366817935185,0.4666809391871869,0.4347069814629695,0.0111413364374222,0.0111413364374222,0.0111413364374222,0.0111413364374222,0.0111413364374222,10.034095349933231,10.034095349933231,10.034095349933231,10.034095349933231,8.812674151186549,E-W,0.0002384185791015,37.028,N-S,0.0002384185791015,46.92
20010106114800.knt,GIF0220101061148.UD,2001-01-06, 11:48:00,35.378,137.095,48.0,4.6,GIF022,35.2834,136.4715,115.0,2001-01-06, 11:48:34,100Hz,119.0,U-D,0.0002384185791015,2.64,57.53109530471526,545.0,544.0,18.01136707540753,7.880331963466832,6.294666219019375,4.322407614100287,2.1548126437200232,1.276358881229027,0.0412340220493294,0.041080105951263,0.0357021799812562,0.0238629448870332,0.0197436686163011,2.6558940067452954,2.6558940067452954,2.6558940067452954,2.6558940067452954,2.6558940067452954,E-W,0.0002384185791015,4.286,N-S,0.0002384185791015,6.024
20010106114800.knt,GIF0230101061148.UD,2001-01-06, 11:48:00,35.378,137.095,48.0,4.6,GIF023,35.3882,137.2158,275.0,2001-01-06, 11:48:21,100Hz,119.0,U-D,0.0002384185791015,32.851,11.009948376366598,1430.0,1440.0,29.652713557423688,5.122469366514416,4.615153268410804,3.4547716747203285,1.702593922740154,0.4397666365416514,0.1217749323692788,0.1217749323692788,0.1141066057689461,0.077242962791835,0.0258782775310364,32.95378614930232,32.95378614930232,32.95378614930232,32.95378614930232,32.95378614930232,E-W,0.0002384185791015,35.422,N-S,0.0002384185791015,20.081
20010106114800.knt,GIF0240101061148.UD,2001-01-06, 11:48:00,35.378,137.095,48.0,4.6,GIF024,35.3009,137.387,432.0,2001-01-06, 11:48:22,100Hz,120.0,U-D,0.0002384185791015,9.759,27.83910026905416,1420.0,1427.0,32.56815915109392,0.6677231693812937,0.6686155364972984,0.6534869960421505,0.5993381003271555,0.5896481450902511,0.0117276908705425,0.0117276908705425,0.0117276908705425,0.0117276908705425,0.0117276908705425,9.770340279798964,9.770340279798964,9.770340279798964,9.770340279798964,9.770340279798964,E-W,0.0002384185791015,62.482,N-S,0.0002384185791015,51.099
20010106114800.knt,GIF0250101061148.UD,2001-01-06, 11:48:00,35.378,137.095,48.0,4.6,GIF025,35.7234,136.7847,351.0,2001-01-06, 11:48:24,100Hz,119.0,U-D,0.0002384185791015,8.445,47.57231917866493,1416.0,1420.0,39.16270073451726,0.4801422579327467,0.4608696235695407,0.4446456357994074,0.4266323041380118,0.3628650019482342,0.0052747712538657,0.0052747712538657,0.0052747712538657,0.0052747712538657,0.0052747712538657,5.836032955771077,5.836032955771077,5.836032955771077,5.836032955771077,5.836032955771077,E-W,0.0002384185791015,22.305,N-S,0.0002384185791015,26.922
20010106114800.knt,GIF0260101061148.UD,2001-01-06, 11:48:00,35.378,137.095,48.0,4.6,GIF026,35.5912,136.7414,145.0,2001-01-06, 11:48:23,100Hz,119.0,U-D,0.0002384185791015,14.939,39.83751843124767,1437.0,1437.0,42.43087987928972,0.4213591657832255,0.4023946275305625,0.4262127309820519,0.376241959802219,0.2605164934400831,0.0036879797677619,0.0032594331536414,0.0032594331536414,0.0029646351386222,0.0022013866718421,7.424941769266928,7.424941769266928,7.424941769266928,7.424941769266928,7.424941769266928,E-W,0.0002384185791015,35.122,N-S,0.0002384185791015,42.23
20010106114800.knt,ISK0130101061148.UD,2001-01-06, 11:48:00,35.378,137.095,48.0,4.6,ISK013,36.1769,136.6245,494.0,2001-01-06, 11:48:43,100Hz,119.0,U-D,0.0002384185791015,1.086,98.45243827394287,125.0,157.0,15.711616032041537,4.361319733776861,4.985428668515206,5.751211021260254,7.657480944773313,6.822378373924694,0.0052099950120615,0.0052099950120615,0.0052099950120615,0.0052099950120615,0.0052099950120615,0.389488895575828,0.389488895575828,0.389488895575828,0.2508102287994554,0.2508102287994554,E-W,0.0002384185791015,3.48,N-S,0.0002384185791015,2.574
20010106114800.knt,MIE0010101061148.UD,2001-01-06, 11:48:00,35.378,137.095,48.0,4.6,MIE001,35.1718,136.4943,128.0,2001-01-06, 11:48:26,100Hz,119.0,U-D,0.0002384185791015,5.72,59.15475746646664,1394.0,1391.0,31.432925810537704,1.5455528893613697,1.306113111183956,1.1989448570188193,0.7873884030885531,0.8292590795838563,0.0125153807839662,0.0119647668556595,0.0119647668556595,0.0115699207932279,0.0115699207932279,5.67354427202807,5.67354427202807,5.67354427202807,5.67354427202807,5.67354427202807,E-W,0.0002384185791015,8.9,N-S,0.0002384185791015,10.814
20010106114800.knt,MIE0020101061148.UD,2001-01-06, 11:48:00,35.378,137.095,48.0,4.6,MIE002,35.0279,136.5073,79.0,2001-01-06, 11:48:27,100Hz,119.0,U-D,0.0002384185791015,9.766,66.08173939682587,1398.0,1400.0,18.938567536176656,0.5573112247587986,0.5391349392592687,0.5057773103834903,0.5577468550030024,0.5346654187804598,0.0125937428370018,0.0125937428370018,0.0125937428370018,0.0125937428370018,0.0125937428370018,9.37057238802502,9.37057238802502,9.37057238802502,9.37057238802502,9.37057238802502,E-W,0.0002384185791015,16.832,N-S,0.0002384185791015,26.127
20010106114800.knt,MIE0030101061148.UD,2001-01-06, 11:48:00,35.378,137.095,48.0,4.6,MIE003,34.9704,136.6357,2.0,2001-01-06, 11:48:35,100Hz,119.0,U-D,0.0002384185791015,4.3,61.619106924425246,550.0,550.0,15.42625623735914,3.4967701544131358,3.0419468636094478,2.662321121811099,2.4926272912082035,1.2187798610010534,0.0148809728490186,0.0148809728490186,0.0148809728490186,0.0142764656231568,0.0122395768887209,2.5994337681524264,2.5994337681524264,2.5994337681524264,2.254540631240584,2.254540631240584,E-W,0.0002384185791015,14.114,N-S,0.0002384185791015,12.027
20010106114800.knt,MIE0040101061148.UD,2001-01-06, 11:48:00,35.378,137.095,48.0,4.6,MIE004,34.8569,136.4493,79.0,2001-01-06, 11:48:30,100Hz,119.0,U-D,0.0002384185791015,4.836,82.50176209714029,1294.0,1325.0,23.086300839443965,0.653895119751549,0.6012401032703854,0.65104363378037,0.7286660805359152,1.1370919200216945,0.0047286401511022,0.0047286401511022,0.0047286401511022,0.0047286401511022,0.0047286401511022,4.839928506153982,4.839928506153982,4.839928506153982,4.839928506153982,2.294964131841631,E-W,0.0002384185791015,7.791,N-S,0.0002384185791015,11.844
20010106114800.knt,MIE0070101061148.UD,2001-01-06, 11:48:00,35.378,137.095,48.0,4.6,MIE007,34.651,136.3404,82.0,2001-01-06, 11:48:33,100Hz,119.0,U-D,0.0002384185791015,6.387,106.10037984252928,1236.0,1259.0,33.27059970237194,1.3497646248316777,1.1143344767192307,0.8020674503457111,0.5862416004949366,0.7101137979150649,0.0073096634526465,0.0071793040677283,0.0053539115748337,0.0051725957572538,0.0028034095733682,3.114768877071953,3.114768877071953,3.114768877071953,2.472841366815256,0.8897107081743935,E-W,0.0002384185791015,17.957,N-S,0.0002384185791015,15.472
20010106114800.knt,MIE0080101061148.UD,2001-01-06, 11:48:00,35.378,137.095,48.0,4.6,MIE008,34.6285,136.1073,221.0,2001-01-06, 11:48:48,100Hz,119.0,U-D,0.0002384185791015,2.375,122.63114680064064,8.0,32.0,11.546195265596491,2.306728701369218,1.8102528736338943,1.168197090441012,0.7365115247589389,0.9722845604482128,0.0040922171928855,0.0040153427958744,0.0028535898624206,0.001868867950549,0.0017639179027921,0.9391625631548336,0.9391625631548336,0.9391625631548336,0.7903793174341558,0.2576621931511298,E-W,0.0002384185791015,5.98,N-S,0.0002384185791015,5.064
20010106114800.knt,MIE0100101061148.UD,2001-01-06, 11:48:00,35.378,137.095,48.0,4.6,MIE010,34.4908,136.7334,19.0,2001-01-06, 11:48:45,100Hz,119.0,U-D,0.0002384185791015,1.961,104.0131907869528,80.0,36.0,14.288947983432864,10.078075137436205,10.595763868184289,9.742744758016803,7.266585409882997,4.2985944499225015,0.0189660204456266,0.0189660204456266,0.0189660204456266,0.01855430758952,0.0130983452504817,1.2176330530597144,1.2176330530597144,1.2176330530597144,1.2176330530597144,1.2176330530597144,E-W,0.0002384185791015,3.783,N-S,0.0002384185791015,4.532
20010106114800.knt,NGN0130101061148.UD,2001-01-06, 11:48:00,35.378,137.095,48.0,4.6,NGN013,36.1833,137.7852,730.0,2001-01-06, 11:48:45,100Hz,119.0,U-D,0.0002384185791015,1.262,109.06278594213016,91.0,92.0,7.319398690002505,10.642890820162112,12.178504881494089,13.26148849828238,11.065768356214118,6.9959558882461135,0.0318975612241346,0.0318975612241346,0.0318975612241346,0.0318975612241346,0.0238506842282708,0.527600237977708,0.5117579048964389,0.4387777836510607,0.4387777836510607,0.3478661645569641,E-W,0.0002384185791015,2.859,N-S,0.0002384185791015,3.392
20010106114800.knt,NGN0150101061148.UD,2001-01-06, 11:48:00,35.378,137.095,48.0,4.6,NGN015,36.0454,138.1116,761.0,2001-01-06, 11:48:38,100Hz,119.0,U-D,0.0002384185791015,4.355,118.03188766282504,944.0,944.0,24.11773776193227,1.4362514931195065,1.6880918915641077,2.343502096312156,3.1936074982327822,3.6116252397870943,0.0116741646726171,0.0102723834674999,0.0102723834674999,0.0102723834674999,0.0102723834674999,1.849255707517812,1.8296699164941528,1.694366648646517,0.995785327643375,0.995785327643375,E-W,0.0002384185791015,8.14,N-S,0.0002384185791015,8.436
20010106114800.knt,NGN0160101061148.UD,2001-01-06, 11:48:00,35.378,137.095,48.0,4.6,NGN016,35.9151,138.2421,970.0,2001-01-06, 11:48:47,100Hz,119.0,U-D,0.0002384185791015,2.981,119.6253846355099,12.0,27.0,6.64823455541711,12.879540669906518,13.711844879356065,11.447063495303333,7.111846998415217,3.248148160681521,0.1167779530160804,0.1167779530160804,0.1157513911458428,0.0994081958631813,0.047254674006097,1.5801929005611952,1.5801929005611952,1.106253775845617,0.6785145264193286,0.609195640611898,E-W,0.0002384185791015,7.337,N-S,0.0002384185791015,6.398
