earthquake name,records name,earthquake date,earthquake time,lat,long,depth,mag,stn_code,stn_lat,stn_long,stn_height,rcd_date,rcd_time,frequency,rcd_duration,direction,scale_factor,max_pga,epi_dist,pick_index_manually,pick_index_kalkan,snr_db_kalkan,tc_5sec,tc_4sec,tc_3sec,tc_2sec,tc_1sec,Pd_5sec,Pd_4sec,Pd_3sec,Pd_2sec,Pd_1sec,Pga_5sec,Pga_4sec,Pga_3sec,Pga_2sec,Pga_1sec,Channel,Scale_factor,PGA_ew,Channel.1,Scale_factor.1,PGA_ns
19980101072700.knt,NAR0099801010727.UD,1998-01-01, 07:27:00,34.153,135.147,10,3.4,NAR009,33.938,135.7552,200,1998-01-01, 07:27:01,100Hz,119,U-D,0.0002384185791015,2.354,60.92320836727144,695,719.0,15.30290423427977,6.872406365615838,5.185970042855212,2.653737783450755,0.7041143348358546,4.053599820197657,0.0102220782345282,0.0101450583278955,0.0077221802693758,0.0015416900296208,0.0012921640328704,2.348680902906182,2.348680902906182,2.348680902906182,2.348680902906182,0.2633352423526515,E-W,0.0002384185791015,2.396,N-S,0.0002384185791015,6.663
19980101072700.knt,WKY0019801010727.UD,1998-01-01, 07:27:00,34.153,135.147,10,3.4,WKY001,34.2288,135.1694,8,1998-01-01, 07:27:45,100Hz,119,U-D,0.0002384185791015,7.416,8.676731190452665,1466,1467.0,16.266182962632527,0.6976991154441979,0.6726690018207284,0.5477137541749759,0.3700054947720618,0.3544362054073231,0.008312359081643,0.008312359081643,0.008312359081643,0.0053239981703435,0.0024769189247573,7.431753322228619,7.431753322228619,7.431753322228619,7.431753322228619,7.431753322228619,E-W,0.0002384185791015,16.646,N-S,0.0002384185791015,13.707
19980101072700.knt,WKY0039801010727.UD,1998-01-01, 07:27:00,34.153,135.147,10,3.4,WKY003,34.0996,135.116,3,1998-01-01, 07:27:44,100Hz,119,U-D,0.0002384185791015,23.067,6.5878583422011605,1485,1484.0,37.3111373077469,0.7600849665261228,0.7463417330260524,0.5512609269771447,0.3459400544155929,0.7063222769421826,0.0297374282655464,0.0297374282655464,0.0286705604821793,0.0239779252073051,0.0124424033484372,23.082046292729867,23.082046292729867,23.082046292729867,23.082046292729867,23.034539517027937,E-W,0.0002384185791015,90.649,N-S,0.0002384185791015,95.478
19980101072700.knt,WKY0049801010727.UD,1998-01-01, 07:27:00,34.153,135.147,10,3.4,WKY004,34.0838,135.4313,238,1998-01-01, 07:27:48,100Hz,119,U-D,0.0002384185791015,4.154,27.27924742958102,1424,1427.0,23.89587489908452,2.464466994322068,2.3914161641656064,2.12994994352346,1.3885369054712886,0.5281077519486932,0.005102125391593,0.005102125391593,0.005102125391593,0.0048727456272829,0.0024087821974106,4.166401204206876,4.166401204206876,4.166401204206876,4.166401204206876,4.166401204206876,E-W,0.0002384185791015,4.075,N-S,0.0002384185791015,2.113
19980102064700.knt,CHB0019801020647.UD,1998-01-02, 06:47:00,36.036,139.914,48,3.5,CHB001,35.9595,139.8733,13,1998-01-02, 06:47:30,100Hz,89,U-D,0.0002384185791015,4.317,9.26094088708196,806,806.0,19.87721212983781,8.930027695753349,11.30995066892658,12.344822978931486,12.216718689328747,10.433371721133232,0.0215015416251216,0.0215015416251216,0.0215015416251216,0.0215015416251216,0.021365202294351,3.397962319734237,2.4895077126117444,2.4895077126117444,2.4895077126117444,2.4164587887614686,E-W,0.0002384185791015,8.981,N-S,0.0002384185791015,13.782
19980102064700.knt,IBR0049801020647.UD,1998-01-02, 06:47:00,36.036,139.914,48,3.5,IBR004,36.5273,140.4094,51,1998-01-02, 06:47:39,100Hz,89,U-D,0.0002384185791015,5.423,70.40086441678085,466,482.0,24.797932770090064,5.179052367370309,4.923656300854645,3.9477779274294234,3.1022051178404944,4.395392807325615,0.0081479271768022,0.0079316415145577,0.006481381882162,0.0063327098062093,0.0063327098062093,2.0874535599762014,2.0874535599762014,1.2946564660143736,1.2911711928810834,0.7522257627408433,E-W,0.0002384185791015,17.204,N-S,0.0002384185791015,19.014
19980102064700.knt,IBR0059801020647.UD,1998-01-02, 06:47:00,36.036,139.914,48,3.5,IBR005,36.3851,140.2372,63,1998-01-02, 06:47:34,100Hz,119,U-D,0.0002384185791015,7.855,48.45260674248942,693,709.0,23.80351798841263,1.8876219854980705,2.0071998970497216,1.9637258228745884,1.6643620705461182,1.2261297361317478,0.0029538942350757,0.0029538942350757,0.0027779418249586,0.0021180361530812,0.0014431828047763,1.6679523859421284,1.6679523859421284,1.3823217440652429,1.3823217440652429,0.8842051584836335,E-W,0.0002384185791015,16.965,N-S,0.0002384185791015,11.053
19980102064700.knt,IBR0089801020647.UD,1998-01-02, 06:47:00,36.036,139.914,48,3.5,IBR008,36.3062,139.9828,20,1998-01-02, 06:47:31,100Hz,119,U-D,0.0002384185791015,8.362,30.67300417591363,847,870.0000000000001,22.68968898571364,1.3976251173324596,1.588596771530915,2.0415916500363327,2.4771872135384787,3.401125335219481,0.0022457287185845,0.0022457287185845,0.0022457287185845,0.0022457287185845,0.0022457287185845,2.5614604128391214,1.9015251022382007,1.5690207404678147,1.0983923671830274,1.0983923671830274,E-W,0.0002384185791015,9.084,N-S,0.0002384185791015,8.481
19980102064700.knt,IBR0099801020647.UD,1998-01-02, 06:47:00,36.036,139.914,48,3.5,IBR009,36.1848,139.7037,17,1998-01-02, 06:47:31,100Hz,119,U-D,0.0002384185791015,3.059,25.112985067100876,766,767.0,27.804488963333377,1.4942191509011449,1.5998843779800498,1.613684443644147,1.1582750409933371,0.3238794620401706,0.0020406264329794,0.0020406264329794,0.0020406264329794,0.0020387166350359,0.0006583976096185,2.159634781277986,2.159634781277986,2.159634781277986,2.159634781277986,2.159634781277986,E-W,0.0002384185791015,3.731,N-S,0.0002384185791015,2.972
19980102064700.knt,IBR0109801020647.UD,1998-01-02, 06:47:00,36.036,139.914,48,3.5,IBR010,36.1843,139.9653,23,1998-01-02, 06:47:29,100Hz,119,U-D,0.0002384185791015,4.393,17.122046033295064,930,930.0,33.38941089960716,2.4302600010251183,2.2422708703653944,1.6206778290899646,1.4849006349377372,1.6899341767219285,0.0039041529129645,0.0039041529129645,0.0029826965853377,0.002128608639835,0.002128608639835,1.6380901860086936,1.6380901860086936,1.5989309645417449,1.5385001263817784,1.5385001263817784,E-W,0.0002384185791015,8.098,N-S,0.0002384185791015,8.451
19980102064700.knt,IBR0119801020647.UD,1998-01-02, 06:47:00,36.036,139.914,48,3.5,IBR011,36.1251,140.0903,26,1998-01-02, 06:47:31,100Hz,299,U-D,0.0002384185791015,3.066,18.686189873078607,722,721.0,20.72187821070631,12.927192557710868,12.80444299840221,14.918391501895725,12.041041593948163,8.466381807419697,0.0118004869418567,0.0118004869418567,0.0118004869418567,0.011233497044403,0.0086606231708881,3.0638781919931994,3.0638781919931994,1.0749264371257323,1.0749264371257323,1.0749264371257323,E-W,0.0002384185791015,3.264,N-S,0.0002384185791015,3.501
19980102064700.knt,IBR0129801020647.UD,1998-01-02, 06:47:00,36.036,139.914,48,3.5,IBR012,36.1901,140.2869,24,1998-01-02, 06:47:32,100Hz,119,U-D,0.0002384185791015,3.363,37.62560028072216,768,293.0,19.016321519331637,8.797260986953248,10.11155495347952,11.581707262900649,10.955085299594447,8.685429572886726,0.0128177948760402,0.0128177948760402,0.0128177948760402,0.0128177948760402,0.0125409761024316,1.920375961895305,1.920375961895305,1.920375961895305,1.920375961895305,1.920375961895305,E-W,0.0002384185791015,4.997,N-S,0.0002384185791015,5.492
19980102064700.knt,IBR0139801020647.UD,1998-01-02, 06:47:00,36.036,139.914,48,3.5,IBR013,36.1587,140.4892,28,1998-01-02, 06:47:35,100Hz,119,U-D,0.0002384185791015,4.76,53.45076070248199,642,643.0,29.67761982155513,5.638120455763768,5.314676119879931,4.730400655108231,3.692572565816152,2.4399143097246987,0.017956468046122,0.017956468046122,0.017956468046122,0.0169413211651106,0.0133136378003751,4.743315526437646,4.743315526437646,4.743315526437646,4.743315526437646,3.416539243417263,E-W,0.0002384185791015,6.213,N-S,0.0002384185791015,9.922
19980102064700.knt,IBR0159801020647.UD,1998-01-02, 06:47:00,36.036,139.914,48,3.5,IBR015,36.0693,139.908,14,1998-01-02, 06:47:29,100Hz,119,U-D,0.0002384185791015,4.988,3.7418717461145095,868,868.0,31.519284652902336,2.413804750454259,2.7286222270999314,3.1535345784925872,2.719285914478388,2.680076738737766,0.0072504640510579,0.0072504640510579,0.0072504640510579,0.0072504640510579,0.0072504640510579,4.084122638445953,3.406154887206,3.406154887206,1.6193311641891703,1.5071805795641522,E-W,0.0002384185791015,7.081,N-S,0.0002384185791015,12.994
19980102064700.knt,IBR0179801020647.UD,1998-01-02, 06:47:00,36.036,139.914,48,3.5,IBR017,35.9537,140.3194,17,1998-01-02, 06:47:35,100Hz,119,U-D,0.0002384185791015,2.317,37.60214863560322,457,463.0,21.318209770518585,4.920173414022871,4.287610068792722,2.661716868703887,2.157611373745418,2.4111620701114567,0.0073759123510377,0.0063236758161069,0.004145297656401,0.0026409535789901,0.0026409535789901,1.322775991362546,1.322775991362546,1.322775991362546,1.322775991362546,1.322775991362546,E-W,0.0002384185791015,3.443,N-S,0.0002384185791015,3.739
19980102064700.knt,SIT0039801020647.UD,1998-01-02, 06:47:00,36.036,139.914,48,3.5,SIT003,36.072,139.6968,9,1998-01-02, 06:47:29,100Hz,119,U-D,0.0002384185791015,5.554,19.931725107857723,953,959.0,22.902771105482213,2.112410834614025,2.368601523121197,2.2166737878503566,2.354935844611044,2.6515057860772715,0.0034517819197579,0.0034517819197579,0.0034169172377448,0.0023280213715721,0.0018024052544352,2.009470284108592,1.5934212039989617,1.5934212039989617,1.0311457432075075,0.7381403912123847,E-W,0.0002384185791015,3.03,N-S,0.0002384185791015,3.973
19980102064700.knt,SIT0079801020647.UD,1998-01-02, 06:47:00,36.036,139.914,48,3.5,SIT007,36.054,139.3912,25,1998-01-02, 06:47:33,100Hz,119,U-D,0.0002384185791015,1.935,47.04603525222337,718,724.0,14.42703487145371,2.855763772963265,3.200997620504722,3.4360035601692758,3.59817566898313,3.6049708630478814,0.0013151797058339,0.0013151797058339,0.0013151797058339,0.0013151797058339,0.0013151797058339,0.5585266940539547,0.4332343287976791,0.4016849904726596,0.4016849904726596,0.4016849904726596,E-W,0.0002384185791015,3.185,N-S,0.0002384185791015,3.727
19980102064700.knt,SIT0099801020647.UD,1998-01-02, 06:47:00,36.036,139.914,48,3.5,SIT009,35.9032,139.4837,22,1998-01-02, 06:47:33,100Hz,119,U-D,0.0002384185791015,2.2,41.44401590056631,707,707.0,13.76265765471217,4.493359974745704,4.391742106275069,4.735321078937026,3.060297528311354,0.9815458031253916,0.0038130136058746,0.0038130136058746,0.003704463732293,0.0031996451335764,0.0010507241515454,0.8927582061855687,0.8927582061855687,0.8221989980660589,0.8221989980660589,0.8221989980660589,E-W,0.0002384185791015,2.778,N-S,0.0002384185791015,2.144
19980102064700.knt,SIT0119801020647.UD,1998-01-02, 06:47:00,36.036,139.914,48,3.5,SIT011,35.8098,139.7212,2,1998-01-02, 06:47:33,100Hz,119,U-D,0.0002384185791015,1.393,30.562059989202275,673,24.0,13.104512246265624,5.697038273823972,5.841917851630733,5.173922743009581,3.87239891340105,2.398041353860941,0.0040655847421239,0.0040655847421239,0.0037252764293153,0.003269946039432,0.0018653939965916,0.5724066900241234,0.5462268860351382,0.493699381320017,0.493699381320017,0.4298593678252203,E-W,0.0002384185791015,3.802,N-S,0.0002384185791015,6.839
19980102064700.knt,TCG0039801020647.UD,1998-01-02, 06:47:00,36.036,139.914,48,3.5,TCG003,36.8144,139.7153,398,1998-01-02, 06:47:43,100Hz,119,U-D,0.0002384185791015,0.673,88.36095569583028,264,272.0,13.15997923668804,5.799875099594912,4.402398396647966,4.524558075576973,4.993869490934648,3.884296038971588,0.0040851639211458,0.0022773549750609,0.0021697223787461,0.0021697223787461,0.0021697223787461,0.6762424623417788,0.6762424623417788,0.6762424623417788,0.6762424623417788,0.6762424623417788,E-W,0.0002384185791015,4.055,N-S,0.0002384185791015,2.841
19980102064700.knt,TCG0059801020647.UD,1998-01-02, 06:47:00,36.036,139.914,48,3.5,TCG005,36.8061,139.9264,197,1998-01-02, 06:47:43,100Hz,119,U-D,0.0002384185791015,1.02,85.63840017342575,258,265.0,17.380942474936564,1.7835416546089324,1.802590707205592,1.304780385774159,1.0486222395993228,0.9685295518046604,0.0012546355977487,0.0012546355977487,0.001088487691274,0.0008808736892269,0.0008808736892269,0.9547531761146928,0.9547531761146928,0.9547531761146928,0.9547531761146928,0.9547531761146928,E-W,0.0002384185791015,2.908,N-S,0.0002384185791015,3.941
19980102064700.knt,TCG0079801020647.UD,1998-01-02, 06:47:00,36.036,139.914,48,3.5,TCG007,36.5692,139.8861,138,1998-01-02, 06:47:36,100Hz,119,U-D,0.0002384185791015,3.704,59.3418258249212,607,621.0,20.23325942587412,4.236687871232073,3.9458981450331754,3.686285428594668,3.393378509250034,1.8504686291033097,0.0022531510589815,0.0022531510589815,0.0022531510589815,0.0022531510589815,0.0017287749812143,1.5802100669290624,1.5802100669290624,1.5802100669290624,1.5802100669290624,1.5802100669290624,E-W,0.0002384185791015,5.51,N-S,0.0002384185791015,5.479
19980102064700.knt,TCG0129801020647.UD,1998-01-02, 06:47:00,36.036,139.914,48,3.5,TCG012,36.2859,139.8047,33,1998-01-02, 06:47:31,100Hz,119,U-D,0.0002384185791015,5.742,29.46919632332042,806,816.0,24.931643468533775,9.7994230159936,11.522873541526684,13.090081452596742,12.513085526134532,10.814317795033665,0.0117013401002466,0.0117013401002466,0.0117013401002466,0.0117013401002466,0.0117013401002466,1.9035472933110469,1.52581299398114,1.52581299398114,1.52581299398114,1.52581299398114,E-W,0.0002384185791015,3.21,N-S,0.0002384185791015,3.484
19980102064700.knt,TCG0149801020647.UD,1998-01-02, 06:47:00,36.036,139.914,48,3.5,TCG014,36.545,140.1742,130,1998-01-02, 06:47:36,100Hz,119,U-D,0.0002384185791015,8.31,61.214406108202375,646,660.0,29.100462834032044,0.3650246931012197,0.3991551354233077,0.3421978134019149,0.2607729723208324,0.2574294179183432,0.0012495419687456,0.0012495419687456,0.0012495419687456,0.0012495419687456,0.0012495419687456,2.018517416336705,2.018517416336705,2.018517416336705,2.018517416336705,2.018517416336705,E-W,0.0002384185791015,11.763,N-S,0.0002384185791015,11.325
19980103032000.knt,HKD0539801030320.UD,1998-01-03, 03:20:00,42.936,145.413,50,4.8,HKD053,43.7849,143.6072,208,1998-01-03, 03:20:25,100Hz,119,U-D,0.0002384185791015,3.642,173.84027080810986,1320,1345.0,24.367514037635623,0.94234135380881,0.8755457140891295,0.6945508791800833,0.5495946455787545,0.8012853603117326,0.0073850487971054,0.0073850487971054,0.0073850487971054,0.0073850487971054,0.0050874376804975,3.622898446372478,3.622898446372478,3.622898446372478,3.622898446372478,1.9420281995470232,E-W,0.0002384185791015,1.435,N-S,0.0002384185791015,1.576
19980103032000.knt,HKD0569801030320.UD,1998-01-03, 03:20:00,42.936,145.413,50,4.8,HKD056,43.6707,143.578,230,1998-01-03, 03:20:24,100Hz,119,U-D,0.0002384185791015,4.992,169.47244118506677,1373,1392.0,25.017477102524246,0.5943440624524879,0.5251303306486964,0.4527484642257927,0.4377260881440206,0.4029134169508808,0.0094336801935889,0.0094336801935889,0.0094336801935889,0.0094336801935889,0.0094336801935889,5.043180186687116,5.043180186687116,5.043180186687116,5.043180186687116,5.043180186687116,E-W,0.0002384185791015,3.076,N-S,0.0002384185791015,1.721
19980103032000.knt,HKD0619801030320.UD,1998-01-03, 03:20:00,42.936,145.413,50,4.8,HKD061,44.0699,144.9973,64,1998-01-03, 03:20:20,100Hz,119,U-D,0.0002384185791015,6.065,130.46507858228316,1151,1225.0,17.267802671671348,2.6199597601440376,2.1390172829647947,1.329087683271552,1.1056104243004603,1.2143088365829986,0.0053478260206565,0.0053478260206565,0.003986504606234,0.0033275944067058,0.0017328000216561,1.2863159439853602,1.2863159439853602,0.9111309241448884,0.9104788752411692,0.5397610380381233,E-W,0.0002384185791015,11.288,N-S,0.0002384185791015,16.242
19980103032000.knt,HKD0639801030320.UD,1998-01-03, 03:20:00,42.936,145.413,50,4.8,HKD063,44.106,145.2478,4,1998-01-03, 03:20:20,100Hz,119,U-D,0.0002384185791015,9.741,130.77808432642604,1203,1199.0,42.70746826481485,1.0292895772851107,1.0100132794406462,0.873379631025835,0.5615610441089743,0.5945160128207235,0.008823916683437,0.008823916683437,0.008823916683437,0.008823916683437,0.008823916683437,2.7366753906616865,2.72476696406041,2.72476696406041,2.72476696406041,2.72476696406041,E-W,0.0002384185791015,44.836,N-S,0.0002384185791015,32.463
19980103032000.knt,HKD0659801030320.UD,1998-01-03, 03:20:00,42.936,145.413,50,4.8,HKD065,43.7938,145.0565,10,1998-01-03, 03:20:14,100Hz,119,U-D,0.0002384185791015,9.894,99.64127832422788,1386,1385.0,44.627497170315785,0.4905482936383255,0.4954046701596519,0.496174254702761,0.4928168685984065,0.5108584094858556,0.0214184445963426,0.0214184445963426,0.0214184445963426,0.0214184445963426,0.0214184445963426,8.210822384511525,8.210822384511525,8.210822384511525,8.210822384511525,8.210822384511525,E-W,0.0002384185791015,54.394,N-S,0.0002384185791015,27.339
19980103032000.knt,HKD0669801030320.UD,1998-01-03, 03:20:00,42.936,145.413,50,4.8,HKD066,43.6619,145.1307,2,1998-01-03, 03:20:12,100Hz,119,U-D,0.0002384185791015,26.443,83.88697111306142,1410,1436.0,27.1027589072451,0.6167376307009039,0.6307671985655744,0.6646049980583627,0.7059477573071902,0.7295374790534025,0.0172387427690051,0.0172387427690051,0.0172387427690051,0.0172387427690051,0.0172387427690051,7.942508079464606,7.942508079464606,7.942508079464606,7.942508079464606,7.942508079464606,E-W,0.0002384185791015,61.545,N-S,0.0002384185791015,74.722
19980103032000.knt,HKD0689801030320.UD,1998-01-03, 03:20:00,42.936,145.413,50,4.8,HKD068,43.4108,144.7704,105,1998-01-03, 03:20:11,100Hz,119,U-D,0.0002384185791015,32.542,74.18062535898333,1435,1435.0,51.522383851908906,0.4476573994581516,0.456459484376811,0.4666298923692751,0.4758186790131212,0.5065671261571804,0.0453040918574858,0.0453040918574858,0.0453040918574858,0.0453040918574858,0.0453040918574858,18.93335343116264,18.93335343116264,18.93335343116264,18.93335343116264,18.93335343116264,E-W,0.0002384185791015,58.8,N-S,0.0002384185791015,59.835
19980103032000.knt,HKD0699801030320.UD,1998-01-03, 03:20:00,42.936,145.413,50,4.8,HKD069,43.3941,145.1168,25,1998-01-03, 03:20:09,100Hz,119,U-D,0.0002384185791015,18.897,56.31885622500517,1398,1402.0,40.81785566987773,0.657465770058062,0.6698625145556939,0.6849951200672247,0.7592762298107024,0.6029566568042501,0.0231828901772015,0.0231828901772015,0.0231828901772015,0.0231828901772015,0.0231828901772015,14.14265244223622,14.130863784804346,14.130863784804346,14.130863784804346,14.130863784804346,E-W,0.0002384185791015,66.161,N-S,0.0002384185791015,61.743
19980103032000.knt,HKD0709801030320.UD,1998-01-03, 03:20:00,42.936,145.413,50,4.8,HKD070,43.3852,145.284,6,1998-01-03, 03:20:08,100Hz,119,U-D,0.0002384185791015,12.846,51.03288002974539,1414,1419.0,45.33207624648271,0.8197942114879021,1.019553323837732,1.069382253840499,1.2882875544509995,0.9209827869025454,0.0100988855462262,0.0100988855462262,0.0100988855462262,0.0100988855462262,0.0100988855462262,8.324534639583803,5.566735994305827,5.566735994305827,2.975014106004118,2.975014106004118,E-W,0.0002384185791015,31.105,N-S,0.0002384185791015,27.936
19980103032000.knt,HKD0719801030320.UD,1998-01-03, 03:20:00,42.936,145.413,50,4.8,HKD071,43.2326,145.2604,38,1998-01-03, 03:20:06,100Hz,119,U-D,0.0002384185791015,49.451,35.23192520490419,1444,1447.0,40.19392842782216,0.3856186815386055,0.3841783411553111,0.3765598188966357,0.4088667838529116,0.4157098538162628,0.0262058384755075,0.0262058384755075,0.0262058384755075,0.0262058384755075,0.0262058384755075,28.8142140839909,28.8142140839909,28.8142140839909,24.02261093498661,24.02261093498661,E-W,0.0002384185791015,249.06,N-S,0.0002384185791015,102.504
19980103032000.knt,HKD0729801030320.UD,1998-01-03, 03:20:00,42.936,145.413,50,4.8,HKD072,43.1948,145.5209,46,1998-01-03, 03:20:06,100Hz,119,U-D,0.0002384185791015,15.258,30.082577464116916,1401,1410.0,40.39847971511308,1.8665751413225455,1.9438329042378784,1.9640220905612915,2.0428490719990404,2.341445735457334,0.0182736539994775,0.0182736539994775,0.0182736539994775,0.0178059746814446,0.0178059746814446,6.187610046717273,6.187610046717273,5.170189199291128,3.2292498156457263,2.340388929683725,E-W,0.0002384185791015,68.234,N-S,0.0002384185791015,43.468
