earthquake name,records name,earthquake date,earthquake time,lat,long,depth,mag,stn_code,stn_lat,stn_long,stn_height,rcd_date,rcd_time,frequency,rcd_duration,direction,scale_factor,max_pga,epi_dist,pick_index_manually,pick_index_kalkan,snr_db_kalkan,tc_5sec,tc_4sec,tc_3sec,tc_2sec,tc_1sec,Pd_5sec,Pd_4sec,Pd_3sec,Pd_2sec,Pd_1sec,Pga_5sec,Pga_4sec,Pga_3sec,Pga_2sec,Pga_1sec,Channel,Scale_factor,PGA_ew,Channel.1,Scale_factor.1,PGA_ns
19990101233000.knt,OIT0029901012330.UD,1999-01-01, 23:30:00,33.32,131.348,9,3.7,OIT002,33.5685,131.2678,9,1999-01-01, 23:30:11,100Hz,119,U-D,0.0002384185791015,4.057,28.61635761161313,1387,1401.0,29.957554767757124,0.7021452817687489,0.5292215228576256,0.460174057998705,0.4386377867152184,0.4536173154791638,0.0053493761351498,0.0037158647258856,0.0037158647258856,0.0037158647258856,0.0037158647258856,4.043327538029686,3.5687531431672923,3.5687531431672923,3.5687531431672923,3.5687531431672923,E-W,0.0002384185791015,5.967,N-S,0.0002384185791015,8.662
19990101233000.knt,OIT0049901012330.UD,1999-01-01, 23:30:00,33.32,131.348,9,3.7,OIT004,33.5666,131.7378,7,1999-01-01, 23:30:19,100Hz,119,U-D,0.0002384185791015,1.367,45.38688486580483,844,822.0000000000001,18.777714758308505,1.2226565576703106,1.064930027554018,0.8919464232295129,1.0364988530220491,1.1546811205464176,0.0010079379927661,0.0010042708877146,0.0010042708877146,0.0010042708877146,0.0010042708877146,0.8229958432048257,0.8229958432048257,0.8229958432048257,0.8229958432048257,0.8229958432048257,E-W,0.0002384185791015,3.548,N-S,0.0002384185791015,3.793
19990101233000.knt,OIT0059901012330.UD,1999-01-01, 23:30:00,33.32,131.348,9,3.7,OIT005,33.4549,131.1142,113,1999-01-01, 23:30:11,100Hz,119,U-D,0.0002384185791015,3.707,26.38557214079701,1354,1353.0,23.33115546029419,3.561825529332629,4.34537866908533,3.904022737951247,2.33230461465083,0.8664877422422891,0.012797557740103,0.012282633248398,0.012282633248398,0.0079513062388461,0.0032938582798348,3.69925311296314,2.3660592220767143,1.4690748071511444,1.4690748071511444,1.4690748071511444,E-W,0.0002384185791015,19.163,N-S,0.0002384185791015,15.509
19990101233000.knt,OIT0069901012330.UD,1999-01-01, 23:30:00,33.32,131.348,9,3.7,OIT006,33.4211,131.3172,88,1999-01-01, 23:30:10,100Hz,119,U-D,0.0002384185791015,7.649,11.59994524140042,1210,1218.0,30.73134573294492,1.2914714651592134,1.2646284498496776,0.8547163188886864,0.70579544578174,0.6760378035898156,0.0149718874235134,0.0149718874235134,0.0121052769259747,0.0121052769259747,0.0121052769259747,7.581527482035909,7.581527482035909,7.581527482035909,7.581527482035909,7.581527482035909,E-W,0.0002384185791015,16.331,N-S,0.0002384185791015,23.651
19990101233000.knt,OIT0079901012330.UD,1999-01-01, 23:30:00,33.32,131.348,9,3.7,OIT007,33.4152,131.6148,24,1999-01-01, 23:30:14,100Hz,119,U-D,0.0002384185791015,1.462,26.94313625048333,1063,1061.0,20.59303545413008,1.303341479821836,1.6055025626594182,1.89645909721838,2.2815597401475927,1.9342581799975893,0.0042324361635804,0.0042324361635804,0.0042324361635804,0.0033812577009732,0.0033812577009732,1.4641373661003334,1.4641373661003334,1.125719610117584,1.125719610117584,1.125719610117584,E-W,0.0002384185791015,2.495,N-S,0.0002384185791015,3.199
19990101233000.knt,OIT0099901012330.UD,1999-01-01, 23:30:00,33.32,131.348,9,3.7,OIT009,33.2569,131.3439,458,1999-01-01, 23:30:07,100Hz,119,U-D,0.0002384185791015,18.182,7.026741779239988,1429,1449.0,20.372213861508804,0.7188767794333017,0.696082232398599,0.6987879759235315,0.8045452939459423,0.4766890347103993,0.0494438217561082,0.0389071215169126,0.0389071215169126,0.02992352893329,0.0132239294411138,18.187788443732323,18.187788443732323,18.187788443732323,18.187788443732323,13.045496424891606,E-W,0.0002384185791015,29.011,N-S,0.0002384185791015,24.873
19990102012000.knt,IBR0029901020120.UD,1999-01-02, 01:20:00,36.22,141.697,52,5.0,IBR002,36.7061,140.7068,9,1999-01-02, 01:20:02,100Hz,119,U-D,0.0002384185791015,1.463,103.74342688877384,127,176.0,21.89913517418258,3.9482507105757314,4.567125969463657,5.144158759906474,5.724351668720763,4.86228825123667,0.0044124747833036,0.0044124747833036,0.0044124747833036,0.0036104482039346,0.003589788358949,0.589163045504348,0.589163045504348,0.589163045504348,0.2506363163634343,0.1491775186057989,E-W,0.0002384185791015,2.693,N-S,0.0002384185791015,3.153
19990102012000.knt,IBR0039901020120.UD,1999-01-02, 01:20:00,36.22,141.697,52,5.0,IBR003,36.5915,140.6453,58,1999-01-02, 01:20:59,100Hz,119,U-D,0.0002384185791015,2.256,102.78563899085655,393,447.0,23.96853807419805,0.9128026202298496,0.9910349043758644,0.9749985033320008,1.5174368098885902,3.686692650803775,0.0018665384442131,0.0018665384442131,0.0018665384442131,0.0018665384442131,0.0018665384442131,1.2792088505474388,1.2792088505474388,1.1490713833007489,0.9397082571652934,0.2728958566485402,E-W,0.0002384185791015,3.458,N-S,0.0002384185791015,3.693
19990102012000.knt,TCG0149901020120.UD,1999-01-02, 01:20:00,36.22,141.697,52,5.0,TCG014,36.545,140.1742,130,1999-01-02, 01:20:58,100Hz,119,U-D,0.0002384185791015,2.281,141.02837081935826,1017,1078.0,22.991526324380487,0.3937160555275097,0.3818532140298748,0.3625853988643857,0.3785285682957199,0.8530446863014106,0.0022920477159212,0.0022920477159212,0.0022920477159212,0.0022920477159212,0.0015688924793686,2.29355870066436,2.29355870066436,2.29355870066436,2.29355870066436,1.042214865812045,E-W,0.0002384185791015,6.458,N-S,0.0002384185791015,8.222
19990104055000.knt,EHM0029901040550.UD,1999-01-04, 05:50:00,33.403,133.264,40,4.0,EHM002,33.9216,133.3074,19,1999-01-04, 05:51:44,100Hz,119,U-D,0.0002384185791015,4.314,57.805405827474544,698,708.0,26.63908526908535,10.86386595468465,11.094007267414796,11.432318530808756,9.7168528143589,5.865337965439675,0.0096586931048615,0.0096586931048615,0.0096586931048615,0.0096586931048615,0.0087238147262866,1.9506029295401064,1.9506029295401064,1.9506029295401064,1.9506029295401064,1.9506029295401064,E-W,0.0002384185791015,12.278,N-S,0.0002384185791015,7.412
19990104055000.knt,EHM0069901040550.UD,1999-01-04, 05:50:00,33.403,133.264,40,4.0,EHM006,33.641,133.0082,552,1999-01-04, 05:51:40,100Hz,119,U-D,0.0002384185791015,1.891,35.53386843198927,851,852.9999999999999,18.28122343294141,8.146842426181545,8.711584812566837,7.7036983692325265,5.545399620275275,3.3095715105499126,0.0058385950514151,0.0058385950514151,0.0058385950514151,0.0054621131964332,0.0038249509523153,1.8160151838930856,1.8160151838930856,1.8160151838930856,1.8160151838930856,1.8160151838930856,E-W,0.0002384185791015,11.474,N-S,0.0002384185791015,4.308
19990104055000.knt,EHM0149901040550.UD,1999-01-04, 05:50:00,33.403,133.264,40,4.0,EHM014,32.9453,132.5047,1,1999-01-04, 05:51:52,100Hz,119,U-D,0.0002384185791015,1.411,87.08750085002862,288,321.0,14.16018182052268,10.635707753806033,10.74268587600967,11.84670080608366,15.050427915185262,20.82374573556935,0.0192215521737082,0.0192215521737082,0.0192215521737082,0.0192215521737082,0.0192215521737082,1.416922812936263,1.416922812936263,1.416922812936263,1.416922812936263,1.416922812936263,E-W,0.0002384185791015,2.072,N-S,0.0002384185791015,3.365
19990104055000.knt,EHM0169901040550.UD,1999-01-04, 05:50:00,33.403,133.264,40,4.0,EHM016,33.7658,132.7088,2,1999-01-04, 05:51:47,100Hz,119,U-D,0.0002384185791015,1.78,65.36406416019067,534,531.0,15.2287669444429,0.5336630807218992,0.6535643487590399,0.6998127326134477,0.7123904906065454,0.7848367760430208,0.000585194223409,0.000585194223409,0.000585194223409,0.000585194223409,0.000585194223409,0.5614938415846074,0.3457334144301371,0.3457334144301371,0.3457334144301371,0.3457334144301371,E-W,0.0002384185791015,3.82,N-S,0.0002384185791015,6.837
19990104055000.knt,KGW0039901040550.UD,1999-01-04, 05:50:00,33.403,133.264,40,4.0,KGW003,34.2652,133.7896,12,1999-01-04, 05:51:57,100Hz,119,U-D,0.0002384185791015,0.69,107.46240262981227,104,123.0,13.014231216490243,9.482979547835631,11.776514333271246,12.401246945478254,13.53855848347957,10.276894425101748,0.0020246561655913,0.0020246561655913,0.0020246561655913,0.0020246561655913,0.0020012641997737,0.1370793837730986,0.1148468199896728,0.1084245258246156,0.1084245258246156,0.1084245258246156,E-W,0.0002384185791015,1.864,N-S,0.0002384185791015,2.434
19990104055000.knt,KGW0059901040550.UD,1999-01-04, 05:50:00,33.403,133.264,40,4.0,KGW005,34.1138,133.6354,2,1999-01-04, 05:51:52,100Hz,119,U-D,0.0002384185791015,1.348,86.17264303922144,327,331.0,19.347609766811523,4.269233062292155,3.1150350195494303,1.9677503005730543,1.29807612539865,1.3208518017597055,0.0020540263783767,0.0017815381797996,0.0010525543895629,0.0005568842049355,0.0005568842049355,0.3334690623030293,0.3334690623030293,0.3334690623030293,0.3334690623030293,0.3334690623030293,E-W,0.0002384185791015,4.062,N-S,0.0002384185791015,3.622
19990104055000.knt,KOC0059901040550.UD,1999-01-04, 05:50:00,33.403,133.264,40,4.0,KOC005,33.5934,133.6921,26,1999-01-04, 05:51:35,100Hz,119,U-D,0.0002384185791015,5.644,44.98881097103155,1490,1492.0,23.898797173526013,1.6263214377748336,1.5986684712127963,1.6129709917974633,1.4307915444932453,0.9437744656636036,0.0037178442326811,0.0037178442326811,0.0037178442326811,0.0037178442326811,0.0037178442326811,5.6487519998791855,5.6487519998791855,5.6487519998791855,5.6487519998791855,5.6487519998791855,E-W,0.0002384185791015,2.769,N-S,0.0002384185791015,3.012
19990104055000.knt,KOC0079901040550.UD,1999-01-04, 05:50:00,33.403,133.264,40,4.0,KOC007,33.5611,133.5271,2,1999-01-04, 05:51:34,100Hz,119,U-D,0.0002384185791015,7.725,30.074023555190838,1409,1413.0,27.169997579780887,1.24136156435983,1.2281430101181052,1.193828496122345,0.9518971419401712,0.569061327843057,0.0028938997761904,0.0028938997761904,0.0028938997761904,0.0027225099492277,0.002368974252684,7.707674817198433,7.707674817198433,7.707674817198433,7.707674817198433,7.707674817198433,E-W,0.0002384185791015,4.343,N-S,0.0002384185791015,3.845
19990104055000.knt,KOC0089901040550.UD,1999-01-04, 05:50:00,33.403,133.264,40,4.0,KOC008,33.7758,133.3465,560,1999-01-04, 05:51:41,100Hz,119,U-D,0.0002384185791015,1.642,42.151949424060135,831,831.0,24.07808074715043,8.29682994390909,8.658239955311283,8.54670440572159,6.090450350052731,2.908242334657253,0.0060027312778327,0.0060027312778327,0.0060027312778327,0.0055001243009804,0.0031797866341292,1.1239487458166844,1.1239487458166844,1.1239487458166844,1.1239487458166844,1.1239487458166844,E-W,0.0002384185791015,17.666,N-S,0.0002384185791015,16.559
19990104055000.knt,KOC0099901040550.UD,1999-01-04, 05:50:00,33.403,133.264,40,4.0,KOC009,33.5742,133.1718,105,1999-01-04, 05:51:37,100Hz,119,U-D,0.0002384185791015,2.254,20.868588440831772,994,995.0,22.953546351479737,3.3813723073667328,3.39058049592272,2.32295393680127,1.1606004750441403,0.3990413994118463,0.0042434066356725,0.0040144321015551,0.0033734891677672,0.002187687514398,0.0013810090615551,2.2637837475039038,2.2637837475039038,2.2637837475039038,2.2637837475039038,2.2637837475039038,E-W,0.0002384185791015,3.133,N-S,0.0002384185791015,2.713
19990104055000.knt,KOC0109901040550.UD,1999-01-04, 05:50:00,33.403,133.264,40,4.0,KOC010,33.3925,133.2896,4,1999-01-04, 05:51:35,100Hz,119,U-D,0.0002384185791015,7.949,2.647841746275337,1090,1168.0,11.15455193319339,0.3468056789432366,0.5438351197988807,0.8327662884868734,0.7563286905634834,0.708474622277838,0.0026624473299947,0.0024854332548946,0.0009536370223457,0.000691673979747,0.0006329724408112,7.942613836201865,6.797006725571153,1.34101399392163,1.34101399392163,0.977309404395741,E-W,0.0002384185791015,12.487,N-S,0.0002384185791015,17.519
19990104055000.knt,KOC0129901040550.UD,1999-01-04, 05:50:00,33.403,133.264,40,4.0,KOC012,33.1967,132.9758,150,1999-01-04, 05:51:39,100Hz,119,U-D,0.0002384185791015,1.248,35.26522684637006,917,917.0,15.649445170625697,6.381458456433218,5.891337291426479,4.515410647157807,2.8262706313676147,1.9665599520715096,0.0032170395200935,0.0031303100828514,0.0030512474310502,0.0020058704060254,0.0010126696218419,0.9043918457927056,0.9043918457927056,0.9043918457927056,0.7891801758454686,0.7891801758454686,E-W,0.0002384185791015,5.211,N-S,0.0002384185791015,5.568
19990104055000.knt,KOC0159901040550.UD,1999-01-04, 05:50:00,33.403,133.264,40,4.0,KOC015,32.937,132.7252,2,1999-01-04, 05:51:48,100Hz,119,U-D,0.0002384185791015,2.384,72.11029336145918,508,508.0,25.55595502362607,2.342488583707361,2.0484961999433238,2.362154118149944,2.110053532864003,1.5494957920891426,0.00124730947724,0.0011098815899091,0.0010716279738427,0.0010716279738427,0.0008973668607979,0.3761678758240968,0.3761678758240968,0.3668797618094167,0.3668797618094167,0.3668797618094167,E-W,0.0002384185791015,3.261,N-S,0.0002384185791015,1.828
19990108041000.knt,AKT0239901080410.UD,1999-01-08, 04:10:00,38.97,140.864,14,3.7,AKT023,39.1462,140.717,280,1999-01-08, 04:10:33,100Hz,119,U-D,0.0002384185791015,2.02,23.34454011576584,1091,1109.0,26.723741994594388,0.8375229529374143,0.93400189165991,2.4722651825039903,2.202636295472303,1.21302258028831,0.0030613592695384,0.0030613592695384,0.0030613592695384,0.0027913108939709,0.0014185782574609,1.9886114352412263,1.9886114352412263,0.6651577802773472,0.6651577802773472,0.6651577802773472,E-W,0.0002384185791015,2.93,N-S,0.0002384185791015,2.135
19990108041000.knt,IWT0099901080410.UD,1999-01-08, 04:10:00,38.97,140.864,14,3.7,IWT009,39.0187,141.4031,150,1999-01-08, 04:10:40,100Hz,119,U-D,0.0002384185791015,2.02,46.90345766700745,845,907.0,20.33815479433796,5.174043155077902,6.14131365790348,8.98742154107562,8.484277360116803,8.26321672375607,0.0019437435650295,0.0019437435650295,0.0019437435650295,0.0017546351544069,0.0010759000720843,0.4403395065122742,0.4403395065122742,0.3769293244764605,0.2956428544454159,0.2454306928236842,E-W,0.0002384185791015,5.596,N-S,0.0002384185791015,6.467
19990108041000.knt,IWT0109901080410.UD,1999-01-08, 04:10:00,38.97,140.864,14,3.7,IWT010,38.9334,141.1173,37,1999-01-08, 04:10:34,100Hz,119,U-D,0.0002384185791015,2.419,22.278638638752412,1075,1093.0,14.838389147383342,2.6364261637617905,2.789454992552644,3.5226830401074265,2.268059598051263,1.4334285649442091,0.0063355944072561,0.0057105757726732,0.0051296614741086,0.0028663731022674,0.0014744464632538,2.418080518929236,2.418080518929236,0.8813515081561154,0.5693551152223546,0.5693551152223546,E-W,0.0002384185791015,6.276,N-S,0.0002384185791015,4.846
19990108041000.knt,IWT0129901080410.UD,1999-01-08, 04:10:00,38.97,140.864,14,3.7,IWT012,39.3209,141.1378,64,1999-01-08, 04:10:40,100Hz,119,U-D,0.0002384185791015,1.487,45.60626061679548,814,827.9999999999999,19.668049719188332,4.96233375671253,5.496606456139924,6.164064694270853,6.921928121597914,6.220184384888197,0.0019728823662771,0.0019728823662771,0.0019728823662771,0.0019676726254598,0.0019676726254598,0.2735893619128871,0.2735893619128871,0.230127338977937,0.2095143188977167,0.2095143188977167,E-W,0.0002384185791015,6.22,N-S,0.0002384185791015,4.713
19990108041000.knt,IWT0159901080410.UD,1999-01-08, 04:10:00,38.97,140.864,14,3.7,IWT015,39.318,140.7792,247,1999-01-08, 04:10:38,100Hz,119,U-D,0.0002384185791015,1.066,39.38080111000109,895,900.0,20.147110374835687,2.429031821757492,2.796734755963877,3.215374527563644,3.3186225937379352,3.746904656376965,0.0020765353278258,0.0020765353278258,0.0020765353278258,0.0020765353278258,0.0020765353278258,0.5587848699700295,0.5587848699700295,0.5587848699700295,0.5587848699700295,0.5587848699700295,E-W,0.0002384185791015,2.448,N-S,0.0002384185791015,3.994
19990108041000.knt,MYG0019901080410.UD,1999-01-08, 04:10:00,38.97,140.864,14,3.7,MYG001,38.9015,141.5684,48,1999-01-08, 04:10:46,100Hz,119,U-D,0.0002384185791015,1.424,61.39985996549569,504,516.0,19.95448359791612,0.4717954372231151,0.5452211179613953,0.5655932742146151,0.9600461765418656,1.300284734347113,0.0005572865204329,0.0005572865204329,0.0005572865204329,0.0005572865204329,0.0005572865204329,0.7716674294334241,0.5954294612470004,0.5954294612470004,0.3060121887846893,0.2662543176931685,E-W,0.0002384185791015,2.389,N-S,0.0002384185791015,2.758
19990108041000.knt,MYG0029901080410.UD,1999-01-08, 04:10:00,38.97,140.864,14,3.7,MYG002,38.7262,141.5109,79,1999-01-08, 04:10:45,100Hz,119,U-D,0.0002384185791015,2.0,62.23579656388923,614,652.0,22.273124517696463,8.900219737056723,8.379535560814988,7.379431252477914,5.192856845843271,2.555119228851601,0.0055446240406656,0.0054754877143933,0.0051872067662731,0.0039437362131916,0.0023233995119986,0.9571782580947444,0.882036652125699,0.6778869137358872,0.6778869137358872,0.5240569448181445,E-W,0.0002384185791015,6.535,N-S,0.0002384185791015,6.941
19990108041000.knt,MYG0039901080410.UD,1999-01-08, 04:10:00,38.97,140.864,14,3.7,MYG003,38.7348,141.3106,28,1999-01-08, 04:10:41,100Hz,119,U-D,0.0002384185791015,1.237,46.68605260765827,738,763.0,24.25489789540592,4.804504779697559,6.201884936689428,9.063990312829572,12.376612459674812,18.41058849114358,0.0024253644156927,0.0024253644156927,0.0024253644156927,0.0024253644156927,0.0024253644156927,0.7167743610735464,0.7167743610735464,0.390120463399164,0.3057410261008343,0.1451731972747313,E-W,0.0002384185791015,2.236,N-S,0.0002384185791015,3.036
19990108041000.knt,MYG0049901080410.UD,1999-01-08, 04:10:00,38.97,140.864,14,3.7,MYG004,38.7292,141.0217,40,1999-01-08, 04:10:36,100Hz,119,U-D,0.0002384185791015,1.682,30.05727475029424,1015,1039.0,18.63112164095807,2.5229480795261168,3.583432031791591,3.6619489045287295,3.2698036763596097,3.1291741431901787,0.003144437480198,0.003144437480198,0.003144437480198,0.0024324993348692,0.0018010139734953,1.0636055073997288,0.5811293297012226,0.5589108331713369,0.4839618873400564,0.3611225253815281,E-W,0.0002384185791015,4.046,N-S,0.0002384185791015,7.99
19990108041000.knt,MYG0119901080410.UD,1999-01-08, 04:10:00,38.97,140.864,14,3.7,MYG011,38.2972,141.5043,30,1999-01-08, 04:10:54,100Hz,119,U-D,0.0002384185791015,1.41,93.2197998624953,193,211.0,20.03594816372346,4.859773286892165,5.2614452565009895,5.6909241275385,6.245460275724766,7.163884961291215,0.0024146182663044,0.0024146182663044,0.0024146182663044,0.0024146182663044,0.0022036105038098,0.4736413156073649,0.4736413156073649,0.4736413156073649,0.4736413156073649,0.2281758264682605,E-W,0.0002384185791015,4.652,N-S,0.0002384185791015,3.412
19990109120600.knt,HKD0669901091206.UD,1999-01-09, 12:06:00,44.103,147.396,121,5.6,HKD066,43.6619,145.1307,2,1999-01-09, 12:07:11,100Hz,119,U-D,0.0002384185791015,5.522,188.0546033284517,12,1384.0,32.57323802776043,5.559182695601503,4.809177263051999,4.238310205648367,5.8679353718661975,4.237271235947052,0.001328542054376,0.0011250168808108,0.0011250168808108,0.0011250168808108,0.0011250168808108,0.0451340453061655,0.0362480110326746,0.0362480110326746,0.0331151892438258,0.0265562778004229,E-W,0.0002384185791015,17.723,N-S,0.0002384185791015,27.049
19990109120600.knt,HKD0699901091206.UD,1999-01-09, 12:06:00,44.103,147.396,121,5.6,HKD069,43.3941,145.1168,25,1999-01-09, 12:07:13,100Hz,119,U-D,0.0002384185791015,5.683,199.31647183297176,1298,1323.0,28.15419080407715,0.9991163042055844,0.9496670803504214,0.8242329124054754,0.8396140636769239,0.9581706041713316,0.010187727428944,0.010187727428944,0.010187727428944,0.010187727428944,0.0091063685824273,3.770699509507734,3.770699509507734,3.770699509507734,3.770699509507734,2.4039437372578885,E-W,0.0002384185791015,29.478,N-S,0.0002384185791015,17.981
19990109120600.knt,HKD0709901091206.UD,1999-01-09, 12:06:00,44.103,147.396,121,5.6,HKD070,43.3852,145.284,6,1999-01-09, 12:07:12,100Hz,119,U-D,0.0002384185791015,4.811,187.4883198491325,1244,1275.0,29.91147280263231,1.111023599086833,1.1361919283801254,1.1541732360803425,1.1047530622527864,2.005994889357088,0.0093138121866998,0.0093138121866998,0.0093138121866998,0.0093138121866998,0.0074889555646542,2.96729833699164,2.96729833699164,2.96729833699164,2.96729833699164,1.1948430904703735,E-W,0.0002384185791015,12.766,N-S,0.0002384185791015,19.752
