earthquake name,records name,earthquake date,earthquake time,lat,long,depth,mag,stn_code,stn_lat,stn_long,stn_height,rcd_date,rcd_time,frequency,rcd_duration,direction,scale_factor,max_pga,epi_dist,pick_index_manually,pick_index_kalkan,snr_db_kalkan,tc_5sec,tc_4sec,tc_3sec,tc_2sec,tc_1sec,Pd_5sec,Pd_4sec,Pd_3sec,Pd_2sec,Pd_1sec,Pga_5sec,Pga_4sec,Pga_3sec,Pga_2sec,Pga_1sec,Channel,Scale_factor,PGA_ew,Channel.1,Scale_factor.1,PGA_ns
19970111042000.knt,HKD0809701110420.UD,1997-01-11, 04:20:00,43.103,145.879,83,5.1,HKD080,43.5077,144.4485,140.0,1997-01-11, 04:21:18,100Hz,72,U-D,0.0002384185791015,6.68,124.1900335714802,1467,1467.0,40.10518498349927,0.4216099050103241,0.4229005288976246,0.4470604207953967,0.5047917745866858,0.4343866989706627,0.0071399760110754,0.0071399760110754,0.0071399760110754,0.0071399760110754,0.0071399760110754,6.682655139380751,6.682655139380751,6.682655139380751,6.682655139380751,4.912018714971378,E-W,0.0002384185791015,9.736,N-S,0.0002384185791015,11.453
19970111042000.knt,HKD0819701110420.UD,1997-01-11, 04:20:00,43.103,145.879,83,5.1,HKD081,43.6427,144.3901,130.0,1997-01-11, 04:21:20,100Hz,59,U-D,0.0002384185791015,6.689,134.47447311191695,1407,1425.0,28.9184041747653,0.6440706572128102,0.6515606551785967,0.6325004552101743,0.5255980801528192,0.6823041922712682,0.0083274143088641,0.0083274143088641,0.0083274143088641,0.0083274143088641,0.0083274143088641,6.718601284632574,6.718601284632574,6.718601284632574,6.718601284632574,6.718601284632574,E-W,0.0002384185791015,9.752,N-S,0.0002384185791015,8.524
19970111042000.knt,HKD0839701110420.UD,1997-01-11, 04:20:00,43.103,145.879,83,5.1,HKD083,43.233,144.3248,38.0,1997-01-11, 04:21:20,100Hz,59,U-D,0.0002384185791015,12.489,126.87008552802448,1385,1384.0,47.26203409659252,0.6018864643577608,0.5461801095463811,0.4921554315084092,0.4807340948149846,0.4789691861207277,0.021926063043111,0.021926063043111,0.021926063043111,0.021926063043111,0.021926063043111,12.456920034266764,12.456920034266764,12.456920034266764,12.456920034266764,12.456920034266764,E-W,0.0002384185791015,27.548,N-S,0.0002384185791015,24.906
19970111042000.knt,HKD0879701110420.UD,1997-01-11, 04:20:00,43.103,145.879,83,5.1,HKD087,43.1502,143.8916,170.0,1997-01-11, 04:21:23,100Hz,59,U-D,0.0002384185791015,3.349,161.36914207924744,1441,1437.0,34.016349442697724,0.6961952583942217,0.7053305455445392,0.6673092987937407,0.6263301012837487,0.6289330732078093,0.0076476449311828,0.0076476449311828,0.0076476449311828,0.0076476449311828,0.0076476449311828,3.3496894838554025,3.3496894838554025,3.3496894838554025,3.3496894838554025,3.3496894838554025,E-W,0.0002384185791015,8.358,N-S,0.0002384185791015,8.183
19970111042000.knt,HKD0899701110420.UD,1997-01-11, 04:20:00,43.103,145.879,83,5.1,HKD089,43.2436,143.5544,90.0,1997-01-11, 04:21:27,100Hz,61,U-D,0.0002384185791015,3.793,189.14995219698875,1424,1424.0,31.774807464660284,0.475268622700409,0.4303990030080603,0.4163689175418614,0.4212027366619342,0.3385143698474396,0.0064449293782324,0.0064449293782324,0.0064449293782324,0.0064449293782324,0.0060328571415565,3.824666166171797,3.824666166171797,3.824666166171797,3.824666166171797,3.824666166171797,E-W,0.0002384185791015,14.807,N-S,0.0002384185791015,11.822
19970111042000.knt,HKD1599701110420.UD,1997-01-11, 04:20:00,43.103,145.879,83,5.1,HKD159,41.7162,141.0025,35.0,1997-01-11, 04:21:39,100Hz,59,U-D,0.0002384185791015,1.091,428.9477062483622,2,33.0,14.80148957929337,3.5713029028534238,2.266851725108082,1.63377895944205,1.7451498892973714,1.1238293877894103,0.0017953046027705,0.0012915313300921,0.0006480297852898,0.0006480297852898,0.0005035192317577,0.277525479545081,0.1735054847709352,0.1735054847709352,0.1735054847709352,0.103379162420925,E-W,0.0002384185791015,5.001,N-S,0.0002384185791015,3.209
19970111045300.knt,AOM0129701110453.UD,1997-01-11, 04:53:00,40.086,141.979,71,4.1,AOM012,40.5138,141.4805,15.0,1997-01-11, 04:53:24,100Hz,59,U-D,0.0002384185791015,4.445,63.63958004602496,1236,1238.0,28.812557516246343,1.4358736418279574,1.3882134077090276,1.118341992960611,0.746500707843584,0.552250967999728,0.003596422045495,0.003596422045495,0.003596422045495,0.0023033700733458,0.0013287262921804,3.4119513216532398,3.3721034986542096,3.3721034986542096,2.95284555402736,2.95284555402736,E-W,0.0002384185791015,9.78,N-S,0.0002384185791015,9.875
19970111045300.knt,IWT0019701110453.UD,1997-01-11, 04:53:00,40.086,141.979,71,4.1,IWT001,40.4099,141.7191,15.0,1997-01-11, 04:53:20,100Hz,59,U-D,0.0002384185791015,21.073,42.23381209920642,1468,1473.0,33.895524161590515,0.3452035630560457,0.3471203300836787,0.3297343034438965,0.2302052323839983,0.1333963843607291,0.0053158442875285,0.0053158442875285,0.0053158442875285,0.0049803148364527,0.0047203021966134,21.0615866214342,21.0615866214342,21.0615866214342,21.0615866214342,21.0615866214342,E-W,0.0002384185791015,16.261,N-S,0.0002384185791015,11.348
19970111045300.knt,IWT0029701110453.UD,1997-01-11, 04:53:00,40.086,141.979,71,4.1,IWT002,40.1819,141.7641,28.0,1997-01-11, 04:53:27,100Hz,59,U-D,0.0002384185791015,4.677,21.153683334602245,636,644.0,32.300813399121544,5.614228960092292,5.3309653506397074,4.495353662744614,3.388990512405604,1.9227704382397437,0.0128088726273229,0.0128088726273229,0.0128088726273229,0.0108439916841871,0.0073192069330804,4.678780585290856,4.678780585290856,4.678780585290856,4.678780585290856,4.678780585290856,E-W,0.0002384185791015,6.966,N-S,0.0002384185791015,7.919
19970111045300.knt,IWT0039701110453.UD,1997-01-11, 04:53:00,40.086,141.979,71,4.1,IWT003,40.0083,141.8861,9.0,1997-01-11, 04:53:19,100Hz,59,U-D,0.0002384185791015,8.186,11.712380904135228,1402,1402.0,29.78780131146854,0.4831798664344294,0.3550371012961629,0.1350239015112066,0.1023171017341611,0.1030568328789058,0.0037972466963575,0.0037397061663335,0.0015231229916575,0.0012455662678371,0.0012455662678371,8.167468477301652,8.167468477301652,8.167468477301652,8.167468477301652,8.167468477301652,E-W,0.0002384185791015,9.522,N-S,0.0002384185791015,12.241
19970111045300.knt,IWT0059701110453.UD,1997-01-11, 04:53:00,40.086,141.979,71,4.1,IWT005,39.6472,141.9464,4.0,1997-01-11, 04:53:30,100Hz,59,U-D,0.0002384185791015,4.428,48.87159584822885,497,496.0,33.05433565818538,4.383535758588931,3.768938470310705,2.719684795317315,1.7948912493476867,2.0907437275403105,0.0152338063860244,0.0146454225636004,0.0125125554152525,0.0106859088911192,0.0106859088911192,2.386661436260064,2.386661436260064,2.386661436260064,2.386661436260064,2.386661436260064,E-W,0.0002384185791015,8.266,N-S,0.0002384185791015,4.993
19970111045300.knt,IWT0079701110453.UD,1997-01-11, 04:53:00,40.086,141.979,71,4.1,IWT007,39.2701,141.8561,11.0,1997-01-11, 04:53:37,100Hz,59,U-D,0.0002384185791015,4.356,91.33155409292296,221,35.0,21.54414457210415,8.868610542914983,7.385608877272869,7.15461778835205,9.04424089819273,17.222124273581837,0.0239669661698011,0.0217082852971881,0.0217082852971881,0.0217082852971881,0.0217082852971881,1.7562187031693122,1.7562187031693122,1.7562187031693122,1.7190432055847034,1.6771032827346373,E-W,0.0002384185791015,10.846,N-S,0.0002384185791015,12.974
19970111045300.knt,IWT0139701110453.UD,1997-01-11, 04:53:00,40.086,141.979,71,4.1,IWT013,39.3367,141.5378,272.0,1997-01-11, 04:53:37,100Hz,59,U-D,0.0002384185791015,3.93,91.46685302263928,238,248.0,27.389994152928807,5.949194088459032,6.327084553589748,7.303211562041251,9.21656706627477,9.712633236139853,0.0137509237865628,0.0137509237865628,0.0137509237865628,0.0137509237865628,0.0137509237865628,2.9700703507233785,2.9700703507233785,2.9700703507233785,2.113013078471464,1.9990960090891567,E-W,0.0002384185791015,11.059,N-S,0.0002384185791015,8.732
19970111045300.knt,IWT0169701110453.UD,1997-01-11, 04:53:00,40.086,141.979,71,4.1,IWT016,39.5997,141.6789,198.0,1997-01-11, 04:53:31,100Hz,59,U-D,0.0002384185791015,4.288,59.83683881468857,505,502.00000000000006,29.44855200887412,9.096179723306408,7.423977192417835,5.230158357374519,3.112410132784201,3.482346505656184,0.0252211912180271,0.025168486220483,0.0216410880048202,0.0149283461469792,0.0149283461469792,2.885062671151221,2.885062671151221,2.885062671151221,2.885062671151221,2.1202653342181845,E-W,0.0002384185791015,7.164,N-S,0.0002384185791015,9.043
19970111045300.knt,IWT0199701110453.UD,1997-01-11, 04:53:00,40.086,141.979,71,4.1,IWT019,39.8428,141.7952,103.0,1997-01-11, 04:53:27,100Hz,59,U-D,0.0002384185791015,11.354,31.251740969517503,695,695.0,38.616732527747374,6.963354882421952,7.180194655171059,7.001321901556249,6.386425363459159,5.636655572217147,0.0238743165293106,0.0238743165293106,0.0238743165293106,0.0238724786620201,0.0198766338653958,7.275698059845118,7.275698059845118,7.275698059845118,7.275698059845118,5.107289869089987,E-W,0.0002384185791015,26.43,N-S,0.0002384185791015,17.804
19970111045300.knt,IWT0209701110453.UD,1997-01-11, 04:53:00,40.086,141.979,71,4.1,IWT020,39.7841,141.3295,690.0,1997-01-11, 04:53:22,100Hz,59,U-D,0.0002384185791015,10.35,64.75741551680619,1479,1491.0,29.674526448165764,0.7562563821931564,0.7372875779308056,0.6190157891981352,0.34064370103595,0.1969217609145295,0.0035767120056166,0.0035767120056166,0.0035767120056166,0.0025280990084485,0.002379664434459,10.33725543246359,10.33725543246359,10.33725543246359,10.33725543246359,10.33725543246359,E-W,0.0002384185791015,5.209,N-S,0.0002384185791015,8.801
19970111045300.knt,IWT0219701110453.UD,1997-01-11, 04:53:00,40.086,141.979,71,4.1,IWT021,39.9203,141.082,282.0,1997-01-11, 04:53:24,100Hz,59,U-D,0.0002384185791015,2.044,78.59301623582911,1407,1397.0,31.59555164688665,8.147773480643767,6.645751682340277,5.539962584462878,7.123050220013297,12.121406849453688,0.0266484846956338,0.0256200999740681,0.0231883971886616,0.0231883971886616,0.0231883971886616,2.072502846362491,2.072502846362491,2.072502846362491,2.072502846362491,2.072502846362491,E-W,0.0002384185791015,5.761,N-S,0.0002384185791015,7.551
19970111045300.knt,IWT0229701110453.UD,1997-01-11, 04:53:00,40.086,141.979,71,4.1,IWT022,40.1011,141.0523,300.0,1997-01-11, 04:53:36,100Hz,59,U-D,0.0002384185791015,1.514,78.84581393379523,207,201.00000000000003,22.09672634265285,1.8795062762402528,2.0476786901406228,2.1233593467540106,2.202577844213088,2.5456043744326147,0.0030530106941223,0.0030530106941223,0.0030530106941223,0.0030530106941223,0.0030530106941223,1.5147455618695114,1.5147455618695114,1.5147455618695114,1.5147455618695114,1.0428601453214226,E-W,0.0002384185791015,3.527,N-S,0.0002384185791015,2.69
19970111145000.knt,KGS0139701111450.UD,1997-01-11, 14:50:00,31.571,131.915,26,5.0,KGS013,31.5973,130.9938,118.0,1997-01-11, 14:51:37,100Hz,59,U-D,0.0002384185791015,3.149,87.30832236468018,1425,571.0,24.74261673573912,0.6153730742882698,0.5963358570862399,0.6027620808700574,0.6168424607201872,0.5060178148951977,0.0133612657001411,0.0133612657001411,0.0133612657001411,0.0133612657001411,0.0110491235908247,3.1966851115045603,3.1966851115045603,3.1966851115045603,3.1966851115045603,3.1966851115045603,E-W,0.0002384185791015,4.627,N-S,0.0002384185791015,6.731
19970111145000.knt,KGS0189701111450.UD,1997-01-11, 14:50:00,31.571,131.915,26,5.0,KGS018,31.3757,130.5449,51.0,1997-01-11, 14:51:44,100Hz,60,U-D,0.0002384185791015,6.543,131.73646946239828,1392,1392.0,25.026847542919384,0.7003665983088044,0.6755006076685385,0.5919884665576394,0.436258804566807,0.5204915371493126,0.0162581031047436,0.0162581031047436,0.0115496470266353,0.0104485939564422,0.0091868228984529,6.465612709955017,6.465612709955017,6.465612709955017,6.465612709955017,5.794803805305669,E-W,0.0002384185791015,6.257,N-S,0.0002384185791015,5.803
19970111145000.knt,KGS0239701111450.UD,1997-01-11, 14:50:00,31.571,131.915,26,5.0,KGS023,31.199,130.849,179.0,1997-01-11, 14:51:42,100Hz,59,U-D,0.0002384185791015,4.482,109.31806816785598,1223,1239.0,35.74090838012671,5.505380443345409,5.683559893833451,5.573228231490373,3.948208624509784,1.5011250253684136,0.0238958321117931,0.0238958321117931,0.0233126461798412,0.017181103104709,0.0050961835432746,2.123813474100585,2.123813474100585,1.7184336257414077,1.123782845152298,1.0644361425625712,E-W,0.0002384185791015,9.177,N-S,0.0002384185791015,8.475
19970111145000.knt,MYZ0069701111450.UD,1997-01-11, 14:50:00,31.571,131.915,26,5.0,MYZ006,32.2565,131.5609,22.0,1997-01-11, 14:51:39,100Hz,59,U-D,0.0002384185791015,5.826,83.22951370654134,1221,1229.0,23.28148389843075,1.6021912483997638,1.3086507087672217,0.8173626679248538,0.4799009784978902,0.5368408193742719,0.0146103114416635,0.0146103114416635,0.0123961431891649,0.0089239865528065,0.0039104803936539,5.787422020655288,5.787422020655288,5.787422020655288,5.787422020655288,2.2563650870534757,E-W,0.0002384185791015,6.042,N-S,0.0002384185791015,7.894
19970111145000.knt,MYZ0089701111450.UD,1997-01-11, 14:50:00,31.571,131.915,26,5.0,MYZ008,32.106,131.3928,65.0,1997-01-11, 14:51:36,100Hz,59,U-D,0.0002384185791015,7.638,77.28072920275862,1390,1390.0,37.24974133465605,3.050382963484971,2.829211758246919,2.06332596564085,1.2415499226373252,0.635978710535904,0.0293194449671999,0.0293194449671999,0.0275353159121355,0.0200832759224298,0.0079444430749947,7.640707634219669,7.640707634219669,7.640707634219669,7.640707634219669,4.667523535005973,E-W,0.0002384185791015,8.405,N-S,0.0002384185791015,7.237
19970111145000.knt,MYZ0119701111450.UD,1997-01-11, 14:50:00,31.571,131.915,26,5.0,MYZ011,31.9951,131.2557,26.0,1997-01-11, 14:51:36,100Hz,59,U-D,0.0002384185791015,2.871,78.14926280780041,1363,1362.0,26.031208941918187,0.7579911547311002,0.7250046195299025,0.5960229356713843,0.6173257580395375,0.6601794257459038,0.0129285054075865,0.0129285054075865,0.0129285054075865,0.0129285054075865,0.0129285054075865,2.8952091509550804,2.8952091509550804,2.8952091509550804,2.8952091509550804,2.777302616978955,E-W,0.0002384185791015,4.384,N-S,0.0002384185791015,3.913
19970111145000.knt,MYZ0139701111450.UD,1997-01-11, 14:50:00,31.571,131.915,26,5.0,MYZ013,31.9087,131.4187,5.0,1997-01-11, 14:51:33,100Hz,75,U-D,0.0002384185791015,14.04,60.10577765605371,1403,1403.0,31.170438074338783,0.92593314441535,0.977785035151594,0.8411570865485578,0.6024082099879055,0.6060093504980109,0.0295276054972585,0.0295276054972585,0.0295276054972585,0.0295276054972585,0.0295276054972585,10.23205978218083,10.23205978218083,10.23205978218083,10.23205978218083,10.23205978218083,E-W,0.0002384185791015,17.224,N-S,0.0002384185791015,21.72
19970111145000.knt,MYZ0149701111450.UD,1997-01-11, 14:50:00,31.571,131.915,26,5.0,MYZ014,31.8454,131.3026,135.0,1997-01-11, 14:51:33,100Hz,59,U-D,0.0002384185791015,13.206,65.47528968916393,1436,1434.0,23.91163680870898,0.8694977245105268,0.8280914453478839,0.669711594119367,0.4757126841377007,0.4020950595888995,0.0233872157643727,0.0233872157643727,0.0233872157643727,0.0233872157643727,0.0233872157643727,13.265271933183511,13.265271933183511,13.265271933183511,13.265271933183511,13.265271933183511,E-W,0.0002384185791015,7.623,N-S,0.0002384185791015,7.831
19970111145000.knt,MYZ0169701111450.UD,1997-01-11, 14:50:00,31.571,131.915,26,5.0,MYZ016,31.6129,131.3743,9.0,1997-01-11, 14:51:31,100Hz,60,U-D,0.0002384185791015,18.381,51.42432380402416,1414,1416.0,26.97850953588371,0.9005604118364431,0.8769298452935508,0.8439124660722069,0.5783707791200287,0.5439825700132491,0.0429680306011529,0.0429680306011529,0.0429680306011529,0.0429680306011529,0.0429680306011529,18.37292374085268,18.37292374085268,18.37292374085268,18.37292374085268,18.37292374085268,E-W,0.0002384185791015,14.141,N-S,0.0002384185791015,17.457
19970111145000.knt,MYZ0179701111450.UD,1997-01-11, 14:50:00,31.571,131.915,26,5.0,MYZ017,31.4637,131.2277,6.0,1997-01-11, 14:51:34,100Hz,59,U-D,0.0002384185791015,10.785,66.23367903569236,1408,1408.0,22.986409813141545,0.5032312182077523,0.5079291903907521,0.5109497136172554,0.4585708199257394,0.4519492759058777,0.0198736787254004,0.0198736787254004,0.0198736787254004,0.0198736787254004,0.0198736787254004,10.800613179699528,10.800613179699528,10.800613179699528,10.800613179699528,10.800613179699528,E-W,0.0002384185791015,11.019,N-S,0.0002384185791015,16.792
19970111145000.knt,MYZ0189701111450.UD,1997-01-11, 14:50:00,31.571,131.915,26,5.0,MYZ018,31.3985,131.3052,12.0,1997-01-11, 14:51:43,100Hz,59,U-D,0.0002384185791015,4.115,60.92232623813685,439,370.0,27.923756335707584,5.4293289634644,4.188739669242949,3.134388503051623,3.279624148701591,4.966397254596307,0.0592695114612489,0.0498220134560201,0.0456074414323641,0.0456074414323641,0.0456074414323641,2.703845688174239,2.703845688174239,2.703845688174239,1.8503860086593036,1.389136675254837,E-W,0.0002384185791015,8.427,N-S,0.0002384185791015,10.804
19970111145000.knt,MYZ0209701111450.UD,1997-01-11, 14:50:00,31.571,131.915,26,5.0,MYZ020,32.455,131.147,612.0,1997-01-11, 14:51:44,100Hz,59,U-D,0.0002384185791015,1.02,122.08719645850957,1244,318.0,24.247338686717224,1.1505181334139918,1.13443055780663,1.138022871011862,1.1502741050237872,1.7447636716664237,0.0050682042691959,0.0050682042691959,0.0050682042691959,0.0050682042691959,0.0050682042691959,1.0155208828125004,1.0155208828125004,1.0155208828125004,1.0155208828125004,0.7159870003820298,E-W,0.0002384185791015,3.984,N-S,0.0002384185791015,2.789
19970114155300.knt,KNG0019701141553.UD,1997-01-14, 15:53:00,35.62,139.547,30,3.6,KNG001,35.5291,139.7062,2.0,1997-01-14, 15:54:56,100Hz,59,U-D,0.0002384185791015,3.94,17.591876246447196,931,413.0,15.967639997079196,7.711492191135225,7.246393319613093,7.854963556563326,10.16465516246837,11.90140709090516,0.0305918622502925,0.0305918622502925,0.0305918622502925,0.0305918622502925,0.0305918622502925,3.758521984409241,3.758521984409241,3.758521984409241,3.758521984409241,3.758521984409241,E-W,0.0002384185791015,7.062,N-S,0.0002384185791015,6.053
19970114155300.knt,SIT0099701141553.UD,1997-01-14, 15:53:00,35.62,139.547,30,3.6,SIT009,35.9032,139.4837,22.0,1997-01-14, 15:54:59,100Hz,59,U-D,0.0002384185791015,2.883,32.00417243544238,792,714.0,16.68377099657464,2.179825229795333,2.3381764577394524,2.122284764435224,1.760844082700379,1.3296009503368489,0.0042319751112476,0.0042319751112476,0.0042319751112476,0.0040188417778373,0.0021985874243931,2.010628982709365,2.010628982709365,2.010628982709365,2.010628982709365,1.6946529983802152,E-W,0.0002384185791015,5.517,N-S,0.0002384185791015,4.273
19970114155300.knt,SIT0109701141553.UD,1997-01-14, 15:53:00,35.62,139.547,30,3.6,SIT010,35.9065,139.6481,13.0,1997-01-14, 15:54:59,100Hz,59,U-D,0.0002384185791015,1.309,33.1376171429221,831,831.0,20.51421146881073,6.118863476007524,6.581992588944517,6.397794560870179,5.633223405524061,4.438464533676584,0.0054225953569828,0.0054225953569828,0.0054225953569828,0.0054225953569828,0.0050725202175204,1.2966390226133264,1.2966390226133264,1.2966390226133264,1.2966390226133264,1.2966390226133264,E-W,0.0002384185791015,2.183,N-S,0.0002384185791015,1.569
19970114155300.knt,TKY0029701141553.UD,1997-01-14, 15:53:00,35.62,139.547,30,3.6,TKY002,35.7304,139.1454,302.0,1997-01-14, 15:54:58,100Hz,59,U-D,0.0002384185791015,2.755,38.2963865153157,866,871.0000000000001,26.325509462812757,3.4799534100688096,3.6000783859204666,3.0198292700530422,2.3367721546057947,3.03867486087966,0.0032366582129951,0.0032366582129951,0.0032284852613207,0.0028243842387986,0.0028243842387986,1.267071055521412,1.267071055521412,1.267071055521412,1.267071055521412,1.267071055521412,E-W,0.0002384185791015,6.741,N-S,0.0002384185791015,5.588
19970114155300.knt,TKY0049701141553.UD,1997-01-14, 15:53:00,35.62,139.547,30,3.6,TKY004,35.6282,139.4034,81.0,1997-01-14, 15:54:54,100Hz,59,U-D,0.0002384185791015,7.345,13.011336170516756,1078,1078.0,23.90771989831976,1.1026549338193083,1.6702425592173742,2.076837861586346,2.0624916265868776,1.8633953735187423,0.0113147770885889,0.0113147770885889,0.0113147770885889,0.0113147770885889,0.0113147770885889,7.260194597928844,6.111481808675541,6.084238023955313,6.084238023955313,6.084238023955313,E-W,0.0002384185791015,29.655,N-S,0.0002384185791015,18.555
