earthquake name,records name,earthquake date,earthquake time,lat,long,depth,mag,stn_code,stn_lat,stn_long,stn_height,rcd_date,rcd_time,frequency,rcd_duration,direction,scale_factor,max_pga,epi_dist,pick_index_manually,pick_index_kalkan,snr_db_kalkan,tc_5sec,tc_4sec,tc_3sec,tc_2sec,tc_1sec,Pd_5sec,Pd_4sec,Pd_3sec,Pd_2sec,Pd_1sec,Pga_5sec,Pga_4sec,Pga_3sec,Pga_2sec,Pga_1sec,Channel,Scale_factor,PGA_ew,Channel.1,Scale_factor.1,PGA_ns
20010106114800.knt,NGN0170101061148.UD,2001-01-06, 11:48:00,35.378,137.095,48.0,4.6,NGN017,35.9748,137.8255,927.0,2001-01-06, 11:48:33,100Hz,119.0,U-D,0.0002384185791015,4.246,93.58142138298454,1033.0,1052.0,28.907184647959912,4.760104117182811,4.712167460999162,4.272683188443199,3.727581481958084,2.6184295567775275,0.0155006875256671,0.0155006875256671,0.0152647930850815,0.0131444072783736,0.0090268340762056,2.748838836405306,2.748838836405306,2.748838836405306,2.748838836405306,2.748838836405306,E-W,0.0002384185791015,9.604,N-S,0.0002384185791015,15.305
20010106114800.knt,NGN0180101061148.UD,2001-01-06, 11:48:00,35.378,137.095,48.0,4.6,NGN018,35.8132,137.5295,1050.0,2001-01-06, 11:48:25,100Hz,119.0,U-D,0.0002384185791015,9.049,62.331325010168285,1447.0,1446.0,37.516839673443016,0.4765593107453825,0.4719493303294124,0.4808851322134611,0.4864437264188658,0.5177108653274977,0.0091437581561267,0.0091437581561267,0.0091437581561267,0.0091437581561267,0.0091437581561267,6.812010217305526,6.812010217305526,6.812010217305526,6.812010217305526,6.812010217305526,E-W,0.0002384185791015,22.508,N-S,0.0002384185791015,14.069
20010106114800.knt,NGN0200101061148.UD,2001-01-06, 11:48:00,35.378,137.095,48.0,4.6,NGN020,35.8282,137.9532,636.0,2001-01-06, 11:48:40,100Hz,119.0,U-D,0.0002384185791015,3.013,92.33612261305032,340.0,354.0,25.82451659541183,4.725623058509783,4.778667148536933,5.138288648315382,6.002514426699551,6.329885403714831,0.0228367238471433,0.0228367238471433,0.0228367238471433,0.0228367238471433,0.0228367238471433,1.884864391057043,1.884864391057043,1.884864391057043,1.5986871286731332,1.5986871286731332,E-W,0.0002384185791015,7.633,N-S,0.0002384185791015,7.266
20010106114800.knt,NGN0210101061148.UD,2001-01-06, 11:48:00,35.378,137.095,48.0,4.6,NGN021,35.7304,137.9341,679.0,2001-01-06, 11:48:39,100Hz,119.0,U-D,0.0002384185791015,1.99,85.42550597410815,343.0,354.0,26.11934063859481,3.626181276248584,3.554316915616082,3.6646715258493088,4.184601495111445,4.396382047053654,0.0133055161462515,0.0133055161462515,0.0133055161462515,0.0133055161462515,0.0133055161462515,1.0182397946290065,1.0182397946290065,1.0182397946290065,1.0182397946290065,1.0182397946290065,E-W,0.0002384185791015,6.698,N-S,0.0002384185791015,6.577
20010106114800.knt,NGN0220101061148.UD,2001-01-06, 11:48:00,35.378,137.095,48.0,4.6,NGN022,35.6079,137.6125,451.0,2001-01-06, 11:48:24,100Hz,119.0,U-D,0.0002384185791015,10.286,53.37146544319293,1434.0,1443.0,32.940554059716206,1.843200917510556,1.8487840367797268,1.54477573664338,0.920961985427768,0.6857787257973861,0.0149453858805411,0.0149453858805411,0.014583884096028,0.0104658088277708,0.0104658088277708,10.241136491277684,10.241136491277684,10.241136491277684,10.241136491277684,10.241136491277684,E-W,0.0002384185791015,26.261,N-S,0.0002384185791015,21.184
20010106114800.knt,NGN0250101061148.UD,2001-01-06, 11:48:00,35.378,137.095,48.0,4.6,NGN025,35.2807,137.8567,400.0,2001-01-06, 11:48:33,100Hz,119.0,U-D,0.0002384185791015,5.314,69.94116586150133,724.0,659.0,22.71829590139121,19.910007483229837,19.83981906566441,19.0368668070074,15.36300691973225,10.74286607964992,0.0559954223308531,0.0559954223308531,0.0559954223308531,0.0544426517785311,0.0502950270855543,2.377943215195715,2.377943215195715,2.281760868251136,2.281760868251136,2.0386481715513685,E-W,0.0002384185791015,15.731,N-S,0.0002384185791015,16.029
20010106114800.knt,SIG0010101061148.UD,2001-01-06, 11:48:00,35.378,137.095,48.0,4.6,SIG001,35.5398,136.2065,141.0,2001-01-06, 11:48:29,100Hz,120.0,U-D,0.0002384185791015,6.508,82.45936078247827,1361.0,1376.0,20.37659449352018,6.268387749731877,5.732627051027055,4.495417849502724,2.466501987926341,1.0163941001381935,0.0313917115551757,0.0313917115551757,0.0294935766771475,0.0228997436184387,0.0086802044223845,6.518508694100777,6.518508694100777,6.518508694100777,6.518508694100777,6.518508694100777,E-W,0.0002384185791015,11.85,N-S,0.0002384185791015,8.389
20010106114800.knt,SIG0020101061148.UD,2001-01-06, 11:48:00,35.378,137.095,48.0,4.6,SIG002,35.4215,136.0243,95.0,2001-01-06, 11:48:31,100Hz,119.0,U-D,0.0002384185791015,7.001,97.16647649096711,1351.0,1409.0,21.4167690687502,0.9621500162412088,0.8705921185069544,0.7731631600279089,0.6832126437695367,0.7978525473027278,0.0084389544627135,0.0084389544627135,0.0084389544627135,0.0084389544627135,0.0084389544627135,7.030311283400202,7.030311283400202,7.030311283400202,7.030311283400202,5.471478987731271,E-W,0.0002384185791015,14.607,N-S,0.0002384185791015,15.251
20010106114800.knt,SIG0030101061148.UD,2001-01-06, 11:48:00,35.378,137.095,48.0,4.6,SIG003,35.377,136.264,86.0,2001-01-06, 11:48:28,100Hz,120.0,U-D,0.0002384185791015,7.712,75.34111571901282,1385.0,1383.0,21.75574170030856,0.5620548338847106,0.5583867809056596,0.5410603460597224,0.5278020679948322,0.5350539858636782,0.0133734418432907,0.0133734418432907,0.0133734418432907,0.0133734418432907,0.0133734418432907,7.69263834704996,7.69263834704996,7.69263834704996,7.69263834704996,7.69263834704996,E-W,0.0002384185791015,8.709,N-S,0.0002384185791015,7.047
20010106114800.knt,SIG0040101061148.UD,2001-01-06, 11:48:00,35.378,137.095,48.0,4.6,SIG004,35.3476,135.9184,187.0,2001-01-06, 11:48:33,100Hz,119.0,U-D,0.0002384185791015,3.663,106.74684799652832,1311.0,526.0,15.231994390524214,4.66885140826476,4.693613567931226,4.796609076426994,5.181660196702587,5.479320952432793,0.0262272380464451,0.0262272380464451,0.0262272380464451,0.0262272380464451,0.0262272380464451,3.4252374025937247,3.4252374025937247,3.4252374025937247,3.4252374025937247,3.0809297169550227,E-W,0.0002384185791015,1.791,N-S,0.0002384185791015,5.32
20010106114800.knt,SIG0050101061148.UD,2001-01-06, 11:48:00,35.378,137.095,48.0,4.6,SIG005,35.2493,136.2421,93.0,2001-01-06, 11:48:39,100Hz,119.0,U-D,0.0002384185791015,3.779,78.69972066140343,310.0,325.0,29.107604639773864,1.122278967162863,1.136716304500351,1.2253520224335084,1.3619319845930875,1.4864555348998294,0.0119526546783884,0.0119526546783884,0.0119526546783884,0.0119526546783884,0.0119526546783884,1.624861962591137,1.624861962591137,1.624861962591137,1.3130557023603908,1.127600947261676,E-W,0.0002384185791015,7.223,N-S,0.0002384185791015,6.444
20010106114800.knt,SIG0080101061148.UD,2001-01-06, 11:48:00,35.378,137.095,48.0,4.6,SIG008,35.0701,136.2946,218.0,2001-01-06, 11:48:29,100Hz,119.0,U-D,0.0002384185791015,5.932,80.36217569015822,1337.0,1354.0,29.557043336562128,5.044452752939215,4.197636264953627,2.650795131092329,1.0626862888515585,0.6636248030610852,0.0370314642136022,0.0370314642136022,0.0279649246677038,0.014827688352523,0.0078010806340456,5.946930848233394,5.946930848233394,5.946930848233394,5.946930848233394,3.576515855422693,E-W,0.0002384185791015,17.972,N-S,0.0002384185791015,10.966
20010106114800.knt,SIG0090101061148.UD,2001-01-06, 11:48:00,35.378,137.095,48.0,4.6,SIG009,35.0051,136.0854,136.0,2001-01-06, 11:48:44,100Hz,119.0,U-D,0.0002384185791015,2.778,100.67850719803312,138.0,138.0,14.05675247563244,11.179314407475632,12.68068262900218,13.937110822104062,13.623326546338394,9.506234880121406,0.0548144041189107,0.0548144041189107,0.0548144041189107,0.0548144041189107,0.049825164269159,2.789180258867544,2.789180258867544,2.789180258867544,2.789180258867544,2.2874995946105443,E-W,0.0002384185791015,4.993,N-S,0.0002384185791015,4.68
20010106114800.knt,SIG0110101061148.UD,2001-01-06, 11:48:00,35.378,137.095,48.0,4.6,SIG011,34.8779,136.0587,283.0,2001-01-06, 11:48:45,100Hz,120.0,U-D,0.0002384185791015,2.572,109.4259983697011,119.0,154.0,6.616980034320676,13.292617888180718,15.65670137469711,18.064263623568543,15.893619330708724,9.765758180017182,0.1953638237477564,0.1953638237477564,0.1953638237477564,0.1953638237477564,0.1725833673914819,1.711306672176896,1.711306672176896,1.711306672176896,1.711306672176896,0.5487703030991904,E-W,0.0002384185791015,7.552,N-S,0.0002384185791015,6.115
20010106114800.knt,SIG0120101061148.UD,2001-01-06, 11:48:00,35.378,137.095,48.0,4.6,SIG012,34.9043,136.2307,230.0,2001-01-06, 11:48:42,100Hz,119.0,U-D,0.0002384185791015,1.705,94.6075337896762,207.0,238.0,21.593746167714404,6.829010843996615,7.18768743671891,8.294932635857185,8.984971028913646,13.77267057130675,0.0174036112654464,0.0174036112654464,0.0174036112654464,0.0174036112654464,0.0174036112654464,1.539066586579744,1.539066586579744,1.539066586579744,1.539066586579744,0.6002458305741999,E-W,0.0002384185791015,4.74,N-S,0.0002384185791015,3.933
20010106114800.knt,SZO0210101061148.UD,2001-01-06, 11:48:00,35.378,137.095,48.0,4.6,SZO021,35.0969,138.1332,441.0,2001-01-06, 11:48:43,100Hz,119.0,U-D,0.0002384185791015,1.308,99.33495425528936,75.0,74.0,10.914783290575404,3.812874059365386,3.26837922185691,2.3849420998986552,3.567594668163766,2.1455522875388384,0.0078750117781534,0.0078724201829482,0.006048820521236,0.006048820521236,0.0024421209833309,1.222783115076574,1.222783115076574,1.222783115076574,0.6941230117664915,0.4011906984602721,E-W,0.0002384185791015,7.034,N-S,0.0002384185791015,4.841
20010106114800.knt,SZO0220101061148.UD,2001-01-06, 11:48:00,35.378,137.095,48.0,4.6,SZO022,35.0916,137.8136,136.0,2001-01-06, 11:48:32,100Hz,119.0,U-D,0.0002384185791015,7.102,72.62061879754219,870.0,891.0,25.50819985368576,2.565216862396879,2.6836504905224694,2.886867901371976,3.187705697682899,4.075188984416024,0.0077205400881146,0.0077205400881146,0.0077205400881146,0.0077205400881146,0.0077205400881146,1.705027666075977,1.705027666075977,1.705027666075977,1.509729722890265,1.2273340239633337,E-W,0.0002384185791015,7.288,N-S,0.0002384185791015,6.637
20010106114800.knt,SZO0230101061148.UD,2001-01-06, 11:48:00,35.378,137.095,48.0,4.6,SZO023,34.8738,137.8164,46.0,2001-01-06, 11:48:41,100Hz,119.0,U-D,0.0002384185791015,2.595,86.29906856321655,150.0,186.0,21.699057082191544,6.294454858609995,7.124011084814001,8.209556822147047,10.91122887781586,11.891109385130031,0.0098503191053245,0.0098503191053245,0.0098503191053245,0.0098503191053245,0.0092507039601026,1.0698169478012507,1.0698169478012507,1.0698169478012507,0.6914835158472343,0.2902455607242111,E-W,0.0002384185791015,3.685,N-S,0.0002384185791015,4.546
20010106114800.knt,SZO0260101061148.UD,2001-01-06, 11:48:00,35.378,137.095,48.0,4.6,SZO026,34.9816,137.8975,133.0,2001-01-06, 11:48:39,100Hz,119.0,U-D,0.0002384185791015,2.578,85.21912697065042,350.0,364.0,8.400721313334929,9.8872933438083,8.983718560694165,9.53588174509184,12.136598435242256,18.22168694299912,0.1740820188179545,0.1740820188179545,0.1740820188179545,0.1740820188179545,0.1740820188179545,1.2168739115426233,1.2168739115426233,1.2168739115426233,1.2168739115426233,0.9914336183528764,E-W,0.0002384185791015,5.733,N-S,0.0002384185791015,9.062
20010106114800.knt,YMN0080101061148.UD,2001-01-06, 11:48:00,35.378,137.095,48.0,4.6,YMN008,35.432,138.3321,388.0,2001-01-06, 11:48:45,100Hz,119.0,U-D,0.0002384185791015,2.497,112.28133586620956,17.0,86.0,11.842268870406247,1.6566017724064213,1.3907030155853382,1.022697507086454,1.14718221201073,1.950205773423434,0.0030129718244216,0.0030129718244216,0.0023247482032214,0.001917908842509,0.0004986072493457,0.983976191833626,0.983976191833626,0.983976191833626,0.461468043925281,0.2330677420214745,E-W,0.0002384185791015,3.952,N-S,0.0002384185791015,5.696
20010107025600.knt,SMN0010101070256.UD,2001-01-07, 02:56:00,35.385,133.294,13.0,3.6,SMN001,35.5372,133.1612,2.0,2001-01-07, 02:56:19,100Hz,119.0,U-D,0.0002384185791015,3.203,20.762476001620463,1100.0,1100.0,28.099246921816544,2.0242218194684964,0.7178826924677421,0.4415893539181326,0.5450533161942007,0.6827402802537251,0.0108255664939246,0.0058359994799103,0.0011564345529508,0.0011283614426246,0.0011283614426246,3.227123882919818,3.227123882919818,1.7616998073146644,0.9591587430386704,0.9591587430386704,E-W,0.0002384185791015,10.851,N-S,0.0002384185791015,17.963
20010107025600.knt,SMN0020101070256.UD,2001-01-07, 02:56:00,35.385,133.294,13.0,3.6,SMN002,35.4714,133.0682,2.0,2001-01-07, 02:56:19,100Hz,119.0,U-D,0.0002384185791015,2.429,22.602344377529697,1127.0,1133.0,20.02652188038421,1.6402960610616533,1.6061528015677138,1.443667648882831,1.4904185803621544,1.504983017838735,0.0023720029993984,0.0023720029993984,0.0023720029993984,0.0023720029993984,0.0023720029993984,2.441939976441525,2.441939976441525,2.441939976441525,2.441939976441525,2.441939976441525,E-W,0.0002384185791015,2.259,N-S,0.0002384185791015,3.39
20010107025600.knt,SMN0150101070256.UD,2001-01-07, 02:56:00,35.385,133.294,13.0,3.6,SMN015,35.3644,133.1704,32.0,2001-01-07, 02:56:16,100Hz,119.0,U-D,0.0002384185791015,2.325,11.438088342290468,1238.0,1238.0,26.675453151972583,3.1556000731488867,2.451217278486489,1.098041625411082,0.5637782940839492,1.4532336835365072,0.0114336621446026,0.0113488616683952,0.0075023951150903,0.0013916053644215,0.0013916053644215,2.332826918094593,2.332826918094593,2.332826918094593,2.1543209215865167,1.1784650118458622,E-W,0.0002384185791015,7.719,N-S,0.0002384185791015,7.951
20010107025600.knt,TTR0070101070256.UD,2001-01-07, 02:56:00,35.385,133.294,13.0,3.6,TTR007,35.2826,133.4876,155.0,2001-01-07, 02:56:18,100Hz,119.0,U-D,0.0002384185791015,3.06,20.9301270581732,1194.0,1201.0,16.484805641129675,4.544486514265479,3.981779065218096,3.661274838640917,2.336639909073387,0.4879837361570021,0.0070593432806976,0.0070593432806976,0.0069871066079537,0.0052334952788902,0.0017892377767672,3.052184815021357,3.052184815021357,3.052184815021357,3.052184815021357,3.052184815021357,E-W,0.0002384185791015,5.967,N-S,0.0002384185791015,4.07
20010107025600.knt,TTR0080101070256.UD,2001-01-07, 02:56:00,35.385,133.294,13.0,3.6,TTR008,35.4258,133.3301,2.0,2001-01-07, 02:56:13,100Hz,119.0,U-D,0.0002384185791015,13.77,5.593469611766448,1445.0,1445.0,29.82869765510361,1.5412289759475857,1.546400961197537,1.38883156306415,1.0486878943414113,0.5658161213127744,0.028542149593796,0.028542149593796,0.0284116041677894,0.0153374507032201,0.0073269281472966,13.805986108563529,13.805986108563529,13.805986108563529,13.805986108563529,13.805986108563529,E-W,0.0002384185791015,15.614,N-S,0.0002384185791015,18.159
20010108011400.knt,OKN0110101080114.UD,2001-01-08, 01:14:00,24.461,123.75,10.0,3.6,OKN011,24.4324,123.7798,20.0,2001-01-08, 01:12:23,100Hz,195.0,U-D,0.0002384185791015,27.292,4.3832615124418615,1424.0,1421.0,41.637284541488,1.1875147304177616,1.1866605932997516,1.2251621728245612,1.2876008607241527,1.0834870754107957,0.0047409007881769,0.0047409007881769,0.0047409007881769,0.0047409007881769,0.0047409007881769,10.174195595871971,10.174195595871971,10.174195595871971,10.174195595871971,10.174195595871971,E-W,0.0002384185791015,15.353,N-S,0.0002384185791015,14.3
20010109133700.knt,EHM0010101091337.UD,2001-01-09, 13:37:00,33.588,132.365,50.0,4.6,EHM001,33.981,133.549,63.0,2001-01-09, 13:38:10,100Hz,119.0,U-D,0.0002384185791015,2.904,117.8252279005927,1371.0,1427.0,19.472676942293425,0.7195562691426932,0.5826092192000506,0.4443566605360964,0.3929260941548484,0.3758478668863696,0.0025517974868876,0.0025517974868876,0.0025517974868876,0.0025517974868876,0.0025517974868876,2.8931608075198088,2.8931608075198088,2.8931608075198088,2.8931608075198088,2.8931608075198088,E-W,0.0002384185791015,1.907,N-S,0.0002384185791015,2.116
20010109133700.knt,EHM0020101091337.UD,2001-01-09, 13:37:00,33.588,132.365,50.0,4.6,EHM002,33.9216,133.3074,19.0,2001-01-09, 13:38:19,100Hz,119.0,U-D,0.0002384185791015,1.891,94.69243634905386,176.0,190.0,14.975801212264692,9.029622470707944,9.846815606908256,11.265678904573118,11.753092998332423,9.593134558713368,0.0203058060173599,0.0203058060173599,0.0203058060173599,0.0203058060173599,0.019082457452625,1.6127935662002666,1.6127935662002666,1.6127935662002666,1.6127935662002666,1.6127935662002666,E-W,0.0002384185791015,4.086,N-S,0.0002384185791015,4.06
20010109133700.knt,EHM0030101091337.UD,2001-01-09, 13:37:00,33.588,132.365,50.0,4.6,EHM003,33.9266,133.0843,4.0,2001-01-09, 13:38:05,100Hz,119.0,U-D,0.0002384185791015,3.326,76.41609360444929,1390.0,108.0,16.98862863545148,0.4895877480610037,0.5025461297887936,0.4951392507507279,0.5042953385824784,0.5471725241002557,0.0071597021088972,0.0071597021088972,0.0071597021088972,0.0071597021088972,0.0071597021088972,3.320211115182282,3.320211115182282,3.320211115182282,3.320211115182282,3.320211115182282,E-W,0.0002384185791015,9.74,N-S,0.0002384185791015,14.593
20010109133700.knt,EHM0040101091337.UD,2001-01-09, 13:37:00,33.588,132.365,50.0,4.6,EHM004,34.0624,132.9982,3.0,2001-01-09, 13:38:05,100Hz,119.0,U-D,0.0002384185791015,5.709,78.76435429953779,1414.0,1410.0,23.88272796868197,0.6094557444267505,0.5431390044630032,0.4778358103396957,0.4793799491769376,0.4613676062673999,0.006734846058998,0.006734846058998,0.006734846058998,0.006734846058998,0.006734846058998,5.778734796554542,5.778734796554542,5.778734796554542,5.778734796554542,5.778734796554542,E-W,0.0002384185791015,8.264,N-S,0.0002384185791015,9.067
20010109133700.knt,EHM0050101091337.UD,2001-01-09, 13:37:00,33.588,132.365,50.0,4.6,EHM005,33.7974,132.9141,136.0,2001-01-09, 13:38:02,100Hz,119.0,U-D,0.0002384185791015,5.486,55.88281243623143,1433.0,1450.0,27.285064226901618,0.5525505381644819,0.544580074189702,0.4699976592691338,0.4382591014350324,0.4321109827916533,0.0044093990607067,0.0044093990607067,0.0044093990607067,0.0044093990607067,0.0044093990607067,5.516639680857773,5.516639680857773,5.516639680857773,5.516639680857773,5.516639680857773,E-W,0.0002384185791015,6.936,N-S,0.0002384185791015,8.177
20010109133700.knt,EHM0060101091337.UD,2001-01-09, 13:37:00,33.588,132.365,50.0,4.6,EHM006,33.641,133.0082,552.0,2001-01-09, 13:38:12,100Hz,119.0,U-D,0.0002384185791015,2.623,59.85174012459661,473.0,471.0,27.368562626671512,2.047543493468477,1.87398694017386,1.4378145973573933,0.912670160283605,0.8593459415773099,0.0062841215124745,0.0062841215124745,0.0062841215124745,0.0055963583502191,0.0055963583502191,1.7540594913989769,1.7540594913989769,1.7540594913989769,1.7540594913989769,1.5425354274262413,E-W,0.0002384185791015,9.981,N-S,0.0002384185791015,13.935
20010109133700.knt,EHM0070101091337.UD,2001-01-09, 13:37:00,33.588,132.365,50.0,4.6,EHM007,33.9621,132.7722,1.0,2001-01-09, 13:38:02,100Hz,119.0,U-D,0.0002384185791015,9.745,56.09730183708037,1433.0,754.0,20.289842821260343,0.3909158727994117,0.3934789187672853,0.4089534433178141,0.3812341481653612,0.3645249851445727,0.0027926858923951,0.0027926858923951,0.0027926858923951,0.0027926858923951,0.0027926858923951,5.210515998733389,5.210515998733389,5.210515998733389,5.210515998733389,5.210515998733389,E-W,0.0002384185791015,44.438,N-S,0.0002384185791015,49.92
20010109133700.knt,EHM0080101091337.UD,2001-01-09, 13:37:00,33.588,132.365,50.0,4.6,EHM008,33.8199,132.728,10.0,2001-01-09, 13:38:08,100Hz,119.0,U-D,0.0002384185791015,6.597,42.337743015298265,692.0,712.0,21.12620205590548,1.0987404006543344,1.1389305920265025,1.0155961278849488,0.7190851082032855,0.8506286995987591,0.0058653866753143,0.0058653866753143,0.0058653866753143,0.0047955291388301,0.0047955291388301,6.612091678578945,6.612091678578945,6.612091678578945,6.612091678578945,4.986635341150386,E-W,0.0002384185791015,21.562,N-S,0.0002384185791015,14.446
