earthquake name,records name,earthquake date,earthquake time,lat,long,depth,mag,stn_code,stn_lat,stn_long,stn_height,rcd_date,rcd_time,frequency,rcd_duration,direction,scale_factor,max_pga,epi_dist,pick_index_manually,pick_index_kalkan,snr_db_kalkan,tc_5sec,tc_4sec,tc_3sec,tc_2sec,tc_1sec,Pd_5sec,Pd_4sec,Pd_3sec,Pd_2sec,Pd_1sec,Pga_5sec,Pga_4sec,Pga_3sec,Pga_2sec,Pga_1sec,Channel,Scale_factor,PGA_ew,Channel.1,Scale_factor.1,PGA_ns
19960602204500.knt,FKS0309606022045.UD,1996-06-02, 20:45:00,37.053,139.347,12,4.3,FKS030,37.453,139.5133,360,1996-06-02, 20:46:43,100Hz,59,U-D,0.0002384185791015,2.91,46.8501031646588,1368,1362.0,24.624549282608147,1.9260111183342488,1.9032531400362809,1.348435779528082,0.7046742021578154,0.5925444742269673,0.0046213525203557,0.0046213525203557,0.0041377229731371,0.0030498232489676,0.0030498232489676,1.9473752357053316,1.9473752357053316,1.9473752357053316,1.9473752357053316,1.432672365392616,E-W,0.0002384185791015,5.182,N-S,0.0002384185791015,8.676
19960602204500.knt,GNM0019606022045.UD,1996-06-02, 20:45:00,37.053,139.347,12,4.3,GNM001,36.7722,139.2248,810,1996-06-02, 20:46:40,100Hz,59,U-D,0.0002384185791015,9.601,33.05967821410547,1387,1397.0,33.919234447044595,2.098532520921632,2.3643980118104544,1.9930529846396396,1.2420632612218452,0.4576000541949296,0.011219935941814,0.0108792598609846,0.0096496821743893,0.0077142708010616,0.003291002530168,8.567925051545132,6.272680296961168,6.272680296961168,6.272680296961168,6.272680296961168,E-W,0.0002384185791015,12.301,N-S,0.0002384185791015,16.885
19960602204500.knt,GNM0049606022045.UD,1996-06-02, 20:45:00,37.053,139.347,12,4.3,GNM004,36.6172,138.5918,1222,1996-06-02, 20:46:59,100Hz,59,U-D,0.0002384185791015,1.32,82.85751591925566,391,405.0,20.04173948258055,2.5905914702732606,2.665513244595451,2.809924136131053,1.5981443503656263,0.4869211147237329,0.0029196523836604,0.0029196523836604,0.0029196523836604,0.0020524155062394,0.000581489001175,0.6983650246946221,0.6983650246946221,0.6983650246946221,0.6983650246946221,0.6983650246946221,E-W,0.0002384185791015,4.093,N-S,0.0002384185791015,4.155
19960602204500.knt,GNM0059606022045.UD,1996-06-02, 20:45:00,37.053,139.347,12,4.3,GNM005,36.5133,138.5177,900,1996-06-02, 20:46:03,100Hz,59,U-D,0.0002384185791015,1.12,95.16209651981428,220,220.00000000000003,20.59327334528902,6.780772714215015,6.273095096587632,6.66639955756601,7.701694093108379,10.5512129723124,0.0081637789925041,0.0081637789925041,0.0081637789925041,0.0081637789925041,0.0081637789925041,0.5137987405516438,0.5137987405516438,0.5137987405516438,0.5137987405516438,0.5029212709483941,E-W,0.0002384185791015,3.038,N-S,0.0002384185791015,3.12
19960602204500.knt,GNM0099606022045.UD,1996-06-02, 20:45:00,37.053,139.347,12,4.3,GNM009,36.4106,139.3251,114,1996-06-02, 20:46:55,100Hz,59,U-D,0.0002384185791015,1.988,71.45827661244229,555,558.0,18.264515910193417,6.865487876234621,5.561507454235488,4.03819385213326,2.4355818193147365,1.6204313870218188,0.0066362943383867,0.0062740488458034,0.0055906200027016,0.0038392276133968,0.0035076985498414,1.9916969105990432,1.9916969105990432,1.9916969105990432,1.9916969105990432,1.9916969105990432,E-W,0.0002384185791015,3.477,N-S,0.0002384185791015,3.681
19960602204500.knt,IBR0049606022045.UD,1996-06-02, 20:45:00,37.053,139.347,12,4.3,IBR004,36.5273,140.4094,51,1996-06-02, 20:46:06,100Hz,59,U-D,0.0002384185791015,2.032,111.20665644373976,70,99.0,18.326139628714404,5.954025835229934,5.699611189414609,4.810299155704909,3.802806210877928,2.3773535562430186,0.0080936399853423,0.0080936399853423,0.0080936399853423,0.0080801180361214,0.0057874029508124,1.6975914130908647,1.6975914130908647,1.6975914130908647,1.6975914130908647,1.6975914130908647,E-W,0.0002384185791015,5.026,N-S,0.0002384185791015,6.738
19960602204500.knt,NIG0119606022045.UD,1996-06-02, 20:45:00,37.053,139.347,12,4.3,NIG011,37.8013,139.1442,7,1996-06-02, 20:46:01,100Hz,59,U-D,0.0002384185791015,0.74,85.11233412651335,300,296.0,28.666293067353998,2.683562960504496,2.2725659108130567,2.575833180466216,3.881569766888929,6.069923103866175,0.0025832924176135,0.0025832924176135,0.0025832924176135,0.0025832924176135,0.0025832924176135,0.1951301338852096,0.1951301338852096,0.1951301338852096,0.1601917671532335,0.1601917671532335,E-W,0.0002384185791015,2.624,N-S,0.0002384185791015,1.895
19960602204500.knt,NIG0199606022045.UD,1996-06-02, 20:45:00,37.053,139.347,12,4.3,NIG019,37.3057,138.7898,52,1996-06-02, 20:46:53,100Hz,59,U-D,0.0002384185791015,1.862,56.80151534610161,617,617.0,30.709806943800736,1.2851326958046918,1.1634311731203535,1.131186623243669,0.937864029180452,0.7695881618741678,0.0062528845869632,0.0062528845869632,0.0062528845869632,0.0062528845869632,0.0062528845869632,1.8496617220040164,1.8496617220040164,1.8496617220040164,1.8496617220040164,1.8496617220040164,E-W,0.0002384185791015,3.319,N-S,0.0002384185791015,5.049
19960602204500.knt,NIG0219606022045.UD,1996-06-02, 20:45:00,37.053,139.347,12,4.3,NIG021,37.1281,138.7468,147,1996-06-02, 20:46:52,100Hz,59,U-D,0.0002384185791015,1.575,53.88762101519488,677,670.0,25.44721292178177,3.872837456625271,4.043406739648489,4.325577211596421,4.99277406339869,4.377324025875582,0.0070560730471931,0.0070560730471931,0.0070560730471931,0.0070560730471931,0.0070560730471931,1.5773879918376323,1.5773879918376323,1.5773879918376323,1.5773879918376323,1.5773879918376323,E-W,0.0002384185791015,3.664,N-S,0.0002384185791015,2.331
19960602204500.knt,NIG0229606022045.UD,1996-06-02, 20:45:00,37.053,139.347,12,4.3,NIG022,37.0364,138.8462,182,1996-06-02, 20:46:48,100Hz,59,U-D,0.0002384185791015,3.235,44.48525235303216,824,830.0000000000001,29.351881108434675,9.41588827500701,9.744947346469363,10.123647903259696,7.535687709977855,4.931146579140802,0.0218351369547402,0.0218351369547402,0.0218351369547402,0.0197024950410341,0.0138856429201737,2.4272130445349527,1.8756343071256327,1.478374976083682,1.478374976083682,1.3010787929639458,E-W,0.0002384185791015,5.704,N-S,0.0002384185791015,7.411
19960602204500.knt,NIG0239606022045.UD,1996-06-02, 20:45:00,37.053,139.347,12,4.3,NIG023,37.0147,138.6529,241,1996-06-02, 20:46:54,100Hz,59,U-D,0.0002384185791015,0.887,61.758428999435615,570,581.0,24.550028692978167,1.1953664753909066,1.1260844942365007,1.5653641529368054,1.330125951397234,0.7884418154722475,0.0017494221532705,0.0017494221532705,0.0017494221532705,0.0016186065232795,0.0015454905475367,0.8058258698337172,0.8058258698337172,0.3063214502308554,0.3063214502308554,0.3063214502308554,E-W,0.0002384185791015,4.544,N-S,0.0002384185791015,4.563
19960602204500.knt,NIG0249606022045.UD,1996-06-02, 20:45:00,37.053,139.347,12,4.3,NIG024,37.1268,138.444,80,1996-06-02, 20:46:01,100Hz,59,U-D,0.0002384185791015,1.042,80.51426635599067,219,251.00000000000003,15.487927051590397,1.781602598512114,1.7122242886043724,1.755861933110714,1.8350165684643005,1.569156649126091,0.0049139970277826,0.0049139970277826,0.0049139970277826,0.0049139970277826,0.0049139970277826,1.0450663038406929,1.0450663038406929,1.0450663038406929,1.0450663038406929,1.0450663038406929,E-W,0.0002384185791015,3.152,N-S,0.0002384185791015,1.945
19960602204500.knt,TCG0039606022045.UD,1996-06-02, 20:45:00,37.053,139.347,12,4.3,TCG003,36.8144,139.7153,398,1996-06-02, 20:46:41,100Hz,59,U-D,0.0002384185791015,1.523,42.13645004610412,1433,1434.0,22.03149932653803,1.3863644061312848,1.3988079041774877,1.4294121102032935,1.4712743952230545,1.389118152791985,0.0031160661440359,0.0031160661440359,0.0031160661440359,0.0031160661440359,0.0031160661440359,1.5136500171756069,1.5136500171756069,1.5136500171756069,1.5136500171756069,1.5136500171756069,E-W,0.0002384185791015,4.923,N-S,0.0002384185791015,4.859
19960602204500.knt,TCG0049606022045.UD,1996-06-02, 20:45:00,37.053,139.347,12,4.3,TCG004,36.8061,139.4204,1490,1996-06-02, 20:46:39,100Hz,59,U-D,0.0002384185791015,23.004,28.21860135604261,1404,1431.0,24.7581732541267,0.3463071925923269,0.2227134078828172,0.4482184990131123,0.4639753690050479,0.3365415083523912,0.0157010962776431,0.0052789593459333,0.0036949674245358,0.0036949674245358,0.0025265773525832,23.009969121980507,23.009969121980507,7.974476762483924,7.974476762483924,7.974476762483924,E-W,0.0002384185791015,18.292,N-S,0.0002384185791015,22.788
19960602204500.knt,TCG0059606022045.UD,1996-06-02, 20:45:00,37.053,139.347,12,4.3,TCG005,36.8061,139.9264,197,1996-06-02, 20:46:46,100Hz,59,U-D,0.0002384185791015,2.924,58.3612600282077,1252,1275.0,23.522361649369252,2.366348132686619,2.1161884150286108,1.533725104945297,1.0096590291311596,0.6934986292913597,0.0069135674407822,0.0069135674407822,0.0048503987044162,0.0043699273693918,0.0043179764693506,2.9250308566406003,2.9250308566406003,2.9250308566406003,2.9250308566406003,2.9250308566406003,E-W,0.0002384185791015,3.878,N-S,0.0002384185791015,5.141
19960602204500.knt,TCG0089606022045.UD,1996-06-02, 20:45:00,37.053,139.347,12,4.3,TCG008,36.56,139.7675,153,1996-06-02, 20:46:46,100Hz,59,U-D,0.0002384185791015,3.047,66.38250209716846,1349,1371.0,23.601702341166597,0.6065633631685536,0.483674029294643,0.4869208669610499,0.4734791010737339,0.4704726269940578,0.0028845514293333,0.0028845514293333,0.0028845514293333,0.0028845514293333,0.0028845514293333,3.0509583180611397,3.0509583180611397,3.0509583180611397,3.0509583180611397,3.0509583180611397,E-W,0.0002384185791015,1.616,N-S,0.0002384185791015,1.934
19960602204500.knt,TCG0099606022045.UD,1996-06-02, 20:45:00,37.053,139.347,12,4.3,TCG009,36.7258,139.7155,361,1996-06-02, 20:46:42,100Hz,59,U-D,0.0002384185791015,6.312,48.966407822872725,1457,1471.0,29.26429368914,0.3345448266670437,0.3313247080018516,0.3109851392264681,0.2710528153848037,0.2980596271819583,0.0057108398023347,0.0057108398023347,0.0045253104743488,0.0045253104743488,0.0045253104743488,4.983742667537445,4.983742667537445,4.448079353606301,4.448079353606301,4.448079353606301,E-W,0.0002384185791015,22.16,N-S,0.0002384185791015,8.263
19960602204500.knt,TCG0139606022045.UD,1996-06-02, 20:45:00,37.053,139.347,12,4.3,TCG013,36.4368,140.0225,67,1996-06-02, 20:46:50,100Hz,59,U-D,0.0002384185791015,3.874,91.19888221723978,1372,1390.0,22.69178246741038,0.4578310361340302,0.4541619018177478,0.4447606254055191,0.4097395956927913,0.3912660114335608,0.0015387557401031,0.0015387557401031,0.0015387557401031,0.0015387557401031,0.0015387557401031,3.849017980884755,3.849017980884755,3.849017980884755,3.849017980884755,3.849017980884755,E-W,0.0002384185791015,1.608,N-S,0.0002384185791015,1.882
19960602204500.knt,TCG0149606022045.UD,1996-06-02, 20:45:00,37.053,139.347,12,4.3,TCG014,36.545,140.1742,130,1996-06-02, 20:46:01,100Hz,59,U-D,0.0002384185791015,2.55,92.8189553234204,287,286.0,28.70477373140591,3.4002993892896862,2.62090514653236,2.3194872130922275,2.712488254863182,3.537075025325388,0.0067096835089164,0.0057521368443966,0.0057521368443966,0.0057521368443966,0.0057521368443966,1.483103263907848,1.483103263907848,1.483103263907848,1.483103263907848,1.483103263907848,E-W,0.0002384185791015,2.535,N-S,0.0002384185791015,4.202
19960603021800.knt,CHB0029606030218.UD,1996-06-03, 02:18:00,36.353,140.647,61,3.7,CHB002,35.7868,139.9031,14,1996-06-03, 02:18:40,100Hz,59,U-D,0.0002384185791015,2.396,91.83700331785144,183,178.0,25.132938057882605,3.7534909236140255,3.8167283637389526,3.79745074105825,3.264737096268674,2.0638360334305057,0.0043387771982209,0.0043387771982209,0.0043387771982209,0.0043387771982209,0.0026691250129498,0.9428051886808638,0.9428051886808638,0.9428051886808638,0.9428051886808638,0.9428051886808638,E-W,0.0002384185791015,4.861,N-S,0.0002384185791015,6.5
19960603021800.knt,CHB0079606030218.UD,1996-06-03, 02:18:00,36.353,140.647,61,3.7,CHB007,35.7234,140.2267,24,1996-06-03, 02:18:38,100Hz,59,U-D,0.0002384185791015,1.292,79.55693793427479,227,223.0,21.92003419064337,11.15114647129538,12.186730900072073,16.063379057292785,23.985067029082508,29.4267149534873,0.0189456096232212,0.0189456096232212,0.0189456096232212,0.0189456096232212,0.0189456096232212,0.6355117201060617,0.5367521726165828,0.5367521726165828,0.5367521726165828,0.4773466766918608,E-W,0.0002384185791015,2.572,N-S,0.0002384185791015,3.269
19960603021800.knt,FKS0099606030218.UD,1996-06-03, 02:18:00,36.353,140.647,61,3.7,FKS009,37.2778,140.6349,440,1996-06-03, 02:18:42,100Hz,59,U-D,0.0002384185791015,3.005,102.83870894781504,119,129.0,23.647967488268318,7.401072434777633,8.261791881092249,9.475682656312756,8.78515167873392,6.266506979980157,0.0049369063359475,0.0049369063359475,0.0049369063359475,0.0048771395651205,0.0038344013989167,0.9259141535119676,0.9259141535119676,0.9259141535119676,0.9259141535119676,0.9259141535119676,E-W,0.0002384185791015,4.386,N-S,0.0002384185791015,6.543
19960603021800.knt,FKS0119606030218.UD,1996-06-03, 02:18:00,36.353,140.647,61,3.7,FKS011,37.0911,140.9035,165,1996-06-03, 02:18:38,100Hz,59,U-D,0.0002384185791015,2.367,85.19737009527955,263,269.0,19.395882860006274,12.718615174053811,14.071055484762008,18.547818381454505,28.8413178115078,40.47798770286536,0.0379226156563378,0.0379226156563378,0.0379226156563378,0.0379226156563378,0.0379226156563378,1.7595513074427418,1.7595513074427418,1.7595513074427418,1.7595513074427418,1.7595513074427418,E-W,0.0002384185791015,2.735,N-S,0.0002384185791015,2.773
19960603021800.knt,IBR0019606030218.UD,1996-06-03, 02:18:00,36.353,140.647,61,3.7,IBR001,36.7761,140.3569,105,1996-06-03, 02:18:32,100Hz,59,U-D,0.0002384185791015,5.351,53.70886798227352,585,592.0,23.893280569648283,11.183973578004586,9.518024847068894,7.0471949380893175,4.371379219659935,1.7164650344578998,0.0263764517091532,0.0257093496793846,0.0230858315238218,0.0179097360395167,0.0081404018256889,2.893297386132191,2.893297386132191,2.893297386132191,2.893297386132191,2.6670901636971287,E-W,0.0002384185791015,7.665,N-S,0.0002384185791015,7.805
19960603021800.knt,IBR0029606030218.UD,1996-06-03, 02:18:00,36.353,140.647,61,3.7,IBR002,36.7061,140.7068,9,1996-06-03, 02:18:31,100Hz,299,U-D,0.0002384185791015,4.247,39.62482549239577,562,565.0,24.755800084612577,7.580832130161592,6.828630271684253,5.578541240766159,4.1096728472239885,1.8534911118035884,0.0101211257963318,0.0101211257963318,0.0099398538747143,0.0087877294887498,0.0052945498217211,1.95726853960842,1.95726853960842,1.95726853960842,1.95726853960842,1.95726853960842,E-W,0.0002384185791015,10.09,N-S,0.0002384185791015,8.999
19960603021800.knt,IBR0039606030218.UD,1996-06-03, 02:18:00,36.353,140.647,61,3.7,IBR003,36.5915,140.6453,58,1996-06-03, 02:18:21,100Hz,59,U-D,0.0002384185791015,23.371,26.520425644724373,1446,1453.0,33.41829132655798,0.9497226015022944,1.0301117809194351,1.1043050523566162,1.0018213448824558,0.59748934122091,0.0050082744133749,0.0050082744133749,0.0050082744133749,0.0050082744133749,0.0034873619749528,8.598432790591982,8.598432790591982,8.138106317733577,8.138106317733577,8.138106317733577,E-W,0.0002384185791015,57.467,N-S,0.0002384185791015,51.412
19960603021800.knt,IBR0049606030218.UD,1996-06-03, 02:18:00,36.353,140.647,61,3.7,IBR004,36.5273,140.4094,51,1996-06-03, 02:18:22,100Hz,59,U-D,0.0002384185791015,14.403,28.764129632317218,1396,1398.0,46.88944074658559,0.2726656013941969,0.2467981276417252,0.2333511357423299,0.2353312887751179,0.2435921443178152,0.0029597445152855,0.0029597445152855,0.0029597445152855,0.0029597445152855,0.0029597445152855,11.142939405368674,11.142939405368674,11.142939405368674,11.142939405368674,11.142939405368674,E-W,0.0002384185791015,34.567,N-S,0.0002384185791015,24.91
19960603021800.knt,IBR0069606030218.UD,1996-06-03, 02:18:00,36.353,140.647,61,3.7,IBR006,36.369,140.4528,20,1996-06-03, 02:18:21,100Hz,59,U-D,0.0002384185791015,9.527,17.48040920957639,1429,1437.0,17.536408104830134,0.5393184713228848,0.3883477647698858,0.2585209154131095,0.2510976122790006,0.254509605714704,0.0046454995872257,0.0044700231844171,0.0044700231844171,0.0044700231844171,0.0044700231844171,9.56646039422397,9.56646039422397,9.56646039422397,9.56646039422397,9.56646039422397,E-W,0.0002384185791015,9.086,N-S,0.0002384185791015,15.318
19960603021800.knt,IBR0079606030218.UD,1996-06-03, 02:18:00,36.353,140.647,61,3.7,IBR007,36.3523,140.5955,24,1996-06-03, 02:18:21,100Hz,299,U-D,0.0002384185791015,20.537,4.612718982150946,1368,1368.0,39.03961225021332,0.1900708971033823,0.1903352038368268,0.1899742752266935,0.1857890731981657,0.1654722294967121,0.0093148429285415,0.0093148429285415,0.0093148429285415,0.0093148429285415,0.0093148429285415,20.482969350845003,20.482969350845003,20.482969350845003,20.482969350845003,20.482969350845003,E-W,0.0002384185791015,19.275,N-S,0.0002384185791015,18.446
19960603021800.knt,IBR0089606030218.UD,1996-06-03, 02:18:00,36.353,140.647,61,3.7,IBR008,36.3062,139.9828,20,1996-06-03, 02:18:36,100Hz,59,U-D,0.0002384185791015,3.704,59.72679353452785,230,235.0,25.28045776260859,10.897806845041988,12.579269766350482,15.043530457367464,19.695182912884174,27.938454802415794,0.0245111273476298,0.0245111273476298,0.0245111273476298,0.0245111273476298,0.0245111273476298,2.5719642969791177,2.5719642969791177,2.5719642969791177,2.5719642969791177,1.428981426520397,E-W,0.0002384185791015,5.239,N-S,0.0002384185791015,5.127
19960603021800.knt,IBR0109606030218.UD,1996-06-03, 02:18:00,36.353,140.647,61,3.7,IBR010,36.1843,139.9653,23,1996-06-03, 02:18:34,100Hz,59,U-D,0.0002384185791015,3.824,63.92908288041798,451,457.0,24.017371991356,5.449685826625647,4.797978449187448,3.895285504022612,2.928382735682416,3.256884684073924,0.0074511513739487,0.0074511513739487,0.0074511513739487,0.0074511513739487,0.0074511513739487,1.343122036075322,1.343122036075322,1.343122036075322,1.343122036075322,1.343122036075322,E-W,0.0002384185791015,6.51,N-S,0.0002384185791015,5.302
19960603021800.knt,IBR0119606030218.UD,1996-06-03, 02:18:00,36.353,140.647,61,3.7,IBR011,36.1251,140.0903,26,1996-06-03, 02:18:33,100Hz,59,U-D,0.0002384185791015,2.402,55.9905591303519,469,471.0,25.601825067052932,5.161163568273182,4.215144079812625,3.0702328908707,1.6814953843219476,0.74044183651502,0.005804006744447,0.0053969095521788,0.0051305901882742,0.0034598040249356,0.0020133627382758,2.401617021880954,2.401617021880954,2.401617021880954,2.401617021880954,2.401617021880954,E-W,0.0002384185791015,5.592,N-S,0.0002384185791015,4.515
19960603021800.knt,IBR0139606030218.UD,1996-06-03, 02:18:00,36.353,140.647,61,3.7,IBR013,36.1587,140.4892,28,1996-06-03, 02:18:21,100Hz,59,U-D,0.0002384185791015,10.481,25.82604914779541,1423,1423.0,40.39157472562141,0.1666662806511563,0.1689404992317852,0.1722106277950353,0.1628266378349251,0.1672057739289452,0.0033571944403346,0.0033571944403346,0.0033571944403346,0.0033571944403346,0.0033571944403346,10.483846745660038,10.483846745660038,10.483846745660038,10.483846745660038,10.483846745660038,E-W,0.0002384185791015,10.434,N-S,0.0002384185791015,9.22
19960603021800.knt,IBR0149606030218.UD,1996-06-03, 02:18:00,36.353,140.647,61,3.7,IBR014,36.0729,140.1947,11,1996-06-03, 02:18:23,100Hz,59,U-D,0.0002384185791015,6.697,51.15297164873532,1415,1414.0,34.06314788534991,2.51539345914187,2.4187006437549496,2.030178128693489,1.183770717318023,0.4325823983578828,0.0061670339408665,0.0061670339408665,0.0061670339408665,0.0049478446934823,0.0023875522836267,6.734379460148447,6.734379460148447,6.734379460148447,6.734379460148447,6.734379460148447,E-W,0.0002384185791015,8.51,N-S,0.0002384185791015,7.158
19960603021800.knt,IBR0159606030218.UD,1996-06-03, 02:18:00,36.353,140.647,61,3.7,IBR015,36.0693,139.908,14,1996-06-03, 02:18:36,100Hz,59,U-D,0.0002384185791015,2.246,73.42288994191807,335,337.0,28.214433845985283,5.307909506395914,5.829522882023476,6.306712316182914,7.804413301399457,7.825688976578184,0.0041330711363424,0.0041330711363424,0.0041330711363424,0.0041330711363424,0.0040563919728496,0.8754414759026994,0.8754414759026994,0.8754414759026994,0.8754414759026994,0.7167498967998464,E-W,0.0002384185791015,5.682,N-S,0.0002384185791015,5.218
