earthquake name,records name,earthquake date,earthquake time,lat,long,depth,mag,stn_code,stn_lat,stn_long,stn_height,rcd_date,rcd_time,frequency,rcd_duration,direction,scale_factor,max_pga,epi_dist,pick_index_manually,pick_index_kalkan,snr_db_kalkan,tc_5sec,tc_4sec,tc_3sec,tc_2sec,tc_1sec,Pd_5sec,Pd_4sec,Pd_3sec,Pd_2sec,Pd_1sec,Pga_5sec,Pga_4sec,Pga_3sec,Pga_2sec,Pga_1sec,Channel,Scale_factor,PGA_ew,Channel.1,Scale_factor.1,PGA_ns
19980116105800.knt,CHB0209801161058.UD,1998-01-16, 10:58:00,35.203,140.297,57,4.6,CHB020,35.1155,140.1022,13,1998-01-16, 10:58:05,100Hz,119,U-D,0.0002384185791015,8.453,20.205640453816144,1445,1455.0,28.035790969091657,0.2702753244321663,0.2704478252704139,0.2404997677220038,0.2504143417563079,0.2290425210205572,0.0083319376177636,0.0083319376177636,0.0083319376177636,0.0028870037012818,0.0028870037012818,8.254071202290607,8.254071202290607,8.254071202290607,3.04159974903389,3.04159974903389,E-W,0.0002384185791015,19.009,N-S,0.0002384185791015,20.597
19980116105800.knt,CHB0219801161058.UD,1998-01-16, 10:58:00,35.203,140.297,57,4.6,CHB021,34.9083,139.8979,6,1998-01-16, 10:58:07,100Hz,119,U-D,0.0002384185791015,4.51,48.92336250746594,1472,1469.0,19.35275565036426,0.8007450023760518,0.6434609469787562,0.4233555983990657,0.3562480311071072,0.3457470098275876,0.0064371877530096,0.0064371877530096,0.0064371877530096,0.0064371877530096,0.0064371877530096,4.508127990020865,4.508127990020865,4.508127990020865,4.508127990020865,4.508127990020865,E-W,0.0002384185791015,9.641,N-S,0.0002384185791015,15.457
19980116105800.knt,CHB0239801161058.UD,1998-01-16, 10:58:00,35.203,140.297,57,4.6,CHB023,34.9741,139.8449,30,1998-01-16, 10:58:16,100Hz,119,U-D,0.0002384185791015,2.631,48.37276154317146,604,600.0,30.349334131289357,3.9366551976456026,3.766881871123164,3.32999669185268,2.562510061027083,1.4853198775119651,0.0131694838767602,0.0131694838767602,0.0131694838767602,0.0122685000065221,0.0084835714058876,2.641966557488261,2.641966557488261,2.641966557488261,2.641966557488261,2.641966557488261,E-W,0.0002384185791015,3.904,N-S,0.0002384185791015,3.619
19980116105800.knt,IBR0139801161058.UD,1998-01-16, 10:58:00,35.203,140.297,57,4.6,IBR013,36.1587,140.4892,28,1998-01-16, 10:58:27,100Hz,119,U-D,0.0002384185791015,5.246,107.67748772440925,86,101.0,19.8603350377522,10.007905832421756,11.50695126671696,11.960207077708963,9.680296654417424,5.716310753267627,0.0591880329877696,0.0591880329877696,0.0591880329877696,0.0581487262403857,0.0452614187760817,2.4297719896237924,2.4297719896237924,2.4297719896237924,2.4297719896237924,2.4297719896237924,E-W,0.0002384185791015,8.988,N-S,0.0002384185791015,9.09
19980116105800.knt,IBR0179801161058.UD,1998-01-16, 10:58:00,35.203,140.297,57,4.6,IBR017,35.9537,140.3194,17,1998-01-16, 10:58:12,100Hz,119,U-D,0.0002384185791015,5.726,83.49860841292123,1330,1340.0,25.819279597821165,0.6319690104392827,0.62773729421881,0.5622137978685042,0.3058225027464162,0.351191260878152,0.0042224297039143,0.0042224297039143,0.0033909214066882,0.0014593999339113,0.0012763948341245,4.937442578977976,2.7274258844514545,2.0622998554879506,1.8082803235019147,1.2817749326705692,E-W,0.0002384185791015,11.893,N-S,0.0002384185791015,10.299
19980116105800.knt,IBR0189801161058.UD,1998-01-16, 10:58:00,35.203,140.297,57,4.6,IBR018,35.977,140.6322,39,1998-01-16, 10:58:25,100Hz,119,U-D,0.0002384185791015,3.62,91.24598206861722,141,155.0,9.493093822469184,12.523953227063023,14.480567236707596,17.411283625386503,17.029835969210673,11.1679937546545,0.1724509884475376,0.1724509884475376,0.1724509884475376,0.1724509884475376,0.1601721604966481,3.657614631294812,3.657614631294812,3.657614631294812,3.657614631294812,3.657614631294812,E-W,0.0002384185791015,7.454,N-S,0.0002384185791015,5.699
19980116105800.knt,KNG0029801161058.UD,1998-01-16, 10:58:00,35.203,140.297,57,4.6,KNG002,35.4371,139.634,2,1998-01-16, 10:58:10,100Hz,119,U-D,0.0002384185791015,8.086,65.54315696807686,1434,178.0,16.81764304025396,1.961489587500375,1.6250745786121463,1.2364084290408763,1.1528083533975668,1.1927584941612437,0.0184866070417767,0.0183340908872145,0.0156279486633533,0.0156279486633533,0.0156279486633533,7.878410305533356,7.878410305533356,7.878410305533356,7.878410305533356,7.878410305533356,E-W,0.0002384185791015,12.092,N-S,0.0002384185791015,12.162
19980116105800.knt,KNG0039801161058.UD,1998-01-16, 10:58:00,35.203,140.297,57,4.6,KNG003,35.2727,139.6579,26,1998-01-16, 10:58:17,100Hz,119,U-D,0.0002384185791015,4.791,58.55810505964509,610,611.0,27.38092333958296,0.8440616166413331,0.7029760107043991,0.5528952765218499,0.5784941856184055,0.6121731171463102,0.0030099581109617,0.0026283775536871,0.0022438986285971,0.0022438986285971,0.0022438986285971,1.69755935507284,1.69755935507284,1.69755935507284,1.69755935507284,1.69755935507284,E-W,0.0002384185791015,9.736,N-S,0.0002384185791015,11.488
19980116105800.knt,KNG0049801161058.UD,1998-01-16, 10:58:00,35.203,140.297,57,4.6,KNG004,35.1441,139.6218,31,1998-01-16, 10:58:11,100Hz,119,U-D,0.0002384185791015,14.53,61.71860143047206,1254,1267.0,29.2777422437567,0.2692689470638006,0.2685482823153067,0.2571930505068806,0.293516850675553,0.3476365636426154,0.0063257289517359,0.0063257289517359,0.0063257289517359,0.0063257289517359,0.0029063921248926,7.06853049409127,7.06853049409127,7.06853049409127,7.06853049409127,2.895282560138983,E-W,0.0002384185791015,47.446,N-S,0.0002384185791015,43.631
19980116105800.knt,KNG0059801161058.UD,1998-01-16, 10:58:00,35.203,140.297,57,4.6,KNG005,35.3194,139.549,7,1998-01-16, 10:58:10,100Hz,119,U-D,0.0002384185791015,13.583,69.13596817714284,1440,186.0,20.56656768760583,0.9339404249769508,0.8273744519241171,0.6344411746529356,0.4504188742733882,0.442970708235353,0.0073256769494339,0.0061647422214964,0.0055535820150887,0.0039230586188403,0.003116973259528,2.691450989026703,2.546590205896229,2.546590205896229,2.546590205896229,2.546590205896229,E-W,0.0002384185791015,25.265,N-S,0.0002384185791015,27.868
19980116105800.knt,KNG0069801161058.UD,1998-01-16, 10:58:00,35.203,140.297,57,4.6,KNG006,35.4544,139.5387,60,1998-01-16, 10:58:21,100Hz,119,U-D,0.0002384185791015,4.709,74.25421476930097,417,417.0,19.909111389615127,4.007769541740362,3.4524070178316437,2.777901830172272,2.2323927063595845,2.5843317112593542,0.0191060159184571,0.0191060159184571,0.0191060159184571,0.0191060159184571,0.0191060159184571,3.270645182089513,3.270645182089513,3.270645182089513,3.270645182089513,3.270645182089513,E-W,0.0002384185791015,14.524,N-S,0.0002384185791015,21.276
19980116105800.knt,KNG0079801161058.UD,1998-01-16, 10:58:00,35.203,140.297,57,4.6,KNG007,35.3385,139.4901,14,1998-01-16, 10:58:21,100Hz,119,U-D,0.0002384185791015,4.59,74.78614108421375,400,400.0,17.659232696366495,1.1926981936141592,0.9442871504741568,0.9233549928973198,0.9929963644003424,1.1393419028478635,0.0087402060880642,0.0087402060880642,0.0087402060880642,0.0087402060880642,0.0087402060880642,3.728435778357046,3.728435778357046,3.728435778357046,3.728435778357046,3.313097137957487,E-W,0.0002384185791015,6.245,N-S,0.0002384185791015,8.525
19980116105800.knt,KNG0099801161058.UD,1998-01-16, 10:58:00,35.203,140.297,57,4.6,KNG009,35.4424,139.3618,20,1998-01-16, 10:58:24,100Hz,89,U-D,0.0002384185791015,6.331,88.92344284339673,253,85.0,17.887640242865437,1.9968533385791116,1.717626177787965,1.839484232113124,2.345393547704879,2.760004878384156,0.0076516048975058,0.0070296343044901,0.0070296343044901,0.0070296343044901,0.0070296343044901,1.889069428232869,1.889069428232869,1.889069428232869,1.6101262241310277,1.3559461471464491,E-W,0.0002384185791015,16.726,N-S,0.0002384185791015,13.422
19980116105800.knt,KNG0109801161058.UD,1998-01-16, 10:58:00,35.203,140.297,57,4.6,KNG010,35.3355,139.3504,7,1998-01-16, 10:58:23,100Hz,119,U-D,0.0002384185791015,2.288,87.19037299213056,343,71.0,11.32167412482583,1.668406054442715,1.6693132126382568,1.6387814564042682,1.86714142256324,2.8330819457878404,0.0066120789898178,0.0066120789898178,0.0066120789898178,0.0066120789898178,0.0066120789898178,1.638833385527469,1.638833385527469,1.638833385527469,1.295209406008001,1.198647328045903,E-W,0.0002384185791015,5.773,N-S,0.0002384185791015,6.845
19980116105800.knt,KNG0129801161058.UD,1998-01-16, 10:58:00,35.203,140.297,57,4.6,KNG012,35.3794,139.2048,138,1998-01-16, 10:58:25,100Hz,119,U-D,0.0002384185791015,3.035,101.04971502228848,276,267.0,22.48033256406746,3.393438238958258,3.2378411848120288,3.401997732881502,3.841874409244909,5.932013612063167,0.0118115655673708,0.0118115655673708,0.0118115655673708,0.0118115655673708,0.0118115655673708,1.8857122578767973,1.8857122578767973,1.8857122578767973,1.8857122578767973,0.9371734073914736,E-W,0.0002384185791015,6.51,N-S,0.0002384185791015,8.191
19980116105800.knt,KNG0139801161058.UD,1998-01-16, 10:58:00,35.203,140.297,57,4.6,KNG013,35.2641,139.152,11,1998-01-16, 10:58:27,100Hz,119,U-D,0.0002384185791015,11.398,104.21552294230364,110,111.0,23.03619990190785,2.6600883274956946,2.9620825701308577,3.4017790965436485,3.4993748923914447,3.2666287391160704,0.0101079844378937,0.0101079844378937,0.0101079844378937,0.0101079844378937,0.0090009730410762,1.5118946477825888,1.5118946477825888,1.5118946477825888,1.5118946477825888,1.192669973203542,E-W,0.0002384185791015,12.872,N-S,0.0002384185791015,15.407
19980116105800.knt,SIT0039801161058.UD,1998-01-16, 10:58:00,35.203,140.297,57,4.6,SIT003,36.072,139.6968,9,1998-01-16, 10:58:15,100Hz,119,U-D,0.0002384185791015,3.052,110.81019059310528,1440,1438.0,19.68401413890707,0.4770740491645001,0.4763613759598099,0.4282731366470166,0.33763821362053,0.3301678908312278,0.0051341331382653,0.0051341331382653,0.0051341331382653,0.0051341331382653,0.0051341331382653,3.066015432195002,3.066015432195002,3.066015432195002,3.066015432195002,3.066015432195002,E-W,0.0002384185791015,1.819,N-S,0.0002384185791015,1.551
19980116105800.knt,SIT0099801161058.UD,1998-01-16, 10:58:00,35.203,140.297,57,4.6,SIT009,35.9032,139.4837,22,1998-01-16, 10:58:14,100Hz,119,U-D,0.0002384185791015,3.226,107.1221616770238,1462,40.0,17.196524303684463,0.4115590186563209,0.3685533625113412,0.3584603466485931,0.3347874769925418,0.2980981125610586,0.0033164531667883,0.0033164531667883,0.0033164531667883,0.0033164531667883,0.0033164531667883,3.2494003826343656,3.2494003826343656,3.2494003826343656,3.2494003826343656,3.2494003826343656,E-W,0.0002384185791015,3.344,N-S,0.0002384185791015,3.017
19980116105800.knt,SIT0119801161058.UD,1998-01-16, 10:58:00,35.203,140.297,57,4.6,SIT011,35.8098,139.7212,2,1998-01-16, 10:58:12,100Hz,119,U-D,0.0002384185791015,5.173,85.25892880785263,1429,191.0,11.902439162738345,0.7054591927645466,0.5577492631708176,0.5751110179217814,0.4806017097553023,0.2810931841707162,0.0056280746785879,0.0037602209213445,0.0037602209213445,0.0036019757501108,0.0036019757501108,5.1706995595200045,5.1706995595200045,5.1706995595200045,5.1706995595200045,5.1706995595200045,E-W,0.0002384185791015,5.086,N-S,0.0002384185791015,4.415
19980116105800.knt,SZO0019801161058.UD,1998-01-16, 10:58:00,35.203,140.297,57,4.6,SZO001,35.1424,139.0795,76,1998-01-16, 10:58:23,100Hz,119,U-D,0.0002384185791015,4.44,110.86636684660812,534,538.0,8.32969938003475,3.318165063628004,2.584457526641817,2.188671109285929,1.5941985884615333,0.8400761765350616,0.004187966401454,0.0038092124736209,0.0028780419449587,0.002639587352614,0.0013432984920335,1.419360542470763,1.419360542470763,1.258537368919596,1.258537368919596,0.8027737388537848,E-W,0.0002384185791015,17.925,N-S,0.0002384185791015,12.34
19980116105800.knt,SZO0039801161058.UD,1998-01-16, 10:58:00,35.203,140.297,57,4.6,SZO003,34.8158,139.0546,149,1998-01-16, 10:58:15,100Hz,119,U-D,0.0002384185791015,20.612,121.06495749277776,1454,1470.0,34.38157018185026,1.1251270535672668,1.056654066773131,0.8387909642072567,0.4587808106457774,0.2377307289249219,0.0125147888964903,0.0125147888964903,0.0125147888964903,0.0112619664613159,0.0057523894848873,6.5635498930212135,6.5635498930212135,6.5635498930212135,6.5635498930212135,6.5635498930212135,E-W,0.0002384185791015,31.94,N-S,0.0002384185791015,24.549
19980116105800.knt,SZO0079801161058.UD,1998-01-16, 10:58:00,35.203,140.297,57,4.6,SZO007,34.9771,138.9466,49,1998-01-16, 10:58:30,100Hz,119,U-D,0.0002384185791015,1.927,125.4066866300562,1,25.0,9.839720848847994,3.896633628561697,4.019476240521813,3.668035939156252,2.7140140051961743,1.3418400873735126,0.0039144485856853,0.0039144485856853,0.0039144485856853,0.0034620988647469,0.0022425400106374,0.9589276982663552,0.9589276982663552,0.9589276982663552,0.9589276982663552,0.9589276982663552,E-W,0.0002384185791015,13.18,N-S,0.0002384185791015,6.458
19980116105800.knt,SZO0109801161058.UD,1998-01-16, 10:58:00,35.203,140.297,57,4.6,SZO010,35.3091,138.9349,460,1998-01-16, 10:58:30,100Hz,119,U-D,0.0002384185791015,2.188,124.23858027665112,55,55.00000000000001,14.352483997626146,6.95407162348546,7.379673514859546,7.502325500162133,6.449726408304234,4.771221923270992,0.0151265949405024,0.0151265949405024,0.0151265949405024,0.0151265949405024,0.010208691285197,1.0978599180993431,1.0978599180993431,1.0978599180993431,1.0978599180993431,0.6252137587490008,E-W,0.0002384185791015,5.373,N-S,0.0002384185791015,4.563
19980116105800.knt,TCG0149801161058.UD,1998-01-16, 10:58:00,35.203,140.297,57,4.6,TCG014,36.545,140.1742,130,1998-01-16, 10:58:29,100Hz,119,U-D,0.0002384185791015,1.58,149.63318441521733,442,474.0,18.52562262172614,4.202851872398498,3.67891189667799,3.248027255804748,3.3241999396244224,5.328557261588061,0.0139506214319986,0.0139506214319986,0.0139506214319986,0.0139506214319986,0.0139506214319986,1.5911615861273307,1.5911615861273307,1.5911615861273307,1.5911615861273307,1.460900513478344,E-W,0.0002384185791015,5.625,N-S,0.0002384185791015,3.454
19980116105800.knt,TKY0029801161058.UD,1998-01-16, 10:58:00,35.203,140.297,57,4.6,TKY002,35.7304,139.1454,302,1998-01-16, 10:58:29,100Hz,119,U-D,0.0002384185791015,1.508,119.6483471009272,30,52.0,16.073718311506486,2.022407205595145,1.7075325774016186,1.1683862251076826,1.288451243303106,1.0178597657988713,0.0023931025492951,0.0023931025492951,0.001932999022656,0.001932999022656,0.0016229262967337,1.060518538780792,1.060518538780792,1.060518538780792,1.060518538780792,0.6370820844392839,E-W,0.0002384185791015,2.997,N-S,0.0002384185791015,2.86
19980116105800.knt,TKY0039801161058.UD,1998-01-16, 10:58:00,35.203,140.297,57,4.6,TKY003,35.7968,139.2912,181,1998-01-16, 10:58:28,100Hz,119,U-D,0.0002384185791015,4.424,112.47045607567428,96,87.0,18.68248267324587,4.212305961285338,4.26959029979476,4.018273613961221,3.2306015322452803,1.9461999290561696,0.0243946676940384,0.0243946676940384,0.0243946676940384,0.023756677667601,0.0201812985131135,4.411608632727112,4.411608632727112,4.411608632727112,4.411608632727112,4.411608632727112,E-W,0.0002384185791015,5.944,N-S,0.0002384185791015,5.16
19980116105800.knt,TKY0049801161058.UD,1998-01-16, 10:58:00,35.203,140.297,57,4.6,TKY004,35.6282,139.4034,81,1998-01-16, 10:58:25,100Hz,119,U-D,0.0002384185791015,5.811,93.76995696432942,211,211.0,19.84232697770182,7.002200701167356,7.346186374733472,8.034552371851634,9.455896281109531,9.274731508788689,0.0565998767567455,0.0565998767567455,0.0565998767567455,0.0565998767567455,0.0565998767567455,5.125284282807122,5.125284282807122,5.125284282807122,5.125284282807122,4.473163772182261,E-W,0.0002384185791015,13.291,N-S,0.0002384185791015,12.425
19980116105800.knt,TKY0059801161058.UD,1998-01-16, 10:58:00,35.203,140.297,57,4.6,TKY005,35.5782,139.4156,109,1998-01-16, 10:58:12,100Hz,119,U-D,0.0002384185791015,7.147,90.13396384326796,1482,1477.0,23.061562701577323,0.3406153000352093,0.338167017500941,0.289911792888044,0.2060056861337174,0.2057575267761804,0.0054973304095382,0.0054973304095382,0.0054973304095382,0.0054973304095382,0.0054973304095382,7.145907294078925,7.145907294078925,7.145907294078925,7.145907294078925,7.145907294078925,E-W,0.0002384185791015,7.201,N-S,0.0002384185791015,7.732
19980116105800.knt,TKY0079801161058.UD,1998-01-16, 10:58:00,35.203,140.297,57,4.6,TKY007,35.7107,139.6859,34,1998-01-16, 10:58:11,100Hz,119,U-D,0.0002384185791015,13.881,79.06049029246162,1460,1459.0,24.99956688353023,0.2603398625737552,0.2610109463075174,0.2585932812752867,0.2426503970155699,0.1894133972953215,0.0086222842621104,0.0086222842621104,0.0086222842621104,0.0086222842621104,0.0086222842621104,13.908631284325756,13.908631284325756,13.908631284325756,13.908631284325756,13.908631284325756,E-W,0.0002384185791015,7.964,N-S,0.0002384185791015,6.794
19980116105800.knt,TKY0089801161058.UD,1998-01-16, 10:58:00,35.203,140.297,57,4.6,TKY008,34.7852,139.3909,67,1998-01-16, 10:58:12,100Hz,119,U-D,0.0002384185791015,13.037,94.71414480701549,1412,1407.0,33.51431006088954,0.9231629417007386,0.8883091087967152,0.7427590619577633,0.5071591280254609,0.2932405969975643,0.0128317840947437,0.0128317840947437,0.0128317840947437,0.0111940656100463,0.0085746817207655,9.674486307982445,9.674486307982445,9.674486307982445,9.674486307982445,9.674486307982445,E-W,0.0002384185791015,40.444,N-S,0.0002384185791015,32.308
19980116105800.knt,TKY0099801161058.UD,1998-01-16, 10:58:00,35.203,140.297,57,4.6,TKY009,34.6874,139.4412,60,1998-01-16, 10:58:12,100Hz,119,U-D,0.0002384185791015,8.181,96.80562224771286,1435,1430.0,18.672085434736893,2.282466928635264,2.320732400758057,2.32017745012757,2.010965692812842,1.248508926067049,0.0165801389680958,0.0165801389680958,0.0165801389680958,0.0165801389680958,0.0164151065107576,8.129601824122762,8.129601824122762,8.129601824122762,8.129601824122762,8.129601824122762,E-W,0.0002384185791015,9.109,N-S,0.0002384185791015,14.581
19980116105800.knt,YMN0029801161058.UD,1998-01-16, 10:58:00,35.203,140.297,57,4.6,YMN002,35.6132,138.947,368,1998-01-16, 10:58:17,100Hz,119,U-D,0.0002384185791015,6.569,130.5732734002016,1392,1416.0,13.615131929605685,0.7746283963273927,0.7633222832605706,0.6568418686317183,0.381680565980342,0.1570727105099178,0.0061420235668064,0.0061420235668064,0.0061420235668064,0.0053838717502811,0.0033457573399315,6.554147082787566,6.554147082787566,6.554147082787566,6.554147082787566,6.554147082787566,E-W,0.0002384185791015,10.88,N-S,0.0002384185791015,8.514
19980117015700.knt,MIE0079801170157.UD,1998-01-17, 01:57:00,34.12,135.297,8,3.7,MIE007,34.651,136.3404,82,1998-01-17, 01:57:58,100Hz,119,U-D,0.0002384185791015,1.443,112.48770769172538,1341,1353.0,23.70294806305809,0.432926555470832,0.355121100361443,0.2963210250829826,0.3091287089421121,0.6082702356478618,0.0013206852071629,0.0013206852071629,0.0013206852071629,0.0013206852071629,0.0007098229535726,1.4398933666703988,1.4398933666703988,1.4398933666703988,1.246142796003298,0.5203606805782821,E-W,0.0002384185791015,3.091,N-S,0.0002384185791015,3.005
19980117015700.knt,MIE0149801170157.UD,1998-01-17, 01:57:00,34.12,135.297,8,3.7,MIE014,34.0638,136.1687,85,1998-01-17, 01:57:03,100Hz,119,U-D,0.0002384185791015,1.629,80.513059852458,330,355.0,15.726237486480912,1.2793643032173097,1.197029629801387,1.1670722827122009,1.0988740346858976,1.6101271209128911,0.0010925456133464,0.0010925456133464,0.0010925456133464,0.0010925456133464,0.0010925456133464,1.0510610376241825,1.0510610376241825,1.0510610376241825,1.0510610376241825,0.8742279183312,E-W,0.0002384185791015,5.117,N-S,0.0002384185791015,3.8
19980117015700.knt,MIE0169801170157.UD,1998-01-17, 01:57:00,34.12,135.297,8,3.7,MIE016,33.8764,135.9188,63,1998-01-17, 01:57:57,100Hz,119,U-D,0.0002384185791015,2.048,63.3992610712609,656,676.0,21.060105317827784,7.595896837006128,7.151879060116015,6.3808106584505255,5.267702879231984,5.5726878100394766,0.0073277527724242,0.0073277527724242,0.0073277527724242,0.0073277527724242,0.0058523137742646,2.056071379177024,2.056071379177024,2.056071379177024,2.056071379177024,0.906443599006122,E-W,0.0002384185791015,2.496,N-S,0.0002384185791015,4.239
