earthquake name,records name,earthquake date,earthquake time,lat,long,depth,mag,stn_code,stn_lat,stn_long,stn_height,rcd_date,rcd_time,frequency,rcd_duration,direction,scale_factor,max_pga,epi_dist,pick_index_manually,pick_index_kalkan,snr_db_kalkan,tc_5sec,tc_4sec,tc_3sec,tc_2sec,tc_1sec,Pd_5sec,Pd_4sec,Pd_3sec,Pd_2sec,Pd_1sec,Pga_5sec,Pga_4sec,Pga_3sec,Pga_2sec,Pga_1sec,Channel,Scale_factor,PGA_ew,Channel.1,Scale_factor.1,PGA_ns
20010109133700.knt,EHM0090101091337.UD,2001-01-09, 13:37:00,33.588,132.365,50.0,4.6,EHM009,33.6324,132.7963,250.0,2001-01-09, 13:38:00,100Hz,119.0,U-D,0.0002384185791015,5.862,40.24476634911984,1460.0,1467.0,34.33864336457403,2.793262434231329,2.8271668860045804,2.334380036612059,1.224918155168282,0.541209721345002,0.0130366291357015,0.0130366291357015,0.0130366291357015,0.0094828306701667,0.0044820245940857,3.763134807818124,3.763134807818124,3.763134807818124,3.763134807818124,3.763134807818124,E-W,0.0002384185791015,17.226,N-S,0.0002384185791015,11.147
20010109133700.knt,EHM0100101091337.UD,2001-01-09, 13:37:00,33.588,132.365,50.0,4.6,EHM010,33.4506,132.6881,151.0,2001-01-09, 13:38:00,100Hz,119.0,U-D,0.0002384185791015,5.962,33.623913254249565,1394.0,1392.0,37.99026195121596,1.804847444495829,1.714025060173458,1.3482917707781914,0.7769007486557992,0.4086688231920018,0.0106780248829983,0.0106780248829983,0.0101916474797373,0.0080477015154812,0.0045573671242506,4.265580378288101,4.265580378288101,4.265580378288101,4.265580378288101,3.932339183256584,E-W,0.0002384185791015,12.473,N-S,0.0002384185791015,14.756
20010109133700.knt,EHM0110101091337.UD,2001-01-09, 13:37:00,33.588,132.365,50.0,4.6,EHM011,33.4496,132.4336,10.0,2001-01-09, 13:38:58,100Hz,119.0,U-D,0.0002384185791015,11.863,16.651601636997285,1459.0,1460.0,26.23129939825756,0.6629087072680181,0.5555337423842743,0.5293077511143411,0.5746994863794318,0.6001128133366569,0.0056275709511374,0.0051160874075273,0.0051160874075273,0.0051160874075273,0.0051160874075273,5.41910131833293,5.41910131833293,5.41910131833293,5.41910131833293,5.41910131833293,E-W,0.0002384185791015,47.151,N-S,0.0002384185791015,26.559
20010109133700.knt,EHM0120101091337.UD,2001-01-09, 13:37:00,33.588,132.365,50.0,4.6,EHM012,33.2217,132.5727,37.0,2001-01-09, 13:38:08,100Hz,119.0,U-D,0.0002384185791015,4.877,45.06330211716449,699.0,713.0,23.372949544139097,4.346749849251553,3.9592066401599366,3.3488415337376987,2.758238817436772,2.084180810251134,0.0070915774284533,0.0070915774284533,0.0070915774284533,0.0060601750217082,0.0044400808239752,2.795849660463491,2.795849660463491,2.795849660463491,2.795849660463491,2.795849660463491,E-W,0.0002384185791015,12.395,N-S,0.0002384185791015,15.135
20010109133700.knt,EHM0150101091337.UD,2001-01-09, 13:37:00,33.588,132.365,50.0,4.6,EHM015,33.6105,132.4814,4.0,2001-01-09, 13:38:58,100Hz,119.0,U-D,0.0002384185791015,6.533,11.067168438340586,1421.0,1434.0,25.2171935335102,2.0421729999876272,1.7833345036327994,1.271073427122653,0.9197801840033912,0.8961241188035405,0.0115811963898465,0.01003383964831,0.0080685991886425,0.0080685991886425,0.0080685991886425,6.534318200642741,6.534318200642741,6.534318200642741,6.534318200642741,6.534318200642741,E-W,0.0002384185791015,13.146,N-S,0.0002384185791015,14.637
20010109133700.knt,EHM0160101091337.UD,2001-01-09, 13:37:00,33.588,132.365,50.0,4.6,EHM016,33.7658,132.7088,2.0,2001-01-09, 13:38:00,100Hz,119.0,U-D,0.0002384185791015,3.289,37.4559202727429,1441.0,165.0,24.349047642143983,0.5595166556268157,0.5402593739102792,0.4674111444306366,0.4562446344055892,0.5347627439579125,0.0042447830101802,0.0042447830101802,0.0042447830101802,0.0042447830101802,0.0042447830101802,3.099793904090076,3.099793904090076,3.099793904090076,3.099793904090076,2.956177497806244,E-W,0.0002384185791015,13.004,N-S,0.0002384185791015,14.336
20010109133700.knt,HRS0110101091337.UD,2001-01-09, 13:37:00,33.588,132.365,50.0,4.6,HRS011,34.5676,133.2362,28.0,2001-01-09, 13:38:29,100Hz,119.0,U-D,0.0002384185791015,1.026,135.2873889511698,180.0,180.0,11.16686472222835,1.8509380006466836,1.8400303290711943,1.8579791981434768,1.6526985575960516,1.101172928388153,0.0033113465773186,0.0033113465773186,0.0033113465773186,0.0033113465773186,0.002095319490128,0.9166072577699012,0.9166072577699012,0.9166072577699012,0.9166072577699012,0.8696152112574133,E-W,0.0002384185791015,2.944,N-S,0.0002384185791015,2.882
20010109133700.knt,HRS0120101091337.UD,2001-01-09, 13:37:00,33.588,132.365,50.0,4.6,HRS012,34.4276,132.7422,215.0,2001-01-09, 13:38:20,100Hz,119.0,U-D,0.0002384185791015,3.376,99.62316779974098,162.0,166.0,14.708897403106684,12.51903978034542,15.048052248697871,17.317312308052863,16.25766431842706,12.16658648701156,0.0336577141464987,0.0336577141464987,0.0336577141464987,0.0336577141464987,0.0306200224569315,1.469420461505011,1.469420461505011,1.469420461505011,1.469420461505011,0.946561459520574,E-W,0.0002384185791015,20.946,N-S,0.0002384185791015,11.107
20010109133700.knt,HRS0180101091337.UD,2001-01-09, 13:37:00,33.588,132.365,50.0,4.6,HRS018,34.3413,132.9068,2.0,2001-01-09, 13:38:20,100Hz,119.0,U-D,0.0002384185791015,4.374,97.53369794436033,142.0,143.0,17.20589401392404,9.632419430414872,10.97450637612327,11.89862083817432,11.103853544438673,7.976123988787085,0.0409185042021973,0.0409185042021973,0.0409185042021973,0.0409185042021973,0.0381261680119134,3.687662220586201,3.687662220586201,3.687662220586201,3.687662220586201,3.687662220586201,E-W,0.0002384185791015,5.431,N-S,0.0002384185791015,5.793
20010109133700.knt,HRS0190101091337.UD,2001-01-09, 13:37:00,33.588,132.365,50.0,4.6,HRS019,34.2485,132.5647,3.0,2001-01-09, 13:38:14,100Hz,119.0,U-D,0.0002384185791015,13.177,75.72055848029152,462.0,477.00000000000006,22.842997944712184,11.517927137541085,11.441963704950432,8.316219233226226,4.3565757922333255,1.3364683807105135,0.1324346756041985,0.1324346756041985,0.1290671535876826,0.0899326285691335,0.0192036286946754,4.5896303191753,4.5896303191753,4.5896303191753,4.5896303191753,3.9152365360287935,E-W,0.0002384185791015,40.256,N-S,0.0002384185791015,16.137
20010109133700.knt,KOC0060101091337.UD,2001-01-09, 13:37:00,33.588,132.365,50.0,4.6,KOC006,33.4945,133.4165,8.0,2001-01-09, 13:38:21,100Hz,119.0,U-D,0.0002384185791015,2.768,98.00524385123497,8.0,53.0,14.475811125402291,10.924945685543182,10.926771421545592,8.661827813204653,5.057253655417277,2.883139050125801,0.0216809453028171,0.0216809453028171,0.021629821805875,0.0173585166961021,0.0053393055355419,1.0945304785237222,1.0945304785237222,1.0945304785237222,1.0945304785237222,0.4398961116383359,E-W,0.0002384185791015,2.909,N-S,0.0002384185791015,3.191
20010109133700.knt,KOC0080101091337.UD,2001-01-09, 13:37:00,33.588,132.365,50.0,4.6,KOC008,33.7758,133.3465,560.0,2001-01-09, 13:38:07,100Hz,119.0,U-D,0.0002384185791015,5.579,93.18628672300122,1351.0,1388.0,27.627638926211723,0.7674931937893124,0.5967145192315995,0.4934782996832499,0.4850732646798211,0.4856049201972494,0.0043819208106028,0.0043819208106028,0.0043819208106028,0.0043819208106028,0.0043819208106028,5.560179807755753,5.560179807755753,5.560179807755753,5.560179807755753,5.560179807755753,E-W,0.0002384185791015,9.394,N-S,0.0002384185791015,10.377
20010109133700.knt,KOC0090101091337.UD,2001-01-09, 13:37:00,33.588,132.365,50.0,4.6,KOC009,33.5742,133.1718,105.0,2001-01-09, 13:38:05,100Hz,119.0,U-D,0.0002384185791015,2.884,74.7550199882251,1335.0,1364.0,25.66121547420181,0.6861375510244949,0.6683346376786506,0.612833187935232,0.6417652836249155,0.7895484077403482,0.002630953893444,0.0026227338370817,0.0026227338370817,0.0026227338370817,0.0024567697589281,2.873160464172386,2.873160464172386,2.873160464172386,2.873160464172386,1.5581306808602675,E-W,0.0002384185791015,6.029,N-S,0.0002384185791015,7.424
20010109133700.knt,KOC0110101091337.UD,2001-01-09, 13:37:00,33.588,132.365,50.0,4.6,KOC011,33.3995,132.8972,500.0,2001-01-09, 13:38:02,100Hz,119.0,U-D,0.0002384185791015,5.424,53.61774990705389,1420.0,1435.0,30.08736503473186,1.3140760620154637,1.339113590653347,1.1296170667274672,0.7014556003757428,0.4593494586833183,0.0058172501551219,0.0058172501551219,0.0056939263785417,0.0050471247161385,0.0039315648194944,3.1725112397369992,3.1725112397369992,3.1725112397369992,3.1725112397369992,3.1725112397369992,E-W,0.0002384185791015,9.884,N-S,0.0002384185791015,9.059
20010109133700.knt,KOC0120101091337.UD,2001-01-09, 13:37:00,33.588,132.365,50.0,4.6,KOC012,33.1967,132.9758,150.0,2001-01-09, 13:38:14,100Hz,119.0,U-D,0.0002384185791015,1.452,71.475245940418,421.0,437.0,17.58818894212193,2.8746332836554376,2.5091990471839534,2.2157275347922964,2.366007429737936,2.708197331399415,0.0041009348968751,0.0039554540834226,0.0039554540834226,0.0039554540834226,0.0039554540834226,0.8773860238160006,0.8627108603051283,0.8627108603051283,0.7467508895046209,0.7467508895046209,E-W,0.0002384185791015,10.972,N-S,0.0002384185791015,7.768
20010109133700.knt,KOC0130101091337.UD,2001-01-09, 13:37:00,33.588,132.365,50.0,4.6,KOC013,33.0797,133.1015,3.0,2001-01-09, 13:38:18,100Hz,119.0,U-D,0.0002384185791015,2.034,88.74695949579602,235.0,259.0,21.25268047283172,9.406627311428355,10.97412265956716,13.027850042902015,17.488211532347414,23.382345626236415,0.0176958866376242,0.0176958866376242,0.0176958866376242,0.0176958866376242,0.0176958866376242,1.1186601453820844,1.1186601453820844,1.1186601453820844,1.1186601453820844,0.4530685409731713,E-W,0.0002384185791015,4.249,N-S,0.0002384185791015,5.718
20010109133700.knt,KOC0150101091337.UD,2001-01-09, 13:37:00,33.588,132.365,50.0,4.6,KOC015,32.937,132.7252,2.0,2001-01-09, 13:38:15,100Hz,119.0,U-D,0.0002384185791015,4.787,79.75958618625937,417.0,426.0,23.268456452590343,7.241884508431719,6.406291946838141,6.0036679861108775,7.017173356088996,9.686482525262816,0.0177205635310936,0.0177205635310936,0.0177205635310936,0.0177205635310936,0.0177205635310936,1.6225142425748018,1.6225142425748018,1.6225142425748018,1.6225142425748018,1.2736040771995067,E-W,0.0002384185791015,6.807,N-S,0.0002384185791015,6.509
20010109133700.knt,OIT0010101091337.UD,2001-01-09, 13:37:00,33.588,132.365,50.0,4.6,OIT001,33.6783,131.5936,12.0,2001-01-09, 13:38:14,100Hz,119.0,U-D,0.0002384185791015,1.681,72.11919968525703,393.0,409.0,21.97526027116156,6.868716500671969,6.019581557780275,5.509761961846697,6.023766404341076,8.237634291489082,0.012839225705294,0.012839225705294,0.012839225705294,0.012839225705294,0.012839225705294,0.7511771072443225,0.7144052615545944,0.7144052615545944,0.7144052615545944,0.5998745844641354,E-W,0.0002384185791015,9.398,N-S,0.0002384185791015,4.936
20010109133700.knt,OIT0030101091337.UD,2001-01-09, 13:37:00,33.588,132.365,50.0,4.6,OIT003,33.5583,131.4489,6.0,2001-01-09, 13:38:17,100Hz,119.0,U-D,0.0002384185791015,1.481,84.93643886848781,274.0,271.0,19.233297348523056,8.929360275739777,7.104478476141709,5.403094713606705,6.6247761171634325,13.767653418432914,0.0278798540775572,0.0251412534030147,0.0203331199846435,0.0203331199846435,0.0203331199846435,1.191685842464985,1.191685842464985,1.191685842464985,1.191685842464985,0.5086700063095901,E-W,0.0002384185791015,5.281,N-S,0.0002384185791015,3.614
20010109133700.knt,OIT0040101091337.UD,2001-01-09, 13:37:00,33.588,132.365,50.0,4.6,OIT004,33.5666,131.7378,7.0,2001-01-09, 13:38:10,100Hz,119.0,U-D,0.0002384185791015,4.065,58.15304369727187,657.0,674.0,26.51193047903991,4.67217346744891,4.837838922702964,4.480623568950611,4.009160527992258,2.897665776529318,0.0089381029650097,0.0089381029650097,0.0084671407349033,0.0080230110373683,0.0062416418892887,1.952053192921612,1.952053192921612,1.952053192921612,1.952053192921612,1.7835725282096089,E-W,0.0002384185791015,9.17,N-S,0.0002384185791015,8.552
20010109133700.knt,OIT0070101091337.UD,2001-01-09, 13:37:00,33.588,132.365,50.0,4.6,OIT007,33.4152,131.6148,24.0,2001-01-09, 13:38:14,100Hz,119.0,U-D,0.0002384185791015,1.773,72.16497200743567,430.0,430.0,26.33401960233109,1.7834587017956192,1.7075366402517254,1.7456208395172967,1.83369259747992,1.7580190070998871,0.0066762451619058,0.0066762451619058,0.0066762451619058,0.0066762451619058,0.0066762451619058,1.1515876960449127,1.1515876960449127,1.1515876960449127,1.1515876960449127,1.1515876960449127,E-W,0.0002384185791015,4.457,N-S,0.0002384185791015,2.977
20010109133700.knt,OIT0110101091337.UD,2001-01-09, 13:37:00,33.588,132.365,50.0,4.6,OIT011,33.2461,131.8811,7.0,2001-01-09, 13:38:06,100Hz,119.0,U-D,0.0002384185791015,4.447,58.84221964946204,1043.0,1069.0,29.790819201277014,0.3671531497083087,0.4001390478557929,0.6655131631691464,0.8600009538801718,1.1427068957501434,0.0034223893536658,0.0031433297023127,0.0028913218548268,0.0028913218548268,0.0028913218548268,2.4630368149515944,2.4630368149515944,1.4494184565468256,1.4154630137194084,1.043407328330633,E-W,0.0002384185791015,6.545,N-S,0.0002384185791015,6.366
20010109133700.knt,YMG0080101091337.UD,2001-01-09, 13:37:00,33.588,132.365,50.0,4.6,YMG008,34.0121,131.4042,4.0,2001-01-09, 13:38:20,100Hz,119.0,U-D,0.0002384185791015,1.149,100.52580724187096,171.0,99.0,12.283978463665663,8.015535694779661,8.479588409971354,10.761768094975196,12.602931296186716,11.363165984040622,0.0095153465621354,0.0095153465621354,0.0095153465621354,0.0095153465621354,0.0095153465621354,0.9654172438441124,0.9654172438441124,0.9654172438441124,0.9654172438441124,0.7461992737544617,E-W,0.0002384185791015,6.527,N-S,0.0002384185791015,6.761
20010109133700.knt,YMG0090101091337.UD,2001-01-09, 13:37:00,33.588,132.365,50.0,4.6,YMG009,34.2319,131.8169,375.0,2001-01-09, 13:38:17,100Hz,119.0,U-D,0.0002384185791015,0.772,87.66183376338289,287.0,324.0,16.528080529118075,3.290106799405665,2.89698751759777,2.678184004160698,3.0552747906411173,3.861357831811033,0.0022706702385649,0.0022706702385649,0.0021645785720309,0.0021645785720309,0.0021645785720309,0.3306734611882385,0.3306734611882385,0.3306734611882385,0.3306734611882385,0.3306734611882385,E-W,0.0002384185791015,2.187,N-S,0.0002384185791015,2.814
20010109133700.knt,YMG0140101091337.UD,2001-01-09, 13:37:00,33.588,132.365,50.0,4.6,YMG014,34.0544,131.8077,15.0,2001-01-09, 13:38:14,100Hz,119.0,U-D,0.0002384185791015,2.788,73.075296180477,419.0,419.00000000000006,19.472014553679585,4.617596582140874,3.692574419737882,3.224605993103204,3.3412569300226607,4.337003875333511,0.0099335340385178,0.0099335340385178,0.0099335340385178,0.0099335340385178,0.0099335340385178,1.401683606361005,1.401683606361005,1.401683606361005,1.401683606361005,1.401683606361005,E-W,0.0002384185791015,8.472,N-S,0.0002384185791015,7.858
20010109133700.knt,YMG0160101091337.UD,2001-01-09, 13:37:00,33.588,132.365,50.0,4.6,YMG016,34.1699,132.1766,7.0,2001-01-09, 13:38:12,100Hz,119.0,U-D,0.0002384185791015,3.435,67.00102014019866,522.0,529.0,25.704433589171675,5.73531772145363,5.165563784544829,3.935852847211945,2.355238247601996,1.2861852396667677,0.0100439625835695,0.0100439625835695,0.0094852994599545,0.0063078928716732,0.0034541026734593,1.528192118232858,1.528192118232858,1.528192118232858,1.528192118232858,1.528192118232858,E-W,0.0002384185791015,8.62,N-S,0.0002384185791015,5.562
20010109133700.knt,YMG0170101091337.UD,2001-01-09, 13:37:00,33.588,132.365,50.0,4.6,YMG017,33.9649,132.1011,2.0,2001-01-09, 13:38:01,100Hz,119.0,U-D,0.0002384185791015,4.035,48.49051582179773,1421.0,1421.0,15.294561090046155,0.9281794882787444,0.962849881304143,0.8875749130599674,0.7112238676984463,0.5304219875056009,0.0045644104665956,0.0045644104665956,0.0045644104665956,0.0045644104665956,0.0045644104665956,4.03856911260769,4.03856911260769,4.03856911260769,4.03856911260769,4.03856911260769,E-W,0.0002384185791015,8.089,N-S,0.0002384185791015,10.166
20010109133700.knt,YMG0190101091337.UD,2001-01-09, 13:37:00,33.588,132.365,50.0,4.6,YMG019,33.8388,132.1205,90.0,2001-01-09, 13:38:00,100Hz,119.0,U-D,0.0002384185791015,9.372,35.90482595944359,1396.0,1395.0,37.12609306643141,4.1341979476898825,4.09350149801023,3.359727683842712,1.868368082629444,0.6713338754407177,0.0186644960752991,0.0186644960752991,0.0186644960752991,0.0142329517219919,0.0068136652992128,4.078737646582619,4.078737646582619,4.078737646582619,4.078737646582619,4.078737646582619,E-W,0.0002384185791015,20.092,N-S,0.0002384185791015,14.487
20010928111600.knt,GNM0010109281116.UD,2001-09-28, 11:16:00,36.65,139.459,11.0,3.5,GNM001,36.7722,139.2248,810.0,2001-09-28, 11:16:31,100Hz,119.0,U-D,0.0002384185791015,10.857,24.909245821466676,1397.0,1399.0,15.874877024571145,0.640725994637494,0.4396303880135377,0.4814204081826249,0.3647913394398085,0.1718624043803312,0.0043859457356461,0.0032758142677737,0.0020673828694068,0.0020673828694068,0.0016308650382873,10.847786400825068,10.847786400825068,5.950622239874771,5.950622239874771,5.950622239874771,E-W,0.0002384185791015,21.372,N-S,0.0002384185791015,10.949
20010928111600.knt,GNM0030109281116.UD,2001-09-28, 11:16:00,36.65,139.459,11.0,3.5,GNM003,36.6578,139.0784,462.0,2001-09-28, 11:16:37,100Hz,119.0,U-D,0.0002384185791015,2.143,33.96317068864032,969.0,8.0,9.526997080279472,3.447602705425175,4.388095658183598,4.660459028364191,4.586315783742414,3.8927760848344426,0.0046462981998202,0.0046462981998202,0.0046462981998202,0.0046462981998202,0.0046462981998202,2.140306987885004,0.9521002144848466,0.9521002144848466,0.9521002144848466,0.9521002144848466,E-W,0.0002384185791015,2.084,N-S,0.0002384185791015,3.385
20010928111600.knt,GNM0100109281116.UD,2001-09-28, 11:16:00,36.65,139.459,11.0,3.5,GNM010,36.2343,139.5331,22.0,2001-09-28, 11:16:35,100Hz,119.0,U-D,0.0002384185791015,3.412,46.69655172142606,1415.0,1416.0,8.389363936055258,0.8655131892864921,0.8826815973253754,0.905209260715883,0.736803674747578,0.3220638762918795,0.0016025713677091,0.0016025713677091,0.0016025713677091,0.0016025713677091,0.0014902477099,3.409961230189543,3.409961230189543,3.409961230189543,3.409961230189543,3.409961230189543,E-W,0.0002384185791015,2.016,N-S,0.0002384185791015,1.764
20010928111600.knt,TCG0030109281116.UD,2001-09-28, 11:16:00,36.65,139.459,11.0,3.5,TCG003,36.8144,139.7153,398.0,2001-09-28, 11:16:35,100Hz,119.0,U-D,0.0002384185791015,0.398,29.25506780578253,0.0,1.0,2.352463328350961,0.0,0.0,0.0,0.0,0.0,0.0,0.0,0.0,0.0,0.0,0.0,0.0,0.0,0.0,0.0,E-W,0.0002384185791015,2.737,N-S,0.0002384185791015,4.429
20010928111600.knt,TCG0040109281116.UD,2001-09-28, 11:16:00,36.65,139.459,11.0,3.5,TCG004,36.8061,139.4204,1490.0,2001-09-28, 11:16:29,100Hz,119.0,U-D,0.0002384185791015,7.705,17.695135026014988,1492.0,41.0,10.275459850860376,0.6802053632869304,0.4475371103805751,0.3176361607984886,0.633711502012539,0.5361138439273873,0.0080150950944921,0.0062702526636102,0.0035979141453947,0.0017370321580311,0.0017370321580311,7.71706973122204,7.71706973122204,7.71706973122204,7.71706973122204,7.71706973122204,E-W,0.0002384185791015,15.821,N-S,0.0002384185791015,5.594
20010928111600.knt,TCG0050109281116.UD,2001-09-28, 11:16:00,36.65,139.459,11.0,3.5,TCG005,36.8061,139.9264,197.0,2001-09-28, 11:16:41,100Hz,119.0,U-D,0.0002384185791015,0.833,45.12674622025713,0.0,33.0,9.08781114712055,0.0,0.0,0.0,0.0,0.0,0.0,0.0,0.0,0.0,0.0,0.0,0.0,0.0,0.0,0.0,E-W,0.0002384185791015,4.35,N-S,0.0002384185791015,4.901
20010928111600.knt,TCG0090109281116.UD,2001-09-28, 11:16:00,36.65,139.459,11.0,3.5,TCG009,36.7258,139.7155,361.0,2001-09-28, 11:16:34,100Hz,119.0,U-D,0.0002384185791015,14.393,24.375053536273416,1117.0,48.0,6.239078730726617,0.2443677972372131,0.2385193143652842,0.6713007862951598,0.4958679132118875,0.2873122555143155,0.0087133345178187,0.0087133345178187,0.0031822286372108,0.0023940171894063,0.0019777557276856,14.404886660713611,13.654864010841786,3.0117127283347958,3.0117127283347958,3.0117127283347958,E-W,0.0002384185791015,15.381,N-S,0.0002384185791015,25.032
