earthquake name,records name,earthquake date,earthquake time,lat,long,depth,mag,stn_code,stn_lat,stn_long,stn_height,rcd_date,rcd_time,frequency,rcd_duration,direction,scale_factor,max_pga,epi_dist,pick_index_manually,pick_index_kalkan,snr_db_kalkan,tc_5sec,tc_4sec,tc_3sec,tc_2sec,tc_1sec,Pd_5sec,Pd_4sec,Pd_3sec,Pd_2sec,Pd_1sec,Pga_5sec,Pga_4sec,Pga_3sec,Pga_2sec,Pga_1sec,Channel,Scale_factor,PGA_ew,Channel.1,Scale_factor.1,PGA_ns
19990201020100.knt,FKS0169902010201.UD,1999-02-01, 02:01:00,37.136,141.514,48,4.4,FKS016,37.1228,140.1914,375,1999-02-01, 02:02:47,100Hz,119,U-D,0.0002384185791015,7.343,117.26050662476884,1388,1401.0,28.37750134608285,0.6110511961424233,0.4983877965911825,0.3259057760711575,0.2129659848555623,0.2276354164067475,0.003868664193532,0.0035129587248093,0.0026895841682561,0.0026895841682561,0.0026895841682561,7.341290730412306,7.341290730412306,7.341290730412306,7.341290730412306,7.341290730412306,E-W,0.0002384185791015,17.748,N-S,0.0002384185791015,14.976
19990201020100.knt,FKS0179902010201.UD,1999-02-01, 02:01:00,37.136,141.514,48,4.4,FKS017,37.2842,140.3689,263,1999-02-01, 02:02:44,100Hz,119,U-D,0.0002384185791015,4.539,102.73757205362,1469,1469.0,28.97738361462578,0.7680385788480456,0.7355789688052362,0.6608027184176448,0.5087868598835745,0.3271236092255994,0.0036978271357377,0.0036978271357377,0.0036978271357377,0.003240540285999,0.003104747341214,4.523779919735506,4.523779919735506,4.523779919735506,4.523779919735506,4.523779919735506,E-W,0.0002384185791015,6.261,N-S,0.0002384185791015,6.164
19990201020100.knt,FKS0199902010201.UD,1999-02-01, 02:01:00,37.136,141.514,48,4.4,FKS019,37.603,140.4368,235,1999-02-01, 02:02:56,100Hz,119,U-D,0.0002384185791015,7.771,108.4343084817469,313,313.0,15.2078257473428,10.00261345020324,9.371347032139074,10.216451289001522,13.494873205726488,23.194625202355912,0.1273100881512285,0.1273100881512285,0.1273100881512285,0.1273100881512285,0.1273100881512285,5.856119885646555,5.856119885646555,5.856119885646555,5.856119885646555,2.9638891923054445,E-W,0.0002384185791015,9.63,N-S,0.0002384185791015,10.294
19990201020100.knt,FKS0249902010201.UD,1999-02-01, 02:01:00,37.136,141.514,48,4.4,FKS024,37.3957,140.1325,527,1999-02-01, 02:02:48,100Hz,119,U-D,0.0002384185791015,5.686,125.61568065678006,1372,1390.0,31.0597967792504,3.165195897576566,2.9137201536047947,2.216684672807381,0.9088051865198566,0.2140162744692909,0.0173293909004615,0.0173293909004615,0.0173293909004615,0.0099433506209676,0.0030350762962347,5.658664098593023,5.658664098593023,5.658664098593023,5.658664098593023,5.658664098593023,E-W,0.0002384185791015,12.568,N-S,0.0002384185791015,8.938
19990201020100.knt,FKS0319902010201.UD,1999-02-01, 02:01:00,37.136,141.514,48,4.4,FKS031,37.3364,140.8132,399,1999-02-01, 02:02:39,100Hz,119,U-D,0.0002384185791015,4.99,65.92042955011584,1465,1458.0,36.49165807009035,4.140745598654555,4.096620780246858,3.506930863272423,2.114718108112522,0.5729773261831742,0.0129345140371821,0.0129345140371821,0.0129345140371821,0.011645101029023,0.0044498513195866,5.009634563324369,5.009634563324369,5.009634563324369,5.009634563324369,5.009634563324369,E-W,0.0002384185791015,6.37,N-S,0.0002384185791015,6.183
19990201020100.knt,IBR0019902010201.UD,1999-02-01, 02:01:00,37.136,141.514,48,4.4,IBR001,36.7761,140.3569,105,1999-02-01, 02:02:57,100Hz,119,U-D,0.0002384185791015,4.186,110.32755191578455,247,255.00000000000003,21.195107141727306,8.364167500806031,8.990987367207167,10.894681070473773,12.963690630054732,17.79135024095246,0.0181270965518925,0.0181270965518925,0.0181270965518925,0.0181270965518925,0.0181270965518925,1.8843115217988875,1.8843115217988875,1.8843115217988875,1.8843115217988875,1.1230843206961776,E-W,0.0002384185791015,6.114,N-S,0.0002384185791015,7.769
19990201020100.knt,IBR0029902010201.UD,1999-02-01, 02:01:00,37.136,141.514,48,4.4,IBR002,36.7061,140.7068,9,1999-02-01, 02:02:52,100Hz,119,U-D,0.0002384185791015,2.686,86.22115513978231,419,430.0,22.956336115613727,5.484475251508187,5.085352055603226,4.266703386154517,4.636147872624148,6.352816603834803,0.0043817730411661,0.0043817730411661,0.0043817730411661,0.0043817730411661,0.0043817730411661,0.5303131421224536,0.5303131421224536,0.4819517072566118,0.4485121389973633,0.434147707536251,E-W,0.0002384185791015,4.988,N-S,0.0002384185791015,4.907
19990201020100.knt,IBR0039902010201.UD,1999-02-01, 02:01:00,37.136,141.514,48,4.4,IBR003,36.5915,140.6453,58,1999-02-01, 02:02:54,100Hz,119,U-D,0.0002384185791015,4.893,98.17411866355565,358,381.0,21.454532968196748,3.269180485438575,2.8311965587731303,2.6244893877315376,2.872445392065975,3.4231538063464235,0.0057832759243538,0.0057832759243538,0.0057832759243538,0.0057832759243538,0.0057832759243538,1.5894013755719392,1.476215799744259,1.476215799744259,1.476215799744259,1.476215799744259,E-W,0.0002384185791015,8.936,N-S,0.0002384185791015,9.55
19990201020100.knt,MYG0159902010201.UD,1999-02-01, 02:01:00,37.136,141.514,48,4.4,MYG015,38.1049,140.8699,3,1999-02-01, 02:02:00,100Hz,119,U-D,0.0002384185791015,3.087,121.75848999970832,57,94.0,18.663317254709906,7.461145498876016,8.165228017102207,8.42535757462226,6.767206110836454,4.378553056684964,0.0118255001168911,0.0118255001168911,0.0118255001168911,0.0107402386558887,0.0067307254094274,1.2521026614180135,1.03159729162631,1.03159729162631,1.03159729162631,0.6287719461223565,E-W,0.0002384185791015,6.142,N-S,0.0002384185791015,8.13
19990201023800.knt,NAR0099902010238.UD,1999-02-01, 02:38:00,33.703,135.48,17,3.5,NAR009,33.938,135.7552,200,1999-02-01, 02:39:12,100Hz,119,U-D,0.0002384185791015,1.804,36.45726246098274,809,814.0,16.694216779691196,5.500755262257355,6.698529738765064,6.441319972704743,4.830720848315381,2.638362644306528,0.003004706069584,0.003004706069584,0.003004706069584,0.0029264597003594,0.0020941107638555,1.80824293145432,1.80824293145432,1.80824293145432,1.80824293145432,1.80824293145432,E-W,0.0002384185791015,2.731,N-S,0.0002384185791015,3.545
19990201023800.knt,TKS0039902010238.UD,1999-02-01, 02:38:00,33.703,135.48,17,3.5,TKS003,33.8716,134.6039,8,1999-02-01, 02:39:24,100Hz,119,U-D,0.0002384185791015,1.27,83.1066053555807,337,340.0,14.891076454861889,6.850533476668439,7.155972799893277,6.041546210654437,3.51010376158794,0.97138700902246,0.0022656764224701,0.0022656764224701,0.0022656764224701,0.0019318608361706,0.0005956245320953,0.708719364294585,0.708719364294585,0.708719364294585,0.708719364294585,0.708719364294585,E-W,0.0002384185791015,3.542,N-S,0.0002384185791015,3.447
19990201023800.knt,WKY0059902010238.UD,1999-02-01, 02:38:00,33.703,135.48,17,3.5,WKY005,33.8938,135.4883,316,1999-02-01, 02:39:06,100Hz,120,U-D,0.0002384185791015,2.881,21.22984973358735,1170,1177.0,21.52388864382461,4.090292359055615,3.761662982343532,3.7474898698595767,4.438747690598594,1.8267836225442555,0.0041406555909844,0.0041406555909844,0.0040547128344755,0.0026391347294419,0.0010385772417956,2.8884028410150853,2.8884028410150853,2.407521484462346,0.6238938782317196,0.4823170062714584,E-W,0.0002384185791015,18.024,N-S,0.0002384185791015,15.168
19990201023800.knt,WKY0089902010238.UD,1999-02-01, 02:38:00,33.703,135.48,17,3.5,WKY008,33.7289,135.3772,4,1999-02-01, 02:39:02,100Hz,119,U-D,0.0002384185791015,8.807,9.9347539923108,1415,1415.0,27.516144608010222,0.8244181214103887,0.7791165623682481,0.5143135190818764,0.3431560891660246,0.4199338710936884,0.0070429726491025,0.0070429726491025,0.0056071826576254,0.0032034889661059,0.0032034889661059,8.828443873332693,8.828443873332693,8.828443873332693,8.828443873332693,8.828443873332693,E-W,0.0002384185791015,40.274,N-S,0.0002384185791015,11.667
19990201023800.knt,WKY0109902010238.UD,1999-02-01, 02:38:00,33.703,135.48,17,3.5,WKY010,33.5503,135.4972,6,1999-02-01, 02:39:06,100Hz,119,U-D,0.0002384185791015,3.189,17.053983026295803,1113,1113.0,22.674710860377097,1.1831264302226063,0.8604798866850186,0.6627608440807029,1.3631544719889903,1.5861179687757474,0.0020803306608324,0.0018391489288987,0.0012734803932914,0.0012734803932914,0.0012734803932914,3.183349832313929,3.183349832313929,3.183349832313929,1.1856970596639465,1.1856970596639465,E-W,0.0002384185791015,4.15,N-S,0.0002384185791015,3.556
19990201023800.knt,WKY0149902010238.UD,1999-02-01, 02:38:00,33.703,135.48,17,3.5,WKY014,33.7053,135.6397,430,1999-02-01, 02:39:05,100Hz,119,U-D,0.0002384185791015,1.251,14.775198102006604,1185,1186.0,19.39287800613214,0.9223823253108772,0.7827023128633579,0.522090045201387,0.6489711141939727,0.7023148801588776,0.0013615597172293,0.0013615597172293,0.0010332167347813,0.0010332167347813,0.0010332167347813,1.2542540881224955,1.2542540881224955,1.2542540881224955,1.2542540881224955,1.2542540881224955,E-W,0.0002384185791015,2.662,N-S,0.0002384185791015,2.4
19990201042900.knt,HKD0619902010429.UD,1999-02-01, 04:29:00,43.353,146.963,46,5.3,HKD061,44.0699,144.9973,64,1999-02-01, 04:30:50,100Hz,119,U-D,0.0002384185791015,1.251,176.9575677814514,354,105.0,12.28672770765704,2.225133517759493,1.8804964268146545,1.4139479706366411,1.5120611034739266,2.4878822699409238,0.0051231936760263,0.0051231936760263,0.0029896383735447,0.0029896383735447,0.0027588942293542,0.6787300999090777,0.603595711835728,0.603595711835728,0.4711619653245151,0.3503730357774879,E-W,0.0002384185791015,4.194,N-S,0.0002384185791015,4.417
19990201042900.knt,HKD0669902010429.UD,1999-02-01, 04:29:00,43.353,146.963,46,5.3,HKD066,43.6619,145.1307,2,1999-02-01, 04:30:41,100Hz,119,U-D,0.0002384185791015,7.061,151.70721567504933,917,937.0,35.48622818925027,1.2241038832462137,1.3612973211825563,1.5288848304696838,1.530041937408135,1.9985575918600351,0.0076147851870821,0.0076147851870821,0.0076147851870821,0.0076147851870821,0.0076147851870821,2.5020907684105884,2.218296806384955,1.4703812763840325,1.0535070081520832,0.4709136553718293,E-W,0.0002384185791015,12.735,N-S,0.0002384185791015,14.031
19990201042900.knt,HKD0699902010429.UD,1999-02-01, 04:29:00,43.353,146.963,46,5.3,HKD069,43.3941,145.1168,25,1999-02-01, 04:30:41,100Hz,119,U-D,0.0002384185791015,6.048,149.28912437221098,892,1032.0,28.71744762235791,3.1384327970052834,3.484402930175192,4.127812454146795,5.279852582000542,4.457537481744002,0.0115175152723625,0.0115175152723625,0.0115175152723625,0.0115175152723625,0.0113042251268647,2.414132732398829,2.414132732398829,1.579416011508926,0.90355670134093,0.2233306641560659,E-W,0.0002384185791015,15.415,N-S,0.0002384185791015,18.997
19990201042900.knt,HKD0709902010429.UD,1999-02-01, 04:29:00,43.353,146.963,46,5.3,HKD070,43.3852,145.284,6,1999-02-01, 04:30:47,100Hz,119,U-D,0.0002384185791015,6.332,135.7628759657962,115,230.00000000000003,21.53622378807136,5.949831544432376,7.17608262036711,7.961729703585702,5.838744182181944,7.425289838076866,0.0206111506015584,0.0206111506015584,0.0206111506015584,0.0181807757455215,0.008999904421247,2.018773441888454,2.018773441888454,1.0720361297642065,0.5724515088042114,0.1367335266851931,E-W,0.0002384185791015,20.456,N-S,0.0002384185791015,16.134
19990201042900.knt,HKD0719902010429.UD,1999-02-01, 04:29:00,43.353,146.963,46,5.3,HKD071,43.2326,145.2604,38,1999-02-01, 04:30:44,100Hz,119,U-D,0.0002384185791015,5.278,138.44496289900036,433,577.0,26.93477502243768,3.469766629405093,3.802942027627078,3.568962531705333,2.581516508120115,2.052035498786924,0.0048114950108978,0.0048114950108978,0.0048114950108978,0.0038585205833923,0.001793880683267,1.5595907573466012,1.244507515039274,1.244507515039274,0.7117332712673763,0.129158402636126,E-W,0.0002384185791015,18.739,N-S,0.0002384185791015,14.856
19990201042900.knt,HKD0729902010429.UD,1999-02-01, 04:29:00,43.353,146.963,46,5.3,HKD072,43.1948,145.5209,46,1999-02-01, 04:30:33,100Hz,126,U-D,0.0002384185791015,14.274,118.0677296547416,1363,1378.0,36.10951260588584,1.8192360755471333,1.858272149462961,1.7305189703874848,1.820817282336377,1.39439515858831,0.0161229354662229,0.0161229354662229,0.0161229354662229,0.0161229354662229,0.012246243034651,4.741354941468436,4.741354941468436,4.741354941468436,4.610425372623375,3.56666539490694,E-W,0.0002384185791015,50.045,N-S,0.0002384185791015,80.84
19990201042900.knt,HKD0739902010429.UD,1999-02-01, 04:29:00,43.353,146.963,46,5.3,HKD073,43.3327,145.6003,36,1999-02-01, 04:30:44,100Hz,119,U-D,0.0002384185791015,8.347,110.22014625206702,65,164.0,22.34386251283597,5.039750819734829,5.468400600690406,4.72210559043131,3.013673072636932,2.137646944503267,0.0183034650672842,0.0183034650672842,0.0168541465939353,0.012358963862944,0.0024234008245216,2.233046354153577,2.233046354153577,2.0667569717633656,0.9885431817821836,0.2240630355069824,E-W,0.0002384185791015,19.569,N-S,0.0002384185791015,18.198
19990201042900.knt,HKD0749902010429.UD,1999-02-01, 04:29:00,43.353,146.963,46,5.3,HKD074,43.3687,145.8028,16,1999-02-01, 04:30:30,100Hz,119,U-D,0.0002384185791015,20.705,93.8102365620319,1327,1327.0,31.5968465152406,0.881694940960016,0.9419344621799508,0.8252473254575106,0.931012192147446,1.1306425341717887,0.0150579438808438,0.0150579438808438,0.0131787053614689,0.0131787053614689,0.0129939562480659,10.376028306224637,10.376028306224637,10.376028306224637,8.145086523770377,5.108292717330071,E-W,0.0002384185791015,73.229,N-S,0.0002384185791015,54.077
19990201044700.knt,AIC0049902010447.UD,1999-02-01, 04:47:00,34.936,136.814,17,3.4,AIC004,35.0634,136.9736,30,1999-02-01, 04:47:14,100Hz,119,U-D,0.0002384185791015,6.24,20.29815803876379,1445,1445.0,24.70379992065395,2.781804777987566,2.5978984887148697,2.337036721201081,1.6505538488215885,0.4575808526168643,0.0141625735374614,0.0141625735374614,0.0141625735374614,0.0090900820642499,0.0031127287733667,6.235457108228513,6.235457108228513,6.235457108228513,4.113584855984651,4.113584855984651,E-W,0.0002384185791015,8.427,N-S,0.0002384185791015,10.34
19990201044700.knt,AIC0109902010447.UD,1999-02-01, 04:47:00,34.936,136.814,17,3.4,AIC010,34.976,137.4236,525,1999-02-01, 04:47:21,100Hz,119,U-D,0.0002384185791015,1.29,55.73326621270992,717,725.0,16.72342853899183,1.987327650779379,1.9641738895512109,2.042594557105404,2.1657153426263536,1.826013986963988,0.0007801458777057,0.0007801458777057,0.0007801458777057,0.0007801458777057,0.0007801458777057,0.3732924952395071,0.3732924952395071,0.3732924952395071,0.3732924952395071,0.3732924952395071,E-W,0.0002384185791015,3.966,N-S,0.0002384185791015,2.498
19990201044700.knt,AIC0119902010447.UD,1999-02-01, 04:47:00,34.936,136.814,17,3.4,AIC011,34.9965,136.8639,5,1999-02-01, 04:47:14,100Hz,119,U-D,0.0002384185791015,14.912,8.1198562813726,1293,1293.0,23.07765186986364,0.3845181487802228,0.372049662134389,0.3131506715627451,0.2985438057896898,0.42929483996497,0.0114199791717939,0.0114199791717939,0.0114199791717939,0.0038935108267161,0.0022200923157498,14.86138610675799,14.86138610675799,14.86138610675799,14.808023438693816,8.586412934322787,E-W,0.0002384185791015,19.294,N-S,0.0002384185791015,44.049
19990201044700.knt,AIC0129902010447.UD,1999-02-01, 04:47:00,34.936,136.814,17,3.4,AIC012,34.9119,137.0447,6,1999-02-01, 04:47:18,100Hz,119,U-D,0.0002384185791015,1.664,21.202971747333827,1054,1061.0,16.70635584999922,0.9642296507072016,1.0214288608924147,2.5597128972002947,3.4294649898683294,4.284837834970623,0.0015137448537283,0.0015137448537283,0.0015137448537283,0.0015137448537283,0.0015137448537283,1.6611785416531843,1.6611785416531843,0.932458171997355,0.932458171997355,0.6843841538303241,E-W,0.0002384185791015,2.563,N-S,0.0002384185791015,4.486
19990201044700.knt,MIE0029902010447.UD,1999-02-01, 04:47:00,34.936,136.814,17,3.4,MIE002,35.0279,136.5073,79,1999-02-01, 04:47:20,100Hz,119,U-D,0.0002384185791015,2.436,29.752042910086168,1004,1007.0,27.36819934668781,0.6608508839186209,0.6980976276271355,0.7960426655556537,0.8209522487249262,0.9418566730375224,0.0017642421879665,0.0017642421879665,0.0016432418984077,0.0016432418984077,0.0016432418984077,2.4355992970075766,2.4355992970075766,1.555942930205986,1.555942930205986,1.555942930205986,E-W,0.0002384185791015,4.058,N-S,0.0002384185791015,2.244
19990201044700.knt,MIE0039902010447.UD,1999-02-01, 04:47:00,34.936,136.814,17,3.4,MIE003,34.9704,136.6357,2,1999-02-01, 04:47:17,100Hz,119,U-D,0.0002384185791015,3.464,16.693967342683226,1114,1119.0,15.140121921568198,2.821442223806053,2.161739903582809,1.4899092328621184,0.8184630810035228,0.3627973507765757,0.0088689903537588,0.0070679456963572,0.0041197626836347,0.00162416101703,0.0006717706001184,3.4748700435964137,3.4748700435964137,3.4748700435964137,1.8416217575015148,1.585395827713521,E-W,0.0002384185791015,9.746,N-S,0.0002384185791015,16.831
19990201044700.knt,MIE0079902010447.UD,1999-02-01, 04:47:00,34.936,136.814,17,3.4,MIE007,34.651,136.3404,82,1999-02-01, 04:47:19,100Hz,119,U-D,0.0002384185791015,5.54,53.61488096541519,1451,1469.0,18.194908101694157,1.7744544418292731,1.631031335827766,1.3778769766069143,0.9384613658592612,0.3784778590367442,0.0041869200949136,0.0041869200949136,0.0041869200949136,0.0039068427638347,0.0024732613857362,5.53877895395355,5.53877895395355,5.53877895395355,5.53877895395355,5.53877895395355,E-W,0.0002384185791015,3.373,N-S,0.0002384185791015,3.672
19990201044700.knt,MIE0109902010447.UD,1999-02-01, 04:47:00,34.936,136.814,17,3.4,MIE010,34.4908,136.7334,19,1999-02-01, 04:47:25,100Hz,119,U-D,0.0002384185791015,1.249,50.04915499385453,813,818.0,16.628978935861866,3.362836319600276,2.748392968294818,1.97504094276472,1.2684974063234882,1.4859651000477565,0.0014257898044262,0.0013824290637484,0.0011794645858654,0.0010671102988591,0.0010671102988591,0.6582988967478296,0.6582988967478296,0.6582988967478296,0.6582988967478296,0.6582988967478296,E-W,0.0002384185791015,5.941,N-S,0.0002384185791015,3.941
19990201044700.knt,SIG0129902010447.UD,1999-02-01, 04:47:00,34.936,136.814,17,3.4,SIG012,34.9043,136.2307,230,1999-02-01, 04:47:26,100Hz,119,U-D,0.0002384185791015,0.852,53.298606139636256,743,751.0,16.626967009592512,12.131691895778737,12.584977126152744,12.485935307130315,8.520441665933982,6.079012407723393,0.0082036592398574,0.0082036592398574,0.0082036592398574,0.0078363415772821,0.0038731112827532,0.4242035568174086,0.4242035568174086,0.4242035568174086,0.4242035568174086,0.4242035568174086,E-W,0.0002384185791015,3.808,N-S,0.0002384185791015,2.294
19990203090400.knt,MIE0149902030904.UD,1999-02-03, 09:04:00,33.77,135.397,51,3.8,MIE014,34.0638,136.1687,85,1999-02-03, 09:04:57,100Hz,119,U-D,0.0002384185791015,1.345,78.34455735417437,427,445.0,17.782094064507923,4.188225534878823,2.8612979559638894,1.5782446554691512,1.2824470616821946,1.05443546252613,0.0030769362333533,0.0028646757842881,0.0015005928059835,0.0008691044389295,0.0008691044389295,0.990778870840445,0.990778870840445,0.990778870840445,0.8646759384721797,0.8646759384721797,E-W,0.0002384185791015,5.041,N-S,0.0002384185791015,4.958
19990203090400.knt,MIE0159902030904.UD,1999-02-03, 09:04:00,33.77,135.397,51,3.8,MIE015,33.8783,136.0822,6,1999-02-03, 09:04:55,100Hz,119,U-D,0.0002384185791015,1.933,64.43072774009806,455,460.00000000000006,23.146043892782565,4.930998152282599,4.036385242312783,3.2264191188578786,3.285454455634964,3.945441515772502,0.0047263929401992,0.004585669401372,0.004585669401372,0.004585669401372,0.004585669401372,1.7886600329740432,1.7886600329740432,1.7886600329740432,1.7886600329740432,1.7886600329740432,E-W,0.0002384185791015,3.582,N-S,0.0002384185791015,3.43
19990203090400.knt,MIE0179902030904.UD,1999-02-03, 09:04:00,33.77,135.397,51,3.8,MIE017,34.3624,136.3348,118,1999-02-03, 09:04:03,100Hz,119,U-D,0.0002384185791015,0.851,108.63237977539148,192,230.00000000000003,4.121246425445836,4.342506306568184,3.18714156015057,2.531327039969645,3.0974415728429325,2.521122775680673,0.0010174009857082,0.0007744958558811,0.0004255186125341,0.0004255186125341,0.0004255186125341,0.2087277609113304,0.2087277609113304,0.2087277609113304,0.2087277609113304,0.2087277609113304,E-W,0.0002384185791015,4.283,N-S,0.0002384185791015,9.936
