earthquake name,records name,earthquake date,earthquake time,lat,long,depth,mag,stn_code,stn_lat,stn_long,stn_height,rcd_date,rcd_time,frequency,rcd_duration,direction,scale_factor,max_pga,epi_dist,pick_index_manually,pick_index_kalkan,snr_db_kalkan,tc_5sec,tc_4sec,tc_3sec,tc_2sec,tc_1sec,Pd_5sec,Pd_4sec,Pd_3sec,Pd_2sec,Pd_1sec,Pga_5sec,Pga_4sec,Pga_3sec,Pga_2sec,Pga_1sec,Channel,Scale_factor,PGA_ew,Channel.1,Scale_factor.1,PGA_ns
19980103032000.knt,HKD0739801030320.UD,1998-01-03, 03:20:00,42.936,145.413,50,4.8,HKD073,43.3327,145.6003,36,1998-01-03, 03:20:08,100Hz,119,U-D,0.0002384185791015,42.631,46.65588021494651,1327,1360.0,26.955057435132908,0.4616091505427048,0.4740518823502679,0.4006156043882002,0.3398686855613492,0.3634800686824464,0.0089233668715293,0.0089233668715293,0.0089233668715293,0.0040850809348667,0.0035534474930906,11.883356526200986,11.883356526200986,11.883356526200986,6.133777417305131,4.960881141449685,E-W,0.0002384185791015,50.699,N-S,0.0002384185791015,137.427
19980103032000.knt,HKD0749801030320.UD,1998-01-03, 03:20:00,42.936,145.413,50,4.8,HKD074,43.3687,145.8028,16,1998-01-03, 03:20:10,100Hz,119,U-D,0.0002384185791015,27.846,57.5745164932974,1257,1273.0,28.228297206464102,0.2534631231881448,0.2591592910190842,0.3073116154683412,0.3730909001046153,0.4047010669118304,0.0072620116600275,0.0072620116600275,0.0072620116600275,0.0072620116600275,0.0072620116600275,9.175496854626378,9.175496854626378,7.249185598648139,4.7572271280379645,4.7572271280379645,E-W,0.0002384185791015,67.363,N-S,0.0002384185791015,54.017
19980103032000.knt,HKD0759801030320.UD,1998-01-03, 03:20:00,42.936,145.413,50,4.8,HKD075,43.0767,145.1296,11,1998-01-03, 03:20:06,100Hz,119,U-D,0.0002384185791015,38.275,27.853504991442662,1430,1437.0,43.76237134947586,0.5798667765798012,0.608183725079875,0.5997960313100006,0.6185525159093976,0.5273268034262417,0.0285635250420453,0.0285635250420453,0.0285635250420453,0.0285635250420453,0.0285635250420453,16.07233005438996,16.07233005438996,16.07233005438996,16.07233005438996,16.07233005438996,E-W,0.0002384185791015,81.732,N-S,0.0002384185791015,124.606
19980103032000.knt,HKD0769801030320.UD,1998-01-03, 03:20:00,42.936,145.413,50,4.8,HKD076,43.0509,144.8498,2,1998-01-03, 03:20:08,100Hz,119,U-D,0.0002384185791015,8.961,47.55421545790035,1392,1398.0,37.66043754963551,0.5995507388223836,0.6052936045282394,0.6103865346415813,0.6025217224735013,0.5913366062923154,0.0298304885533207,0.0298304885533207,0.0298304885533207,0.0298304885533207,0.0298304885533207,8.893121409066527,8.893121409066527,8.893121409066527,8.893121409066527,8.893121409066527,E-W,0.0002384185791015,16.93,N-S,0.0002384185791015,10.658
19980103032000.knt,HKD0779801030320.UD,1998-01-03, 03:20:00,42.936,145.413,50,4.8,HKD077,42.9845,144.3824,3,1998-01-03, 03:20:12,100Hz,119,U-D,0.0002384185791015,33.725,84.03818554529707,1413,1413.0,32.11857502037858,0.2996103451750032,0.2952439378878822,0.2878653725882504,0.2748950702202845,0.2824517429982892,0.0149143145726513,0.0149143145726513,0.0149143145726513,0.0149143145726513,0.0149143145726513,16.925271660616378,16.925271660616378,16.925271660616378,16.925271660616378,16.925271660616378,E-W,0.0002384185791015,61.584,N-S,0.0002384185791015,53.272
19980103032000.knt,HKD0789801030320.UD,1998-01-03, 03:20:00,42.936,145.413,50,4.8,HKD078,43.1486,144.4976,21,1998-01-03, 03:20:11,100Hz,119,U-D,0.0002384185791015,43.016,78.05696534099124,1442,1446.0,42.69534198533167,0.4105850468947181,0.3805203883345813,0.3083419168421312,0.2451245566186609,0.2111355255817512,0.0373549424229058,0.0373549424229058,0.0373549424229058,0.0373549424229058,0.0373549424229058,43.04819421840194,43.04819421840194,43.04819421840194,43.04819421840194,43.04819421840194,E-W,0.0002384185791015,116.857,N-S,0.0002384185791015,84.8
19980103032000.knt,HKD0799801030320.UD,1998-01-03, 03:20:00,42.936,145.413,50,4.8,HKD079,43.3033,144.5996,32,1998-01-03, 03:20:11,100Hz,119,U-D,0.0002384185791015,11.38,77.6304305934294,1469,1456.0,41.199316922934,0.6358472732771433,0.6460500079371381,0.6845077528628498,0.7152822549934289,0.6626014724513936,0.021348399060295,0.021348399060295,0.021348399060295,0.021348399060295,0.021348399060295,6.733634884323581,6.733634884323581,6.733634884323581,6.733634884323581,6.733634884323581,E-W,0.0002384185791015,10.815,N-S,0.0002384185791015,9.921
19980103032000.knt,HKD0809801030320.UD,1998-01-03, 03:20:00,42.936,145.413,50,4.8,HKD080,43.5077,144.4485,140,1998-01-03, 03:20:14,100Hz,119,U-D,0.0002384185791015,16.527,100.74053434836246,1403,1401.0,44.89427014457932,0.4697041300642081,0.4450003147684484,0.4271801423971366,0.4147074301421724,0.3809281884712499,0.0146101483938679,0.0146101483938679,0.0146101483938679,0.0146101483938679,0.0146101483938679,16.49901378484428,16.49901378484428,16.49901378484428,16.49901378484428,16.49901378484428,E-W,0.0002384185791015,20.354,N-S,0.0002384185791015,20.404
19980103032000.knt,HKD0819801030320.UD,1998-01-03, 03:20:00,42.936,145.413,50,4.8,HKD081,43.6427,144.3901,130,1998-01-03, 03:20:17,100Hz,119,U-D,0.0002384185791015,6.868,114.14555572147326,1285,1301.0,25.302518295395085,0.5872323082258295,0.6013267560943597,0.5299899890309533,0.5138908334328094,0.5995043968767955,0.0063856132921009,0.0063856132921009,0.004500932818863,0.0040344567655852,0.0040344567655852,2.721330534923267,2.721330534923267,2.721330534923267,2.544142122837811,1.4528164969650927,E-W,0.0002384185791015,7.766,N-S,0.0002384185791015,8.839
19980103032000.knt,HKD0839801030320.UD,1998-01-03, 03:20:00,42.936,145.413,50,4.8,HKD083,43.233,144.3248,38,1998-01-03, 03:20:13,100Hz,119,U-D,0.0002384185791015,13.691,94.34182584118813,1475,1469.0,46.08741630591207,0.7625586120530486,0.6483812509047244,0.4958325093476353,0.486604383561474,0.4804857177525257,0.0211782776379522,0.0211782776379522,0.0211782776379522,0.0211782776379522,0.0177910251274935,11.664900906614424,11.664900906614424,11.664900906614424,11.664900906614424,7.662953816252992,E-W,0.0002384185791015,20.339,N-S,0.0002384185791015,21.498
19980103032000.knt,HKD0849801030320.UD,1998-01-03, 03:20:00,42.936,145.413,50,4.8,HKD084,43.1141,144.123,30,1998-01-03, 03:20:28,100Hz,119,U-D,0.0002384185791015,4.01,106.71611806752674,106,104.0,32.4380434653535,3.463950036323416,3.760221890417952,3.600117025942805,3.20530071809442,2.091706386188801,0.0163929939748866,0.0163929939748866,0.0163929939748866,0.0163929939748866,0.0126888934950025,2.3024455211696697,2.3024455211696697,2.3024455211696697,2.3024455211696697,1.2069739129067938,E-W,0.0002384185791015,8.652,N-S,0.0002384185791015,8.738
19980103032000.knt,HKD0859801030320.UD,1998-01-03, 03:20:00,42.936,145.413,50,4.8,HKD085,42.9581,144.0697,5,1998-01-03, 03:20:15,100Hz,119,U-D,0.0002384185791015,7.167,109.36148954412624,1438,1426.0,41.46413058503459,0.5685698452885816,0.5558860509876083,0.5491770227920082,0.5579367996154098,0.5455974538775871,0.0085625969547769,0.0085625969547769,0.0085625969547769,0.0085625969547769,0.0085625969547769,4.749762783966076,4.749762783966076,4.749762783966076,4.749762783966076,4.749762783966076,E-W,0.0002384185791015,21.985,N-S,0.0002384185791015,29.307
19980103032000.knt,HKD0879801030320.UD,1998-01-03, 03:20:00,42.936,145.413,50,4.8,HKD087,43.1502,143.8916,170,1998-01-03, 03:20:31,100Hz,119,U-D,0.0002384185791015,2.483,125.90908164862508,35,35.0,19.67887747339851,5.2937013036413285,5.39792110274851,4.94379603733578,3.4421621488358105,1.5519033488254268,0.0204280442360325,0.0204280442360325,0.0204280442360325,0.0195619645432013,0.0127953748716819,2.467693198520813,2.467693198520813,2.467693198520813,2.467693198520813,2.467693198520813,E-W,0.0002384185791015,13.036,N-S,0.0002384185791015,11.762
19980103032000.knt,HKD0899801030320.UD,1998-01-03, 03:20:00,42.936,145.413,50,4.8,HKD089,43.2436,143.5544,90,1998-01-03, 03:20:22,100Hz,119,U-D,0.0002384185791015,4.415,154.74902457860318,1362,1355.0,33.0491226090964,0.6567624016590289,0.6547867020053375,0.666646566594359,0.6345151630324826,0.6043679677818875,0.0068545950296541,0.0068545950296541,0.0068545950296541,0.0068545950296541,0.0068545950296541,4.438999289961808,4.438999289961808,4.438999289961808,4.438999289961808,4.438999289961808,E-W,0.0002384185791015,11.99,N-S,0.0002384185791015,7.164
19980103032000.knt,HKD0919801030320.UD,1998-01-03, 03:20:00,42.936,145.413,50,4.8,HKD091,42.8087,143.6588,17,1998-01-03, 03:20:36,100Hz,119,U-D,0.0002384185791015,8.487,143.6489474719112,2,30.0,14.616549270649555,9.190418300845918,11.33513390602875,10.341213239267269,6.513293354325942,2.91990773728924,0.0639301937251745,0.0639301937251745,0.0639301937251745,0.053969154649206,0.0245934691987545,3.5742833874228896,1.3064798532215836,1.3064798532215836,1.3064798532215836,0.6579161287904692,E-W,0.0002384185791015,7.078,N-S,0.0002384185791015,6.922
19980103081300.knt,HYG0069801030813.UD,1998-01-03, 08:13:00,35.036,134.447,12,3.6,HYG006,35.3326,134.6652,150,1998-01-03, 08:13:31,100Hz,119,U-D,0.0002384185791015,0.795,38.48290981492486,953,957.0,17.29617590670676,2.6503729046251827,3.772862547212793,2.683489806124204,1.164499020866812,0.8996669780622573,0.0009740279835552,0.0009740279835552,0.0008519932541688,0.0003873872196524,0.0002732570923559,0.7889317759131989,0.3387603005730271,0.3387603005730271,0.3387603005730271,0.3387603005730271,E-W,0.0002384185791015,5.638,N-S,0.0002384185791015,5.203
19980103081300.knt,HYG0079801030813.UD,1998-01-03, 08:13:00,35.036,134.447,12,3.6,HYG007,35.1637,134.5459,254,1998-01-03, 08:13:25,100Hz,119,U-D,0.0002384185791015,2.181,16.81013744210281,1204,1209.0,20.044173444077064,5.321359981341391,3.498658713728852,2.3205428133567354,3.093046928524444,1.3530439138423958,0.0075185433873321,0.0069361401477198,0.0027754963252991,0.0027754963252991,0.0017559651094121,2.1866919307068478,2.1866919307068478,2.1866919307068478,1.6664333645350484,1.6664333645350484,E-W,0.0002384185791015,10.449,N-S,0.0002384185791015,8.608
19980103081300.knt,HYG0119801030813.UD,1998-01-03, 08:13:00,35.036,134.447,12,3.6,HYG011,34.9848,134.3228,75,1998-01-03, 08:13:22,100Hz,119,U-D,0.0002384185791015,19.716,12.66332303668004,1446,1445.0,31.535909472336723,1.905789081810407,1.8130437101469987,1.1401474742728963,0.244791221654853,0.1944058305040806,0.0103991912125757,0.0103991912125757,0.0103991912125757,0.0017909088135684,0.0017909088135684,19.74326001908829,19.74326001908829,19.74326001908829,19.74326001908829,19.74326001908829,E-W,0.0002384185791015,41.023,N-S,0.0002384185791015,48.236
19980103081300.knt,HYG0129801030813.UD,1998-01-03, 08:13:00,35.036,134.447,12,3.6,HYG012,34.9959,134.552,85,1998-01-03, 08:13:24,100Hz,119,U-D,0.0002384185791015,2.052,10.550640992233898,1236,198.0,10.915729610065892,5.974193139119482,5.262792142142862,3.040293828440268,2.65732862643753,1.7171006251785663,0.0173624751470803,0.0173624751470803,0.0130131161732799,0.0037906935377931,0.0027695886050592,2.032661651315588,2.032661651315588,2.032661651315588,1.2739492635431433,0.8580734649141862,E-W,0.0002384185791015,4.321,N-S,0.0002384185791015,5.662
19980103081300.knt,HYG0169801030813.UD,1998-01-03, 08:13:00,35.036,134.447,12,3.6,HYG016,34.7551,134.39,5,1998-01-03, 08:13:29,100Hz,119,U-D,0.0002384185791015,0.968,31.664299832873667,1054,227.0,14.124046404573532,2.230953351802905,2.731367811977473,3.268384251756596,3.8762879460172543,3.5811070455555565,0.0030769457280699,0.0018111165552804,0.0011884064540813,0.0010368037155625,0.0009469844027962,0.9405787793821442,0.8572335994242453,0.5169053881710917,0.5169053881710917,0.5169053881710917,E-W,0.0002384185791015,2.963,N-S,0.0002384185791015,2.279
19980103081300.knt,HYG0179801030813.UD,1998-01-03, 08:13:00,35.036,134.447,12,3.6,HYG017,34.8593,134.5445,24,1998-01-03, 08:13:26,100Hz,119,U-D,0.0002384185791015,1.909,21.56431329165478,1188,1188.0,22.387918632770027,2.32891202361448,2.400752842978908,3.1313355796190177,2.3697797766424515,1.0380163391130068,0.0037570861836606,0.0037570861836606,0.0036825725358548,0.0023282721001677,0.0010603443032649,1.904420355518908,1.904420355518908,1.477342534419244,1.477342534419244,1.477342534419244,E-W,0.0002384185791015,4.141,N-S,0.0002384185791015,3.281
19980103081300.knt,OKY0039801030813.UD,1998-01-03, 08:13:00,35.036,134.447,12,3.6,OKY003,35.1737,134.3386,323,1998-01-03, 08:13:25,100Hz,119,U-D,0.0002384185791015,2.601,18.21215537386211,1233,1241.0,26.59967685205355,1.071144876299762,0.7552159500891648,0.7754673227167326,1.1501183260126944,1.7842411463601755,0.0021764114161693,0.0018473178050301,0.0015930254066617,0.0009264683358683,0.0009264683358683,2.59171996573595,2.59171996573595,2.59171996573595,0.9346105280408864,0.8956751605026468,E-W,0.0002384185791015,5.279,N-S,0.0002384185791015,9.859
19980103081300.knt,OKY0099801030813.UD,1998-01-03, 08:13:00,35.036,134.447,12,3.6,OKY009,34.9176,134.0923,48,1998-01-03, 08:13:30,100Hz,119,U-D,0.0002384185791015,3.657,34.89597995385271,989,989.0,8.2194426641893,6.646905464864387,9.879871104100156,10.008274236351884,7.317961132315921,3.3692712071469426,0.0124285965336211,0.0124285965336211,0.0124285965336211,0.0123424350232634,0.006632285944271,3.657199110278944,2.2159962273466363,2.2159962273466363,2.2159962273466363,2.2159962273466363,E-W,0.0002384185791015,5.396,N-S,0.0002384185791015,7.81
19980103081300.knt,TTR0039801030813.UD,1998-01-03, 08:13:00,35.036,134.447,12,3.6,TTR003,35.3432,134.2075,85,1998-01-03, 08:13:31,100Hz,119,U-D,0.0002384185791015,2.235,40.5034016461187,982,987.0,15.938981158583456,7.184160414937815,8.006116105143077,5.6786660457971925,3.197217189951938,0.9689704847150776,0.0037966333949226,0.0032063537782156,0.0028687332851672,0.0017465924784504,0.000424579572773,0.7968718539202783,0.4373809283466451,0.4373809283466451,0.4303037762218545,0.3543027035869597,E-W,0.0002384185791015,3.355,N-S,0.0002384185791015,4.104
19980105030700.knt,KGS0059801050307.UD,1998-01-05, 03:07:00,31.853,130.281,6,3.3,KGS005,31.9006,130.4513,42,1998-01-05, 03:07:49,100Hz,119,U-D,0.0002384185791015,2.633,16.929269326110436,1141,1141.0,22.7395800904673,1.7213745951096686,1.6464226232498858,1.894989211043182,2.0312662440153466,1.9049656416682823,0.0061853354175541,0.0061853354175541,0.0061853354175541,0.0061853354175541,0.0061853354175541,2.6302760742890587,2.6302760742890587,2.6302760742890587,2.6302760742890587,2.6302760742890587,E-W,0.0002384185791015,5.457,N-S,0.0002384185791015,6.233
19980105030700.knt,KGS0079801050307.UD,1998-01-05, 03:07:00,31.853,130.281,6,3.3,KGS007,31.8143,130.3032,4,1998-01-05, 03:07:45,100Hz,119,U-D,0.0002384185791015,9.174,4.787090280821169,1386,1386.0,6.807350237753301,0.5271282183836729,0.5274366054061951,0.4830067701956261,0.3779102268391179,0.4428850627194782,0.0113796508646028,0.0113796508646028,0.0113796508646028,0.0045769062348444,0.0027722460669911,9.16251903296472,9.16251903296472,9.16251903296472,9.16251903296472,6.287198248067868,E-W,0.0002384185791015,14.307,N-S,0.0002384185791015,14.287
19980105030700.knt,KGS0109801050307.UD,1998-01-05, 03:07:00,31.853,130.281,6,3.3,KGS010,31.7123,130.2735,16,1998-01-05, 03:07:49,100Hz,119,U-D,0.0002384185791015,2.101,15.661179001280036,1138,1138.0,20.18933270166766,0.4767267102920225,0.5282541141832741,0.4745120466890564,0.588620129541163,0.4355231455382647,0.0041167059629408,0.0041167059629408,0.0012169263390631,0.0012088716177229,0.0009229621974721,2.0971448302220472,2.0971448302220472,2.0971448302220472,2.0971448302220472,2.0971448302220472,E-W,0.0002384185791015,3.201,N-S,0.0002384185791015,2.845
19980105195900.knt,KMM0199801051959.UD,1998-01-05, 19:59:00,32.27,129.748,10,3.7,KMM019,32.4589,130.1938,3,1998-01-05, 19:59:44,100Hz,119,U-D,0.0002384185791015,1.375,46.84359564812825,752,242.0,18.28482216860324,1.8012595534183538,1.7477110160594171,1.5863733187558873,1.3740346104358143,0.8998539978078692,0.0020852943087748,0.0020852943087748,0.0020852943087748,0.0020852943087748,0.0020852943087748,1.3812315928716132,1.3812315928716132,1.3812315928716132,1.3812315928716132,1.3812315928716132,E-W,0.0002384185791015,4.31,N-S,0.0002384185791015,0.896
19980105195900.knt,KMM0209801051959.UD,1998-01-05, 19:59:00,32.27,129.748,10,3.7,KMM020,32.3636,130.1807,10,1998-01-05, 19:59:36,100Hz,119,U-D,0.0002384185791015,2.969,41.97227300810967,1467,1462.0,17.544151545228974,0.9101578736947944,0.82818710815596,0.6081765080796124,0.3589550892267578,0.253057757516432,0.0025614709838941,0.0025614709838941,0.0025614709838941,0.0025614709838941,0.0025614709838941,2.964328463694829,2.964328463694829,2.964328463694829,2.964328463694829,2.964328463694829,E-W,0.0002384185791015,2.618,N-S,0.0002384185791015,1.827
19980105195900.knt,KMM0219801051959.UD,1998-01-05, 19:59:00,32.27,129.748,10,3.7,KMM021,32.3792,129.9977,2,1998-01-05, 19:59:37,100Hz,119,U-D,0.0002384185791015,3.505,26.41845439324144,1072,1069.0,30.512468200940717,1.078300598071792,1.335596491986736,0.9806704058210824,0.6112939930507653,0.5279144543425528,0.0054724391604611,0.0054724391604611,0.0049700244777773,0.0033186740551454,0.003135199653344,3.5240548373194374,2.8299462631765584,2.8299462631765584,2.8299462631765584,2.8299462631765584,E-W,0.0002384185791015,5.008,N-S,0.0002384185791015,4.192
19980105195900.knt,KMM0229801051959.UD,1998-01-05, 19:59:00,32.27,129.748,10,3.7,KMM022,32.1945,130.0265,4,1998-01-05, 19:59:34,100Hz,119,U-D,0.0002384185791015,22.399,27.507816976987787,1422,1436.0,32.696534630877906,0.2752949782926029,0.5334656661296444,1.1342877841993653,0.8562302375250362,0.5405251879169745,0.0153963488461815,0.0153963488461815,0.0035202708976681,0.0031485232856294,0.0028896617880684,22.39272366803823,10.942842065970762,5.11550403054849,5.11550403054849,5.11550403054849,E-W,0.0002384185791015,19.384,N-S,0.0002384185791015,25.82
19980105195900.knt,NGS0109801051959.UD,1998-01-05, 19:59:00,32.27,129.748,10,3.7,NGS010,32.7353,129.8763,77,1998-01-05, 19:59:46,100Hz,119,U-D,0.0002384185791015,2.556,53.11953279597142,594,623.0,20.93082965019368,0.5868596305455994,0.6434648414304166,0.7663349179146829,0.922031357798074,0.6495313224677127,0.0007195316910255,0.0007195316910255,0.0007195316910255,0.0007195316910255,0.0004112715066685,0.8970051304902945,0.8970051304902945,0.8970051304902945,0.8970051304902945,0.3793291100600409,E-W,0.0002384185791015,3.629,N-S,0.0002384185791015,3.924
19980108111100.knt,KGS0309801081111.UD,1998-01-08, 11:11:00,28.087,130.348,32,4.2,KGS030,28.451,129.6784,4,1998-01-08, 11:12:12,100Hz,119,U-D,0.0002384185791015,0.869,77.06100252851154,215,215.0,18.962879833366078,1.9173154540792048,1.971456449142168,1.9725190416018643,1.9638829812837575,2.74546125708077,0.0030596916491268,0.0030596916491268,0.0030596916491268,0.0030596916491268,0.0030596916491268,0.460103296277072,0.460103296277072,0.460103296277072,0.460103296277072,0.3703619053646767,E-W,0.0002384185791015,2.697,N-S,0.0002384185791015,3.419
19980108123500.knt,KGS0309801081235.UD,1998-01-08, 12:35:00,28.137,130.315,39,4.1,KGS030,28.451,129.6784,4,1998-01-08, 12:35:42,100Hz,119,U-D,0.0002384185791015,1.218,71.4424420323144,158,157.0,21.618630205443218,3.4863332773131157,3.739601279840151,4.471979217878544,4.0602393103666286,4.0788302409584976,0.013964322532748,0.013964322532748,0.013964322532748,0.013964322532748,0.013964322532748,1.111838440401567,1.111838440401567,1.111838440401567,1.111838440401567,1.0191272352176708,E-W,0.0002384185791015,3.158,N-S,0.0002384185791015,2.901
19980108123500.knt,KGS0319801081235.UD,1998-01-08, 12:35:00,28.137,130.315,39,4.1,KGS031,28.3571,129.3937,2,1998-01-08, 12:35:34,100Hz,119,U-D,0.0002384185791015,2.84,93.50382116346567,1278,1273.0,25.917403661142263,2.489837224299204,2.6081303751238245,2.7536923246216958,2.56248052915497,2.032769560312663,0.0085882268191177,0.0085882268191177,0.0085882268191177,0.0085882268191177,0.0085882268191177,1.4989467058984576,1.4989467058984576,1.4989467058984576,1.4989467058984576,1.4989467058984576,E-W,0.0002384185791015,4.514,N-S,0.0002384185791015,4.828
