earthquake name,records name,earthquake date,earthquake time,lat,long,depth,mag,stn_code,stn_lat,stn_long,stn_height,rcd_date,rcd_time,frequency,rcd_duration,direction,scale_factor,max_pga,epi_dist,pick_index_manually,pick_index_kalkan,snr_db_kalkan,tc_5sec,tc_4sec,tc_3sec,tc_2sec,tc_1sec,Pd_5sec,Pd_4sec,Pd_3sec,Pd_2sec,Pd_1sec,Pga_5sec,Pga_4sec,Pga_3sec,Pga_2sec,Pga_1sec,Channel,Scale_factor,PGA_ew,Channel.1,Scale_factor.1,PGA_ns
19980114021700.knt,KNG0119801140217.UD,1998-01-14, 02:17:00,35.586,140.23,76,4.9,KNG011,35.6154,139.1548,214,1998-01-14, 02:17:40,100Hz,119,U-D,0.0002384185791015,1.256,97.26533058763704,103,93.0,24.93079934590414,2.145418006193061,2.274220412446984,2.311364412022187,2.104691358718414,1.558664895333915,0.0069019068953245,0.0069019068953245,0.0069019068953245,0.0069019068953245,0.0069019068953245,1.2585988573379752,1.2585988573379752,1.2585988573379752,1.2585988573379752,0.7239762300068223,E-W,0.0002384185791015,2.687,N-S,0.0002384185791015,3.381
19980114021700.knt,KNG0129801140217.UD,1998-01-14, 02:17:00,35.586,140.23,76,4.9,KNG012,35.3794,139.2048,138,1998-01-14, 02:17:27,100Hz,119,U-D,0.0002384185791015,2.842,95.6266483470767,1385,1377.0,27.121929169323785,1.40554287513182,1.1901166407732884,0.7328921540642438,0.6309356753884068,0.7300189032397427,0.0050321748187605,0.0050321748187605,0.0036797719090001,0.0024959789885793,0.002163609844787,2.1890444658178634,2.1890444658178634,2.1890444658178634,2.0862317546472706,1.4238833317554327,E-W,0.0002384185791015,6.166,N-S,0.0002384185791015,7.378
19980114021700.knt,SIT0039801140217.UD,1998-01-14, 02:17:00,35.586,140.23,76,4.9,SIT003,36.072,139.6968,9,1998-01-14, 02:17:25,100Hz,119,U-D,0.0002384185791015,6.213,72.32604614744884,1381,1380.0,38.25204122757282,0.5086533322855863,0.4979992525830323,0.4301818791090289,0.4316115207900557,0.4325549115941897,0.011302123227653,0.011302123227653,0.011302123227653,0.011302123227653,0.011302123227653,6.129683484960425,6.129683484960425,6.129683484960425,6.129683484960425,6.129683484960425,E-W,0.0002384185791015,13.599,N-S,0.0002384185791015,8.371
19980114021700.knt,SIT0079801140217.UD,1998-01-14, 02:17:00,35.586,140.23,76,4.9,SIT007,36.054,139.3912,25,1998-01-14, 02:17:39,100Hz,119,U-D,0.0002384185791015,1.816,91.80265959241102,159,146.0,30.01306916262124,2.206762504838385,2.30320778572502,2.113646603774309,1.8411828415505425,1.248456004565643,0.0108236982810432,0.0108236982810432,0.0108236982810432,0.0108236982810432,0.0108236982810432,1.4725349498218734,1.4725349498218734,1.4725349498218734,1.4725349498218734,1.4725349498218734,E-W,0.0002384185791015,5.06,N-S,0.0002384185791015,3.598
19980114021700.knt,SIT0099801140217.UD,1998-01-14, 02:17:00,35.586,140.23,76,4.9,SIT009,35.9032,139.4837,22,1998-01-14, 02:17:26,100Hz,119,U-D,0.0002384185791015,2.787,76.02894753847517,1312,1338.0,25.041046417688907,0.8779376426422763,0.8587274581442764,0.7253959138755625,0.4562885702216919,0.6061196261891676,0.0040939805546207,0.0040939805546207,0.0038716763491134,0.0026779800862492,0.0026779800862492,2.7974051805147298,2.7974051805147298,2.7974051805147298,2.7974051805147298,2.7974051805147298,E-W,0.0002384185791015,6.608,N-S,0.0002384185791015,5.455
19980114021700.knt,SIT0109801140217.UD,1998-01-14, 02:17:00,35.586,140.23,76,4.9,SIT010,35.9065,139.6481,13,1998-01-14, 02:17:31,100Hz,119,U-D,0.0002384185791015,4.264,63.46530844664613,728,727.0,35.762229351993035,1.1002576483126385,1.0287801742027176,0.8292692222901158,0.8267733748960496,0.766523902530516,0.0096954549813978,0.0083932374711126,0.0083932374711126,0.0083932374711126,0.0083932374711126,2.125381465483383,2.125381465483383,2.125381465483383,2.125381465483383,1.6245497484484202,E-W,0.0002384185791015,13.186,N-S,0.0002384185791015,13.727
19980114021700.knt,SIT0119801140217.UD,1998-01-14, 02:17:00,35.586,140.23,76,4.9,SIT011,35.8098,139.7212,2,1998-01-14, 02:17:34,100Hz,119,U-D,0.0002384185791015,3.945,52.25202136779889,345,345.0,25.13953127983437,2.9390676869148358,2.8251076870823093,3.031471780230675,3.2646418073733323,3.093652158918802,0.0369827384022236,0.0369827384022236,0.0369827384022236,0.0369827384022236,0.0369827384022236,2.512996417535858,2.512996417535858,2.512996417535858,2.512996417535858,2.512996417535858,E-W,0.0002384185791015,14.362,N-S,0.0002384185791015,13.938
19980114021700.knt,SIT0129801140217.UD,1998-01-14, 02:17:00,35.586,140.23,76,4.9,SIT012,35.8401,139.3215,86,1998-01-14, 02:17:26,100Hz,119,U-D,0.0002384185791015,2.689,86.75332909029031,1404,1404.0,25.004973567927564,0.7708892399098148,0.7702505513535323,0.7388972184617192,0.5507444795117721,0.5728378075450898,0.0051720886096573,0.0051720886096573,0.0051720886096573,0.0051720886096573,0.0048467384804829,2.694898164358086,2.694898164358086,2.694898164358086,2.694898164358086,2.2677850478820947,E-W,0.0002384185791015,5.171,N-S,0.0002384185791015,3.866
19980114021700.knt,SIT0139801140217.UD,1998-01-14, 02:17:00,35.586,140.23,76,4.9,SIT013,35.7965,139.4659,76,1998-01-14, 02:17:37,100Hz,119,U-D,0.0002384185791015,3.221,72.86688612109133,207,207.0,30.97627245363539,0.940549571075994,0.8511613886946819,0.8683100626605986,0.9584712499700794,0.8811019523336372,0.0090755473911467,0.0090755473911467,0.0090755473911467,0.0090755473911467,0.0090755473911467,3.201971375668103,3.201971375668103,3.201971375668103,3.201971375668103,3.201971375668103,E-W,0.0002384185791015,9.474,N-S,0.0002384185791015,8.372
19980114021700.knt,SZO0019801140217.UD,1998-01-14, 02:17:00,35.586,140.23,76,4.9,SZO001,35.1424,139.0795,76,1998-01-14, 02:17:41,100Hz,119,U-D,0.0002384185791015,2.496,115.39752618067104,132,151.0,16.727532677576516,11.697332428457669,13.76118024960792,15.291828012126922,13.815369209245906,9.594579020192464,0.0480403481082805,0.0480403481082805,0.0480403481082805,0.0480403481082805,0.0425674988062136,2.1288872415324995,2.1288872415324995,2.089941798652461,2.018984534363232,1.9701008936421964,E-W,0.0002384185791015,13.816,N-S,0.0002384185791015,8.686
19980114021700.knt,TCG0129801140217.UD,1998-01-14, 02:17:00,35.586,140.23,76,4.9,TCG012,36.2859,139.8047,33,1998-01-14, 02:17:37,100Hz,119,U-D,0.0002384185791015,1.929,86.73459566568935,248,249.00000000000003,24.082878383950423,6.0677663645494135,6.714147557978533,7.886258622503878,8.457663699870432,8.214361767259813,0.0227388706444777,0.0227388706444777,0.0227388706444777,0.0227388706444777,0.0227388706444777,1.4525561380066705,1.3887177325065811,1.3887177325065811,1.3887177325065811,1.244318178117395,E-W,0.0002384185791015,5.066,N-S,0.0002384185791015,4.524
19980114021700.knt,TCG0139801140217.UD,1998-01-14, 02:17:00,35.586,140.23,76,4.9,TCG013,36.4368,140.0225,67,1998-01-14, 02:17:38,100Hz,119,U-D,0.0002384185791015,2.648,96.4279829557339,255,255.00000000000003,33.68363948986432,1.6567824464830918,1.641840547147079,1.9038195740925208,2.2527098482932724,2.4674042449622515,0.0116586083870089,0.0116586083870089,0.0116586083870089,0.0116586083870089,0.0116586083870089,2.0450675068500126,2.0450675068500126,1.87801050635734,1.860775976947336,1.645740260916449,E-W,0.0002384185791015,5.566,N-S,0.0002384185791015,4.473
19980114021700.knt,TKY0029801140217.UD,1998-01-14, 02:17:00,35.586,140.23,76,4.9,TKY002,35.7304,139.1454,302,1998-01-14, 02:17:40,100Hz,119,U-D,0.0002384185791015,1.741,99.29646120873367,114,97.0,29.21823763894908,1.2334118924864796,1.245604169501822,1.381780295052267,1.4287362747794212,1.045616224034669,0.0035400093482968,0.0035400093482968,0.0035400093482968,0.0035400093482968,0.0031395363158176,0.9742002860788764,0.9742002860788764,0.9742002860788764,0.9742002860788764,0.9742002860788764,E-W,0.0002384185791015,3.918,N-S,0.0002384185791015,3.297
19980114021700.knt,TKY0039801140217.UD,1998-01-14, 02:17:00,35.586,140.23,76,4.9,TKY003,35.7968,139.2912,181,1998-01-14, 02:17:38,100Hz,119,U-D,0.0002384185791015,3.604,87.9625177146834,216,144.0,22.839454941912194,5.370369830756231,5.758799320311584,6.190115916037542,6.554431085925728,7.698384082862811,0.0446689295031,0.0446689295031,0.0446689295031,0.0446689295031,0.0445839027103808,3.6129731039001336,3.6129731039001336,3.0486946964417068,3.0486946964417068,2.168449078418976,E-W,0.0002384185791015,10.983,N-S,0.0002384185791015,16.133
19980114021700.knt,TKY0049801140217.UD,1998-01-14, 02:17:00,35.586,140.23,76,4.9,TKY004,35.6282,139.4034,81,1998-01-14, 02:17:25,100Hz,119,U-D,0.0002384185791015,9.676,74.87544728970487,1419,1418.0,41.00746332933021,0.4101004022875387,0.4169390881370754,0.3844259242321747,0.3798661648790136,0.4661909334048504,0.0094881265848382,0.0094881265848382,0.0094881265848382,0.0094881265848382,0.0094881265848382,9.686393995904066,9.686393995904066,9.686393995904066,9.686393995904066,8.233787561140085,E-W,0.0002384185791015,13.691,N-S,0.0002384185791015,14.919
19980114021700.knt,TKY0059801140217.UD,1998-01-14, 02:17:00,35.586,140.23,76,4.9,TKY005,35.5782,139.4156,109,1998-01-14, 02:17:25,100Hz,119,U-D,0.0002384185791015,4.131,73.65344836847119,1410,1409.0,33.85917675674612,0.5008057971455113,0.5212751857544513,0.4945026925150229,0.5292416794308574,0.6679740323607626,0.0061555797708372,0.0061555797708372,0.0061555797708372,0.0061555797708372,0.0061555797708372,3.846425535545467,3.846425535545467,3.846425535545467,3.846425535545467,3.71990890057193,E-W,0.0002384185791015,9.977,N-S,0.0002384185791015,14.317
19980114021700.knt,TKY0069801140217.UD,1998-01-14, 02:17:00,35.586,140.23,76,4.9,TKY006,35.699,139.5029,71,1998-01-14, 02:17:24,100Hz,119,U-D,0.0002384185791015,3.247,66.89461419798698,1443,1443.0,34.539973755708864,1.2905838598868808,1.3821988930564195,1.2641547136188986,1.047302256765159,0.7025442661969348,0.0063796545074329,0.0063796545074329,0.0063796545074329,0.0053331935127708,0.0044769572624939,2.969997293527084,2.969997293527084,2.969997293527084,2.969997293527084,2.969997293527084,E-W,0.0002384185791015,7.511,N-S,0.0002384185791015,7.113
19980114021700.knt,TKY0079801140217.UD,1998-01-14, 02:17:00,35.586,140.23,76,4.9,TKY007,35.7107,139.6859,34,1998-01-14, 02:17:23,100Hz,119,U-D,0.0002384185791015,17.611,51.081668997408,1421,1438.0,22.42926703117644,0.5034213931507078,0.4376810416837594,0.3968693561513173,0.3441033986460544,0.2871137757940747,0.0131135274630253,0.0131135274630253,0.0131135274630253,0.0131135274630253,0.0131135274630253,17.648817481120968,17.648817481120968,17.648817481120968,17.648817481120968,17.648817481120968,E-W,0.0002384185791015,19.696,N-S,0.0002384185791015,17.099
19980114021700.knt,TKY0089801140217.UD,1998-01-14, 02:17:00,35.586,140.23,76,4.9,TKY008,34.7852,139.3909,67,1998-01-14, 02:17:29,100Hz,119,U-D,0.0002384185791015,5.732,117.23361415932042,1328,1383.0,25.977826838176004,0.6629069924841448,0.5398095722591957,0.4143318337680006,0.4810038896701682,0.8634520361512584,0.0071565328214671,0.0063404203535621,0.0063404203535621,0.0043488758192164,0.0032018287223325,5.161360098776411,5.161360098776411,5.161360098776411,2.297507279309976,1.0655536840855748,E-W,0.0002384185791015,10.368,N-S,0.0002384185791015,15.544
19980114021700.knt,TKY0099801140217.UD,1998-01-14, 02:17:00,35.586,140.23,76,4.9,TKY009,34.6874,139.4412,60,1998-01-14, 02:17:29,100Hz,119,U-D,0.0002384185791015,3.518,122.99830309773051,1425,1436.0,21.85604727781753,3.8545020676017256,3.651040223953911,3.082675707355659,2.321794552489464,1.6607547740988582,0.0202575620207185,0.0202575620207185,0.020209163153497,0.0161675046878911,0.0131944091972735,3.543131156067745,3.543131156067745,3.543131156067745,3.543131156067745,3.543131156067745,E-W,0.0002384185791015,4.388,N-S,0.0002384185791015,4.949
19980114021700.knt,YMN0029801140217.UD,1998-01-14, 02:17:00,35.586,140.23,76,4.9,YMN002,35.6132,138.947,368,1998-01-14, 02:17:30,100Hz,119,U-D,0.0002384185791015,2.634,116.03864643749746,1310,1320.0,28.4390974770131,0.708380706844076,0.6214174118148137,0.5414944222984,0.6103774406650012,1.1689658652697854,0.0033042919424524,0.0033042919424524,0.0033042919424524,0.0033042919424524,0.0031425216564165,2.634928772172377,2.634928772172377,2.634928772172377,2.634928772172377,1.1683398034558945,E-W,0.0002384185791015,6.99,N-S,0.0002384185791015,6.094
19980116105800.knt,CHB0029801161058.UD,1998-01-16, 10:58:00,35.203,140.297,57,4.6,CHB002,35.7868,139.9031,14,1998-01-16, 10:58:11,100Hz,119,U-D,0.0002384185791015,7.375,74.06524057416225,1388,245.00000000000003,8.74693577126375,2.8084333615786408,2.5117196786414384,1.7890171496584797,0.9522172229183324,0.8234719904707196,0.0167709220987499,0.0167709220987499,0.0162123043181377,0.0095010589712868,0.0080899431844782,7.39143596758347,7.39143596758347,7.39143596758347,7.39143596758347,4.584364810414764,E-W,0.0002384185791015,5.545,N-S,0.0002384185791015,6.712
19980116105800.knt,CHB0039801161058.UD,1998-01-16, 10:58:00,35.203,140.297,57,4.6,CHB003,35.7943,140.0564,28,1998-01-16, 10:58:10,100Hz,119,U-D,0.0002384185791015,12.664,69.26324604724941,1426,1443.0,18.091980690495877,0.2014687931819749,0.1959780099148328,0.1810504276486229,0.1844895905723386,0.1674265130003927,0.0044974187550567,0.0044974187550567,0.0044974187550567,0.0044974187550567,0.0044974187550567,12.650726381322436,12.650726381322436,12.650726381322436,12.650726381322436,12.650726381322436,E-W,0.0002384185791015,13.337,N-S,0.0002384185791015,11.738
19980116105800.knt,CHB0049801161058.UD,1998-01-16, 10:58:00,35.203,140.297,57,4.6,CHB004,35.9007,140.4905,14,1998-01-16, 10:58:11,100Hz,119,U-D,0.0002384185791015,5.516,79.53108487705231,1364,1359.0,28.48493387389768,0.4140758464698675,0.4398895028158733,0.3951129431715175,0.3672653191907695,0.352207683311764,0.0058101446825069,0.0058101446825069,0.0048519171613771,0.0048519171613771,0.0035056550081086,5.524199803671558,5.524199803671558,5.524199803671558,5.524199803671558,5.524199803671558,E-W,0.0002384185791015,11.398,N-S,0.0002384185791015,12.52
19980116105800.knt,CHB0079801161058.UD,1998-01-16, 10:58:00,35.203,140.297,57,4.6,CHB007,35.7234,140.2267,24,1998-01-16, 10:58:09,100Hz,119,U-D,0.0002384185791015,11.541,58.21504611720509,1379,1386.0,25.334540350496404,0.4643084076243698,0.4883783299952924,0.4968975585426461,0.4390076495389494,0.211374438383154,0.0114071012255336,0.0114071012255336,0.0114071012255336,0.0084438163771463,0.0084438163771463,11.519967016532489,11.519967016532489,11.519967016532489,11.519967016532489,11.519967016532489,E-W,0.0002384185791015,16.314,N-S,0.0002384185791015,20.171
19980116105800.knt,CHB0089801161058.UD,1998-01-16, 10:58:00,35.203,140.297,57,4.6,CHB008,35.6537,139.9023,4,1998-01-16, 10:58:09,100Hz,119,U-D,0.0002384185791015,6.672,61.56695488488336,1462,59.0,14.678938005778114,0.5162986552836369,0.4828709827915796,0.3813883461554059,0.3589682415594441,0.3493434627787471,0.0092695583962482,0.0092695583962482,0.0092695583962482,0.0092695583962482,0.0092695583962482,6.6878266870638985,6.6878266870638985,6.6878266870638985,6.6878266870638985,6.6878266870638985,E-W,0.0002384185791015,7.473,N-S,0.0002384185791015,8.463
19980116105800.knt,CHB0109801161058.UD,1998-01-16, 10:58:00,35.203,140.297,57,4.6,CHB010,35.7077,140.568,8,1998-01-16, 10:58:08,100Hz,119,U-D,0.0002384185791015,4.307,61.253256141940085,1469,1463.0,19.41623441442586,0.3969800184088331,0.4270319986308107,0.4395212501344509,0.4456564996579056,0.4820913556138331,0.0086957658222895,0.0086957658222895,0.0086957658222895,0.0086957658222895,0.0086957658222895,4.330023006176532,4.330023006176532,4.330023006176532,4.330023006176532,4.330023006176532,E-W,0.0002384185791015,14.098,N-S,0.0002384185791015,11.628
19980116105800.knt,CHB0119801161058.UD,1998-01-16, 10:58:00,35.203,140.297,57,4.6,CHB011,35.6021,140.5014,2,1998-01-16, 10:58:12,100Hz,119,U-D,0.0002384185791015,4.366,48.08950607812678,943,516.0,27.655103975612526,1.61948420438506,1.464681020966389,1.208060516527804,1.2348208415043345,1.2744805736100109,0.0111667480915251,0.0111667480915251,0.0111667480915251,0.0111667480915251,0.0111667480915251,1.8495946138718973,1.8495946138718973,1.8495946138718973,1.8495946138718973,1.8495946138718973,E-W,0.0002384185791015,16.612,N-S,0.0002384185791015,14.258
19980116105800.knt,CHB0129801161058.UD,1998-01-16, 10:58:00,35.203,140.297,57,4.6,CHB012,35.5727,140.3333,62,1998-01-16, 10:58:07,100Hz,119,U-D,0.0002384185791015,20.655,41.24025756130731,1397,1408.0,39.228858890633255,1.819218661031548,1.695619485667569,1.3757709589909188,1.1237173372360694,0.5849366395547804,0.0413153040859834,0.0413153040859834,0.0413153040859834,0.0285263521484432,0.0129678764429245,11.305543364697073,11.305543364697073,11.305543364697073,10.57368145095241,10.57368145095241,E-W,0.0002384185791015,37.761,N-S,0.0002384185791015,34.737
19980116105800.knt,CHB0139801161058.UD,1998-01-16, 10:58:00,35.203,140.297,57,4.6,CHB013,35.4327,140.2905,13,1998-01-16, 10:58:12,100Hz,119,U-D,0.0002384185791015,9.838,25.54828228835289,769,675.0,23.23432791703549,6.061382110703225,6.2770812234488265,6.397562323461324,11.15551570650979,12.04239579843604,0.0336863582217885,0.0336863582217885,0.0336863582217885,0.031830700166169,0.0275834061336111,4.471665175768661,4.471665175768661,4.471665175768661,2.254798003646712,1.8527869490817868,E-W,0.0002384185791015,25.137,N-S,0.0002384185791015,20.554
19980116105800.knt,CHB0149801161058.UD,1998-01-16, 10:58:00,35.203,140.297,57,4.6,CHB014,35.4769,140.0489,7,1998-01-16, 10:58:09,100Hz,119,U-D,0.0002384185791015,19.8,37.86838925589071,1249,1249.0,29.044090803848665,0.3046327006358203,0.2898660021181643,0.2929655478048291,0.3076603496165758,0.3306168554794472,0.0189325801746246,0.0189325801746246,0.0189325801746246,0.0189325801746246,0.0189325801746246,10.331607550087467,10.331607550087467,10.331607550087467,10.331607550087467,10.331607550087467,E-W,0.0002384185791015,29.76,N-S,0.0002384185791015,23.472
19980116105800.knt,CHB0159801161058.UD,1998-01-16, 10:58:00,35.203,140.297,57,4.6,CHB015,35.3738,139.9159,2,1998-01-16, 10:58:07,100Hz,119,U-D,0.0002384185791015,13.75,39.46084666992363,1444,1440.0,26.00251486606741,0.3663023196611721,0.3379152635675185,0.3373696683668322,0.3411505268071496,0.3451081477588943,0.0120144681597481,0.0120144681597481,0.0120144681597481,0.0120144681597481,0.0120144681597481,13.763820210736656,13.763820210736656,13.763820210736656,13.763820210736656,13.763820210736656,E-W,0.0002384185791015,15.817,N-S,0.0002384185791015,21.148
19980116105800.knt,CHB0169801161058.UD,1998-01-16, 10:58:00,35.203,140.297,57,4.6,CHB016,35.3004,140.3869,8,1998-01-16, 10:58:05,100Hz,119,U-D,0.0002384185791015,12.673,13.562340192956432,1396,147.0,16.9749622813867,0.4647579140341676,0.3358654670161089,0.3149977918179223,0.3671303714838257,0.3602617315672928,0.0115076242515565,0.008669139919955,0.0065035224204986,0.0063071267051592,0.0063071267051592,7.837632370771525,7.837632370771525,6.82818408952012,6.82818408952012,6.82818408952012,E-W,0.0002384185791015,44.261,N-S,0.0002384185791015,46.204
19980116105800.knt,CHB0179801161058.UD,1998-01-16, 10:58:00,35.203,140.297,57,4.6,CHB017,35.2988,140.0755,31,1998-01-16, 10:58:05,100Hz,119,U-D,0.0002384185791015,23.314,22.760127629174352,1479,1477.0,43.793277326039146,0.2764502286697928,0.2805959806100586,0.248729208398863,0.2149978748388325,0.1625584162396974,0.0112973422517814,0.0112973422517814,0.0112973422517814,0.0112973422517814,0.0112973422517814,23.278978575099444,23.278978575099444,23.278978575099444,23.278978575099444,23.278978575099444,E-W,0.0002384185791015,15.8,N-S,0.0002384185791015,24.668
19980116105800.knt,CHB0189801161058.UD,1998-01-16, 10:58:00,35.203,140.297,57,4.6,CHB018,35.1577,140.3222,56,1998-01-16, 10:58:04,100Hz,119,U-D,0.0002384185791015,9.458,5.533361296183344,1465,1474.0,28.364064059746514,0.2221900791264581,0.1968196792964357,0.2088175163369991,0.2304703626051678,0.2116027348772225,0.0051922694094431,0.0051922694094431,0.0047563696165897,0.002722401941008,0.0019053217692528,8.797927208813311,8.797927208813311,8.797927208813311,5.518256413809294,3.0800027608765848,E-W,0.0002384185791015,19.09,N-S,0.0002384185791015,20.869
