earthquake name,records name,earthquake date,earthquake time,lat,long,depth,mag,stn_code,stn_lat,stn_long,stn_height,rcd_date,rcd_time,frequency,rcd_duration,direction,scale_factor,max_pga,epi_dist,pick_index_manually,pick_index_kalkan,snr_db_kalkan,tc_5sec,tc_4sec,tc_3sec,tc_2sec,tc_1sec,Pd_5sec,Pd_4sec,Pd_3sec,Pd_2sec,Pd_1sec,Pga_5sec,Pga_4sec,Pga_3sec,Pga_2sec,Pga_1sec,Channel,Scale_factor,PGA_ew,Channel.1,Scale_factor.1,PGA_ns
19980108234600.knt,NIG0019801082346.UD,1998-01-08, 23:46:00,37.87,137.664,30,4.2,NIG001,38.2584,138.4337,6,1998-01-08, 23:47:01,100Hz,119,U-D,0.0002384185791015,1.452,80.03602704510584,357,366.0,21.475769734548003,5.947171037916421,5.153602001085903,5.006682182153888,5.834171874704223,6.032603265138534,0.0061657579445791,0.0061657579445791,0.0061657579445791,0.0061657579445791,0.0061657579445791,0.8040390568580797,0.8040390568580797,0.8040390568580797,0.8040390568580797,0.8040390568580797,E-W,0.0002384185791015,5.684,N-S,0.0002384185791015,3.26
19980108234600.knt,NIG0029801082346.UD,1998-01-08, 23:46:00,37.87,137.664,30,4.2,NIG002,38.0745,138.4398,1,1998-01-08, 23:47:59,100Hz,119,U-D,0.0002384185791015,1.523,71.70433362389997,429,453.0,20.194502581501123,2.0408176402069373,1.861241350145004,2.1034211527393154,2.376081126937572,2.4909503623174567,0.0017047201867133,0.0017047201867133,0.0017047201867133,0.0017047201867133,0.0017047201867133,0.3455291945851655,0.3359856241939993,0.3359856241939993,0.3359856241939993,0.3040530743436474,E-W,0.0002384185791015,6.269,N-S,0.0002384185791015,5.834
19980108234600.knt,NIG0039801082346.UD,1998-01-08, 23:46:00,37.87,137.664,30,4.2,NIG003,37.9976,138.3226,4,1998-01-08, 23:47:57,100Hz,119,U-D,0.0002384185791015,4.82,59.477409378023296,444,456.00000000000006,24.35465612147488,5.022240096568116,4.679200239925296,4.0703373859111895,3.8874153881442393,5.040241182388676,0.0108915163940754,0.0108915163940754,0.0108915163940754,0.0108915163940754,0.0108915163940754,1.3506892201133516,1.0923817764485004,1.0923817764485004,1.0404030093321508,1.0404030093321508,E-W,0.0002384185791015,8.6,N-S,0.0002384185791015,17.454
19980108234600.knt,NIG0049801082346.UD,1998-01-08, 23:46:00,37.87,137.664,30,4.2,NIG004,37.8205,138.2795,40,1998-01-08, 23:47:54,100Hz,119,U-D,0.0002384185791015,3.281,54.32489515653012,646,639.0,29.179555285484582,1.1106881410216338,1.103248812717685,0.9244607979916424,0.6781027792354468,0.4951310580435532,0.0041850576070211,0.0041850576070211,0.0041850576070211,0.0041850576070211,0.0041850576070211,3.2808399523897287,3.2808399523897287,3.2808399523897287,3.2808399523897287,3.2808399523897287,E-W,0.0002384185791015,7.008,N-S,0.0002384185791015,10.552
19980108234600.knt,NIG0169801082346.UD,1998-01-08, 23:46:00,37.87,137.664,30,4.2,NIG016,37.6421,138.7676,32,1998-01-08, 23:47:06,100Hz,119,U-D,0.0002384185791015,0.653,100.27549444710397,122,118.0,15.542375688519648,1.1214497078813863,0.8072594993583568,0.7940678295551269,0.7569577942735038,0.507650244544354,0.0010812247918457,0.0007993765707047,0.0007993765707047,0.0007993765707047,0.0007993765707047,0.3755921174167395,0.3755921174167395,0.3755921174167395,0.3755921174167395,0.3755921174167395,E-W,0.0002384185791015,2.356,N-S,0.0002384185791015,1.464
19980110140200.knt,KGS0039801101402.UD,1998-01-10, 14:02:00,31.836,130.281,6,4.1,KGS003,32.0559,130.5874,176,1998-01-10, 14:02:52,100Hz,120,U-D,0.0002384185791015,6.386,37.86398371228847,59,75.0,14.575417768325394,6.486095664896601,6.786859018284049,6.121816513843847,4.544591795286119,2.6642094306167783,0.0262144847461166,0.0262144847461166,0.0262144847461166,0.0245945150120442,0.0152674818886775,6.416159782216769,6.416159782216769,6.416159782216769,6.416159782216769,5.14597117695716,E-W,0.0002384185791015,10.323,N-S,0.0002384185791015,12.232
19980110140200.knt,KGS0049801101402.UD,1998-01-10, 14:02:00,31.836,130.281,6,4.1,KGS004,32.0145,130.1927,3,1998-01-10, 14:02:48,100Hz,120,U-D,0.0002384185791015,5.154,21.526713880743824,178,192.0,13.117846449020076,9.199389738234656,11.816218748366524,13.494705761233732,14.28487860566508,11.46921554297783,0.1011568103811966,0.1011568103811966,0.1011568103811966,0.1011568103811966,0.1011568103811966,5.179177531053878,5.179177531053878,5.179177531053878,5.179177531053878,5.179177531053878,E-W,0.0002384185791015,4.914,N-S,0.0002384185791015,7.296
19980110140200.knt,KGS0079801101402.UD,1998-01-10, 14:02:00,31.836,130.281,6,4.1,KGS007,31.8143,130.3032,4,1998-01-10, 14:02:42,100Hz,120,U-D,0.0002384185791015,28.247,3.197087499932048,512,523.0,14.665649469213658,6.405710180070411,5.308808928235936,4.581915686624368,3.0536316305911337,3.5865452005099545,0.3343587847135098,0.3343587847135098,0.2583072960787421,0.1947928697337335,0.1947928697337335,28.314894410535786,28.314894410535786,28.314894410535786,28.314894410535786,9.423283253649917,E-W,0.0002384185791015,78.479,N-S,0.0002384185791015,65.488
19980110140200.knt,KGS0089801101402.UD,1998-01-10, 14:02:00,31.836,130.281,6,4.1,KGS008,31.7621,130.5699,15,1998-01-10, 14:02:50,100Hz,120,U-D,0.0002384185791015,6.166,28.512196404013515,105,105.0,17.01951575689183,10.104213152309724,12.018323361430182,13.86211441165955,11.556634362010223,7.516836787518446,0.0654656535480378,0.0654656535480378,0.0654656535480378,0.0635663090779938,0.051306809273138,6.159738947021363,6.159738947021363,4.9265638720692495,4.9265638720692495,4.567784736759946,E-W,0.0002384185791015,12.063,N-S,0.0002384185791015,13.091
19980110140200.knt,KGS0099801101402.UD,1998-01-10, 14:02:00,31.836,130.281,6,4.1,KGS009,31.7368,130.7613,4,1998-01-10, 14:02:47,100Hz,120,U-D,0.0002384185791015,2.126,46.71767017492561,722,722.0,15.44163885501333,4.371611447982276,4.363505265725675,4.029188454277451,3.656703108604579,2.921171581248493,0.0036334413297149,0.0036334413297149,0.0031455742481197,0.0028679405254833,0.0024553980855105,0.5422038399754323,0.5422038399754323,0.5422038399754323,0.5102512053158206,0.5102512053158206,E-W,0.0002384185791015,4.898,N-S,0.0002384185791015,4.938
19980110140200.knt,KGS0209801101402.UD,1998-01-10, 14:02:00,31.836,130.281,6,4.1,KGS020,31.2396,130.4915,21,1998-01-10, 14:02:54,100Hz,120,U-D,0.0002384185791015,5.606,69.25218039041381,392,406.00000000000006,25.390401811527543,1.8607792198843809,1.6666817905789186,1.486950174714027,1.6886126277044282,2.7872641648547885,0.0171542106331238,0.0171542106331238,0.0171542106331238,0.0171542106331238,0.0171542106331238,5.587477853639701,5.587477853639701,5.587477853639701,5.587477853639701,3.5216800044054235,E-W,0.0002384185791015,9.797,N-S,0.0002384185791015,8.087
19980110140200.knt,KGS0219801101402.UD,1998-01-10, 14:02:00,31.836,130.281,6,4.1,KGS021,31.2535,130.6324,8,1998-01-10, 14:02:55,100Hz,120,U-D,0.0002384185791015,4.174,72.82965166505667,382,225.0,17.046044300838155,4.032413086489893,3.530291107790819,3.4698907567609703,4.186350901820814,6.8017967623014,0.0256973074216019,0.0256973074216019,0.0256973074216019,0.0256973074216019,0.0256973074216019,3.8855773730262855,3.8855773730262855,3.8855773730262855,3.8855773730262855,1.7654543799596494,E-W,0.0002384185791015,8.431,N-S,0.0002384185791015,10.225
19980110140200.knt,KGS0369801101402.UD,1998-01-10, 14:02:00,31.836,130.281,6,4.1,KGS036,31.836,129.8678,6,1998-01-10, 14:02:53,100Hz,120,U-D,0.0002384185791015,12.299,39.033708136391446,2,24.0,10.80650030397302,12.470222105300058,12.68139574313687,10.294242678630845,6.154865803530928,2.6137153894619383,0.0700785098531969,0.0700785098531969,0.0699269360250521,0.0576581227619247,0.0246483696168882,2.265321950984032,2.265321950984032,2.265321950984032,2.265321950984032,2.265321950984032,E-W,0.0002384185791015,9.863,N-S,0.0002384185791015,10.399
19980110140200.knt,KGS0379801101402.UD,1998-01-10, 14:02:00,31.836,130.281,6,4.1,KGS037,31.639,129.7078,13,1998-01-10, 14:02:44,100Hz,120,U-D,0.0002384185791015,3.927,58.46487075399539,1209,1231.0,23.83698381615445,0.8686695185038396,0.8855304712242712,0.7464440853034348,0.5129194260275555,0.2642221952291567,0.0027319540724665,0.0027319540724665,0.0026182483947452,0.001958394066839,0.0005313868376131,3.88119852071695,3.88119852071695,3.88119852071695,3.489894508477915,1.334924214445914,E-W,0.0002384185791015,6.081,N-S,0.0002384185791015,5.617
19980110140200.knt,KMM0149801101402.UD,1998-01-10, 14:02:00,31.836,130.281,6,4.1,KMM014,32.3987,130.8244,265,1998-01-10, 14:02:46,100Hz,120,U-D,0.0002384185791015,2.765,80.83241640736483,1361,1409.0,18.32270718817545,3.4049804903250265,3.495023891909914,2.672904539916639,1.1725799694605044,0.4832329343743141,0.0125805837623973,0.0125805837623973,0.0121517430289999,0.0081813530173954,0.0007926963958431,2.780237597284286,2.780237597284286,2.780237597284286,2.780237597284286,1.6101220282677988,E-W,0.0002384185791015,3.094,N-S,0.0002384185791015,2.798
19980110140200.knt,KMM0209801101402.UD,1998-01-10, 14:02:00,31.836,130.281,6,4.1,KMM020,32.3636,130.1807,10,1998-01-10, 14:02:50,100Hz,120,U-D,0.0002384185791015,0.741,59.4223187842381,585,593.0,15.18081499668201,1.615911028543248,1.189083793792124,0.9699962359682802,1.0284230515047266,1.1010938265224095,0.0019164647735881,0.0015251325747716,0.0014316881593333,0.0014187160349733,0.0014187160349733,0.7318392828475084,0.7318392828475084,0.7318392828475084,0.7318392828475084,0.7318392828475084,E-W,0.0002384185791015,3.246,N-S,0.0002384185791015,3.091
19980110140200.knt,MYZ0159801101402.UD,1998-01-10, 14:02:00,31.836,130.281,6,4.1,MYZ015,31.7185,131.0621,159,1998-01-10, 14:02:55,100Hz,120,U-D,0.0002384185791015,2.582,74.98194419135685,402,406.00000000000006,15.265529593226663,2.913203449980516,2.436160839686855,2.1718072334694334,2.236868947956524,2.212840202474601,0.006601423762272,0.006601423762272,0.006601423762272,0.006601423762272,0.006601423762272,2.5853448844511187,2.5853448844511187,2.5853448844511187,2.5853448844511187,2.5853448844511187,E-W,0.0002384185791015,4.776,N-S,0.0002384185791015,6.494
19980110182600.knt,KGS0029801101826.UD,1998-01-10, 18:26:00,31.853,130.281,8,3.4,KGS002,32.0909,130.3532,12,1998-01-10, 18:26:47,100Hz,119,U-D,0.0002384185791015,1.195,27.31588656408684,1072,1078.0,15.50418347211112,1.8883527207659416,2.5314475035747743,3.102578396921736,2.1935284359155656,0.6779291668937484,0.0028256244993262,0.0021118026578747,0.0021118026578747,0.0016035409036754,0.0006294916634631,1.1944098710157005,0.8380883298775578,0.537665516522272,0.5122871910216852,0.5122871910216852,E-W,0.0002384185791015,3.058,N-S,0.0002384185791015,3.684
19980110182600.knt,KGS0059801101826.UD,1998-01-10, 18:26:00,31.853,130.281,8,3.4,KGS005,31.9006,130.4513,42,1998-01-10, 18:26:44,100Hz,119,U-D,0.0002384185791015,2.011,16.929269326110436,1176,1174.0,13.844394051049065,5.289875729912132,4.986383782247167,4.441439141679443,3.3091926623942487,1.2018125368696426,0.0125986589646008,0.0125986589646008,0.0118061497143347,0.0086597895579396,0.0037467533092151,2.035196021694257,2.035196021694257,2.035196021694257,2.035196021694257,2.035196021694257,E-W,0.0002384185791015,6.243,N-S,0.0002384185791015,13.674
19980110182600.knt,KGS0079801101826.UD,1998-01-10, 18:26:00,31.853,130.281,8,3.4,KGS007,31.8143,130.3032,4,1998-01-10, 18:26:41,100Hz,119,U-D,0.0002384185791015,17.507,4.787090280821169,1343,1342.0,10.630850167385848,0.7495707754408455,0.6999061570045005,0.5396383512781135,0.4304693138768357,0.3329542745385374,0.0203929090256813,0.0203929090256813,0.0157836796731425,0.01083291824069,0.0031522114741854,17.513072340503374,17.513072340503374,17.513072340503374,17.513072340503374,5.844724546326725,E-W,0.0002384185791015,19.658,N-S,0.0002384185791015,29.481
19980110182600.knt,KGS0109801101826.UD,1998-01-10, 18:26:00,31.853,130.281,8,3.4,KGS010,31.7123,130.2735,16,1998-01-10, 18:26:42,100Hz,119,U-D,0.0002384185791015,14.634,15.661179001280036,1399,1403.0,21.020972192165,0.3483990373030943,0.2618731565939872,0.1644343160788303,0.1718401873616512,0.1705979130520105,0.0090764776037908,0.0086802313677477,0.0041770739004685,0.0019069090397968,0.0014418809499018,14.652658439812846,14.652658439812846,14.652658439812846,4.211358248997145,4.211358248997145,E-W,0.0002384185791015,16.644,N-S,0.0002384185791015,17.755
19980110182600.knt,KGS0169801101826.UD,1998-01-10, 18:26:00,31.853,130.281,8,3.4,KGS016,31.4162,130.3225,11,1998-01-10, 18:26:53,100Hz,119,U-D,0.0002384185791015,1.119,48.72859144095501,807,135.0,15.999450684493668,2.6265534502760195,2.589450481622954,2.5440852031034398,2.740656009764701,2.9320011558730656,0.0029332427747822,0.0029332427747822,0.0029332427747822,0.0029332427747822,0.0029332427747822,0.6216532949604616,0.6216532949604616,0.6216532949604616,0.6216532949604616,0.6216532949604616,E-W,0.0002384185791015,2.89,N-S,0.0002384185791015,2.435
19980110182600.knt,KGS0189801101826.UD,1998-01-10, 18:26:00,31.853,130.281,8,3.4,KGS018,31.3757,130.5449,51,1998-01-10, 18:26:49,100Hz,119,U-D,0.0002384185791015,3.301,58.6621432017206,1379,593.0,20.57734813961457,0.426990060725435,0.398366961614815,0.3695102594355343,0.3255128831060471,0.2977484226492338,0.0031276909743548,0.0031276909743548,0.0031276909743548,0.0031276909743548,0.0024833765445159,3.292183779435688,3.292183779435688,3.292183779435688,3.292183779435688,3.292183779435688,E-W,0.0002384185791015,2.298,N-S,0.0002384185791015,2.181
19980110182600.knt,KGS0199801101826.UD,1998-01-10, 18:26:00,31.853,130.281,8,3.4,KGS019,31.2776,130.3008,10,1998-01-10, 18:26:57,100Hz,119,U-D,0.0002384185791015,1.51,64.00905483251636,662,670.0,21.35823678786315,2.8998555107669923,1.973876154553963,1.0180810109346643,0.8304026005491849,0.7294798069396161,0.0021674687982087,0.0020435346323509,0.0010491048021214,0.0006151790978181,0.0005653132793718,0.7244267558944102,0.7244267558944102,0.7244267558944102,0.7244267558944102,0.7244267558944102,E-W,0.0002384185791015,5.198,N-S,0.0002384185791015,3.681
19980110182600.knt,KGS0209801101826.UD,1998-01-10, 18:26:00,31.853,130.281,8,3.4,KGS020,31.2396,130.4915,21,1998-01-10, 18:26:00,100Hz,119,U-D,0.0002384185791015,2.193,71.06393899314027,502,498.00000000000006,19.196507135465588,1.0052194287736005,0.889255327566214,0.6377657619119254,0.4314401055783911,0.4038177746691681,0.0017103539413728,0.0017103539413728,0.0016441698993245,0.0011072056469552,0.0011072056469552,1.1557592332894069,1.1557592332894069,1.1557592332894069,1.1557592332894069,1.1557592332894069,E-W,0.0002384185791015,3.619,N-S,0.0002384185791015,3.796
19980110182600.knt,KGS0369801101826.UD,1998-01-10, 18:26:00,31.853,130.281,8,3.4,KGS036,31.836,129.8678,6,1998-01-10, 18:26:52,100Hz,119,U-D,0.0002384185791015,1.9,39.07586112376399,798,798.0,16.76833730772585,3.327687576583761,3.1325389024190007,2.7484577216492365,2.629825647543614,2.44524920510675,0.0015979549348174,0.0015979549348174,0.0013253193937072,0.0013253193937072,0.0012372687480255,0.4212743959694668,0.4212743959694668,0.4212743959694668,0.3202384898312677,0.3086053630822892,E-W,0.0002384185791015,2.232,N-S,0.0002384185791015,3.39
19980112145100.knt,MIE0079801121451.UD,1998-01-12, 14:51:00,33.053,136.764,44,4.2,MIE007,34.651,136.3404,82,1998-01-12, 14:52:10,100Hz,119,U-D,0.0002384185791015,4.178,181.94364421500012,1413,1412.0,28.093413236909505,0.6185523138777115,0.6097530449881345,0.605158192665364,0.5758148297032075,0.4718704435437246,0.0028794175704841,0.0028794175704841,0.0028794175704841,0.0028794175704841,0.0028794175704841,4.188388056973799,4.188388056973799,4.188388056973799,4.188388056973799,4.188388056973799,E-W,0.0002384185791015,3.974,N-S,0.0002384185791015,3.238
19980112145100.knt,MIE0119801121451.UD,1998-01-12, 14:51:00,33.053,136.764,44,4.2,MIE011,34.4283,136.3329,143,1998-01-12, 14:52:07,100Hz,119,U-D,0.0002384185791015,4.981,158.03562744937548,1402,1412.0,19.831206239962736,7.841551014192552,5.205097685604892,2.6939329259145355,0.7997635379182771,0.4860245529989631,0.0182432231990017,0.0164697113559041,0.0092128332383925,0.0032570350536369,0.0018815991117122,4.971435600417215,4.971435600417215,4.971435600417215,4.971435600417215,4.971435600417215,E-W,0.0002384185791015,4.606,N-S,0.0002384185791015,3.862
19980112145100.knt,MIE0169801121451.UD,1998-01-12, 14:51:00,33.053,136.764,44,4.2,MIE016,33.8764,135.9188,63,1998-01-12, 14:52:15,100Hz,119,U-D,0.0002384185791015,2.704,120.53825121273069,83,91.0,11.250670802578224,8.118552150870594,9.006115242905539,8.839929576799708,6.59066831137418,3.6544735050071946,0.0075106826310421,0.0075106826310421,0.0075106826310421,0.0073004737566033,0.0051321270933907,1.436457075588317,1.436457075588317,1.436457075588317,1.436457075588317,1.436457075588317,E-W,0.0002384185791015,5.993,N-S,0.0002384185791015,8.1
19980112145100.knt,NAR0069801121451.UD,1998-01-12, 14:51:00,33.053,136.764,44,4.2,NAR006,34.3383,135.9541,330,1998-01-12, 14:52:07,100Hz,119,U-D,0.0002384185791015,3.267,161.36683672966598,1436,1435.0,22.225214873997032,1.6598389248189471,1.6000727330747608,1.61167306498429,1.3721859328375816,0.528312896200481,0.0037345584363979,0.0037345584363979,0.0037345584363979,0.0037345584363979,0.002837510345133,3.268011169531554,3.268011169531554,3.268011169531554,3.268011169531554,3.268011169531554,E-W,0.0002384185791015,3.102,N-S,0.0002384185791015,5.999
19980114021700.knt,CHB0019801140217.UD,1998-01-14, 02:17:00,35.586,140.23,76,4.9,CHB001,35.9595,139.8733,13,1998-01-14, 02:17:24,100Hz,89,U-D,0.0002384185791015,6.177,52.53969576324215,1294,993.0,21.90328509877507,0.8864290907647493,0.8004820798957758,0.5386751830740558,0.4131559502433166,0.441144847337131,0.0113949348483224,0.0113949348483224,0.0097631595202068,0.0097631595202068,0.0097631595202068,6.196112307372313,6.196112307372313,6.196112307372313,6.196112307372313,5.1533044342634815,E-W,0.0002384185791015,17.098,N-S,0.0002384185791015,14.049
19980114021700.knt,CHB0029801140217.UD,1998-01-14, 02:17:00,35.586,140.23,76,4.9,CHB002,35.7868,139.9031,14,1998-01-14, 02:17:22,100Hz,119,U-D,0.0002384185791015,9.076,37.01618926731911,1401,1401.0,35.26456194665559,0.4437647435202683,0.3965834946595729,0.3156225266993781,0.3168797781289652,0.3680036955326909,0.0080914859667543,0.0073267413656838,0.0073267413656838,0.0073267413656838,0.0073267413656838,9.064633393519909,9.064633393519909,9.064633393519909,9.064633393519909,6.190302828534733,E-W,0.0002384185791015,11.349,N-S,0.0002384185791015,14.392
19980114021700.knt,CHB0069801140217.UD,1998-01-14, 02:17:00,35.586,140.23,76,4.9,CHB006,35.7801,140.3067,27,1998-01-14, 02:17:31,100Hz,119,U-D,0.0002384185791015,6.095,22.667433097992465,392,406.00000000000006,21.43882421894045,7.418183010370714,6.91233464445815,7.442824598755032,11.31565386147719,24.62047524245961,0.1257168364027842,0.1257168364027842,0.1257168364027842,0.1257168364027842,0.1257168364027842,6.109102156714926,6.109102156714926,5.93368265021491,5.93368265021491,1.860767960143363,E-W,0.0002384185791015,9.633,N-S,0.0002384185791015,10.212
19980114021700.knt,CHB0079801140217.UD,1998-01-14, 02:17:00,35.586,140.23,76,4.9,CHB007,35.7234,140.2267,24,1998-01-14, 02:17:22,100Hz,119,U-D,0.0002384185791015,5.103,15.281091954416503,1246,1243.0,37.68939510912104,0.4657961373796244,0.4942279188114449,0.4933097041216454,0.5905515094774286,0.6711458158312852,0.0099702030563602,0.0099702030563602,0.0078518601521541,0.0076157570483829,0.0039872944710365,4.6681630395613976,4.6681630395613976,4.6681630395613976,3.2411283447890624,1.382921023796709,E-W,0.0002384185791015,16.209,N-S,0.0002384185791015,19.476
19980114021700.knt,CHB0089801140217.UD,1998-01-14, 02:17:00,35.586,140.23,76,4.9,CHB008,35.6537,139.9023,4,1998-01-14, 02:17:29,100Hz,119,U-D,0.0002384185791015,4.214,30.562476272174333,649,649.0,29.037602850118702,1.2161631980428795,1.1756427007847157,1.2218792031415855,0.8416764876213355,0.6478891562724498,0.0131773020475018,0.0062763043803741,0.0062763043803741,0.0057637441087138,0.0036159871206694,2.1655390237530407,2.117466909657456,2.117466909657456,2.117466909657456,2.071898218113467,E-W,0.0002384185791015,12.426,N-S,0.0002384185791015,10.942
