earthquake name,records name,earthquake date,earthquake time,lat,long,depth,mag,stn_code,stn_lat,stn_long,stn_height,rcd_date,rcd_time,frequency,rcd_duration,direction,scale_factor,max_pga,epi_dist,pick_index_manually,pick_index_kalkan,snr_db_kalkan,tc_5sec,tc_4sec,tc_3sec,tc_2sec,tc_1sec,Pd_5sec,Pd_4sec,Pd_3sec,Pd_2sec,Pd_1sec,Pga_5sec,Pga_4sec,Pga_3sec,Pga_2sec,Pga_1sec,Channel,Scale_factor,PGA_ew,Channel.1,Scale_factor.1,PGA_ns
19990111091000.knt,GIF0109901110910.UD,1999-01-11, 09:10:00,36.053,136.747,9,4.3,GIF010,35.8029,137.245,362,1999-01-11, 09:10:57,100Hz,119,U-D,0.0002384185791015,1.507,52.76386152842306,700,723.0,23.226295335769915,3.724067473909231,4.17348510738149,4.853083934417273,6.34951673770972,8.968861558854035,0.0033922216438269,0.0033922216438269,0.0033922216438269,0.0033922216438269,0.00226141642419,0.3980378205311403,0.3980378205311403,0.3282458898185778,0.2980571575144007,0.2980571575144007,E-W,0.0002384185791015,4.967,N-S,0.0002384185791015,3.787
19990111091000.knt,GIF0119901110910.UD,1999-01-11, 09:10:00,36.053,136.747,9,4.3,GIF011,35.7593,136.9808,245,1999-01-11, 09:10:52,100Hz,119,U-D,0.0002384185791015,2.088,38.85807081989966,944,957.0,20.23355210753612,3.7748653529397225,3.517044590256325,3.225971449225022,2.7298483286076527,0.9101895215407352,0.0061752053767093,0.0058153761962251,0.0051137882613305,0.0051137882613305,0.0023976055108658,2.090222053032245,2.090222053032245,2.090222053032245,2.090222053032245,2.090222053032245,E-W,0.0002384185791015,4.011,N-S,0.0002384185791015,4.403
19990111091000.knt,GIF0129901110910.UD,1999-01-11, 09:10:00,36.053,136.747,9,4.3,GIF012,35.6365,136.4882,221,1999-01-11, 09:10:57,100Hz,119,U-D,0.0002384185791015,1.506,51.85565349555014,648,660.0,23.99924812994356,4.197860995647221,4.406215129317712,4.761107539598655,3.559935940336783,2.8699187223225264,0.002929286003046,0.002929286003046,0.002929286003046,0.0026357504594937,0.0013980388368777,0.6086351470196396,0.6086351470196396,0.5506225084405394,0.5506225084405394,0.5199384143074651,E-W,0.0002384185791015,2.525,N-S,0.0002384185791015,3.299
19990111091000.knt,GIF0259901110910.UD,1999-01-11, 09:10:00,36.053,136.747,9,4.3,GIF025,35.7234,136.7847,351,1999-01-11, 09:10:52,100Hz,119,U-D,0.0002384185791015,1.932,36.80687043205055,911,910.0,28.33466723917825,2.051082147408971,2.1894709729517583,2.422021164090055,2.72808910651351,2.5784972188884527,0.0042424122159386,0.0042424122159386,0.0042424122159386,0.0042424122159386,0.0042424122159386,1.342022895504258,1.142162414341144,1.1298002570941077,1.1298002570941077,1.1298002570941077,E-W,0.0002384185791015,4.176,N-S,0.0002384185791015,3.134
19990111091000.knt,GIF0269901110910.UD,1999-01-11, 09:10:00,36.053,136.747,9,4.3,GIF026,35.5912,136.7414,145,1999-01-11, 09:10:56,100Hz,119,U-D,0.0002384185791015,1.168,51.35229927949685,757,751.0,20.475050762824843,12.222951970442448,12.060482687838151,11.26898283807857,10.68927267255394,9.620352631309842,0.0080703502388418,0.0074315655549912,0.0074315655549912,0.0067002528870658,0.0054456325655914,0.4927488251586729,0.4927488251586729,0.4927488251586729,0.4279355472789655,0.3543328252798373,E-W,0.0002384185791015,4.313,N-S,0.0002384185791015,5.407
19990111091000.knt,ISK0139901110910.UD,1999-01-11, 09:10:00,36.053,136.747,9,4.3,ISK013,36.1769,136.6245,494,1999-01-11, 09:10:46,100Hz,119,U-D,0.0002384185791015,8.92,17.632116607853817,1202,1217.0,21.993851676571808,1.202707145335628,0.6089811211868227,0.3832112412726552,0.5860009369137112,0.5057077623904953,0.0204769312669317,0.0118874646239637,0.0088302296821909,0.0037874676350344,0.0037874676350344,8.919228906944667,8.919228906944667,8.919228906944667,3.082458338315736,3.082458338315736,E-W,0.0002384185791015,32.377,N-S,0.0002384185791015,26.877
19990111091000.knt,ISK0149901110910.UD,1999-01-11, 09:10:00,36.053,136.747,9,4.3,ISK014,36.3028,136.3154,4,1999-01-11, 09:10:55,100Hz,119,U-D,0.0002384185791015,6.438,47.66743932849684,828,821.0000000000001,22.60215107570904,1.212230318890402,1.1736242472378446,1.267501290124141,1.0270381688137953,0.8490470326765471,0.0046484138318484,0.0046484138318484,0.0046484138318484,0.0044733388674613,0.00263032503506,1.0527309938319065,1.0527309938319065,1.0527309938319065,0.8083811085498953,0.8083811085498953,E-W,0.0002384185791015,18.883,N-S,0.0002384185791015,18.59
19990111091000.knt,NGN0229901110910.UD,1999-01-11, 09:10:00,36.053,136.747,9,4.3,NGN022,35.6079,137.6125,451,1999-01-11, 09:10:08,100Hz,119,U-D,0.0002384185791015,0.868,92.3986729778493,270,260.0,18.46478032716333,2.9460781526653674,2.54630031955074,2.278456653392578,3.014819963655833,6.714360324086871,0.0021495374058768,0.0017535553983345,0.0015796833609098,0.0015796833609098,0.0015796833609098,0.7215959000219934,0.7215959000219934,0.7215959000219934,0.4770540104915088,0.1893717933362183,E-W,0.0002384185791015,2.212,N-S,0.0002384185791015,2.771
19990111091000.knt,NGN0249901110910.UD,1999-01-11, 09:10:00,36.053,136.747,9,4.3,NGN024,35.5232,137.8374,538,1999-01-11, 09:10:14,100Hz,119,U-D,0.0002384185791015,1.764,114.64596190496502,106,111.0,13.675069862988398,3.120668832358673,2.680322708139374,1.7361903454268308,0.9364968845124072,0.4976688224052761,0.004583112361477,0.004583112361477,0.0039494098519654,0.0023104932045202,0.0007110263051265,0.8119460697189138,0.8119460697189138,0.8119460697189138,0.8119460697189138,0.5951532233186315,E-W,0.0002384185791015,3.589,N-S,0.0002384185791015,5.336
19990111091000.knt,TYM0129901110910.UD,1999-01-11, 09:10:00,36.053,136.747,9,4.3,TYM012,36.4411,137.0353,681,1999-01-11, 09:10:56,100Hz,119,U-D,0.0002384185791015,0.878,50.30638664553871,769,39.0,14.13570053441244,4.073852203481822,3.1534231819126157,2.448920172344992,2.489167107228687,3.000982679708601,0.0035044720634457,0.0034379335275031,0.0020592251688849,0.0020592251688849,0.0019790631894431,0.4908159721351638,0.4908159721351638,0.4908159721351638,0.4908159721351638,0.2656131851841762,E-W,0.0002384185791015,3.593,N-S,0.0002384185791015,2.716
19990112004500.knt,KGS0029901120045.UD,1999-01-12, 00:45:00,31.853,130.298,9,3.6,KGS002,32.0909,130.3532,12,1999-01-12, 00:45:38,100Hz,119,U-D,0.0002384185791015,2.05,26.960844534059454,1094,1094.0,19.163729438965664,1.16028896435729,1.1118529280794236,1.6804895775714537,1.973419413756204,2.239973220980603,0.0027546549829415,0.0020171598018149,0.0016868354505266,0.0016868354505266,0.0016868354505266,2.046417589694484,2.046417589694484,1.157950366184892,1.157950366184892,1.157950366184892,E-W,0.0002384185791015,7.271,N-S,0.0002384185791015,5.062
19990112004500.knt,KGS0049901120045.UD,1999-01-12, 00:45:00,31.853,130.298,9,3.6,KGS004,32.0145,130.1927,3,1999-01-12, 00:45:34,100Hz,119,U-D,0.0002384185791015,3.483,20.523869413796422,1404,1404.0,14.99024848629436,0.8565543143957774,0.8753144708956906,0.8093427370558876,0.4578868070392159,0.3481500771235424,0.0046524202332999,0.0040614817086376,0.0032255353053769,0.002312329506179,0.001683186604444,3.4725477847046027,3.4725477847046027,3.4725477847046027,3.4725477847046027,3.4725477847046027,E-W,0.0002384185791015,1.618,N-S,0.0002384185791015,3.101
19990112004500.knt,KGS0059901120045.UD,1999-01-12, 00:45:00,31.853,130.298,9,3.6,KGS005,31.9006,130.4513,42,1999-01-12, 00:45:33,100Hz,119,U-D,0.0002384185791015,6.984,15.412686557727692,1396,1401.0,20.417352358201644,4.799595680261867,4.345553145595345,3.4843143352816583,2.814271473471063,0.8883653349084245,0.0333425783671883,0.0333425783671883,0.0287089779499153,0.0208381707240588,0.008851239480136,6.997562271761381,6.997562271761381,6.997562271761381,6.19767652857389,6.19767652857389,E-W,0.0002384185791015,26.05,N-S,0.0002384185791015,36.484
19990112004500.knt,KGS0069901120045.UD,1999-01-12, 00:45:00,31.853,130.298,9,3.6,KGS006,31.906,130.7021,188,1999-01-12, 00:45:42,100Hz,119,U-D,0.0002384185791015,3.89,38.60849161044766,897,905.0,27.90425038691875,0.7886858454109578,0.8792848455557972,0.8599797165972589,0.8882266696126454,0.9844428888373,0.0014120044841478,0.0014120044841478,0.0014120044841478,0.0014120044841478,0.0014120044841478,1.4667775061934665,1.4667775061934665,1.4667775061934665,1.4667775061934665,1.4667775061934665,E-W,0.0002384185791015,5.85,N-S,0.0002384185791015,6.1
19990112004500.knt,KGS0079901120045.UD,1999-01-12, 00:45:00,31.853,130.298,9,3.6,KGS007,31.8143,130.3032,4,1999-01-12, 00:45:31,100Hz,119,U-D,0.0002384185791015,21.143,4.331191892553266,1456,1462.0,19.88078519521685,0.3921689914717945,0.3737112248423222,0.3099880848124576,0.2465334794238786,0.2470409590133656,0.0172257857945228,0.0172257857945228,0.0172257857945228,0.0078559850997015,0.0026120429237789,21.092876977718984,21.092876977718984,21.092876977718984,21.092876977718984,11.06976863434985,E-W,0.0002384185791015,24.47,N-S,0.0002384185791015,29.432
19990112004500.knt,KGS0089901120045.UD,1999-01-12, 00:45:00,31.853,130.298,9,3.6,KGS008,31.7621,130.5699,15,1999-01-12, 00:45:39,100Hz,119,U-D,0.0002384185791015,1.269,27.61010315742,1021,877.0,17.77858177816755,1.477781075917002,2.117998100783001,2.309442348749281,2.2024383388634408,1.875342691975074,0.0023430910458058,0.0023430910458058,0.0023430910458058,0.0019820758277135,0.0018275148172096,1.2743392053022031,0.8507053708554687,0.8507053708554687,0.8507053708554687,0.8507053708554687,E-W,0.0002384185791015,4.504,N-S,0.0002384185791015,3.263
19990112004500.knt,KGS0109901120045.UD,1999-01-12, 00:45:00,31.853,130.298,9,3.6,KGS010,31.7123,130.2735,16,1999-01-12, 00:45:36,100Hz,119,U-D,0.0002384185791015,2.863,15.8155868901451,1140,1142.0,5.990051206838142,13.156808714312652,13.948684053667652,15.805252459599416,17.83238984353943,20.56231750635766,0.2268411335488161,0.2268411335488161,0.2268411335488161,0.2268411335488161,0.2268411335488161,2.84098209986729,2.84098209986729,2.84098209986729,2.6474723574083443,2.6474723574083443,E-W,0.0002384185791015,5.599,N-S,0.0002384185791015,4.146
19990112004500.knt,KGS0119901120045.UD,1999-01-12, 00:45:00,31.853,130.298,9,3.6,KGS011,31.5896,130.349,18,1999-01-12, 00:45:39,100Hz,119,U-D,0.0002384185791015,1.813,29.683318280416945,1045,1041.0,26.524166981245912,2.0383892040240057,2.774407362163965,2.502830509607804,1.7903884666726555,0.7563379507475452,0.0038472822680633,0.0034165924435525,0.0034165924435525,0.0034020871240938,0.0017934635282839,1.8166694575415552,1.8166694575415552,1.8166694575415552,1.8166694575415552,1.8166694575415552,E-W,0.0002384185791015,4.322,N-S,0.0002384185791015,7.148
19990112004500.knt,KMM0159901120045.UD,1999-01-12, 00:45:00,31.853,130.298,9,3.6,KMM015,32.2161,130.4046,5,1999-01-12, 00:45:43,100Hz,119,U-D,0.0002384185791015,1.137,41.6065053647122,854,854.0000000000001,18.606694633328267,3.2984823339962803,3.836895886848553,4.339877985812806,4.6224123960271815,4.545143572395501,0.0015295989341031,0.0015295989341031,0.0015295989341031,0.0015219339470628,0.0015219339470628,0.6019876615673306,0.6019876615673306,0.6019876615673306,0.6019876615673306,0.6019876615673306,E-W,0.0002384185791015,2.169,N-S,0.0002384185791015,2.811
19990116154100.knt,FKS0059901161541.UD,1999-01-16, 15:41:00,36.67,141.43,41,4.4,FKS005,37.6385,140.9849,16,1999-01-16, 15:42:14,100Hz,119,U-D,0.0002384185791015,1.403,114.68890686501888,1,46.0,12.0820881642385,4.310033317607455,4.211020263490669,3.478360702510723,2.471357373071505,1.1320074066591403,0.0053260327423436,0.0053260327423436,0.0053260327423436,0.0040921105154175,0.0021177494166639,1.4018761972622784,1.4018761972622784,1.4018761972622784,1.4018761972622784,0.8917963295426908,E-W,0.0002384185791015,2.506,N-S,0.0002384185791015,2.195
19990116154100.knt,FKS0079901161541.UD,1999-01-16, 15:41:00,36.67,141.43,41,4.4,FKS007,37.4061,140.9632,70,1999-01-16, 15:42:11,100Hz,119,U-D,0.0002384185791015,1.46,91.73957136756074,60,60.0,18.159709746930403,3.650154365068566,3.485867188468324,2.453352043818153,0.8903968266078411,0.6474733401361654,0.0054212437417294,0.0054212437417294,0.0050371083247047,0.0016770120117299,0.0005794074816443,1.0756565283452886,1.0756565283452886,1.0756565283452886,1.0756565283452886,0.7090305543383395,E-W,0.0002384185791015,2.722,N-S,0.0002384185791015,3.546
19990116154100.knt,FKS0089901161541.UD,1999-01-16, 15:41:00,36.67,141.43,41,4.4,FKS008,37.4363,140.5668,430,1999-01-16, 15:42:13,100Hz,119,U-D,0.0002384185791015,1.387,114.57807313974205,173,182.0,23.50999973262898,1.53129782100502,1.662585185171196,1.9664874058687931,2.26203843597479,3.355866025723268,0.0012151839787353,0.0012151839787353,0.0012151839787353,0.0012151839787353,0.0012151839787353,0.8238199251999434,0.8238199251999434,0.8238199251999434,0.8238199251999434,0.5525192650031052,E-W,0.0002384185791015,5.72,N-S,0.0002384185791015,4.733
19990116154100.knt,FKS0099901161541.UD,1999-01-16, 15:41:00,36.67,141.43,41,4.4,FKS009,37.2778,140.6349,440,1999-01-16, 15:42:10,100Hz,119,U-D,0.0002384185791015,1.122,97.7569637462884,244,245.00000000000003,24.08654418784421,4.165096565032443,3.9729777311545353,4.536117554555386,5.410506442404721,8.357313957317793,0.0023634433308222,0.0023634433308222,0.0023634433308222,0.0023634433308222,0.0023634433308222,0.6007843578853906,0.5113537571865547,0.5113537571865547,0.4721536932813859,0.3902238803731735,E-W,0.0002384185791015,2.634,N-S,0.0002384185791015,2.839
19990116154100.knt,FKS0119901161541.UD,1999-01-16, 15:41:00,36.67,141.43,41,4.4,FKS011,37.0911,140.9035,165,1999-01-16, 15:42:03,100Hz,119,U-D,0.0002384185791015,1.832,66.22239744184085,536,557.0,26.581377232298887,7.123251421565275,7.299739269708128,5.733808163300093,3.510191577641282,1.2504787926078225,0.0089261448697756,0.0089261448697756,0.008494058491052,0.0058111458615794,0.0017459286410559,1.2324683721126386,1.2324683721126386,1.2324683721126386,1.2324683721126386,0.7502332280254195,E-W,0.0002384185791015,2.163,N-S,0.0002384185791015,2.615
19990116154100.knt,FKS0139901161541.UD,1999-01-16, 15:41:00,36.67,141.43,41,4.4,FKS013,37.09,140.5563,320,1999-01-16, 15:42:08,100Hz,119,U-D,0.0002384185791015,1.297,90.66353032316844,359,358.0,20.824222135540825,1.814693346016876,1.9750929468361496,2.024996703343437,1.272564234473482,1.2719925453100014,0.0010176183633513,0.0010176183633513,0.0010176183633513,0.000741458790012,0.000461652688904,0.4897923757218024,0.4770861587349264,0.4770861587349264,0.4199903698978252,0.3242903496801229,E-W,0.0002384185791015,2.978,N-S,0.0002384185791015,2.366
19990116154100.knt,FKS0169901161541.UD,1999-01-16, 15:41:00,36.67,141.43,41,4.4,FKS016,37.1228,140.1914,375,1999-01-16, 15:42:16,100Hz,119,U-D,0.0002384185791015,2.862,121.10358745944964,107,45.0,15.282001439136844,9.332420783353006,10.419305407553113,11.667086687152365,9.89154060958964,6.876094570744802,0.0183989736844354,0.0183989736844354,0.0183989736844354,0.0179828027200254,0.0152538263029429,1.2811553755650955,1.2811553755650955,1.0851642735888405,1.0851642735888405,1.0851642735888405,E-W,0.0002384185791015,7.484,N-S,0.0002384185791015,5.39
19990116154100.knt,IBR0019901161541.UD,1999-01-16, 15:41:00,36.67,141.43,41,4.4,IBR001,36.7761,140.3569,105,1999-01-16, 15:42:09,100Hz,119,U-D,0.0002384185791015,2.158,96.36617176367272,353,368.0,19.19747465714583,4.606000697150957,4.9668364909364735,6.029946505034461,7.714356522092769,9.105053953945603,0.0037735859518833,0.0037735859518833,0.0037735859518833,0.0037735859518833,0.0037735859518833,0.586958732590536,0.586958732590536,0.586958732590536,0.5666261813242394,0.5666261813242394,E-W,0.0002384185791015,3.676,N-S,0.0002384185791015,3.601
19990116154100.knt,IBR0029901161541.UD,1999-01-16, 15:41:00,36.67,141.43,41,4.4,IBR002,36.7061,140.7068,9,1999-01-16, 15:42:02,100Hz,119,U-D,0.0002384185791015,5.419,64.6104100459356,603,637.0,19.50193309607738,2.347677520226806,1.714356670048532,1.1718256525241053,0.9586716393483142,0.8844530521432584,0.004742398935728,0.0029695446535089,0.0020576395082028,0.0015425138621095,0.0015425138621095,0.935482599934492,0.935482599934492,0.8955447420348268,0.8955447420348268,0.8955447420348268,E-W,0.0002384185791015,8.6,N-S,0.0002384185791015,13.179
19990116154100.knt,IBR0039901161541.UD,1999-01-16, 15:41:00,36.67,141.43,41,4.4,IBR003,36.5915,140.6453,58,1999-01-16, 15:42:00,100Hz,119,U-D,0.0002384185791015,10.436,70.56338965508357,870,898.0,26.52687539245062,2.586922102006409,2.7598875086504204,2.868447256258308,3.1895198412167933,3.035591748914624,0.010264606711806,0.010264606711806,0.010264606711806,0.010264606711806,0.010264606711806,2.4054411907984354,2.4054411907984354,2.4054411907984354,2.4054411907984354,2.4054411907984354,E-W,0.0002384185791015,25.363,N-S,0.0002384185791015,17.399
19990116154100.knt,IBR0069901161541.UD,1999-01-16, 15:41:00,36.67,141.43,41,4.4,IBR006,36.369,140.4528,20,1999-01-16, 15:42:09,100Hz,119,U-D,0.0002384185791015,2.761,93.51862318167149,302,306.0,21.097807822503576,1.1656282061681311,1.27402344388766,1.444435683774963,1.7432680392116298,2.2183871261106214,0.0024039487793759,0.0024039487793759,0.0024039487793759,0.0024039487793759,0.0024039487793759,1.963084388265237,1.963084388265237,1.963084388265237,1.6350361809753995,1.6350361809753995,E-W,0.0002384185791015,5.698,N-S,0.0002384185791015,5.069
19990116154100.knt,IBR0079901161541.UD,1999-01-16, 15:41:00,36.67,141.43,41,4.4,IBR007,36.3523,140.5955,24,1999-01-16, 15:42:07,100Hz,119,U-D,0.0002384185791015,3.945,82.52396846003182,331,359.0,22.912219615926045,1.251380432351239,1.3649497264573636,1.3986103905087064,1.3513185002004808,1.3236583218379834,0.0020942235056069,0.0020942235056069,0.0020942235056069,0.0020942235056069,0.0020942235056069,1.2637945112437754,1.2637945112437754,1.2637945112437754,1.2637945112437754,1.2637945112437754,E-W,0.0002384185791015,13.779,N-S,0.0002384185791015,11.681
19990116154100.knt,IBR0139901161541.UD,1999-01-16, 15:41:00,36.67,141.43,41,4.4,IBR013,36.1587,140.4892,28,1999-01-16, 15:42:12,100Hz,119,U-D,0.0002384185791015,4.385,101.58494647753908,118,135.0,21.416645557023223,11.540338869791448,13.544521869725276,15.18931992599208,13.96186002123673,9.054878005372217,0.0489186867414717,0.0489186867414717,0.0489186867414717,0.0489186867414717,0.0429273979999974,1.8079762396925836,1.8079762396925836,1.8079762396925836,1.0295283240577375,1.0295283240577375,E-W,0.0002384185791015,12.973,N-S,0.0002384185791015,10.173
19990116154100.knt,TCG0139901161541.UD,1999-01-16, 15:41:00,36.67,141.43,41,4.4,TCG013,36.4368,140.0225,67,1999-01-16, 15:42:16,100Hz,119,U-D,0.0002384185791015,3.051,128.3672637279377,70,69.0,15.784051940579108,11.460623582567909,12.703515741151236,12.993591169289813,9.954413915005226,5.7176313851216,0.0213099264811908,0.0213099264811908,0.0213099264811908,0.0207711735827664,0.0147929528637529,0.9323940952064894,0.9323940952064894,0.9323940952064894,0.9323940952064894,0.6013495839986058,E-W,0.0002384185791015,8.236,N-S,0.0002384185791015,4.809
19990116154100.knt,TCG0149901161541.UD,1999-01-16, 15:41:00,36.67,141.43,41,4.4,TCG014,36.545,140.1742,130,1999-01-16, 15:42:07,100Hz,119,U-D,0.0002384185791015,5.202,112.95100986581755,720,764.0,27.897343779954,7.735450188526661,7.888631407144533,7.661293808105085,7.379372967718721,8.809525083907355,0.0171982171692304,0.0171982171692304,0.0171982171692304,0.0171982171692304,0.0148570852488229,1.910758129148369,1.910758129148369,1.910758129148369,1.910758129148369,1.294043349963078,E-W,0.0002384185791015,32.639,N-S,0.0002384185791015,15.473
19990119023500.knt,AOM0039901190235.UD,1999-01-19, 02:35:00,41.553,141.446,86,4.4,AOM003,41.4053,141.1691,4,1999-01-19, 02:36:10,100Hz,119,U-D,0.0002384185791015,3.046,28.31690800811933,294,289.0,33.52972275896785,0.9168917847290544,0.8911928360418693,0.7900228491519523,0.6588012039046727,0.6646759851789619,0.0065770880175717,0.0065770880175717,0.0065770880175717,0.0065770880175717,0.0065770880175717,1.4888824589336511,1.4888824589336511,1.4888824589336511,1.4888824589336511,1.294773124639885,E-W,0.0002384185791015,5.958,N-S,0.0002384185791015,7.141
