earthquake name,records name,earthquake date,earthquake time,lat,long,depth,mag,stn_code,stn_lat,stn_long,stn_height,rcd_date,rcd_time,frequency,rcd_duration,direction,scale_factor,max_pga,epi_dist,pick_index_manually,pick_index_kalkan,snr_db_kalkan,tc_5sec,tc_4sec,tc_3sec,tc_2sec,tc_1sec,Pd_5sec,Pd_4sec,Pd_3sec,Pd_2sec,Pd_1sec,Pga_5sec,Pga_4sec,Pga_3sec,Pga_2sec,Pga_1sec,Channel,Scale_factor,PGA_ew,Channel.1,Scale_factor.1,PGA_ns
19980114021700.knt,CHB0099801140217.UD,1998-01-14, 02:17:00,35.586,140.23,76,4.9,CHB009,35.6082,140.1022,4,1998-01-14, 02:17:29,100Hz,119,U-D,0.0002384185791015,6.674,11.815892128845771,588,26.0,16.483083764362824,3.766678040732947,3.2553027819770293,2.6037341425302567,1.711330857586273,0.7498770012289367,0.0410507715131666,0.0410507715131666,0.0407041620173329,0.0327947840045212,0.0159786451155915,4.584664993042615,4.584664993042615,4.584664993042615,4.584664993042615,4.584664993042615,E-W,0.0002384185791015,14.07,N-S,0.0002384185791015,16.744
19980114021700.knt,CHB0109801140217.UD,1998-01-14, 02:17:00,35.586,140.23,76,4.9,CHB010,35.7077,140.568,8,1998-01-14, 02:17:21,100Hz,119,U-D,0.0002384185791015,3.665,33.40528565044325,1419,436.00000000000006,18.664444226557617,1.384388652736518,1.300193775470616,1.2787556861594584,1.3425486168837422,1.4200917931205377,0.0257322973452744,0.0257322973452744,0.0257322973452744,0.0257322973452744,0.0257322973452744,3.351941301412402,3.351941301412402,3.351941301412402,3.351941301412402,3.351941301412402,E-W,0.0002384185791015,8.223,N-S,0.0002384185791015,12.396
19980114021700.knt,CHB0119801140217.UD,1998-01-14, 02:17:00,35.586,140.23,76,4.9,CHB011,35.6021,140.5014,2,1998-01-14, 02:17:21,100Hz,119,U-D,0.0002384185791015,6.761,24.605031861474146,1405,1394.0,38.37658740301493,0.6051904261998907,0.5742934895423785,0.5677592396620007,0.5731739030049416,0.5626783037558389,0.0348481382876352,0.0348481382876352,0.0348481382876352,0.0348481382876352,0.0348481382876352,6.862100843974625,6.862100843974625,6.862100843974625,6.862100843974625,6.862100843974625,E-W,0.0002384185791015,10.182,N-S,0.0002384185791015,8.73
19980114021700.knt,CHB0129801140217.UD,1998-01-14, 02:17:00,35.586,140.23,76,4.9,CHB012,35.5727,140.3333,62,1998-01-14, 02:17:21,100Hz,119,U-D,0.0002384185791015,8.289,9.45837238528498,1396,1394.0,43.81677553557797,0.7583957714351544,0.7220010944738036,0.7042574314062925,0.6296889247892042,0.5378594279824956,0.0152342774212807,0.0152342774212807,0.0152342774212807,0.0152342774212807,0.0152342774212807,5.727247762894172,5.727247762894172,5.619378780284813,5.619378780284813,5.540481005495788,E-W,0.0002384185791015,16.015,N-S,0.0002384185791015,17.056
19980114021700.knt,CHB0139801140217.UD,1998-01-14, 02:17:00,35.586,140.23,76,4.9,CHB013,35.4327,140.2905,13,1998-01-14, 02:17:31,100Hz,119,U-D,0.0002384185791015,4.351,17.904205342426128,422,417.0,36.16406042327596,0.7680136640769148,0.7477225675595893,0.737105886566455,0.7253164592758207,0.8277089230603047,0.0089175478760134,0.0089175478760134,0.0089175478760134,0.0089175478760134,0.0089175478760134,2.4966293065976943,2.4966293065976943,2.4966293065976943,2.4966293065976943,2.4966293065976943,E-W,0.0002384185791015,8.56,N-S,0.0002384185791015,7.515
19980114021700.knt,CHB0149801140217.UD,1998-01-14, 02:17:00,35.586,140.23,76,4.9,CHB014,35.4769,140.0489,7,1998-01-14, 02:17:31,100Hz,119,U-D,0.0002384185791015,17.361,20.38941164210347,419,443.0,28.0400696601004,2.3720099920802884,2.103019977871902,1.8256875843065616,2.531701367324663,3.8597534291825615,0.0302081423841468,0.0261026205923592,0.0261026205923592,0.0261026205923592,0.0261026205923592,2.8679285874796605,2.817032191483307,2.817032191483307,2.5322425637905,2.5322425637905,E-W,0.0002384185791015,17.604,N-S,0.0002384185791015,14.231
19980114021700.knt,CHB0159801140217.UD,1998-01-14, 02:17:00,35.586,140.23,76,4.9,CHB015,35.3738,139.9159,2,1998-01-14, 02:17:31,100Hz,119,U-D,0.0002384185791015,8.835,36.95467747072329,496,507.0,30.26852819327045,4.732782140381461,3.862425017195563,3.195176079882696,2.2594500282427865,2.6150335029488017,0.0501176638336268,0.0478073510590045,0.0388631469639176,0.0355689254412953,0.0355689254412953,4.641407671480307,4.641407671480307,4.641407671480307,4.641407671480307,4.641407671480307,E-W,0.0002384185791015,11.854,N-S,0.0002384185791015,9.081
19980114021700.knt,CHB0169801140217.UD,1998-01-14, 02:17:00,35.586,140.23,76,4.9,CHB016,35.3004,140.3869,8,1998-01-14, 02:17:21,100Hz,119,U-D,0.0002384185791015,6.765,34.79290824457585,1462,1461.0,39.07537588575285,0.5824367808198689,0.6276259507205074,0.6054517874592521,0.4851714343162504,0.5094866822510924,0.0102534652432123,0.0102534652432123,0.0102534652432123,0.0102534652432123,0.0102534652432123,3.576449385661894,3.033464490809506,3.033464490809506,3.033464490809506,3.033464490809506,E-W,0.0002384185791015,15.511,N-S,0.0002384185791015,16.4
19980114021700.knt,CHB0179801140217.UD,1998-01-14, 02:17:00,35.586,140.23,76,4.9,CHB017,35.2988,140.0755,31,1998-01-14, 02:17:22,100Hz,119,U-D,0.0002384185791015,7.849,34.86759024478984,1395,1402.0,41.53708881766292,0.4852713819688312,0.4771769552429765,0.4875308633414261,0.4901626850437028,0.4363076510882746,0.0144578772633299,0.0144578772633299,0.0144578772633299,0.0144578772633299,0.0078032790634052,4.452201333172955,4.452201333172955,4.452201333172955,4.452201333172955,4.043166962270036,E-W,0.0002384185791015,13.184,N-S,0.0002384185791015,14.434
19980114021700.knt,CHB0189801140217.UD,1998-01-14, 02:17:00,35.586,140.23,76,4.9,CHB018,35.1577,140.3222,56,1998-01-14, 02:17:22,100Hz,119,U-D,0.0002384185791015,5.143,48.35292026765689,1442,1448.0,23.837622094508035,0.6362515940608329,0.6602558027671784,0.6601973898286828,0.601685849300435,0.5517309204693537,0.0105191521525627,0.0105191521525627,0.0105191521525627,0.0105191521525627,0.0105191521525627,3.2197781410764605,3.2197781410764605,3.2197781410764605,3.2197781410764605,3.2197781410764605,E-W,0.0002384185791015,9.738,N-S,0.0002384185791015,9.992
19980114021700.knt,CHB0199801140217.UD,1998-01-14, 02:17:00,35.586,140.23,76,4.9,CHB019,35.1105,139.8351,4,1998-01-14, 02:17:37,100Hz,119,U-D,0.0002384185791015,6.095,63.861843616497154,100,107.0,25.414818776884218,7.064258736667147,8.160085244607014,8.118701233607505,7.398622184314852,5.509091745368652,0.045343051443413,0.045343051443413,0.045343051443413,0.045343051443413,0.036570498129435,1.6440780476053225,1.6440780476053225,1.6440780476053225,1.6440780476053225,1.4859828475067522,E-W,0.0002384185791015,10.338,N-S,0.0002384185791015,10.096
19980114021700.knt,CHB0209801140217.UD,1998-01-14, 02:17:00,35.586,140.23,76,4.9,CHB020,35.1155,140.1022,13,1998-01-14, 02:17:27,100Hz,119,U-D,0.0002384185791015,3.473,53.58573767259743,999,993.0,36.33752426186083,0.6400011118334641,0.6568999933797699,0.681777344805644,0.6381001454363459,0.7275006417982174,0.0058860610877874,0.0058860610877874,0.0058860610877874,0.0058860610877874,0.0042357049417189,2.106382546783769,2.106382546783769,2.106382546783769,2.106382546783769,0.7847969013300078,E-W,0.0002384185791015,10.678,N-S,0.0002384185791015,6.894
19980114021700.knt,CHB0219801140217.UD,1998-01-14, 02:17:00,35.586,140.23,76,4.9,CHB021,34.9083,139.8979,6,1998-01-14, 02:17:25,100Hz,119,U-D,0.0002384185791015,3.461,81.16721658991732,1432,1438.0,28.20048941076009,1.376366556509212,1.2992586822813657,1.1796956082265244,0.9352043740810692,0.3958277800450273,0.0108009511709768,0.0108009511709768,0.0108009511709768,0.0108009511709768,0.0032976914679325,2.88357670512509,2.88357670512509,2.88357670512509,2.88357670512509,2.88357670512509,E-W,0.0002384185791015,6.881,N-S,0.0002384185791015,7.405
19980114021700.knt,CHB0229801140217.UD,1998-01-14, 02:17:00,35.586,140.23,76,4.9,CHB022,35.3083,139.8598,7,1998-01-14, 02:17:31,100Hz,119,U-D,0.0002384185791015,6.069,45.58578142743873,565,600.0,23.107865655363653,2.463985904397628,2.634261139056575,2.385131477359554,1.6251113423261458,0.6287236954371382,0.013735781984151,0.013735781984151,0.013735781984151,0.0090158395577039,0.004960057635318,1.929324923058901,1.6860355309417716,1.6860355309417716,1.6804007509880463,1.6804007509880463,E-W,0.0002384185791015,41.382,N-S,0.0002384185791015,34.879
19980114021700.knt,CHB0239801140217.UD,1998-01-14, 02:17:00,35.586,140.23,76,4.9,CHB023,34.9741,139.8449,30,1998-01-14, 02:17:38,100Hz,119,U-D,0.0002384185791015,2.281,76.49442591213081,116,114.0,32.0709704612612,1.0559987891770637,0.9938435153874006,0.96106185427194,1.0088376274975694,1.0352486020435985,0.0086119394714817,0.0086119394714817,0.0086119394714817,0.0086119394714817,0.0075747366321774,1.2797103374253684,1.2797103374253684,1.2797103374253684,1.2797103374253684,1.2797103374253684,E-W,0.0002384185791015,3.01,N-S,0.0002384185791015,4.695
19980114021700.knt,GNM0119801140217.UD,1998-01-14, 02:17:00,35.586,140.23,76,4.9,GNM011,36.2914,139.3609,42,1998-01-14, 02:17:42,100Hz,119,U-D,0.0002384185791015,2.839,110.78894279247434,34,28.000000000000004,36.27193306412316,1.1344534659267862,0.928629414006926,0.6602656392664428,0.4848112754140773,0.3512293726484374,0.0042799193091866,0.0039678054339232,0.0030166142251243,0.0027113854770109,0.0027113854770109,1.6406329354357527,1.6406329354357527,1.6406329354357527,1.6406329354357527,1.6406329354357527,E-W,0.0002384185791015,7.287,N-S,0.0002384185791015,5.492
19980114021700.knt,IBR0029801140217.UD,1998-01-14, 02:17:00,35.586,140.23,76,4.9,IBR002,36.7061,140.7068,9,1998-01-14, 02:17:42,100Hz,119,U-D,0.0002384185791015,1.668,131.701678942709,308,297.0,16.88924013888235,7.953225619608612,7.755377529133043,8.50093939329668,10.089415414956887,19.745619124399216,0.0477133501627146,0.0477133501627146,0.0477133501627146,0.0477133501627146,0.0477133501627146,1.139935952827516,1.139935952827516,1.139935952827516,1.139935952827516,0.7051393557890614,E-W,0.0002384185791015,3.033,N-S,0.0002384185791015,3.557
19980114021700.knt,IBR0039801140217.UD,1998-01-14, 02:17:00,35.586,140.23,76,4.9,IBR003,36.5915,140.6453,58,1998-01-14, 02:17:30,100Hz,119,U-D,0.0002384185791015,3.393,117.8694612127286,1309,1359.0,27.18347923843949,0.7762417138577546,0.6863308004580211,0.5146057680402126,0.4157729142144925,1.030559494124088,0.0062165542333306,0.0062117454123958,0.0062117454123958,0.0039817870697765,0.0024358701510022,3.402065916782523,3.402065916782523,3.402065916782523,2.858908887793464,0.5471000385091964,E-W,0.0002384185791015,6.16,N-S,0.0002384185791015,5.372
19980114021700.knt,IBR0049801140217.UD,1998-01-14, 02:17:00,35.586,140.23,76,4.9,IBR004,36.5273,140.4094,51,1998-01-14, 02:17:30,100Hz,89,U-D,0.0002384185791015,2.948,105.902828145132,1180,1212.0,34.26325118136379,0.6476707980409997,0.6866332883447027,0.700754511733251,0.8632285199984112,1.2945936641086653,0.004751445147528,0.004751445147528,0.004751445147528,0.004751445147528,0.0021861651990011,2.70198299953439,2.70198299953439,2.2839445155675904,2.0485166093252967,1.132083631120989,E-W,0.0002384185791015,8.742,N-S,0.0002384185791015,8.443
19980114021700.knt,IBR0059801140217.UD,1998-01-14, 02:17:00,35.586,140.23,76,4.9,IBR005,36.3851,140.2372,63,1998-01-14, 02:17:26,100Hz,119,U-D,0.0002384185791015,5.413,88.85822728025872,1364,1384.0,25.76253985691384,1.4784154542450163,1.3400312182700074,1.038134277359006,0.6720188953354002,0.4205928576899823,0.0135260840830927,0.0135260840830927,0.0124170031869277,0.007600205208189,0.0021547713922922,5.407319091087157,5.407319091087157,5.407319091087157,3.920437096737704,2.2918558666186986,E-W,0.0002384185791015,8.862,N-S,0.0002384185791015,10.896
19980114021700.knt,IBR0109801140217.UD,1998-01-14, 02:17:00,35.586,140.23,76,4.9,IBR010,36.1843,139.9653,23,1998-01-14, 02:17:34,100Hz,119,U-D,0.0002384185791015,3.279,70.6725882411825,366,366.0,29.2439547969124,2.7342842530630107,2.7334713675918283,3.403684604646889,4.313142823094652,5.511978560369315,0.0141276828734604,0.0141276828734604,0.0141276828734604,0.0141276828734604,0.0141276828734604,2.2523442043165702,1.6878192279127218,1.6878192279127218,1.4883223700291108,1.4883223700291108,E-W,0.0002384185791015,6.112,N-S,0.0002384185791015,6.305
19980114021700.knt,IBR0139801140217.UD,1998-01-14, 02:17:00,35.586,140.23,76,4.9,IBR013,36.1587,140.4892,28,1998-01-14, 02:17:24,100Hz,119,U-D,0.0002384185791015,10.603,67.82885881280154,1390,1409.0,30.718545360291024,0.2850260079479632,0.2959433737533953,0.3227919139113277,0.3153381876167438,0.2710144360959848,0.0084297075090861,0.0084297075090861,0.0084297075090861,0.0084297075090861,0.004713530889133,10.60610595079669,10.60610595079669,8.615193085599048,7.325710418967442,6.024780332316023,E-W,0.0002384185791015,14.101,N-S,0.0002384185791015,15.839
19980114021700.knt,IBR0149801140217.UD,1998-01-14, 02:17:00,35.586,140.23,76,4.9,IBR014,36.0729,140.1947,11,1998-01-14, 02:17:25,100Hz,119,U-D,0.0002384185791015,2.651,54.234258029906805,1124,1117.0,33.312627007832944,0.5598157959593844,0.5029235703638494,0.4965192076950904,0.653983535337844,0.755816360976723,0.00643371414133,0.00643371414133,0.00643371414133,0.0051558715368425,0.0051558715368425,2.5609140075028005,2.5609140075028005,2.5609140075028005,1.0972397231295232,1.0374921136857564,E-W,0.0002384185791015,6.188,N-S,0.0002384185791015,7.77
19980114021700.knt,IBR0159801140217.UD,1998-01-14, 02:17:00,35.586,140.23,76,4.9,IBR015,36.0693,139.908,14,1998-01-14, 02:17:34,100Hz,119,U-D,0.0002384185791015,4.059,61.07994953015678,299,299.0,34.123914121127974,1.2980487844168018,0.738986007395611,0.7322277498548474,0.7574269475190304,0.9629004126572968,0.0121708787805908,0.0070890154242374,0.006584775540208,0.006584775540208,0.006584775540208,2.1339450706672234,2.1339450706672234,2.1339450706672234,2.1339450706672234,2.1339450706672234,E-W,0.0002384185791015,9.358,N-S,0.0002384185791015,6.739
19980114021700.knt,IBR0179801140217.UD,1998-01-14, 02:17:00,35.586,140.23,76,4.9,IBR017,35.9537,140.3194,17,1998-01-14, 02:17:22,100Hz,119,U-D,0.0002384185791015,4.29,41.6743400553392,1370,1384.0,26.70735217953505,0.8933806869679818,0.7543681999538062,0.722016968278987,0.6424953114903874,0.7910472791822033,0.0093774568489598,0.0093774568489598,0.0093774568489598,0.0080308188320217,0.0068213152309342,4.314096700009432,4.314096700009432,4.314096700009432,4.314096700009432,3.297782207188324,E-W,0.0002384185791015,6.949,N-S,0.0002384185791015,9.079
19980114021700.knt,IBR0189801140217.UD,1998-01-14, 02:17:00,35.586,140.23,76,4.9,IBR018,35.977,140.6322,39,1998-01-14, 02:17:35,100Hz,119,U-D,0.0002384185791015,3.294,56.62674403800772,226,243.00000000000003,21.75823171275788,5.172047651410304,5.6561043848811146,6.897133154818386,8.695618107214818,13.247070802472033,0.0322378322045935,0.0322378322045935,0.0322378322045935,0.0322378322045935,0.0315996009536588,2.574141582623347,2.345561496505571,2.345561496505571,1.6707988713991286,0.874297314340849,E-W,0.0002384185791015,6.791,N-S,0.0002384185791015,5.49
19980114021700.knt,KNG0019801140217.UD,1998-01-14, 02:17:00,35.586,140.23,76,4.9,KNG001,35.5291,139.7062,2,1998-01-14, 02:17:23,100Hz,119,U-D,0.0002384185791015,10.944,47.803757197243264,1364,1361.0,34.24930852047366,0.668579385449835,0.7521625005411134,0.4896189182562898,0.4553938474478095,0.8155801788635909,0.0079977486281363,0.0079977486281363,0.0053612135159744,0.0053612135159744,0.0053612135159744,3.640286791974895,2.975731375771313,2.975731375771313,2.975731375771313,1.7157531097828669,E-W,0.0002384185791015,16.244,N-S,0.0002384185791015,12.147
19980114021700.knt,KNG0029801140217.UD,1998-01-14, 02:17:00,35.586,140.23,76,4.9,KNG002,35.4371,139.634,2,1998-01-14, 02:17:34,100Hz,119,U-D,0.0002384185791015,6.139,56.42898309207965,361,361.0,23.16403746665204,4.640907542310238,4.588944846819301,4.673564496921605,5.46295174234196,7.371873962522322,0.0387712346912738,0.0387712346912738,0.0387712346912738,0.0387712346912738,0.0387712346912738,2.6851147037020318,2.6851147037020318,2.6851147037020318,2.6851147037020318,2.6851147037020318,E-W,0.0002384185791015,10.289,N-S,0.0002384185791015,9.861
19980114021700.knt,KNG0039801140217.UD,1998-01-14, 02:17:00,35.586,140.23,76,4.9,KNG003,35.2727,139.6579,26,1998-01-14, 02:17:35,100Hz,119,U-D,0.0002384185791015,2.182,62.453997092899726,271,271.0,33.24910902940691,0.82607680123331,0.7733016634312918,0.6524672804792558,0.4977343659085061,0.7074897593306914,0.0038615861630558,0.0038615861630558,0.003152995891632,0.00169093323738,0.00169093323738,1.317707220006316,1.317707220006316,1.317707220006316,1.317707220006316,0.8182617758817987,E-W,0.0002384185791015,8.226,N-S,0.0002384185791015,7.077
19980114021700.knt,KNG0049801140217.UD,1998-01-14, 02:17:00,35.586,140.23,76,4.9,KNG004,35.1441,139.6218,31,1998-01-14, 02:17:26,100Hz,119,U-D,0.0002384185791015,5.048,73.8641973462126,1284,1298.0,29.7310608014768,0.3074301361881622,0.3156404449258714,0.3276791086696888,0.3444775398025617,0.3958813857634312,0.0063329929645388,0.0063329929645388,0.0063329929645388,0.0063329929645388,0.0045707375716457,5.077539919073072,5.077539919073072,5.077539919073072,3.65949207683402,2.0295910459896245,E-W,0.0002384185791015,14.217,N-S,0.0002384185791015,15.8
19980114021700.knt,KNG0059801140217.UD,1998-01-14, 02:17:00,35.586,140.23,76,4.9,KNG005,35.3194,139.549,7,1998-01-14, 02:17:32,100Hz,119,U-D,0.0002384185791015,7.807,68.43758585557117,638,619.0,32.56456859587854,8.023975531409834,8.59412913227996,8.952445137860865,7.68989187626506,4.784584304727935,0.0373576601594331,0.0373576601594331,0.0361050600741808,0.0301913098650383,0.023276254219026,1.6094424660605,1.6094424660605,1.2384719103717106,1.0557382612919772,1.0117384426136065,E-W,0.0002384185791015,13.755,N-S,0.0002384185791015,15.39
19980114021700.knt,KNG0069801140217.UD,1998-01-14, 02:17:00,35.586,140.23,76,4.9,KNG006,35.4544,139.5387,60,1998-01-14, 02:17:35,100Hz,119,U-D,0.0002384185791015,3.861,64.25289322553374,319,318.0,30.38698724534756,3.4800866095410505,3.454352620689581,3.5971346690124992,4.00603623579532,7.315052271513967,0.0185410724862366,0.0185410724862366,0.0185410724862366,0.0185410724862366,0.0185410724862366,1.945621220237547,1.945621220237547,1.945621220237547,1.945621220237547,1.8513073570674972,E-W,0.0002384185791015,8.562,N-S,0.0002384185791015,9.238
19980114021700.knt,KNG0089801140217.UD,1998-01-14, 02:17:00,35.586,140.23,76,4.9,KNG008,35.5751,139.3265,120,1998-01-14, 02:17:26,100Hz,119,U-D,0.0002384185791015,6.746,81.71640614450364,1351,1341.0,17.20810579682186,1.563593185055381,1.4949741583649774,1.0536161535229474,0.5202906794642348,0.4525210958100864,0.0161762219904114,0.0161762219904114,0.0147611190497846,0.0096884186408096,0.0051496447616079,6.736593030652422,6.736593030652422,6.736593030652422,6.736593030652422,5.629129613794029,E-W,0.0002384185791015,13.644,N-S,0.0002384185791015,12.377
19980114021700.knt,KNG0099801140217.UD,1998-01-14, 02:17:00,35.586,140.23,76,4.9,KNG009,35.4424,139.3618,20,1998-01-14, 02:17:39,100Hz,89,U-D,0.0002384185791015,4.156,80.18596073841115,52,50.0,28.345350494555586,0.5216230878922684,0.481494768418555,0.4881685707226181,0.5198852641066326,0.7360081505747974,0.004687959616484,0.004687959616484,0.004687959616484,0.004687959616484,0.004687959616484,2.235654637316605,2.235654637316605,2.235654637316605,1.7115789418905163,1.3335663481242113,E-W,0.0002384185791015,11.215,N-S,0.0002384185791015,13.464
19980114021700.knt,KNG0109801140217.UD,1998-01-14, 02:17:00,35.586,140.23,76,4.9,KNG010,35.3355,139.3504,7,1998-01-14, 02:17:38,100Hz,119,U-D,0.0002384185791015,2.314,84.39389545578558,193,193.0,24.08719064430101,1.386055843337885,1.5064324780802276,1.6021863785405417,1.6977986629939728,1.2993690550818036,0.0052442014445152,0.0052442014445152,0.0052442014445152,0.0052442014445152,0.0045466790584659,1.111470673957943,1.111470673957943,1.111470673957943,1.0840646074175484,0.9543491092742586,E-W,0.0002384185791015,4.898,N-S,0.0002384185791015,3.725
