earthquake name,records name,earthquake date,earthquake time,lat,long,depth,mag,stn_code,stn_lat,stn_long,stn_height,rcd_date,rcd_time,frequency,rcd_duration,direction,scale_factor,max_pga,epi_dist,pick_index_manually,pick_index_kalkan,snr_db_kalkan,tc_5sec,tc_4sec,tc_3sec,tc_2sec,tc_1sec,Pd_5sec,Pd_4sec,Pd_3sec,Pd_2sec,Pd_1sec,Pga_5sec,Pga_4sec,Pga_3sec,Pga_2sec,Pga_1sec,Channel,Scale_factor,PGA_ew,Channel.1,Scale_factor.1,PGA_ns
19970106082100.knt,SIT0099701060821.UD,1997-01-06, 08:21:00,36.203,140.114,53,3.9,SIT009,35.9032,139.4837,22.0,1997-01-06, 08:22:18,100Hz,59,U-D,0.0002384185791015,2.509,65.74142863792129,478,29.0,16.888194442999488,3.4004569925947234,3.668033783867328,2.972134846716727,1.924483855126004,0.6758929976784868,0.0034309750416155,0.0034309750416155,0.0034309750416155,0.0027030015455577,0.0009581189442274,1.023863129674878,1.023863129674878,1.023863129674878,1.023863129674878,1.023863129674878,E-W,0.0002384185791015,4.323,N-S,0.0002384185791015,5.385
19970106082100.knt,TCG0039701060821.UD,1997-01-06, 08:21:00,36.203,140.114,53,3.9,TCG003,36.8144,139.7153,398.0,1997-01-06, 08:22:10,100Hz,59,U-D,0.0002384185791015,1.552,76.7569605108086,1403,1410.0,22.77377450922808,3.316271145472788,3.35755887965962,2.861549643861271,1.5142144808684772,1.4385645671390832,0.0048444442101297,0.0048444442101297,0.0048444442101297,0.002814359568085,0.0026839969886456,1.5568203304539838,1.5568203304539838,1.5568203304539838,1.5568203304539838,1.5568203304539838,E-W,0.0002384185791015,8.119,N-S,0.0002384185791015,7.067
19970106082100.knt,TCG0049701060821.UD,1997-01-06, 08:21:00,36.203,140.114,53,3.9,TCG004,36.8061,139.4204,1490.0,1997-01-06, 08:22:23,100Hz,59,U-D,0.0002384185791015,1.839,91.32562295403054,298,298.0,17.045459467297693,1.393689997074956,1.3400583552316143,1.3638904509166028,1.436164129572144,1.4087717024120363,0.0026816423432026,0.0026816423432026,0.0026816423432026,0.0026816423432026,0.0026816423432026,1.845576285171385,1.845576285171385,1.845576285171385,1.845576285171385,1.845576285171385,E-W,0.0002384185791015,2.875,N-S,0.0002384185791015,2.083
19970106082100.knt,TCG0079701060821.UD,1997-01-06, 08:21:00,36.203,140.114,53,3.9,TCG007,36.5692,139.8861,138.0,1997-01-06, 08:22:14,100Hz,59,U-D,0.0002384185791015,2.554,45.54415339251785,646,644.0,28.933436626825824,2.24517368081623,1.8500469895642784,1.3155516890268473,0.9084068357217098,1.0116889475205877,0.0019023241034317,0.0018201464341989,0.0012864328198304,0.0011988295427901,0.0011988295427901,0.94812736374815,0.8763302737963862,0.8763302737963862,0.8763302737963862,0.8763302737963862,E-W,0.0002384185791015,5.288,N-S,0.0002384185791015,4.683
19970106082100.knt,TCG0109701060821.UD,1997-01-06, 08:21:00,36.203,140.114,53,3.9,TCG010,36.6347,139.4376,640.0,1997-01-06, 08:22:10,100Hz,59,U-D,0.0002384185791015,4.513,77.24809970605756,1408,1417.0,30.11880222534384,0.325440811529775,0.2195941407569994,0.2051554915420144,0.2038905139309308,0.2215117720360626,0.0010819420449286,0.0010819420449286,0.0010819420449286,0.0010819420449286,0.0010819420449286,2.652042074860726,2.652042074860726,2.652042074860726,2.652042074860726,2.652042074860726,E-W,0.0002384185791015,7.501,N-S,0.0002384185791015,10.275
19970106082100.knt,TCG0119701060821.UD,1997-01-06, 08:21:00,36.203,140.114,53,3.9,TCG011,36.3867,139.6145,93.0,1997-01-06, 08:22:14,100Hz,59,U-D,0.0002384185791015,3.428,49.205717232981485,698,703.0,24.602767784406684,5.021323597592172,4.446473563539838,4.033595318893529,3.103009030986496,2.394393021587184,0.0043107689617199,0.0033667012981441,0.0027231498184164,0.0025224469138766,0.0018645155505821,1.069906430535479,1.060439164207593,1.060439164207593,1.060439164207593,0.9167273126916632,E-W,0.0002384185791015,3.979,N-S,0.0002384185791015,5.305
19970106082100.knt,TCG0129701060821.UD,1997-01-06, 08:21:00,36.203,140.114,53,3.9,TCG012,36.2859,139.8047,33.0,1997-01-06, 08:22:08,100Hz,59,U-D,0.0002384185791015,10.109,29.22928345715649,1162,1168.0,30.72544009161397,0.3837324388780617,0.4127821014970987,0.5904936144633306,0.4191484193490304,0.2256702903999174,0.0020435411226357,0.0020435411226357,0.0020435411226357,0.0014009557445565,0.0005405858363996,3.495048288497669,3.495048288497669,2.3240543092185035,2.1849961344628204,2.1849961344628204,E-W,0.0002384185791015,9.126,N-S,0.0002384185791015,14.508
19970106082100.knt,TCG0139701060821.UD,1997-01-06, 08:21:00,36.203,140.114,53,3.9,TCG013,36.4368,140.0225,67.0,1997-01-06, 08:22:11,100Hz,59,U-D,0.0002384185791015,7.126,27.259225208815028,829,832.0,32.062599997817244,5.410782708135082,5.948986079930433,6.505967393336888,6.420312227046417,5.440026810854147,0.0081957189237305,0.0081957189237305,0.0081957189237305,0.007966068831305,0.0074570369793018,2.38670389697422,2.38670389697422,1.8901681333986864,1.8901681333986864,1.8901681333986864,E-W,0.0002384185791015,29.743,N-S,0.0002384185791015,27.784
19970106082100.knt,TCG0149701060821.UD,1997-01-06, 08:21:00,36.203,140.114,53,3.9,TCG014,36.545,140.1742,130.0,1997-01-06, 08:22:13,100Hz,59,U-D,0.0002384185791015,18.372,38.40869803322392,704,714.0,24.41862881073737,1.1196889144512676,1.2270506233266836,0.9362183199503806,0.5766028105614308,0.7142088499771909,0.0042311471756387,0.0042311471756387,0.0035357026235652,0.0020540204993435,0.0020540204993435,3.065784293901056,1.9291365622819,1.9291365622819,1.9291365622819,1.4781604341892591,E-W,0.0002384185791015,29.608,N-S,0.0002384185791015,14.711
19970107180200.knt,HKD0909701071802.UD,1997-01-07, 18:02:00,42.27,142.979,65,4.6,HKD090,43.1213,143.6183,65.0,1997-01-07, 18:03:27,100Hz,59,U-D,0.0002384185791015,2.347,108.12059764285029,87,125.0,19.99823127658728,1.940443141298025,1.9067958951103143,1.9970318198760344,2.9521436330436863,2.139103924156181,0.0034264310103948,0.0034264310103948,0.0034264310103948,0.0022751693813248,0.0015775092740266,2.057350028144504,2.057350028144504,1.7389174995582877,0.8237607445482473,0.5138303127149255,E-W,0.0002384185791015,5.29,N-S,0.0002384185791015,5.094
19970107180200.knt,HKD0929701071802.UD,1997-01-07, 18:02:00,42.27,142.979,65,4.6,HKD092,42.9283,143.4483,17.0,1997-01-07, 18:03:22,100Hz,59,U-D,0.0002384185791015,3.669,82.66601717238406,279,281.0,19.25607742151584,10.226009607233149,10.82240266374372,13.310946721784092,20.10328705874886,32.70672326703924,0.0470662028293167,0.0470662028293167,0.0470662028293167,0.0470662028293167,0.0470662028293167,2.009276783720014,1.9779960987948764,1.2564519611583125,0.882724699025239,0.6554888474593585,E-W,0.0002384185791015,10.024,N-S,0.0002384185791015,8.762
19970107180200.knt,HKD0939701071802.UD,1997-01-07, 18:02:00,42.27,142.979,65,4.6,HKD093,43.3191,143.3049,364.0,1997-01-07, 18:03:29,100Hz,59,U-D,0.0002384185791015,1.539,119.64670757077002,38,47.0,22.8010629265663,1.1350478051211856,1.1187237967667314,1.2669365302044042,1.658987135920462,1.3759906595257974,0.0011680876370245,0.0011680876370245,0.0011680876370245,0.0011680876370245,0.0006128330214354,0.691028713180224,0.691028713180224,0.4984445278993589,0.3342832799777219,0.2215588674540222,E-W,0.0002384185791015,2.895,N-S,0.0002384185791015,3.086
19970107180200.knt,HKD0949701071802.UD,1997-01-07, 18:02:00,42.27,142.979,65,4.6,HKD094,43.1694,143.2408,205.0,1997-01-07, 18:03:26,100Hz,59,U-D,0.0002384185791015,1.501,102.26984610820176,126,124.0,29.18083236519061,2.5660709649751494,2.8004446463209725,3.5099534012426328,3.3775792433560263,3.331739390424004,0.004111177863119,0.004111177863119,0.0035407819576197,0.0031167513998547,0.0022649438444911,1.1643835719076734,1.1643835719076734,1.1643835719076734,0.7739404100916094,0.3376120323395861,E-W,0.0002384185791015,3.427,N-S,0.0002384185791015,3.352
19970107180200.knt,HKD0959701071802.UD,1997-01-07, 18:02:00,42.27,142.979,65,4.6,HKD095,42.9311,143.2137,35.0,1997-01-07, 18:03:21,100Hz,59,U-D,0.0002384185791015,3.095,75.97943696874121,355,353.0,22.54382548434593,8.639128959545403,7.783106228040097,8.223409260242697,10.519372214173009,14.12283319977896,0.0545211912625412,0.0545211912625412,0.0545211912625412,0.0545211912625412,0.0545211912625412,1.5388747430339542,1.5388747430339542,1.5388747430339542,1.5388747430339542,1.5388747430339542,E-W,0.0002384185791015,6.361,N-S,0.0002384185791015,12.592
19970107180200.knt,HKD0969701071802.UD,1997-01-07, 18:02:00,42.27,142.979,65,4.6,HKD096,42.6975,143.1356,192.0,1997-01-07, 18:03:15,100Hz,59,U-D,0.0002384185791015,5.566,49.2398232335864,623,631.0,25.651417471523,8.678518297396508,7.875196707250254,6.658564929581879,5.46391630692222,2.808220216252411,0.0343129097895247,0.0343129097895247,0.0335990498187647,0.0291039227294553,0.015922960611603,3.548407991729249,3.548407991729249,3.548407991729249,3.478807835863315,3.307619309353171,E-W,0.0002384185791015,7.047,N-S,0.0002384185791015,6.475
19970107180200.knt,HKD0979701071802.UD,1997-01-07, 18:02:00,42.27,142.979,65,4.6,HKD097,42.6181,143.4209,33.0,1997-01-07, 18:03:08,100Hz,59,U-D,0.0002384185791015,6.437,53.037726862895575,1376,1384.0,35.5777381026238,2.143137207855222,1.767675735268034,1.2486054967224485,0.5701309526105404,0.526762235310342,0.0159106146093926,0.0159106146093926,0.0122294770997884,0.0084401254000804,0.0084401254000804,3.978030795887861,3.978030795887861,3.978030795887861,3.978030795887861,3.978030795887861,E-W,0.0002384185791015,23.463,N-S,0.0002384185791015,15.838
19970107180200.knt,HKD0989701071802.UD,1997-01-07, 18:02:00,42.27,142.979,65,4.6,HKD098,42.4984,143.2787,83.0,1997-01-07, 18:03:07,100Hz,59,U-D,0.0002384185791015,9.061,35.368256589220046,1359,1394.0,33.422112592002065,0.6359524944426461,0.6434130861298338,0.5960995037680132,0.607459558110594,0.5961108672887538,0.021382852076565,0.021382852076565,0.021382852076565,0.021382852076565,0.021382852076565,9.101537022534536,9.101537022534536,9.101537022534536,9.101537022534536,9.101537022534536,E-W,0.0002384185791015,18.296,N-S,0.0002384185791015,17.854
19970107180200.knt,HKD1009701071802.UD,1997-01-07, 18:02:00,42.27,142.979,65,4.6,HKD100,42.2864,143.312,36.0,1997-01-07, 18:03:06,100Hz,59,U-D,0.0002384185791015,17.48,27.45708115769423,1369,1396.0,22.668345168817,1.098853695446429,0.9814095429599125,0.8107315881426602,0.5031514384231732,0.2981620644526305,0.0247860986844192,0.0247860986844192,0.0233705216431819,0.0159229894505155,0.0159229894505155,17.481802012170924,17.481802012170924,17.481802012170924,17.481802012170924,17.481802012170924,E-W,0.0002384185791015,31.55,N-S,0.0002384185791015,35.294
19970107180200.knt,HKD1089701071802.UD,1997-01-07, 18:02:00,42.27,142.979,65,4.6,HKD108,42.2528,142.5643,42.0,1997-01-07, 18:03:15,100Hz,59,U-D,0.0002384185791015,2.561,34.180681030002205,549,569.0,30.318122831415245,1.642199228158637,1.4506090056710548,1.137085974281144,0.7758896180212455,0.9431650359627578,0.0050013674828444,0.0050013674828444,0.0042445654895195,0.0020887996811837,0.0020887996811837,0.869707031481259,0.869707031481259,0.869707031481259,0.8473805683330307,0.5067616670999613,E-W,0.0002384185791015,6.43,N-S,0.0002384185791015,6.347
19970107180200.knt,HKD1099701071802.UD,1997-01-07, 18:02:00,42.27,142.979,65,4.6,HKD109,42.1678,142.7673,4.0,1997-01-07, 18:03:06,100Hz,59,U-D,0.0002384185791015,6.387,20.810158672209067,1378,1379.0,23.08746167401356,0.787123117142953,0.8124868259943661,0.7485199604598206,0.7452810218353783,0.5134950198142905,0.0072259043563485,0.0072259043563485,0.0072259043563485,0.0072259043563485,0.0072259043563485,5.883441000140191,5.883441000140191,5.883441000140191,5.883441000140191,4.342764595954502,E-W,0.0002384185791015,43.333,N-S,0.0002384185791015,21.763
19970107180200.knt,HKD1109701071802.UD,1997-01-07, 18:02:00,42.27,142.979,65,4.6,HKD110,42.1306,142.9353,5.0,1997-01-07, 18:03:05,100Hz,59,U-D,0.0002384185791015,8.234,15.913066200178806,1446,1465.0,28.97775669884832,0.6496467319414955,0.6168727653843911,0.6277618172894052,0.6726812954187907,0.6447546558521636,0.0145756325799011,0.0145756325799011,0.0145756325799011,0.0145756325799011,0.0145756325799011,8.242048805454694,8.242048805454694,8.242048805454694,8.242048805454694,8.242048805454694,E-W,0.0002384185791015,10.207,N-S,0.0002384185791015,20.056
19970107180200.knt,HKD1119701071802.UD,1997-01-07, 18:02:00,42.27,142.979,65,4.6,HKD111,42.017,143.1487,22.0,1997-01-07, 18:03:07,100Hz,59,U-D,0.0002384185791015,3.817,31.419466256248853,1362,1392.0,29.651282858862672,1.813240814168779,1.5651418295683466,0.9677960428533988,0.8639422539189372,0.8717910253829708,0.0128806671052417,0.0128806671052417,0.0093118728975829,0.0089795210977325,0.0089795210977325,3.824671699386848,3.824671699386848,3.824671699386848,3.824671699386848,2.013027792748096,E-W,0.0002384185791015,4.871,N-S,0.0002384185791015,4.754
19970107180200.knt,HKD1129701071802.UD,1997-01-07, 18:02:00,42.27,142.979,65,4.6,HKD112,41.937,143.2403,15.0,1997-01-07, 18:03:09,100Hz,59,U-D,0.0002384185791015,5.351,42.8458807843859,1255,1262.0,35.357239995604594,0.6850569498431096,0.6684079870825554,0.5753158489295382,0.5351994608150381,1.046238203107075,0.0066940273689685,0.0066940273689685,0.0066940273689685,0.0066940273689685,0.0042426050784853,5.399421456914403,5.399421456914403,5.399421456914403,5.399421456914403,3.667370286833088,E-W,0.0002384185791015,9.473,N-S,0.0002384185791015,5.748
19970107180200.knt,HKD1139701071802.UD,1997-01-07, 18:02:00,42.27,142.979,65,4.6,HKD113,42.1287,143.3153,15.0,1997-01-07, 18:03:06,100Hz,59,U-D,0.0002384185791015,12.849,31.847947428336823,1424,1466.0,27.117735116328685,0.4935035475082558,0.4960709131539872,0.5009788333904276,0.5013239615600702,0.5620782066379428,0.0179699127312924,0.0179699127312924,0.0179699127312924,0.0179699127312924,0.0179699127312924,12.819214042157244,12.819214042157244,12.819214042157244,12.819214042157244,11.740568266790929,E-W,0.0002384185791015,16.102,N-S,0.0002384185791015,14.538
19970108223600.knt,FKI0089701082236.UD,1997-01-08, 22:36:00,35.153,135.514,13,4.0,FKI008,35.5479,135.9084,13.0,1997-01-08, 22:36:46,100Hz,59,U-D,0.0002384185791015,1.652,56.63581852505101,810,850.0,17.485997002767984,3.1011357757560387,3.718972518145391,4.617540515077312,4.420842257587962,5.1974869532529615,0.0011906338207254,0.0011906338207254,0.0010767424803458,0.0009188668492185,0.0009188668492185,0.5635172354691094,0.5635172354691094,0.4341018168159424,0.4341018168159424,0.3441510493768027,E-W,0.0002384185791015,4.601,N-S,0.0002384185791015,5.23
19970108223600.knt,FKI0109701082236.UD,1997-01-08, 22:36:00,35.153,135.514,13,4.0,FKI010,35.4904,135.551,2.0,1997-01-08, 22:36:41,100Hz,59,U-D,0.0002384185791015,2.423,37.66704605515524,1017,1018.0,28.871034899756737,1.8840392564640849,2.4750064413187425,2.8065835988025944,3.327371332069995,3.191045221837879,0.0030774164085615,0.0030774164085615,0.0030774164085615,0.0030774164085615,0.0030774164085615,2.4112330788691216,2.3194705098095603,2.3194705098095603,2.3194705098095603,2.3194705098095603,E-W,0.0002384185791015,7.817,N-S,0.0002384185791015,5.907
19970108223600.knt,HYG0039701082236.UD,1997-01-08, 22:36:00,35.153,135.514,13,4.0,HYG003,35.4615,134.8758,10.0,1997-01-08, 22:36:50,100Hz,59,U-D,0.0002384185791015,2.328,67.30877600707764,585,583.0,13.673371689879056,12.141199738082868,10.10307737495005,7.521998871786035,4.513331926167681,1.5929233855788705,0.0171145645445753,0.0169357329179252,0.0160338132983329,0.0123931100415926,0.0052121106072286,2.334725602609913,2.334725602609913,2.334725602609913,2.334725602609913,2.334725602609913,E-W,0.0002384185791015,4.498,N-S,0.0002384185791015,2.61
19970108223600.knt,HYG0089701082236.UD,1997-01-08, 22:36:00,35.153,135.514,13,4.0,HYG008,35.1482,134.788,300.0,1997-01-08, 22:36:41,100Hz,59,U-D,0.0002384185791015,4.387,66.00818665621959,1468,1474.0,25.323254497601507,0.8523713265393066,0.8394343792452632,0.71785931024947,0.2868769410133195,0.2310860053758733,0.0023412171089628,0.0023412171089628,0.0023412171089628,0.0013783673362216,0.0013783673362216,4.392395333588384,4.392395333588384,4.392395333588384,4.392395333588384,4.392395333588384,E-W,0.0002384185791015,4.143,N-S,0.0002384185791015,3.681
19970108223600.knt,HYG0099701082236.UD,1997-01-08, 22:36:00,35.153,135.514,13,4.0,HYG009,35.169,135.1041,85.0,1997-01-08, 22:36:37,100Hz,59,U-D,0.0002384185791015,4.549,37.30478101125229,1406,1404.0,29.023967293353746,1.8482054641647132,2.076317345125308,1.9522004982203731,1.5227921717960513,0.9228318179319828,0.0039990585866543,0.0039990585866543,0.0039990585866543,0.0038666586514614,0.0032781299737284,4.5461449136533005,4.5461449136533005,4.5461449136533005,4.5461449136533005,4.5461449136533005,E-W,0.0002384185791015,6.46,N-S,0.0002384185791015,6.692
19970108223600.knt,HYG0139701082236.UD,1997-01-08, 22:36:00,35.153,135.514,13,4.0,HYG013,34.989,134.7634,85.0,1997-01-08, 22:36:42,100Hz,59,U-D,0.0002384185791015,5.33,70.70148630129644,1443,1446.0,25.084119120057164,0.7812716185442001,0.7638792418704443,0.5543980292369385,0.3932089909731878,0.3868841389031761,0.001383366494103,0.001383366494103,0.0012427898701502,0.0011426215351953,0.0011426215351953,5.328226169180574,5.328226169180574,5.328226169180574,5.328226169180574,5.328226169180574,E-W,0.0002384185791015,3.117,N-S,0.0002384185791015,2.743
19970108223600.knt,HYG0149701082236.UD,1997-01-08, 22:36:00,35.153,135.514,13,4.0,HYG014,35.0023,134.9999,75.0,1997-01-08, 22:36:45,100Hz,59,U-D,0.0002384185791015,1.972,49.693092790663904,801,798.0,22.504153778235327,6.7303676574287765,6.590360516885424,5.545892171601179,3.7897671066879055,1.8839705319982212,0.0062184471315857,0.0062184471315857,0.0062184471315857,0.0054299395201619,0.0033610532809703,1.9800516555108585,1.9800516555108585,1.9800516555108585,1.9800516555108585,1.9800516555108585,E-W,0.0002384185791015,5.639,N-S,0.0002384185791015,4.746
19970108223600.knt,HYG0159701082236.UD,1997-01-08, 22:36:00,35.153,135.514,13,4.0,HYG015,34.9515,135.2713,195.0,1997-01-08, 22:36:36,100Hz,59,U-D,0.0002384185791015,5.33,31.465676482070688,1416,1415.0,38.460332468338144,2.464429637745348,4.162101494727022,3.5126016149191925,1.8074189692418228,0.3436287086893576,0.0128368259586942,0.0128368259586942,0.0128368259586942,0.0101663815957503,0.0028686535253641,5.271717046781006,4.120270117700535,4.120270117700535,4.120270117700535,4.120270117700535,E-W,0.0002384185791015,15.614,N-S,0.0002384185791015,19.782
19970108223600.knt,HYG0189701082236.UD,1997-01-08, 22:36:00,35.153,135.514,13,4.0,HYG018,34.8143,134.687,9.0,1997-01-08, 22:36:44,100Hz,59,U-D,0.0002384185791015,2.614,84.23104824009975,1462,1462.0,21.2501630272001,0.3493996084302536,0.3459604997309156,0.3391028801973572,0.2996731941331637,0.2714549137095751,0.002024265268842,0.002024265268842,0.002024265268842,0.002024265268842,0.002024265268842,2.6129222345826686,2.6129222345826686,2.6129222345826686,2.6129222345826686,2.6129222345826686,E-W,0.0002384185791015,4.031,N-S,0.0002384185791015,3.164
19970108223600.knt,HYG0209701082236.UD,1997-01-08, 22:36:00,35.153,135.514,13,4.0,HYG020,34.7976,134.9899,75.0,1997-01-08, 22:36:41,100Hz,59,U-D,0.0002384185791015,2.591,61.98377875930407,1421,1415.0,28.586629747621203,0.8754764441195958,0.6982948311669938,0.4416785872118373,0.3585076102622515,0.3565900108749181,0.0017932556796797,0.0017932556796797,0.0017932556796797,0.0017932556796797,0.0017932556796797,2.584786364514528,2.584786364514528,2.584786364514528,2.584786364514528,2.584786364514528,E-W,0.0002384185791015,3.185,N-S,0.0002384185791015,2.125
19970108223600.knt,HYG0219701082236.UD,1997-01-08, 22:36:00,35.153,135.514,13,4.0,HYG021,34.6898,135.1583,90.0,1997-01-08, 22:36:48,100Hz,59,U-D,0.0002384185791015,2.194,60.86476456923557,685,464.0,15.46240524842167,5.372736611515701,5.595870575045337,2.347782764904134,1.7620649369340935,2.040996226369555,0.008703188882272,0.008703188882272,0.0047896609537491,0.0018158178434357,0.0018158178434357,0.3456117613865007,0.3456117613865007,0.3456117613865007,0.3456117613865007,0.3086379059409788,E-W,0.0002384185791015,7.855,N-S,0.0002384185791015,3.82
