earthquake name,records name,earthquake date,earthquake time,lat,long,depth,mag,stn_code,stn_lat,stn_long,stn_height,rcd_date,rcd_time,frequency,rcd_duration,direction,scale_factor,max_pga,epi_dist,pick_index_manually,pick_index_kalkan,snr_db_kalkan,tc_5sec,tc_4sec,tc_3sec,tc_2sec,tc_1sec,Pd_5sec,Pd_4sec,Pd_3sec,Pd_2sec,Pd_1sec,Pga_5sec,Pga_4sec,Pga_3sec,Pga_2sec,Pga_1sec,Channel,Scale_factor,PGA_ew,Channel.1,Scale_factor.1,PGA_ns
19970108223600.knt,KYT0069701082236.UD,1997-01-08, 22:36:00,35.153,135.514,13,4.0,KYT006,35.2759,135.1827,72.0,1997-01-08, 22:36:36,100Hz,59,U-D,0.0002384185791015,4.941,33.05456320165108,1451,1454.0,31.084878084949192,3.0093670720081307,3.756745448177463,3.051518293689599,1.821762662109877,0.5059871118271059,0.0106985637560855,0.0106985637560855,0.0103845423331543,0.0085603892221953,0.0035206816691668,4.9533469415274105,4.48685437995783,4.48685437995783,4.48685437995783,4.48685437995783,E-W,0.0002384185791015,5.631,N-S,0.0002384185791015,7.775
19970108223600.knt,KYT0079701082236.UD,1997-01-08, 22:36:00,35.153,135.514,13,4.0,KYT007,35.3057,135.713,402.0,1997-01-08, 22:36:38,100Hz,59,U-D,0.0002384185791015,8.384,24.79939471054932,1100,1112.0,25.48887085917565,2.1576459970872373,1.927410072114704,4.374845406158095,3.3208020118142567,0.9672874675342978,0.0174390975445677,0.0174390975445677,0.0096855769474036,0.0061766939891076,0.001922756328979,8.369394636529568,8.369394636529568,2.62649689851866,1.1448355317369427,0.8188020047912783,E-W,0.0002384185791015,15.839,N-S,0.0002384185791015,14.925
19970108223600.knt,KYT0089701082236.UD,1997-01-08, 22:36:00,35.153,135.514,13,4.0,KYT008,35.2612,135.3966,100.0,1997-01-08, 22:36:36,100Hz,59,U-D,0.0002384185791015,34.351,16.078620023995157,1187,1198.0,22.159754142864266,1.960100877896316,0.9073948384349146,0.2492629425523429,0.8167833435306958,1.0849737346470172,0.0397799974264159,0.0264061808004661,0.0116626263875828,0.0019269341146412,0.0019269341146412,34.24266468407597,34.24266468407597,34.24266468407597,6.154508334966438,3.5174036107615367,E-W,0.0002384185791015,138.249,N-S,0.0002384185791015,115.095
19970108223600.knt,KYT0099701082236.UD,1997-01-08, 22:36:00,35.153,135.514,13,4.0,KYT009,35.1637,135.5016,156.0,1997-01-08, 22:36:32,100Hz,59,U-D,0.0002384185791015,52.592,1.6390026020338329,1449,1451.0,31.24594731381333,0.455872991201283,0.4279371820866545,0.3748030094855697,0.2660482883110636,0.1612793744706498,0.014716849413949,0.014716849413949,0.014716849413949,0.014716849413949,0.014716849413949,52.48423202219989,52.48423202219989,52.48423202219989,52.48423202219989,52.48423202219989,E-W,0.0002384185791015,70.891,N-S,0.0002384185791015,48.604
19970108223600.knt,KYT0109701082236.UD,1997-01-08, 22:36:00,35.153,135.514,13,4.0,KYT010,35.2098,135.7738,402.0,1997-01-08, 22:36:34,100Hz,59,U-D,0.0002384185791015,4.486,24.441568307696773,1473,1475.0,36.676587917248746,1.1079414284221367,1.0533238844281934,1.0685427382537362,0.5795575312232593,0.3719892047340825,0.0086719125062163,0.0086719125062163,0.0039505956769582,0.0027559678605459,0.0022889495090302,4.475539724037186,4.475539724037186,3.585539128221665,3.585539128221665,3.585539128221665,E-W,0.0002384185791015,21.148,N-S,0.0002384185791015,18.59
19970108223600.knt,KYT0119701082236.UD,1997-01-08, 22:36:00,35.153,135.514,13,4.0,KYT011,35.017,135.5638,101.0,1997-01-08, 22:36:36,100Hz,59,U-D,0.0002384185791015,5.957,15.786809654902989,1170,1178.0,32.277871106306144,1.9238542471329576,1.2890978227657124,0.9276318932256772,1.8150428802825067,2.955488124100589,0.013182657276026,0.0098294169504258,0.0058398521457776,0.0025968778625382,0.0025968778625382,5.954634119005866,5.954634119005866,5.954634119005866,2.837526426900053,1.394461391420835,E-W,0.0002384185791015,7.629,N-S,0.0002384185791015,6.581
19970108223600.knt,KYT0129701082236.UD,1997-01-08, 22:36:00,35.153,135.514,13,4.0,KYT012,34.9962,135.8188,89.0,1997-01-08, 22:36:36,100Hz,59,U-D,0.0002384185791015,3.99,32.76219412268058,1406,1406.0,35.709801890455914,0.3475168750957141,0.3376872544745928,0.3937763119892203,0.4147884690417124,0.4320348738364373,0.0021907937457876,0.0020534302192626,0.0020534302192626,0.0020534302192626,0.0020534302192626,3.688724824250501,3.688724824250501,3.688724824250501,3.688724824250501,3.688724824250501,E-W,0.0002384185791015,10.577,N-S,0.0002384185791015,12.5
19970108223600.knt,MIE0029701082236.UD,1997-01-08, 22:36:00,35.153,135.514,13,4.0,MIE002,35.0279,136.5073,79.0,1997-01-08, 22:36:47,100Hz,59,U-D,0.0002384185791015,4.014,91.4390219037858,1306,1314.0,24.159338440884284,0.3906147598706913,0.3314619862225123,0.2318291293666266,0.1827306719895868,0.1900296925747706,0.0022508286470444,0.0022508286470444,0.0022508286470444,0.0022508286470444,0.0022508286470444,4.004115033720557,4.004115033720557,4.004115033720557,4.004115033720557,4.004115033720557,E-W,0.0002384185791015,5.05,N-S,0.0002384185791015,0.981
19970108223600.knt,MIE0049701082236.UD,1997-01-08, 22:36:00,35.153,135.514,13,4.0,MIE004,34.8569,136.4493,79.0,1997-01-08, 22:36:57,100Hz,59,U-D,0.0002384185791015,1.592,91.32799853205992,285,295.0,21.42391558796401,2.745066519167362,2.7208376501770317,2.398334351185214,1.9547458864143008,1.6794791910716151,0.004109575517782,0.004109575517782,0.004109575517782,0.0035344656922754,0.0032420383638492,1.5880795302307265,1.5880795302307265,1.5880795302307265,1.5880795302307265,1.5880795302307265,E-W,0.0002384185791015,2.874,N-S,0.0002384185791015,2.282
19970108223600.knt,OSK0019701082236.UD,1997-01-08, 22:36:00,35.153,135.514,13,4.0,OSK001,34.9659,135.4069,208.0,1997-01-08, 22:36:37,100Hz,59,U-D,0.0002384185791015,5.014,22.975133534211928,1179,1179.0,37.601073613954135,1.090553612461197,1.0314485009077246,1.553849226930321,1.21010340936603,0.4408763303872011,0.0120855358372285,0.0064871555520834,0.0039387778617582,0.0035173125794369,0.0015859422914967,5.035813878357655,4.924897944888638,2.349931030656643,2.168376275509853,2.168376275509853,E-W,0.0002384185791015,12.976,N-S,0.0002384185791015,13.22
19970108223600.knt,SIG0029701082236.UD,1997-01-08, 22:36:00,35.153,135.514,13,4.0,SIG002,35.4215,136.0243,95.0,1997-01-08, 22:36:47,100Hz,59,U-D,0.0002384185791015,3.319,55.10571537542338,698,698.0,31.10151578300123,4.031598440467003,3.111597521139572,1.735717209395341,0.3641911577277816,0.2482468080705261,0.0071137895265847,0.0068112118996963,0.0050377339775077,0.0016185632609819,0.0008567598261137,1.4542547095100524,1.4542547095100524,1.4542547095100524,1.4542547095100524,1.4542547095100524,E-W,0.0002384185791015,4.025,N-S,0.0002384185791015,5.053
19970108223600.knt,SIG0049701082236.UD,1997-01-08, 22:36:00,35.153,135.514,13,4.0,SIG004,35.3476,135.9184,187.0,1997-01-08, 22:36:43,100Hz,59,U-D,0.0002384185791015,4.252,42.62304749515516,860,869.0,27.92697289572649,1.6060992706120876,1.5304325283378886,1.2670427417065302,0.9356263322951032,0.7862620130054199,0.0030260458785226,0.0030260458785226,0.0026167023373821,0.0021978741086386,0.0021978741086386,3.9164316520242526,3.9164316520242526,3.9164316520242526,3.9164316520242526,3.9164316520242526,E-W,0.0002384185791015,7.335,N-S,0.0002384185791015,8.591
19970108223600.knt,SIG0059701082236.UD,1997-01-08, 22:36:00,35.153,135.514,13,4.0,SIG005,35.2493,136.2421,93.0,1997-01-08, 22:36:50,100Hz,59,U-D,0.0002384185791015,1.836,67.01679442244202,567,576.0,20.410504418595448,2.465466562341556,2.0528271916628413,1.3882563373699055,0.5936049312778943,0.3806498546743944,0.0031228304505618,0.0031228304505618,0.0026244388555091,0.0013677360560738,0.0009771675572977,1.8292854122879372,1.8292854122879372,1.8292854122879372,1.8292854122879372,1.667089810426465,E-W,0.0002384185791015,2.46,N-S,0.0002384185791015,1.774
19970108223600.knt,SIG0069701082236.UD,1997-01-08, 22:36:00,35.153,135.514,13,4.0,SIG006,35.2001,135.921,106.0,1997-01-08, 22:36:37,100Hz,59,U-D,0.0002384185791015,11.871,37.3605368976824,1397,1413.0,18.21360789212058,0.5471848404425207,0.4105109242869678,0.2112252988010711,0.1915584560467749,0.1551376593125505,0.0036473381413295,0.0036473381413295,0.003468755268744,0.003468755268744,0.003468755268744,11.84376857365512,11.84376857365512,11.84376857365512,11.84376857365512,11.84376857365512,E-W,0.0002384185791015,5.454,N-S,0.0002384185791015,4.253
19970108223600.knt,SIG0089701082236.UD,1997-01-08, 22:36:00,35.153,135.514,13,4.0,SIG008,35.0701,136.2946,218.0,1997-01-08, 22:36:42,100Hz,59,U-D,0.0002384185791015,3.302,71.59998494333371,1453,1461.0,25.111845910247105,12.388551612110245,10.886293656689006,7.445691740932158,3.751041597012079,0.8139081276199254,0.0405883911805608,0.0405883911805608,0.0376204133795061,0.0243666153544365,0.0055080782327855,3.342273259336625,3.342273259336625,3.342273259336625,3.342273259336625,3.342273259336625,E-W,0.0002384185791015,2.922,N-S,0.0002384185791015,3.124
19970108223600.knt,SIG0099701082236.UD,1997-01-08, 22:36:00,35.153,135.514,13,4.0,SIG009,35.0051,136.0854,136.0,1997-01-08, 22:36:39,100Hz,59,U-D,0.0002384185791015,5.519,54.53466960289514,1466,1474.0,23.06465666427448,2.765162174694208,2.7793377794628804,2.4591335650536097,1.5328369005552804,0.4482809467287965,0.0073325255636497,0.0073325255636497,0.0073325255636497,0.0065601176591154,0.0026646892676316,5.52908837173985,5.52908837173985,5.52908837173985,5.52908837173985,5.52908837173985,E-W,0.0002384185791015,3.809,N-S,0.0002384185791015,4.73
19970108223600.knt,SIG0119701082236.UD,1997-01-08, 22:36:00,35.153,135.514,13,4.0,SIG011,34.8779,136.0587,283.0,1997-01-08, 22:36:40,100Hz,59,U-D,0.0002384185791015,3.209,58.278319711379744,1426,1435.0,26.470540665915028,0.7879415473408877,0.7498996339069423,0.5571829859586518,0.3965384408241412,0.328096990769673,0.0021493686756945,0.0021493686756945,0.0020868078289041,0.0020868078289041,0.0020868078289041,3.228444471264293,3.228444471264293,3.228444471264293,3.228444471264293,3.228444471264293,E-W,0.0002384185791015,5.948,N-S,0.0002384185791015,5.332
19970111042000.knt,HKD0599701110420.UD,1997-01-11, 04:20:00,43.103,145.879,83,5.1,HKD059,43.8565,144.4629,31.0,1997-01-11, 04:21:21,100Hz,70,U-D,0.0002384185791015,4.17,141.68230343219923,1394,1393.0,34.617894305989395,0.93643796086846,0.9451550508140614,0.8561339642409699,0.7958657819848178,0.7562142673876251,0.008897373634721,0.008897373634721,0.008897373634721,0.008897373634721,0.008897373634721,4.164760188089415,4.164760188089415,4.164760188089415,4.164760188089415,4.164760188089415,E-W,0.0002384185791015,10.038,N-S,0.0002384185791015,7.33
19970111042000.knt,HKD0609701110420.UD,1997-01-11, 04:20:00,43.103,145.879,83,5.1,HKD060,43.9136,144.6657,6.0,1997-01-11, 04:21:20,100Hz,59,U-D,0.0002384185791015,4.571,133.03338425970398,1410,1409.0,32.36346211691033,0.6706926275760056,0.6675672698814324,0.6830798924519218,0.6904628534069256,0.7065620808237726,0.0153726062423566,0.0153726062423566,0.0153726062423566,0.0153726062423566,0.0153726062423566,4.616088212471393,4.616088212471393,4.616088212471393,4.616088212471393,4.616088212471393,E-W,0.0002384185791015,3.917,N-S,0.0002384185791015,4.252
19970111042000.knt,HKD0639701110420.UD,1997-01-11, 04:20:00,43.103,145.879,83,5.1,HKD063,44.106,145.2478,4.0,1997-01-11, 04:21:18,100Hz,59,U-D,0.0002384185791015,9.631,122.56156870025006,1435,1432.0,43.51495924534934,0.4505814989062818,0.4347101036003003,0.4388693136822069,0.4330739406066701,0.4087646471452577,0.0273615088144004,0.0273615088144004,0.0273615088144004,0.0273615088144004,0.0273615088144004,9.683630192913062,9.683630192913062,9.683630192913062,9.683630192913062,9.683630192913062,E-W,0.0002384185791015,17.788,N-S,0.0002384185791015,28.991
19970111042000.knt,HKD0649701110420.UD,1997-01-11, 04:20:00,43.103,145.879,83,5.1,HKD064,44.0202,145.1886,17.0,1997-01-11, 04:21:18,100Hz,59,U-D,0.0002384185791015,6.377,116.17192718126128,1347,1343.0,33.730194521131,0.5943953428292451,0.6138491739726306,0.6121125092100645,0.6497521738917643,0.6986187884639815,0.0137808519626888,0.0137808519626888,0.0137808519626888,0.0137808519626888,0.0137808519626888,3.538946771868438,3.538946771868438,3.538946771868438,3.538946771868438,2.755147707900517,E-W,0.0002384185791015,9.05,N-S,0.0002384185791015,7.822
19970111042000.knt,HKD0659701110420.UD,1997-01-11, 04:20:00,43.103,145.879,83,5.1,HKD065,43.7938,145.0565,10.0,1997-01-11, 04:21:16,100Hz,59,U-D,0.0002384185791015,6.082,101.53199642836296,1395,1411.0,32.1456730802944,1.1431848094655994,1.180394145152748,1.0892659600865495,1.0307513105838575,0.6435281323891413,0.0116116181368275,0.0116116181368275,0.0116116181368275,0.0116116181368275,0.0096685626928374,6.084369998732901,6.084369998732901,6.084369998732901,6.084369998732901,5.626857795549314,E-W,0.0002384185791015,10.336,N-S,0.0002384185791015,9.511
19970111042000.knt,HKD0669701110420.UD,1997-01-11, 04:20:00,43.103,145.879,83,5.1,HKD066,43.6619,145.1307,2.0,1997-01-11, 04:21:15,100Hz,73,U-D,0.0002384185791015,11.215,86.7131514500597,1364,1390.0,28.61800471017193,0.6029997585872593,0.594507778261333,0.5913895375229297,0.5999711018435326,0.7023543376184813,0.0153548548905785,0.0153548548905785,0.0153548548905785,0.0153548548905785,0.0153548548905785,11.196102308119096,11.196102308119096,11.196102308119096,11.196102308119096,11.196102308119096,E-W,0.0002384185791015,26.217,N-S,0.0002384185791015,22.221
19970111042000.knt,HKD0679701110420.UD,1997-01-11, 04:20:00,43.103,145.879,83,5.1,HKD067,43.555,144.9726,30.0,1997-01-11, 04:21:15,100Hz,59,U-D,0.0002384185791015,45.825,88.88771990564352,1427,1388.0,48.68223015319165,4.416722465536687,4.456265433661743,3.913088235739029,2.5772263361266394,0.8335790534186919,0.1467596052354645,0.1467596052354645,0.1467596052354645,0.1380377414620156,0.0798519299414154,45.83050493874046,45.83050493874046,45.83050493874046,45.83050493874046,45.83050493874046,E-W,0.0002384185791015,40.571,N-S,0.0002384185791015,38.326
19970111042000.knt,HKD0689701110420.UD,1997-01-11, 04:20:00,43.103,145.879,83,5.1,HKD068,43.4108,144.7704,105.0,1997-01-11, 04:21:16,100Hz,66,U-D,0.0002384185791015,51.588,96.0783977558084,1442,1466.0,8.865474828174023,0.4585301772826708,0.4216234629090199,0.3688122391606732,0.3220240059202792,0.3328175633363089,0.036647694843045,0.036647694843045,0.036647694843045,0.036647694843045,0.036647694843045,51.74553316800853,51.74553316800853,51.74553316800853,51.74553316800853,51.74553316800853,E-W,0.0002384185791015,44.185,N-S,0.0002384185791015,67.093
19970111042000.knt,HKD0699701110420.UD,1997-01-11, 04:20:00,43.103,145.879,83,5.1,HKD069,43.3941,145.1168,25.0,1997-01-11, 04:21:13,100Hz,72,U-D,0.0002384185791015,13.627,69.70394683299466,1464,1460.0,45.02211190686253,0.6567209736862605,0.6652503261733246,0.67649428736424,0.6908425591174382,0.6225687789399647,0.0248613465104616,0.0248613465104616,0.0248613465104616,0.0248613465104616,0.0248613465104616,13.63790736846748,13.63790736846748,13.63790736846748,13.63790736846748,13.63790736846748,E-W,0.0002384185791015,32.559,N-S,0.0002384185791015,34.493
19970111042000.knt,HKD0709701110420.UD,1997-01-11, 04:20:00,43.103,145.879,83,5.1,HKD070,43.3852,145.284,6.0,1997-01-11, 04:21:12,100Hz,81,U-D,0.0002384185791015,14.52,57.50937773501281,1445,1441.0,44.09319811692608,0.6930696014023698,0.7082922871836954,0.7465357761189785,0.7579037894755045,0.6849870763370663,0.0229990511452169,0.0229990511452169,0.0229990511452169,0.0229990511452169,0.0229990511452169,14.462477271025232,14.462477271025232,14.462477271025232,14.462477271025232,14.462477271025232,E-W,0.0002384185791015,30.644,N-S,0.0002384185791015,43.612
19970111042000.knt,HKD0719701110420.UD,1997-01-11, 04:20:00,43.103,145.879,83,5.1,HKD071,43.2326,145.2604,38.0,1997-01-11, 04:21:11,100Hz,60,U-D,0.0002384185791015,26.356,52.197274561456126,1463,1468.0,48.21537390179543,0.5993751627534082,0.5654532720026072,0.557292638087188,0.4621857709080302,0.2649499737547031,0.0109999209669073,0.0109999209669073,0.0109999209669073,0.0109999209669073,0.0109999209669073,26.22278122787747,26.22278122787747,26.22278122787747,26.22278122787747,26.22278122787747,E-W,0.0002384185791015,82.241,N-S,0.0002384185791015,82.294
19970111042000.knt,HKD0729701110420.UD,1997-01-11, 04:20:00,43.103,145.879,83,5.1,HKD072,43.1948,145.5209,46.0,1997-01-11, 04:21:11,100Hz,74,U-D,0.0002384185791015,22.568,30.79216500955661,1385,1403.0,24.30219319784461,0.9258247123532511,0.9613797644755904,0.9840010126998346,0.9491049759085064,0.6933581159752,0.0152166508094778,0.0152166508094778,0.0152166508094778,0.0152166508094778,0.0140814061378984,7.853146693269072,7.853146693269072,7.853146693269072,7.853146693269072,7.853146693269072,E-W,0.0002384185791015,57.621,N-S,0.0002384185791015,119.956
19970111042000.knt,HKD0739701110420.UD,1997-01-11, 04:20:00,43.103,145.879,83,5.1,HKD073,43.3327,145.6003,36.0,1997-01-11, 04:21:10,100Hz,67,U-D,0.0002384185791015,12.052,34.09409978314952,1444,1436.0,48.05386433815406,0.5309467478202976,0.5369517535114032,0.5471920868594176,0.559100457733407,0.5640279664034807,0.0186622604500756,0.0186622604500756,0.0186622604500756,0.0186622604500756,0.0186622604500756,12.05928444527268,12.05928444527268,12.05928444527268,12.05928444527268,12.05928444527268,E-W,0.0002384185791015,24.573,N-S,0.0002384185791015,30.643
19970111042000.knt,HKD0749701110420.UD,1997-01-11, 04:20:00,43.103,145.879,83,5.1,HKD074,43.3687,145.8028,16.0,1997-01-11, 04:21:10,100Hz,65,U-D,0.0002384185791015,39.847,30.182481470248405,1419,1413.0,54.876779422040414,0.614083967428459,0.6008017497261556,0.5399828844961976,0.4405750793004353,0.4585298900715297,0.0178933279997622,0.0178933279997622,0.0178933279997622,0.0178933279997622,0.0178933279997622,14.29241514616059,14.29241514616059,14.29241514616059,14.29241514616059,14.29241514616059,E-W,0.0002384185791015,68.003,N-S,0.0002384185791015,49.449
19970111042000.knt,HKD0759701110420.UD,1997-01-11, 04:20:00,43.103,145.879,83,5.1,HKD075,43.0767,145.1296,11.0,1997-01-11, 04:21:13,100Hz,59,U-D,0.0002384185791015,36.698,60.92415080298856,1399,1398.0,52.95662218650754,0.7999051066981956,0.7972863942268619,0.7942545387669753,0.797506903391132,0.7610155665299642,0.0144169978541235,0.0144169978541235,0.0144169978541235,0.0144169978541235,0.0144169978541235,10.175296791791627,10.175296791791627,10.175296791791627,10.175296791791627,10.175296791791627,E-W,0.0002384185791015,49.488,N-S,0.0002384185791015,43.276
19970111042000.knt,HKD0769701110420.UD,1997-01-11, 04:20:00,43.103,145.879,83,5.1,HKD076,43.0509,144.8498,2.0,1997-01-11, 04:21:27,100Hz,59,U-D,0.0002384185791015,4.765,83.7925222970874,163,163.0,33.05105544269184,1.0968921671429832,1.1377089893505474,1.1317600218784256,1.0042321962773535,0.7398052208248841,0.0102980474090933,0.0102980474090933,0.0102980474090933,0.0102980474090933,0.0102980474090933,2.7996253810252654,2.7996253810252654,2.7996253810252654,2.7996253810252654,2.5787208642731905,E-W,0.0002384185791015,6.594,N-S,0.0002384185791015,5.942
19970111042000.knt,HKD0789701110420.UD,1997-01-11, 04:20:00,43.103,145.879,83,5.1,HKD078,43.1486,144.4976,21.0,1997-01-11, 04:21:17,100Hz,76,U-D,0.0002384185791015,36.329,112.2223926367171,1481,1479.0,55.8817815694328,0.7648052803690041,0.7103237601591739,0.5442322740903931,0.3311842296728686,0.2432365488032648,0.0398964139132713,0.0398964139132713,0.0398964139132713,0.0272650142457682,0.0272650142457682,25.383648324084923,25.383648324084923,25.383648324084923,25.383648324084923,25.383648324084923,E-W,0.0002384185791015,52.269,N-S,0.0002384185791015,42.361
19970111042000.knt,HKD0799701110420.UD,1997-01-11, 04:20:00,43.103,145.879,83,5.1,HKD079,43.3033,144.5996,32.0,1997-01-11, 04:21:17,100Hz,59,U-D,0.0002384185791015,27.981,106.06341184477802,1445,1471.0,22.9313447536834,0.690298885683458,0.6065821392825504,0.5857340833931631,0.5352567916520012,0.4652551529786203,0.0217548140120512,0.0217548140120512,0.0217548140120512,0.0217548140120512,0.0217548140120512,27.955267148411657,27.955267148411657,27.955267148411657,27.955267148411657,27.955267148411657,E-W,0.0002384185791015,14.177,N-S,0.0002384185791015,14.3
