earthquake name,records name,earthquake date,earthquake time,lat,long,depth,mag,stn_code,stn_lat,stn_long,stn_height,rcd_date,rcd_time,frequency,rcd_duration,direction,scale_factor,max_pga,epi_dist,pick_index_manually,pick_index_kalkan,snr_db_kalkan,tc_5sec,tc_4sec,tc_3sec,tc_2sec,tc_1sec,Pd_5sec,Pd_4sec,Pd_3sec,Pd_2sec,Pd_1sec,Pga_5sec,Pga_4sec,Pga_3sec,Pga_2sec,Pga_1sec,Channel,Scale_factor,PGA_ew,Channel.1,Scale_factor.1,PGA_ns
19980117015700.knt,NAR0099801170157.UD,1998-01-17, 01:57:00,34.12,135.297,8,3.7,NAR009,33.938,135.7552,200,1998-01-17, 01:57:52,100Hz,119,U-D,0.0002384185791015,2.482,46.82380681856177,870,869.0,23.32849883403503,2.4376866921486093,2.170395828385532,1.6769717138229845,1.9398787916286968,3.677555950354604,0.0039814178223681,0.0039697977850337,0.002730832988434,0.002730832988434,0.002730832988434,2.4647329079072446,2.4647329079072446,2.4647329079072446,2.4647329079072446,1.4389506984333704,E-W,0.0002384185791015,4.655,N-S,0.0002384185791015,7.428
19980117015700.knt,OSK0089801170157.UD,1998-01-17, 01:57:00,34.12,135.297,8,3.7,OSK008,34.4438,135.3874,10,1998-01-17, 01:57:50,100Hz,119,U-D,0.0002384185791015,1.256,36.95049459932645,959,969.0,20.424234716546845,4.483407010609106,5.454395288857097,6.182294596122297,5.741128591899006,5.358025818441475,0.0065782090728493,0.0065782090728493,0.0065782090728493,0.0061423808533227,0.0049426219231267,1.2719088217492436,1.2719088217492436,1.2719088217492436,1.2719088217492436,0.4667331106398827,E-W,0.0002384185791015,4.161,N-S,0.0002384185791015,4.622
19980117015700.knt,OSK0109801170157.UD,1998-01-17, 01:57:00,34.12,135.297,8,3.7,OSK010,34.3755,135.2549,3,1998-01-17, 01:57:48,100Hz,119,U-D,0.0002384185791015,2.728,28.67262256860721,1013,1033.0,21.00297985266408,1.6493898353531535,2.005993324060822,2.3080922277386677,2.7997961306932675,4.145113310915799,0.0040353592903713,0.0040353592903713,0.0040353592903713,0.0040353592903713,0.0040353592903713,2.732522883641953,2.732522883641953,2.732522883641953,2.0203138752011904,1.275737230440495,E-W,0.0002384185791015,6.135,N-S,0.0002384185791015,5.199
19980117015700.knt,TKS0039801170157.UD,1998-01-17, 01:57:00,34.12,135.297,8,3.7,TKS003,33.8716,134.6039,8,1998-01-17, 01:57:01,100Hz,119,U-D,0.0002384185791015,1.504,69.61057435728313,367,382.0,18.547028084991023,7.11340983481227,6.322208044551988,6.210537470128915,7.130828333507161,13.157813574730357,0.016640797623322,0.016640797623322,0.016640797623322,0.016640797623322,0.016640797623322,1.499115404149716,1.499115404149716,1.499115404149716,1.499115404149716,1.0807172125467637,E-W,0.0002384185791015,2.328,N-S,0.0002384185791015,3.238
19980117015700.knt,WKY0019801170157.UD,1998-01-17, 01:57:00,34.12,135.297,8,3.7,WKY001,34.2288,135.1694,8,1998-01-17, 01:57:42,100Hz,119,U-D,0.0002384185791015,21.627,16.85692022852003,1396,1396.0,36.01915045431093,0.3046682704684521,0.2995729053294546,0.2813535333845139,0.4587005107033403,0.3515156312106211,0.0150054342277864,0.0150054342277864,0.0150054342277864,0.0039763520196227,0.0028518151117363,21.62051184942174,21.62051184942174,21.62051184942174,4.6401527039432775,4.6401527039432775,E-W,0.0002384185791015,23.856,N-S,0.0002384185791015,25.175
19980117015700.knt,WKY0039801170157.UD,1998-01-17, 01:57:00,34.12,135.297,8,3.7,WKY003,34.0996,135.116,3,1998-01-17, 01:57:41,100Hz,119,U-D,0.0002384185791015,14.089,16.81752641535732,1465,1466.0,37.36112829314394,0.3336172630337781,0.2887814704330833,0.2914194259690122,0.2057697538697041,0.1910691785414424,0.0097331412015822,0.0097331412015822,0.0097331412015822,0.006382837737188,0.006382837737188,14.051175019236226,14.051175019236226,14.051175019236226,14.051175019236226,14.051175019236226,E-W,0.0002384185791015,26.162,N-S,0.0002384185791015,21.553
19980117015700.knt,WKY0049801170157.UD,1998-01-17, 01:57:00,34.12,135.297,8,3.7,WKY004,34.0838,135.4313,238,1998-01-17, 01:57:41,100Hz,119,U-D,0.0002384185791015,13.249,13.004204133822448,1404,1402.0,39.21392948820073,1.3391185403918155,1.0901733800759073,0.6315056529468911,0.423737915978546,0.2035970431355219,0.0138358852050977,0.0138358852050977,0.0084539241455698,0.006719347081995,0.0057855253096081,13.235547327494332,13.235547327494332,13.235547327494332,13.235547327494332,13.235547327494332,E-W,0.0002384185791015,18.336,N-S,0.0002384185791015,14.378
19980117015700.knt,WKY0059801170157.UD,1998-01-17, 01:57:00,34.12,135.297,8,3.7,WKY005,33.8938,135.4883,316,1998-01-17, 01:57:48,100Hz,119,U-D,0.0002384185791015,2.144,30.71770814699083,1008,1008.0,24.447897738920744,4.682808691326291,5.25404172047765,5.625363771618502,4.0169556848187655,3.844942351663494,0.0085307600901921,0.0085307600901921,0.0085307600901921,0.0072125663228963,0.0068095226723458,2.1324793239379627,2.1324793239379627,2.116759922311373,2.116759922311373,1.5884213080679874,E-W,0.0002384185791015,6.448,N-S,0.0002384185791015,8.103
19980117015700.knt,WKY0069801170157.UD,1998-01-17, 01:57:00,34.12,135.297,8,3.7,WKY006,33.8908,135.1524,3,1998-01-17, 01:57:47,100Hz,119,U-D,0.0002384185791015,3.217,28.76097127634961,1080,1080.0,25.466676071111657,0.992087484895453,1.6637115429290674,1.807639495144076,2.066987547106751,2.60978894057964,0.0073961981057512,0.0073961981057512,0.0073961981057512,0.0073961981057512,0.0073961981057512,3.20106471725268,2.8277267928574656,2.8277267928574656,2.8277267928574656,2.0425985742231747,E-W,0.0002384185791015,5.963,N-S,0.0002384185791015,7.837
19980119023100.knt,OKN0079801190231.UD,1998-01-19, 02:31:00,24.854,125.231,3,3.3,OKN007,24.853,125.2964,14,1998-01-19, 02:31:39,100Hz,119,U-D,0.0002384185791015,2.796,6.599577997188542,1193,1197.0,28.064938082827105,1.738063188512381,1.848725986230976,1.9334710698525095,1.9690560767593213,0.9648145389746692,0.0050260775089591,0.0050260775089591,0.004547997252002,0.0038683017695987,0.0026480526752775,2.796225836803915,2.796225836803915,2.796225836803915,2.796225836803915,2.796225836803915,E-W,0.0002384185791015,3.958,N-S,0.0002384185791015,2.631
19980121002100.knt,HKD0669801210021.UD,1998-01-21, 00:21:00,43.586,146.846,55,5.2,HKD066,43.6619,145.1307,2,1998-01-21, 00:22:41,100Hz,124,U-D,0.0002384185791015,6.937,138.32344880853378,1323,1371.0,31.27923293071008,1.03188519894667,0.5436046642752476,0.3486151327983441,0.3477782914187358,0.6899192873732343,0.0101042243491422,0.0069857111682589,0.0036283752226708,0.0036283752226708,0.0032386689628759,6.774261679565219,6.774261679565219,6.774261679565219,6.774261679565219,3.1629454100478505,E-W,0.0002384185791015,11.975,N-S,0.0002384185791015,12.465
19980121002100.knt,HKD0719801210021.UD,1998-01-21, 00:21:00,43.586,146.846,55,5.2,HKD071,43.2326,145.2604,38,1998-01-21, 00:22:53,100Hz,119,U-D,0.0002384185791015,5.809,133.9732057371484,28,75.0,19.887208188865944,9.383404100551102,9.91630185557148,9.021358558779534,6.649628966606584,3.41060772034524,0.0187044253988965,0.0187044253988965,0.0187044253988965,0.0164720515252147,0.0084970435135447,1.969767520537708,1.969767520537708,1.969767520537708,1.969767520537708,0.5535495204761489,E-W,0.0002384185791015,16.856,N-S,0.0002384185791015,12.878
19980121002100.knt,HKD0729801210021.UD,1998-01-21, 00:21:00,43.586,146.846,55,5.2,HKD072,43.1948,145.5209,46,1998-01-21, 00:22:44,100Hz,122,U-D,0.0002384185791015,10.257,115.57061872646268,759,831.0,23.75493064821713,26.123171553935336,27.41201534195012,32.32664258971182,33.36135888714056,24.509231179462883,0.0871124159702504,0.0871124159702504,0.0871124159702504,0.0871124159702504,0.0803402467923213,2.7528447163712984,2.1691826418510867,2.0226076777306305,1.0773495638188986,0.5516696537393736,E-W,0.0002384185791015,35.173,N-S,0.0002384185791015,33.299
19980121073500.knt,MIE0079801210735.UD,1998-01-21, 07:35:00,34.103,136.047,47,3.7,MIE007,34.651,136.3404,82,1998-01-21, 07:35:47,100Hz,119,U-D,0.0002384185791015,5.274,66.61883234499174,613,648.0,19.4035010225178,4.197802686530382,4.231887479496909,3.639099793898719,2.435926102780789,1.140773654965351,0.005340998351578,0.005340998351578,0.0052603684317791,0.0046224002791429,0.0025076545642037,1.3037877574176864,1.3037877574176864,1.3037877574176864,1.3037877574176864,1.3037877574176864,E-W,0.0002384185791015,6.662,N-S,0.0002384185791015,7.289
19980121073500.knt,MIE0109801210735.UD,1998-01-21, 07:35:00,34.103,136.047,47,3.7,MIE010,34.4908,136.7334,19,1998-01-21, 07:35:51,100Hz,119,U-D,0.0002384185791015,1.313,76.38822941003905,382,379.0,12.040932418750437,10.480890757658198,9.103703851676626,6.472516363821194,3.5681388742442226,2.991599040148064,0.0110619477544434,0.0110619477544434,0.0106751303661369,0.0072661855212537,0.0057014626652622,0.4921747543877153,0.4921747543877153,0.4921747543877153,0.4921747543877153,0.4921747543877153,E-W,0.0002384185791015,2.253,N-S,0.0002384185791015,2.645
19980121073500.knt,MIE0119801210735.UD,1998-01-21, 07:35:00,34.103,136.047,47,3.7,MIE011,34.4283,136.3329,143,1998-01-21, 07:35:43,100Hz,119,U-D,0.0002384185791015,2.871,44.70630868403595,771,775.0,13.60994789472683,7.106109601886197,7.320857977258992,6.897058195368055,6.341771227364538,5.443124396987173,0.0040384733700934,0.0040384733700934,0.0040384733700934,0.0040384733700934,0.0040384733700934,1.7766240764997268,1.7766240764997268,1.7766240764997268,1.7766240764997268,1.7766240764997268,E-W,0.0002384185791015,8.191,N-S,0.0002384185791015,12.938
19980121073500.knt,MIE0149801210735.UD,1998-01-21, 07:35:00,34.103,136.047,47,3.7,MIE014,34.0638,136.1687,85,1998-01-21, 07:35:39,100Hz,119,U-D,0.0002384185791015,4.931,12.025622426995668,915,914.0,27.35129573465708,1.7942244224632808,2.039060284161501,2.1051114808252827,2.156826432014098,2.567660972671992,0.0018332166925354,0.0018332166925354,0.0018332166925354,0.0018332166925354,0.0018332166925354,1.8369932345763056,1.8369932345763056,1.8369932345763056,1.8369932345763056,1.8178569250474172,E-W,0.0002384185791015,13.172,N-S,0.0002384185791015,10.227
19980121073500.knt,MIE0159801210735.UD,1998-01-21, 07:35:00,34.103,136.047,47,3.7,MIE015,33.8783,136.0822,6,1998-01-21, 07:35:40,100Hz,119,U-D,0.0002384185791015,2.504,25.19537455035709,906,903.0,23.908182586598684,0.7511633586660296,0.7017686354477716,0.7861368723591252,0.8593323065900398,0.9755165731386414,0.0010119980525114,0.0010119980525114,0.0010119980525114,0.0010119980525114,0.0010119980525114,1.4822552362248012,1.4822552362248012,1.4822552362248012,1.4822552362248012,1.4822552362248012,E-W,0.0002384185791015,8.68,N-S,0.0002384185791015,6.885
19980121073500.knt,MIE0169801210735.UD,1998-01-21, 07:35:00,34.103,136.047,47,3.7,MIE016,33.8764,135.9188,63,1998-01-21, 07:35:41,100Hz,119,U-D,0.0002384185791015,3.457,27.831238850937662,825,825.0,22.634484904720672,2.646986101620357,1.948541081229085,1.721185622193035,1.7282169076018106,1.8065545925338984,0.0032876709744963,0.0032876709744963,0.0032876709744963,0.0032876709744963,0.0032876709744963,2.1328568781536887,2.1328568781536887,2.1328568781536887,2.1328568781536887,2.1328568781536887,E-W,0.0002384185791015,5.829,N-S,0.0002384185791015,8.631
19980121073500.knt,MIE0179801210735.UD,1998-01-21, 07:35:00,34.103,136.047,47,3.7,MIE017,34.3624,136.3348,118,1998-01-21, 07:35:42,100Hz,119,U-D,0.0002384185791015,1.582,39.14064790760569,806,810.0,24.12774885713574,4.406823871279358,4.375296518943626,3.8188988556314745,2.7268931998357635,1.9048653420306945,0.0016398336114058,0.0016398336114058,0.0015288260788729,0.0012473733023519,0.0008603930839963,0.946602585351799,0.946602585351799,0.946602585351799,0.946602585351799,0.946602585351799,E-W,0.0002384185791015,4.097,N-S,0.0002384185791015,4.887
19980121073500.knt,NAR0079801210735.UD,1998-01-21, 07:35:00,34.103,136.047,47,3.7,NAR007,34.2213,135.7369,760,1998-01-21, 07:35:41,100Hz,119,U-D,0.0002384185791015,2.58,31.41815278161733,848,848.0,23.98919423110594,3.051006013502265,3.54968825179277,3.945116781734607,5.044572657008134,4.855847983963167,0.0021692195885002,0.0021692195885002,0.0021692195885002,0.0021692195885002,0.0021692195885002,0.7805111179972847,0.7805111179972847,0.7805111179972847,0.5802366890195011,0.5802366890195011,E-W,0.0002384185791015,5.799,N-S,0.0002384185791015,4.341
19980121073500.knt,NAR0089801210735.UD,1998-01-21, 07:35:00,34.103,136.047,47,3.7,NAR008,34.1352,136.0046,330,1998-01-21, 07:35:33,100Hz,119,U-D,0.0002384185791015,4.758,5.29663644117656,1482,1482.0,30.01789324259823,0.2987505658942951,0.3167336993571185,0.3112170749001461,0.2774249907073909,0.1805125460996929,0.0013144595779664,0.0013144595779664,0.0013144595779664,0.0013144595779664,0.0013144595779664,4.749435382645528,4.749435382645528,4.749435382645528,4.749435382645528,4.749435382645528,E-W,0.0002384185791015,17.736,N-S,0.0002384185791015,36.818
19980121073500.knt,WKY0059801210735.UD,1998-01-21, 07:35:00,34.103,136.047,47,3.7,WKY005,33.8938,135.4883,316,1998-01-21, 07:35:46,100Hz,119,U-D,0.0002384185791015,1.203,56.51398200699185,625,635.0,14.560587474230298,7.003603125759201,7.316241772302576,5.89680134574424,2.681783020723972,0.5022657296672467,0.0072270263589252,0.0072270263589252,0.0070182978968828,0.003767874599232,0.0008249670646358,1.2061591344970664,1.2061591344970664,1.2061591344970664,1.2061591344970664,1.2061591344970664,E-W,0.0002384185791015,1.756,N-S,0.0002384185791015,3.233
19980122051100.knt,CHB0029801220511.UD,1998-01-22, 05:11:00,36.52,140.58,59,3.8,CHB002,35.7868,139.9031,14,1998-01-22, 05:11:42,100Hz,119,U-D,0.0002384185791015,2.806,101.68679256522591,138,163.0,18.503947679863245,6.2092132318565865,6.686704828193643,7.557834568792306,7.06970094627885,6.429196687253665,0.003878415618907,0.003878415618907,0.003878415618907,0.0036617809120295,0.0032130152140145,0.6801876005636012,0.6801876005636012,0.6801876005636012,0.5540215693718077,0.4872218087786506,E-W,0.0002384185791015,3.211,N-S,0.0002384185791015,2.897
19980122051100.knt,CHB0079801220511.UD,1998-01-22, 05:11:00,36.52,140.58,59,3.8,CHB007,35.7234,140.2267,24,1998-01-22, 05:11:42,100Hz,119,U-D,0.0002384185791015,2.028,94.09036310376916,58,64.0,17.397920198732923,7.538183632820628,7.627272126912921,6.895001293458735,5.878643476030481,3.52523951166981,0.0037864888356935,0.0037864888356935,0.0035035472360527,0.0034986980858647,0.001954794420475,0.6276896460922494,0.6276896460922494,0.6276896460922494,0.5883459992801272,0.2628606259798364,E-W,0.0002384185791015,3.636,N-S,0.0002384185791015,6.077
19980122051100.knt,FKS0089801220511.UD,1998-01-22, 05:11:00,36.52,140.58,59,3.8,FKS008,37.4363,140.5668,430,1998-01-22, 05:11:41,100Hz,119,U-D,0.0002384185791015,1.125,101.89465769103803,183,213.0,19.29450547461024,7.7163983967563325,9.0141823600064,10.945373484523826,13.400083536416822,13.472701140416996,0.0034301944799821,0.0034301944799821,0.0034301944799821,0.0034301944799821,0.0034301944799821,0.6309025230842525,0.6309025230842525,0.5157669204220274,0.4440302130592587,0.1458646906784629,E-W,0.0002384185791015,4.292,N-S,0.0002384185791015,2.798
19980122051100.knt,FKS0139801220511.UD,1998-01-22, 05:11:00,36.52,140.58,59,3.8,FKS013,37.09,140.5563,320,1998-01-22, 05:11:33,100Hz,119,U-D,0.0002384185791015,5.845,63.41622086180427,568,585.0,22.92962751408823,1.2959767023907347,1.3334819537716822,1.7379905928949733,1.8426927209834028,1.8203793704390232,0.0021094124317486,0.0011681055568572,0.0011681055568572,0.0011681055568572,0.0009506488624405,1.5638101172667271,1.055035382715522,0.9724112241983622,0.9049389027364608,0.7875084016522561,E-W,0.0002384185791015,12.082,N-S,0.0002384185791015,9.422
19980122051100.knt,FKS0149801220511.UD,1998-01-22, 05:11:00,36.52,140.58,59,3.8,FKS014,36.8683,140.43,178,1998-01-22, 05:11:30,100Hz,119,U-D,0.0002384185791015,2.171,40.97332587684091,666,673.0,26.6984019251612,6.486143047674332,6.810268497329804,7.314150548830585,5.399630901213493,3.2369724255042702,0.0040361303494772,0.0040361303494772,0.0040361303494772,0.0036783340002404,0.002251679736027,1.2603981358713376,0.9910563962568756,0.9910563962568756,0.9910563962568756,0.9910563962568756,E-W,0.0002384185791015,8.153,N-S,0.0002384185791015,5.452
19980122051100.knt,FKS0169801220511.UD,1998-01-22, 05:11:00,36.52,140.58,59,3.8,FKS016,37.1228,140.1914,375,1998-01-22, 05:11:36,100Hz,119,U-D,0.0002384185791015,2.328,75.4270821907649,403,403.0,25.831363164599995,4.35298320529297,4.753233132126451,4.380002869621238,2.6070953582703127,1.0524659573291166,0.0056138887848618,0.0056138887848618,0.0056138887848618,0.0047483448693148,0.0022812545205908,1.4505007031040498,1.4505007031040498,1.4505007031040498,1.4505007031040498,1.4505007031040498,E-W,0.0002384185791015,6.473,N-S,0.0002384185791015,6.55
19980122051100.knt,IBR0019801220511.UD,1998-01-22, 05:11:00,36.52,140.58,59,3.8,IBR001,36.7761,140.3569,105,1998-01-22, 05:11:28,100Hz,119,U-D,0.0002384185791015,7.339,34.74320428645929,820,823.0,22.78614746793138,14.993581522367045,17.09153634823968,19.178903935481745,17.785046243730214,16.871726893895055,0.0232857287102658,0.0232857287102658,0.0232857287102658,0.0231867777734414,0.0210900193033869,2.796698702274924,2.342655414507369,1.8687033732163305,1.8687033732163305,1.8687033732163305,E-W,0.0002384185791015,10.622,N-S,0.0002384185791015,11.245
19980122051100.knt,IBR0039801220511.UD,1998-01-22, 05:11:00,36.52,140.58,59,3.8,IBR003,36.5915,140.6453,58,1998-01-22, 05:11:20,100Hz,119,U-D,0.0002384185791015,38.287,9.860472834538696,1492,1492.0,45.05265437440271,0.3519151130770818,0.3549310504386324,0.3580531903700725,0.2843662881907551,0.1775813478165072,0.0035000079864071,0.0035000079864071,0.0035000079864071,0.0035000079864071,0.0035000079864071,23.7088743518673,23.7088743518673,23.7088743518673,23.7088743518673,23.7088743518673,E-W,0.0002384185791015,57.67,N-S,0.0002384185791015,98.284
19980122051100.knt,IBR0049801220511.UD,1998-01-22, 05:11:00,36.52,140.58,59,3.8,IBR004,36.5273,140.4094,51,1998-01-22, 05:11:21,100Hz,89,U-D,0.0002384185791015,27.483,15.265982520070825,1439,1440.0,48.13377018711256,0.3267482352954233,0.3271727108912547,0.3432872047134339,0.2482621526826652,0.1126285269450104,0.0037024148879343,0.0037024148879343,0.0037024148879343,0.0037024148879343,0.0027403731961202,19.26263085539347,19.26263085539347,19.26263085539347,19.26263085539347,19.26263085539347,E-W,0.0002384185791015,127.705,N-S,0.0002384185791015,37.401
19980122051100.knt,IBR0059801220511.UD,1998-01-22, 05:11:00,36.52,140.58,59,3.8,IBR005,36.3851,140.2372,63,1998-01-22, 05:11:23,100Hz,119,U-D,0.0002384185791015,16.764,34.13256253149786,1329,1346.0,26.19992212675743,0.1787479753402297,0.1673461772012735,0.1947799593428631,0.1461249702167855,0.1485018396028725,0.0022390768995658,0.0022390768995658,0.001258941683597,0.001258941683597,0.00063063154526,6.504832206512556,6.504832206512556,3.2879726602110173,3.2879726602110173,2.514568499860204,E-W,0.0002384185791015,41.177,N-S,0.0002384185791015,39.22
19980122051100.knt,IBR0069801220511.UD,1998-01-22, 05:11:00,36.52,140.58,59,3.8,IBR006,36.369,140.4528,20,1998-01-22, 05:11:21,100Hz,119,U-D,0.0002384185791015,24.436,20.28237820029321,1479,1480.0,46.13793876019672,0.3906842563480637,0.3923225878239045,0.3753705517700115,0.2181139267842631,0.1109712373334806,0.0045939260685626,0.0045939260685626,0.0045939260685626,0.0038611625270472,0.003778383972439,20.790180837894663,20.790180837894663,20.790180837894663,20.790180837894663,20.790180837894663,E-W,0.0002384185791015,44.801,N-S,0.0002384185791015,35.912
19980122051100.knt,IBR0079801220511.UD,1998-01-22, 05:11:00,36.52,140.58,59,3.8,IBR007,36.3523,140.5955,24,1998-01-22, 05:11:28,100Hz,119,U-D,0.0002384185791015,7.69,18.698871535336654,737,738.0,32.12699767568323,3.955794480802048,4.343970994367553,4.085866953223801,3.507363992638133,3.0674459784431027,0.0096323697821982,0.0096323697821982,0.0087609384280491,0.0086957058876565,0.0086957058876565,4.82216025701059,4.82216025701059,4.82216025701059,4.82216025701059,4.82216025701059,E-W,0.0002384185791015,15.512,N-S,0.0002384185791015,15.669
