earthquake name,records name,earthquake date,earthquake time,lat,long,depth,mag,stn_code,stn_lat,stn_long,stn_height,rcd_date,rcd_time,frequency,rcd_duration,direction,scale_factor,max_pga,epi_dist,pick_index_manually,pick_index_kalkan,snr_db_kalkan,tc_5sec,tc_4sec,tc_3sec,tc_2sec,tc_1sec,Pd_5sec,Pd_4sec,Pd_3sec,Pd_2sec,Pd_1sec,Pga_5sec,Pga_4sec,Pga_3sec,Pga_2sec,Pga_1sec,Channel,Scale_factor,PGA_ew,Channel.1,Scale_factor.1,PGA_ns
19970104213100.knt,FKO0039701042131.UD,1997-01-04, 21:31:00,33.82,131.181,11,3.9,FKO003,33.8324,130.9014,16.0,1997-01-04, 21:31:58,100Hz,59,U-D,0.0002384185791015,11.512,25.86425035731284,1402,1401.0,38.14088467670585,0.661928098765303,0.5415049975833168,0.6865341017909691,0.4240887516611877,0.291504667148536,0.0061369454861935,0.0029471643604664,0.0029471643604664,0.0026055739396109,0.0026055739396109,11.521616178545424,11.521616178545424,11.521616178545424,11.521616178545424,11.521616178545424,E-W,0.0002384185791015,9.287,N-S,0.0002384185791015,9.456
19970104213100.knt,FKO0049701042131.UD,1997-01-04, 21:31:00,33.82,131.181,11,3.9,FKO004,33.7388,131.0095,4.0,1997-01-04, 21:31:58,100Hz,59,U-D,0.0002384185791015,8.621,18.241864546801985,1253,1258.0,36.51356782587008,9.81081280240225,8.583203760992442,7.199901861558981,4.926194490790115,1.4945882111872977,0.088367730797772,0.0853410040275676,0.0744738498218925,0.053592535801087,0.0148982670067153,8.601978608813504,8.601978608813504,6.85442883341056,5.795683525007158,5.795683525007158,E-W,0.0002384185791015,21.716,N-S,0.0002384185791015,18.318
19970104213100.knt,FKO0089701042131.UD,1997-01-04, 21:31:00,33.82,131.181,11,3.9,FKO008,33.5716,130.8539,91.0,1997-01-04, 21:31:05,100Hz,59,U-D,0.0002384185791015,2.872,40.97127906214431,950,955.0,32.41416957501097,1.949454533231631,2.113613518446887,2.159918313291453,2.351596612505013,2.267737073011048,0.0039394282270612,0.0039394282270612,0.0039394282270612,0.0039394282270612,0.0039394282270612,2.1911868768521066,2.1911868768521066,2.1911868768521066,2.1911868768521066,2.1911868768521066,E-W,0.0002384185791015,4.473,N-S,0.0002384185791015,3.952
19970104213100.knt,FKO0099701042131.UD,1997-01-04, 21:31:00,33.82,131.181,11,3.9,FKO009,33.4952,130.5163,34.0,1997-01-04, 21:31:15,100Hz,59,U-D,0.0002384185791015,1.368,71.3385201277434,485,487.0,21.323721318247436,3.8717501584016993,2.917796883556089,1.8132786977520985,1.414571980541199,1.5811665002740285,0.0027132816222713,0.0023817312247277,0.0017075624516473,0.0010665415872268,0.0010665415872268,0.7594683284400446,0.7594683284400446,0.7594683284400446,0.7594683284400446,0.7594683284400446,E-W,0.0002384185791015,2.866,N-S,0.0002384185791015,2.481
19970104213100.knt,FKO0109701042131.UD,1997-01-04, 21:31:00,33.82,131.181,11,3.9,FKO010,33.4235,130.6689,60.0,1997-01-04, 21:31:13,100Hz,59,U-D,0.0002384185791015,0.701,64.74695385282581,541,534.0,20.72654225149367,6.517065865656528,6.792593813450522,6.795014385348547,5.480741571853835,3.986444054078953,0.0041669391166295,0.0041669391166295,0.0041669391166295,0.0041599588117954,0.0032369172368755,0.4778133274223786,0.4778133274223786,0.4778133274223786,0.4778133274223786,0.4778133274223786,E-W,0.0002384185791015,1.713,N-S,0.0002384185791015,2.492
19970104213100.knt,FKO0129701042131.UD,1997-01-04, 21:31:00,33.82,131.181,11,3.9,FKO012,33.3319,130.7939,50.0,1997-01-04, 21:31:13,100Hz,59,U-D,0.0002384185791015,1.083,65.05189424791588,578,577.0,23.99704756329418,1.5435604103737022,1.5477974024855417,1.6590054395343798,1.8876876261804687,2.481366441849824,0.0014770697532203,0.0014770697532203,0.0014770697532203,0.0014770697532203,0.0014770697532203,0.5971431177607245,0.5971431177607245,0.5971431177607245,0.5971431177607245,0.5971431177607245,E-W,0.0002384185791015,4.421,N-S,0.0002384185791015,3.485
19970104213100.knt,OIT0029701042131.UD,1997-01-04, 21:31:00,33.82,131.181,11,3.9,OIT002,33.5685,131.2678,9.0,1997-01-04, 21:31:02,100Hz,59,U-D,0.0002384185791015,3.796,29.09564253987949,1054,1054.0,33.410466052962384,2.851612816905246,3.8758678205461714,4.884335732229214,4.930450664934253,5.409432085242418,0.0084287479022921,0.0084287479022921,0.0084287479022921,0.0084287479022921,0.0084287479022921,3.8095005150958894,2.7447878736357145,2.7447878736357145,2.7447878736357145,2.7447878736357145,E-W,0.0002384185791015,4.198,N-S,0.0002384185791015,5.211
19970104213100.knt,OIT0039701042131.UD,1997-01-04, 21:31:00,33.82,131.181,11,3.9,OIT003,33.5583,131.4489,6.0,1997-01-04, 21:31:05,100Hz,59,U-D,0.0002384185791015,1.955,38.22501342649812,917,917.0,27.78009452706098,5.053601533017054,6.277850186676467,7.393936803785623,7.455010598966721,6.498911093430966,0.004075248838095,0.004075248838095,0.004075248838095,0.004075248838095,0.004075248838095,1.9560709283860465,1.9560709283860465,1.9560709283860465,1.9560709283860465,1.9560709283860465,E-W,0.0002384185791015,5.381,N-S,0.0002384185791015,2.739
19970104213100.knt,OIT0049701042131.UD,1997-01-04, 21:31:00,33.82,131.181,11,3.9,OIT004,33.5666,131.7378,7.0,1997-01-04, 21:31:11,100Hz,59,U-D,0.0002384185791015,1.458,58.71551512636842,650,658.0,11.283475379705958,14.733466987163643,15.120078493729178,13.376669005972325,8.877941201182956,4.715945895342214,0.0799753807025266,0.0799753807025266,0.0799753807025266,0.0735500257964887,0.0440484320052544,0.5953497050085355,0.5953497050085355,0.5953497050085355,0.5953497050085355,0.5953497050085355,E-W,0.0002384185791015,2.143,N-S,0.0002384185791015,3.129
19970104213100.knt,OIT0059701042131.UD,1997-01-04, 21:31:00,33.82,131.181,11,3.9,OIT005,33.4549,131.1142,113.0,1997-01-04, 21:31:01,100Hz,59,U-D,0.0002384185791015,2.441,41.06556903462898,1358,1357.0,28.39143645443989,2.385738998526489,2.034855032429581,1.6185422217767835,1.6296469803801046,1.333505214033445,0.0017151748170446,0.0014344085479417,0.0012157787572736,0.0012157787572736,0.0010260772244246,0.9398080630568224,0.9398080630568224,0.9398080630568224,0.9398080630568224,0.9398080630568224,E-W,0.0002384185791015,9.186,N-S,0.0002384185791015,10.734
19970104213100.knt,YMG0089701042131.UD,1997-01-04, 21:31:00,33.82,131.181,11,3.9,YMG008,34.0121,131.4042,4.0,1997-01-04, 21:31:03,100Hz,59,U-D,0.0002384185791015,2.126,29.67263232490212,982,985.0,29.986678105853063,3.5533809874465025,4.426245610085336,3.221417468291911,2.833509513080274,4.690772343751441,0.0066355691548988,0.0045552852647139,0.0037342735901961,0.0028722749180234,0.0028722749180234,2.1368657509988127,1.0925686259807057,1.0925686259807057,1.0925686259807057,1.0925686259807057,E-W,0.0002384185791015,5.268,N-S,0.0002384185791015,4.571
19970104213100.knt,YMG0119701042131.UD,1997-01-04, 21:31:00,33.82,131.181,11,3.9,YMG011,34.0643,131.0214,24.0,1997-01-04, 21:31:59,100Hz,59,U-D,0.0002384185791015,3.258,30.89805890944016,1419,1419.0,13.268393348638996,0.3747605742423719,0.3999197275938136,0.3371742683483529,0.3364660547934374,0.3047894098890529,0.0019048476764264,0.0017094790857433,0.0017094790857433,0.0017094790857433,0.0017094790857433,3.263058172115047,3.263058172115047,3.263058172115047,3.263058172115047,3.263058172115047,E-W,0.0002384185791015,6.03,N-S,0.0002384185791015,2.776
19970106082100.knt,GNM0019701060821.UD,1997-01-06, 08:21:00,36.203,140.114,53,3.9,GNM001,36.7722,139.2248,810.0,1997-01-06, 08:22:14,100Hz,59,U-D,0.0002384185791015,4.642,101.61181980914854,1290,1046.0,18.40397743789493,1.2589608461179242,1.239861278265843,1.0404765620199952,0.7099768217171465,0.5060751590072772,0.0025927541136524,0.0025927541136524,0.0025927541136524,0.0024874182216372,0.0014868314497025,3.0239141779374425,3.0239141779374425,3.0239141779374425,3.0239141779374425,3.0239141779374425,E-W,0.0002384185791015,6.573,N-S,0.0002384185791015,7.76
19970106082100.knt,GNM0029701060821.UD,1997-01-06, 08:21:00,36.203,140.114,53,3.9,GNM002,36.7819,138.9695,494.0,1997-01-06, 08:22:29,100Hz,59,U-D,0.0002384185791015,1.261,120.87493948989017,1,26.0,11.908822224336827,6.440143815063821,7.339224359204105,6.010350612399944,2.9123580140912977,0.474218868444427,0.0079137441304173,0.0079137441304173,0.0078210576708885,0.0053908433958039,0.000792304725931,1.2596827319378925,1.2596827319378925,1.2596827319378925,1.2596827319378925,1.0714079373122165,E-W,0.0002384185791015,4.483,N-S,0.0002384185791015,3.39
19970106082100.knt,GNM0039701060821.UD,1997-01-06, 08:21:00,36.203,140.114,53,3.9,GNM003,36.6578,139.0784,462.0,1997-01-06, 08:22:13,100Hz,59,U-D,0.0002384185791015,4.032,105.55236008486416,1464,1464.0,20.799514321568022,4.39384218085425,4.236713011752946,3.479592696935657,2.17622547931422,0.7542657439486843,0.0058520643470749,0.0058520643470749,0.0058520643470749,0.0049918482046393,0.0023323453248627,4.037651687195645,4.037651687195645,4.037651687195645,4.037651687195645,4.037651687195645,E-W,0.0002384185791015,3.255,N-S,0.0002384185791015,3.589
19970106082100.knt,GNM0099701060821.UD,1997-01-06, 08:21:00,36.203,140.114,53,3.9,GNM009,36.4106,139.3251,114.0,1997-01-06, 08:22:19,100Hz,59,U-D,0.0002384185791015,5.389,74.36450968071352,474,479.0,21.4801573921032,7.423157305634854,5.893282600971759,4.399760164357969,4.053755192853323,5.004045279812312,0.0257930761917055,0.025286190612848,0.025286190612848,0.025286190612848,0.025286190612848,4.944921556295514,4.944921556295514,4.944921556295514,4.944921556295514,4.944921556295514,E-W,0.0002384185791015,15.924,N-S,0.0002384185791015,12.286
19970106082100.knt,GNM0109701060821.UD,1997-01-06, 08:21:00,36.203,140.114,53,3.9,GNM010,36.2343,139.5331,22.0,1997-01-06, 08:22:15,100Hz,59,U-D,0.0002384185791015,7.423,52.22768889736802,639,637.0,17.4440676167303,17.507118770241533,17.001635529864934,14.181927629690604,9.915583514803233,6.016078750653466,0.0437960420963275,0.0437960420963275,0.0437960420963275,0.0388389285923062,0.0251316803079815,1.8697509606993732,1.8697509606993732,1.7347863930330607,1.3366377290474247,1.086437904220547,E-W,0.0002384185791015,6.322,N-S,0.0002384185791015,9.481
19970106082100.knt,IBR0019701060821.UD,1997-01-06, 08:21:00,36.203,140.114,53,3.9,IBR001,36.7761,140.3569,105.0,1997-01-06, 08:22:18,100Hz,59,U-D,0.0002384185791015,2.353,67.32375510051959,452,447.0,22.516217859715407,3.196072569590096,3.0258941483527804,1.8890222981549656,0.9383196277533083,0.9829469791333494,0.002827296960292,0.002827296960292,0.0024186019402785,0.0010604264246928,0.0010604264246928,0.6230662373805915,0.6230662373805915,0.6230662373805915,0.6230662373805915,0.6230662373805915,E-W,0.0002384185791015,4.823,N-S,0.0002384185791015,5.308
19970106082100.knt,IBR0029701060821.UD,1997-01-06, 08:21:00,36.203,140.114,53,3.9,IBR002,36.7061,140.7068,9.0,1997-01-06, 08:22:20,100Hz,59,U-D,0.0002384185791015,1.342,77.07412105489009,395,385.0,14.866419339112053,2.797665942202189,2.606669475061741,1.6290184357930924,1.3992845193100718,1.2969022816955056,0.0010471507620997,0.0010471507620997,0.0008086226303039,0.0004267456324666,0.0004267456324666,0.2685478075129046,0.2685478075129046,0.2685478075129046,0.2685478075129046,0.2685478075129046,E-W,0.0002384185791015,2.983,N-S,0.0002384185791015,2.199
19970106082100.knt,IBR0039701060821.UD,1997-01-06, 08:21:00,36.203,140.114,53,3.9,IBR003,36.5915,140.6453,58.0,1997-01-06, 08:22:17,100Hz,59,U-D,0.0002384185791015,5.719,64.24516476794416,510,517.0,27.04118074283377,0.9891386315997592,0.9490718917519344,1.0161369937783122,1.230003739331342,1.4842712100225877,0.0017114188872813,0.0017114188872813,0.0017114188872813,0.0017114188872813,0.0017114188872813,1.5060269934367805,1.5060269934367805,1.5060269934367805,1.4486296250428108,1.4486296250428108,E-W,0.0002384185791015,8.903,N-S,0.0002384185791015,13.387
19970106082100.knt,IBR0049701060821.UD,1997-01-06, 08:21:00,36.203,140.114,53,3.9,IBR004,36.5273,140.4094,51.0,1997-01-06, 08:22:14,100Hz,59,U-D,0.0002384185791015,11.572,44.72099541323252,665,674.0,34.558844073886185,3.402694810889606,3.59646725872836,3.412570450645241,2.608723156099995,1.6608007186884095,0.0065643863859534,0.0065643863859534,0.0061770848222585,0.005660182043187,0.0040071146547398,2.210734986299736,2.131240992889368,2.131240992889368,2.131240992889368,2.09491631942728,E-W,0.0002384185791015,48.386,N-S,0.0002384185791015,65.176
19970106082100.knt,IBR0059701060821.UD,1997-01-06, 08:21:00,36.203,140.114,53,3.9,IBR005,36.3851,140.2372,63.0,1997-01-06, 08:22:10,100Hz,59,U-D,0.0002384185791015,6.914,23.063357720873118,880,880.0000000000001,21.765681872597632,3.0340111015108344,3.046609143859297,3.625158894024569,4.40263936137107,3.546410978186724,0.0074890075281894,0.0074890075281894,0.0074890075281894,0.007292669886609,0.0068955534388731,2.6288497228200995,2.6288497228200995,2.4468590952355105,1.5677868238076056,1.5677868238076056,E-W,0.0002384185791015,13.003,N-S,0.0002384185791015,10.827
19970106082100.knt,IBR0069701060821.UD,1997-01-06, 08:21:00,36.203,140.114,53,3.9,IBR006,36.369,140.4528,20.0,1997-01-06, 08:22:13,100Hz,59,U-D,0.0002384185791015,4.205,35.536832809813376,686,687.0,33.76519811764028,4.658492488488346,5.450405536342845,5.161878447208027,4.365388104349982,3.2289001014670933,0.0086936122051157,0.0086936122051157,0.0086823085640225,0.0080093935436481,0.0068003213956476,3.214923365668987,2.709408686247344,2.5313188446016834,2.5313188446016834,2.5313188446016834,E-W,0.0002384185791015,4.265,N-S,0.0002384185791015,4.616
19970106082100.knt,IBR0089701060821.UD,1997-01-06, 08:21:00,36.203,140.114,53,3.9,IBR008,36.3062,139.9828,20.0,1997-01-06, 08:22:11,100Hz,59,U-D,0.0002384185791015,4.792,16.43418995358778,790,120.0,17.916973549021616,2.182002770805944,2.844370976399057,3.24404402541308,3.861320086147807,3.605823129047202,0.0045004002519824,0.0045004002519824,0.0045004002519824,0.0045004002519824,0.0045004002519824,3.566892148740262,2.910061944340256,2.910061944340256,2.910061944340256,2.910061944340256,E-W,0.0002384185791015,9.589,N-S,0.0002384185791015,8.363
19970106082100.knt,IBR0099701060821.UD,1997-01-06, 08:21:00,36.203,140.114,53,3.9,IBR009,36.1848,139.7037,17.0,1997-01-06, 08:22:13,100Hz,59,U-D,0.0002384185791015,2.214,36.87459111492213,677,716.0,18.84198873465393,1.315439596415278,1.8931704040968529,2.551161201034565,3.354536512079576,4.318408367994167,0.0017046686724898,0.0017046686724898,0.0017046686724898,0.0017046686724898,0.0017046686724898,1.530803180910329,1.2006923010446533,0.8185412427923939,0.8185412427923939,0.8185412427923939,E-W,0.0002384185791015,3.674,N-S,0.0002384185791015,3.681
19970106082100.knt,IBR0109701060821.UD,1997-01-06, 08:21:00,36.203,140.114,53,3.9,IBR010,36.1843,139.9653,23.0,1997-01-06, 08:22:10,100Hz,59,U-D,0.0002384185791015,5.057,13.504953348918896,837,837.0000000000001,27.18091811551677,8.55709626707829,9.183770384524268,11.858330817663395,14.059134045971287,11.408193192064456,0.0115016101848,0.0115016101848,0.0115016101848,0.0115016101848,0.011455055250477,3.902018444634776,3.902018444634776,3.902018444634776,1.670759355155353,1.670759355155353,E-W,0.0002384185791015,6.573,N-S,0.0002384185791015,9.847
19970106082100.knt,IBR0119701060821.UD,1997-01-06, 08:21:00,36.203,140.114,53,3.9,IBR011,36.1251,140.0903,26.0,1997-01-06, 08:22:04,100Hz,59,U-D,0.0002384185791015,7.288,8.919545097801267,1422,1421.0,30.790893791556364,0.9944748533178932,0.9294470864813248,0.9179370514240016,0.9198861557726956,0.6109329585619179,0.0028717534298744,0.0028717534298744,0.0028717534298744,0.0028717534298744,0.0028717534298744,7.29096315598855,7.29096315598855,7.29096315598855,7.29096315598855,7.29096315598855,E-W,0.0002384185791015,7.981,N-S,0.0002384185791015,7.138
19970106082100.knt,IBR0129701060821.UD,1997-01-06, 08:21:00,36.203,140.114,53,3.9,IBR012,36.1901,140.2869,24.0,1997-01-06, 08:22:04,100Hz,59,U-D,0.0002384185791015,16.389,15.581147243366445,1444,1441.0,25.872395879379496,9.907733533597598,9.702323754330564,7.569193397205412,4.277137395072443,1.2223970846322176,0.0683196386805776,0.0683196386805776,0.0676932721659321,0.0530466448145531,0.0201366855522278,16.485497717131643,16.485497717131643,16.485497717131643,16.485497717131643,16.485497717131643,E-W,0.0002384185791015,18.973,N-S,0.0002384185791015,10.528
19970106082100.knt,IBR0139701060821.UD,1997-01-06, 08:21:00,36.203,140.114,53,3.9,IBR013,36.1587,140.4892,28.0,1997-01-06, 08:22:05,100Hz,59,U-D,0.0002384185791015,31.132,34.033240435086896,1463,1461.0,40.71459994721764,0.1537295332651459,0.1539279788670714,0.1532095889027495,0.1526208816299769,0.1511760928988266,0.0107830802128,0.0107830802128,0.0107830802128,0.0107830802128,0.0107830802128,31.07534191175996,31.07534191175996,31.07534191175996,31.07534191175996,31.07534191175996,E-W,0.0002384185791015,20.677,N-S,0.0002384185791015,10.001
19970106082100.knt,IBR0149701060821.UD,1997-01-06, 08:21:00,36.203,140.114,53,3.9,IBR014,36.0729,140.1947,11.0,1997-01-06, 08:22:04,100Hz,59,U-D,0.0002384185791015,19.074,16.18012690667379,1442,1440.0,26.70609482845165,1.2407979316146212,1.2661464685819093,1.12934299293471,0.7035575080289614,0.2480344263931559,0.0067407780873951,0.0067407780873951,0.0067407780873951,0.005813943029586,0.0053661151117178,19.12128165842233,19.12128165842233,19.12128165842233,19.12128165842233,19.12128165842233,E-W,0.0002384185791015,11.363,N-S,0.0002384185791015,12.266
19970106082100.knt,IBR0159701060821.UD,1997-01-06, 08:21:00,36.203,140.114,53,3.9,IBR015,36.0693,139.908,14.0,1997-01-06, 08:22:11,100Hz,59,U-D,0.0002384185791015,6.387,23.73286126120501,776,773.0,32.29292027056185,5.014690133188803,4.899466410087097,4.28601105205906,2.5299699420693385,1.790809877013097,0.0136740429577242,0.0136740429577242,0.0136740429577242,0.0106867038192916,0.0078120202614005,5.367654151001645,5.367654151001645,5.367654151001645,5.367654151001645,5.367654151001645,E-W,0.0002384185791015,10.355,N-S,0.0002384185791015,19.55
19970106082100.knt,IBR0169701060821.UD,1997-01-06, 08:21:00,36.203,140.114,53,3.9,IBR016,35.9112,140.0494,20.0,1997-01-06, 08:22:05,100Hz,59,U-D,0.0002384185791015,15.694,32.96224202756833,1445,1442.0,20.61538963596924,0.6992365048588455,0.6648717585777257,0.5755926624150107,0.3634630900869985,0.1174643202677853,0.0035186966928208,0.0035186966928208,0.0035186966928208,0.0033570696521855,0.0025506454682289,15.671588867376885,15.671588867376885,15.671588867376885,15.671588867376885,15.671588867376885,E-W,0.0002384185791015,12.583,N-S,0.0002384185791015,11.699
19970106082100.knt,IBR0179701060821.UD,1997-01-06, 08:21:00,36.203,140.114,53,3.9,IBR017,35.9537,140.3194,17.0,1997-01-06, 08:22:05,100Hz,59,U-D,0.0002384185791015,6.436,33.30443757079949,1443,1443.0,32.31399915065761,0.900973826317935,0.8364777639141984,0.7651496445633588,0.6129644270147455,0.2379388859987159,0.0032089245933797,0.0032089245933797,0.0032089245933797,0.0031664858960146,0.0016492349378789,6.450569089356335,6.450569089356335,6.450569089356335,6.450569089356335,6.450569089356335,E-W,0.0002384185791015,5.188,N-S,0.0002384185791015,6.019
19970106082100.knt,SIT0049701060821.UD,1997-01-06, 08:21:00,36.203,140.114,53,3.9,SIT004,36.1179,139.1045,140.0,1997-01-06, 08:22:22,100Hz,59,U-D,0.0002384185791015,2.087,91.12031200346507,338,356.0,17.47294506915204,7.343620352814744,6.664539439690046,4.801622045771211,4.246694378451442,6.475093037317966,0.0088129107643542,0.0088129107643542,0.0078251502123108,0.0065360713633522,0.0065360713633522,0.9528858888026982,0.9528858888026982,0.9528858888026982,0.7557779052757064,0.7546828243580878,E-W,0.0002384185791015,4.8,N-S,0.0002384185791015,5.847
19970106082100.knt,SIT0079701060821.UD,1997-01-06, 08:21:00,36.203,140.114,53,3.9,SIT007,36.054,139.3912,25.0,1997-01-06, 08:22:17,100Hz,59,U-D,0.0002384185791015,3.36,66.99668105764869,556,691.0,13.977661353089047,1.876273340742353,2.1771797830759327,2.371746253741498,1.9223093740678776,1.668304125928623,0.0008341780804827,0.0008341780804827,0.0008341780804827,0.0007187020497021,0.000540249260545,0.410753771517846,0.410753771517846,0.410753771517846,0.410753771517846,0.2833711170740892,E-W,0.0002384185791015,8.443,N-S,0.0002384185791015,10.49
