earthquake name,records name,earthquake date,earthquake time,lat,long,depth,mag,stn_code,stn_lat,stn_long,stn_height,rcd_date,rcd_time,frequency,rcd_duration,direction,scale_factor,max_pga,epi_dist,pick_index_manually,pick_index_kalkan,snr_db_kalkan,tc_5sec,tc_4sec,tc_3sec,tc_2sec,tc_1sec,Pd_5sec,Pd_4sec,Pd_3sec,Pd_2sec,Pd_1sec,Pga_5sec,Pga_4sec,Pga_3sec,Pga_2sec,Pga_1sec,Channel,Scale_factor,PGA_ew,Channel.1,Scale_factor.1,PGA_ns
19980122051100.knt,IBR0089801220511.UD,1998-01-22, 05:11:00,36.52,140.58,59,3.8,IBR008,36.3062,139.9828,20,1998-01-22, 05:11:33,100Hz,119,U-D,0.0002384185791015,3.335,58.489676571513776,550,550.0,27.34241250097972,1.950531831590387,2.0668605818884496,2.213133670189354,2.358493942532648,1.9156508784365425,0.0026662557221738,0.0026662557221738,0.0026662557221738,0.0026662557221738,0.0026662557221738,3.323906083627694,3.323906083627694,3.323906083627694,3.323906083627694,3.323906083627694,E-W,0.0002384185791015,9.777,N-S,0.0002384185791015,8.457
19980122051100.knt,IBR0109801220511.UD,1998-01-22, 05:11:00,36.52,140.58,59,3.8,IBR010,36.1843,139.9653,23,1998-01-22, 05:11:35,100Hz,119,U-D,0.0002384185791015,1.932,66.5117437600425,412,415.00000000000006,17.940363485992325,4.560613105964199,4.451798839872628,4.357779383855215,5.869884461290152,7.80864515603397,0.0030126317848383,0.0030126317848383,0.0030126317848383,0.0030126317848383,0.0030126317848383,0.7598631320729419,0.7598631320729419,0.7598631320729419,0.6997541329651237,0.6441221887073542,E-W,0.0002384185791015,3.476,N-S,0.0002384185791015,3.47
19980122051100.knt,IBR0129801220511.UD,1998-01-22, 05:11:00,36.52,140.58,59,3.8,IBR012,36.1901,140.2869,24,1998-01-22, 05:11:27,100Hz,119,U-D,0.0002384185791015,6.115,45.106441084599226,1012,1012.0,12.865345223887296,5.993774269124101,6.734697207561092,4.313026990728689,2.121836812067155,2.580214018629544,0.0140082728897086,0.0140060380506161,0.011046354575851,0.0052433947882664,0.0043886574214322,3.8300187339118743,1.926714918488732,1.926714918488732,1.926714918488732,1.8184300244192588,E-W,0.0002384185791015,12.702,N-S,0.0002384185791015,7.23
19980122051100.knt,IBR0139801220511.UD,1998-01-22, 05:11:00,36.52,140.58,59,3.8,IBR013,36.1587,140.4892,28,1998-01-22, 05:11:30,100Hz,119,U-D,0.0002384185791015,10.52,40.98966872149087,675,659.0,37.907695111504495,4.954068194957083,5.2481059165367006,4.799656319482868,4.114501679264537,2.8862084593512267,0.0151773990662998,0.0151773990662998,0.0151773990662998,0.0144951780640023,0.01211808583912,4.137150509228091,4.137150509228091,4.137150509228091,4.137150509228091,4.137150509228091,E-W,0.0002384185791015,11.824,N-S,0.0002384185791015,18.586
19980122051100.knt,IBR0149801220511.UD,1998-01-22, 05:11:00,36.52,140.58,59,3.8,IBR014,36.0729,140.1947,11,1998-01-22, 05:11:33,100Hz,119,U-D,0.0002384185791015,4.452,60.53039988223626,554,563.0,26.878607732592357,11.13673457775176,9.87979707197666,7.331795294146178,4.276174299931273,1.648631425603594,0.0162502180893728,0.0162502180893728,0.0156952879756221,0.0117535537317303,0.0044972458763262,1.7123065029555902,1.2194938417309074,1.2194938417309074,1.0342588787725011,1.020129859944742,E-W,0.0002384185791015,10.986,N-S,0.0002384185791015,7.255
19980122051100.knt,IBR0169801220511.UD,1998-01-22, 05:11:00,36.52,140.58,59,3.8,IBR016,35.9112,140.0494,20,1998-01-22, 05:11:38,100Hz,119,U-D,0.0002384185791015,4.163,82.75559819213069,296,307.0,16.653025908533824,10.810444238078814,10.834938872067642,12.380066411512972,16.76218657443927,30.830546248347503,0.0446033791030508,0.0446033791030508,0.0446033791030508,0.0446033791030508,0.0446033791030508,1.0548938197279525,1.0548938197279525,1.0548938197279525,1.0388419224827268,1.0132915517592382,E-W,0.0002384185791015,5.213,N-S,0.0002384185791015,12.967
19980122051100.knt,IBR0179801220511.UD,1998-01-22, 05:11:00,36.52,140.58,59,3.8,IBR017,35.9537,140.3194,17,1998-01-22, 05:11:34,100Hz,119,U-D,0.0002384185791015,6.54,67.16731256403457,517,532.0,20.0158112223488,8.18897486635676,7.3773555804230915,5.844948193872127,3.206377505214935,1.003633529518748,0.0099444351740374,0.0099444351740374,0.0094193055206016,0.0067727484346775,0.0019107444982862,1.743295435587549,1.743295435587549,1.743295435587549,1.743295435587549,1.743295435587549,E-W,0.0002384185791015,10.014,N-S,0.0002384185791015,9.3
19980122051100.knt,IBR0189801220511.UD,1998-01-22, 05:11:00,36.52,140.58,59,3.8,IBR018,35.977,140.6322,39,1998-01-22, 05:11:35,100Hz,119,U-D,0.0002384185791015,5.377,60.56002185178575,406,418.0,19.740957905773172,4.92954639896622,4.048461457627062,3.3351041794535115,3.5592737814446056,3.97077833200676,0.0149018849961273,0.0149018849961273,0.0149018849961273,0.0149018849961273,0.0149018849961273,5.398505356509375,5.398505356509375,5.398505356509375,5.398505356509375,5.398505356509375,E-W,0.0002384185791015,10.58,N-S,0.0002384185791015,8.253
19980122051100.knt,TCG0139801220511.UD,1998-01-22, 05:11:00,36.52,140.58,59,3.8,TCG013,36.4368,140.0225,67,1998-01-22, 05:11:23,100Hz,119,U-D,0.0002384185791015,5.594,50.69711040618412,1455,1463.0,33.89660938426807,1.5443243390915506,1.729542578313211,1.4245414254143578,0.8441615644174727,0.2290329088071225,0.0032183612993989,0.0032183612993989,0.0032183612993989,0.0025535394630702,0.001100704464787,3.627540711741765,3.627540711741765,3.627540711741765,3.627540711741765,3.627540711741765,E-W,0.0002384185791015,12.454,N-S,0.0002384185791015,10.491
19980122051100.knt,TCG0149801220511.UD,1998-01-22, 05:11:00,36.52,140.58,59,3.8,TCG014,36.545,140.1742,130,1998-01-22, 05:11:26,100Hz,119,U-D,0.0002384185791015,13.35,36.36350757516078,1050,1050.0,40.31474053384596,0.5274043772166827,0.7284005826605211,0.6566096795953421,0.7346297774546879,0.7564843729170341,0.0034356489154206,0.0034356489154206,0.0034356489154206,0.0034356489154206,0.0034356489154206,3.517342908521477,2.3086296621379163,2.3086296621379163,2.3086296621379163,2.3086296621379163,E-W,0.0002384185791015,24.296,N-S,0.0002384185791015,23.762
19980123215200.knt,TKY0109801232152.UD,1998-01-23, 21:52:00,34.403,139.264,8,3.5,TKY010,34.3775,139.2557,13,1998-01-23, 21:52:15,100Hz,138,U-D,0.0002384185791015,141.05,2.9359716177549893,1458,1466.0,30.843499267439505,0.2575795916280801,0.231447192151027,0.2289852704186083,0.1865742753643657,0.2219309993712514,0.0647174490014279,0.0647174490014279,0.0647174490014279,0.0577205175268901,0.0451841332716342,141.3344207077507,141.3344207077507,141.3344207077507,141.3344207077507,100.45067479084568,E-W,0.0002384185791015,192.036,N-S,0.0002384185791015,137.2
19980123220800.knt,TKY0109801232208.UD,1998-01-23, 22:08:00,34.403,139.214,6,3.8,TKY010,34.3775,139.2557,13,1998-01-23, 22:08:46,100Hz,226,U-D,0.0002384185791015,72.798,4.7624457016247925,1469,1471.0,45.51146544115375,0.3312327043285667,0.3194018447270995,0.2898484553595155,0.210859893064204,0.1613295172430008,0.0349834205569841,0.0349834205569841,0.0349834205569841,0.0347739336564534,0.0347739336564534,72.97334343142671,72.97334343142671,72.97334343142671,72.97334343142671,72.97334343142671,E-W,0.0002384185791015,117.096,N-S,0.0002384185791015,60.592
19980124063200.knt,HYG0269801240632.UD,1998-01-24, 06:32:00,34.203,135.147,11,3.7,HYG026,34.4149,134.7925,70,1998-01-24, 06:32:52,100Hz,119,U-D,0.0002384185791015,0.742,40.191269555617296,870,73.0,13.71355633045552,2.934416498109322,3.0057371659583456,2.4010639258514983,1.4616757105293752,0.4869543781913821,0.0020727403846882,0.0020727403846882,0.0019729909763865,0.001464649905208,0.000588053673672,0.6098718039058137,0.6098718039058137,0.6098718039058137,0.6098718039058137,0.6098718039058137,E-W,0.0002384185791015,2.795,N-S,0.0002384185791015,1.612
19980124063200.knt,OSK0089801240632.UD,1998-01-24, 06:32:00,34.203,135.147,11,3.7,OSK008,34.4438,135.3874,10,1998-01-24, 06:32:51,100Hz,119,U-D,0.0002384185791015,0.948,34.70316743136628,904,275.0,16.91325685959298,2.607713168681369,2.6692290401184007,2.8645800775193613,2.6061456945304804,2.699443106562047,0.0033234921882939,0.0029641713615372,0.0029641713615372,0.0021846088951378,0.0015993347724591,0.7479295595816554,0.7479295595816554,0.7479295595816554,0.7479295595816554,0.5889328421600547,E-W,0.0002384185791015,2.739,N-S,0.0002384185791015,3.894
19980124063200.knt,OSK0109801240632.UD,1998-01-24, 06:32:00,34.203,135.147,11,3.7,OSK010,34.3755,135.2549,3,1998-01-24, 06:32:47,100Hz,119,U-D,0.0002384185791015,2.861,21.591150456870388,1072,1071.0,23.244162174407013,1.24432084399535,1.4537818471106274,1.8850836048852555,2.363501795677822,2.8289752732969875,0.0024113531044307,0.0024113531044307,0.0024113531044307,0.0024113531044307,0.0022111082292139,2.8635863496954985,2.8635863496954985,1.8270887340174344,1.8270887340174344,1.0372214825729604,E-W,0.0002384185791015,5.126,N-S,0.0002384185791015,4.516
19980124063200.knt,TKS0019801240632.UD,1998-01-24, 06:32:00,34.203,135.147,11,3.7,TKS001,34.203,134.6098,2,1998-01-24, 06:32:56,100Hz,119,U-D,0.0002384185791015,0.902,49.40294513255769,625,625.0,21.85929662321205,3.5585342356880263,3.8561693406405855,4.679614691135485,3.63682011315439,2.6668634495103563,0.0026145639033466,0.0026145639033466,0.0026145639033466,0.0020746805266906,0.0013315533270996,0.4577084468434291,0.3258502270384762,0.3258502270384762,0.2649777186420132,0.2649777186420132,E-W,0.0002384185791015,2.986,N-S,0.0002384185791015,1.457
19980124063200.knt,TKS0039801240632.UD,1998-01-24, 06:32:00,34.203,135.147,11,3.7,TKS003,33.8716,134.6039,8,1998-01-24, 06:32:58,100Hz,119,U-D,0.0002384185791015,0.772,62.14706242147576,637,637.0,19.431724928114257,6.9084665637845,7.055104954171775,6.252196473090622,5.382489521689025,4.419602605308206,0.0033900518949896,0.0033900518949896,0.0033691140679348,0.0025522756617176,0.0021704008923224,0.5773176948335217,0.5773176948335217,0.5773176948335217,0.5773176948335217,0.3940241683532764,E-W,0.0002384185791015,3.8,N-S,0.0002384185791015,3.461
19980124063200.knt,TKS0089801240632.UD,1998-01-24, 06:32:00,34.203,135.147,11,3.7,TKS008,33.9344,134.212,332,1998-01-24, 06:32:08,100Hz,119,U-D,0.0002384185791015,1.446,91.15437858414278,81,151.0,15.188032910651684,6.768364148373092,5.115595543992368,6.159853993991261,8.873011883087896,6.319620146646001,0.0142000709340843,0.0092376549245012,0.0082511292188453,0.0082511292188453,0.0077939421678555,0.714123540083166,0.714123540083166,0.6409134732616767,0.3834760295369883,0.1825901767601701,E-W,0.0002384185791015,2.704,N-S,0.0002384185791015,4.649
19980124063200.knt,WKY0019801240632.UD,1998-01-24, 06:32:00,34.203,135.147,11,3.7,WKY001,34.2288,135.1694,8,1998-01-24, 06:32:06,100Hz,119,U-D,0.0002384185791015,56.332,3.5316348857358584,4870,4871.0,23.167522896341005,0.3801943755011873,0.3654813683740639,0.3234903193734273,0.3316819150242275,0.4015036289180815,0.017379061366458,0.017379061366458,0.017379061366458,0.017379061366458,0.017379061366458,56.38398366779296,56.38398366779296,56.38398366779296,56.38398366779296,56.38398366779296,E-W,0.0002384185791015,120.334,N-S,0.0002384185791015,73.476
19980124063200.knt,WKY0039801240632.UD,1998-01-24, 06:32:00,34.203,135.147,11,3.7,WKY003,34.0996,135.116,3,1998-01-24, 06:32:43,100Hz,119,U-D,0.0002384185791015,8.262,11.84614963240532,1296,1295.0,22.928975348514147,0.7665095647209539,0.6384320402147282,0.5378506941849311,0.8893571973541551,0.980534294749189,0.0138439366094662,0.0120239195075641,0.0120239195075641,0.0034518704797267,0.0030361919032767,8.345438480622354,8.345438480622354,8.345438480622354,6.43192955263234,6.43192955263234,E-W,0.0002384185791015,22.976,N-S,0.0002384185791015,28.563
19980124063200.knt,WKY0059801240632.UD,1998-01-24, 06:32:00,34.203,135.147,11,3.7,WKY005,33.8938,135.4883,316,1998-01-24, 06:32:53,100Hz,119,U-D,0.0002384185791015,0.835,46.592377805133,867,861.0,16.172708355897285,10.472207717226016,11.160920978770497,11.987362448251115,12.53515128180891,8.306377367187745,0.0115391109026922,0.0115391109026922,0.0115391109026922,0.0115391109026922,0.0100679150258945,0.842951438318977,0.842951438318977,0.842951438318977,0.3802886756624554,0.3666755135107087,E-W,0.0002384185791015,3.632,N-S,0.0002384185791015,4.223
19980125095100.knt,KGS0029801250951.UD,1998-01-25, 09:51:00,31.953,130.365,8,3.2,KGS002,32.0909,130.3532,12,1998-01-25, 09:51:09,100Hz,119,U-D,0.0002384185791015,2.682,15.374081481828089,1197,1193.0,21.429624794462228,2.792774005396772,2.4654682067470763,2.1209118293734983,1.941268126922057,1.3244731477744671,0.0051104069933359,0.0051104069933359,0.0051104069933359,0.0036104542603556,0.0030190217933979,2.7105329471273194,2.7105329471273194,2.7105329471273194,2.7105329471273194,2.7105329471273194,E-W,0.0002384185791015,13.636,N-S,0.0002384185791015,14.994
19980125095100.knt,KGS0039801250951.UD,1998-01-25, 09:51:00,31.953,130.365,8,3.2,KGS003,32.0559,130.5874,176,1998-01-25, 09:51:12,100Hz,119,U-D,0.0002384185791015,1.339,23.88934639739181,1047,57.99999999999999,9.076422777865062,1.6749210514638504,1.801449170007709,1.6963749967073072,1.7387211006114085,1.9793287152726764,0.00157066332086,0.00157066332086,0.00157066332086,0.00157066332086,0.00157066332086,1.3542045613541926,1.3542045613541926,1.3542045613541926,1.3542045613541926,1.3542045613541926,E-W,0.0002384185791015,1.954,N-S,0.0002384185791015,3.315
19980125095100.knt,KGS0059801250951.UD,1998-01-25, 09:51:00,31.953,130.365,8,3.2,KGS005,31.9006,130.4513,42,1998-01-25, 09:51:07,100Hz,119,U-D,0.0002384185791015,5.845,10.014075093650291,1284,1283.0,21.323431341491773,0.933330352052329,0.636243564405269,0.5306114580153986,0.5997837851919678,0.5153956371621663,0.0089804107160859,0.0066826870354518,0.0066826870354518,0.0057289392340795,0.0015504142156031,5.819168929089224,5.819168929089224,5.819168929089224,4.798967105621974,2.3059767828710607,E-W,0.0002384185791015,23.956,N-S,0.0002384185791015,19.294
19980125095100.knt,KGS0079801250951.UD,1998-01-25, 09:51:00,31.953,130.365,8,3.2,KGS007,31.8143,130.3032,4,1998-01-25, 09:51:09,100Hz,119,U-D,0.0002384185791015,2.813,16.489646455316404,1200,1206.0,17.254927699594496,0.5450720096331574,0.723305475191013,1.0687397825006335,1.0916924678335052,0.1961107280156,0.0038443511327706,0.0038443511327706,0.0026635900561748,0.0020266283567096,0.0005038202295799,2.8432313272835605,2.8432313272835605,1.662576786145212,1.662576786145212,1.662576786145212,E-W,0.0002384185791015,4.606,N-S,0.0002384185791015,6.134
19980125095100.knt,KGS0109801250951.UD,1998-01-25, 09:51:00,31.953,130.365,8,3.2,KGS010,31.7123,130.2735,16,1998-01-25, 09:51:12,100Hz,119,U-D,0.0002384185791015,1.485,28.125859216053566,1091,1097.0,10.415292362174068,2.285558746934353,2.7568681719340047,3.1426793488273046,2.290993997427593,2.14294004762523,0.0056044509779916,0.003578423686699,0.003578423686699,0.0032544009237507,0.0032544009237507,1.474194040290972,1.474194040290972,1.474194040290972,1.474194040290972,1.474194040290972,E-W,0.0002384185791015,2.44,N-S,0.0002384185791015,2.146
19980126111600.knt,CHB0029801261116.UD,1998-01-26, 11:16:00,35.92,139.547,66,3.9,CHB002,35.7868,139.9031,14,1998-01-26, 11:16:17,100Hz,119,U-D,0.0002384185791015,3.669,35.346480885296,1414,1411.0,14.410040290977763,0.5377549710611819,0.5284961226181055,0.4182566033265622,0.2999733153771391,0.2120265447814603,0.0016463821363795,0.0016463821363795,0.0016463821363795,0.0016463821363795,0.0016463821363795,3.6445516428103546,3.6445516428103546,3.6445516428103546,3.6445516428103546,3.6445516428103546,E-W,0.0002384185791015,3.797,N-S,0.0002384185791015,2.808
19980126111600.knt,GNM0019801261116.UD,1998-01-26, 11:16:00,35.92,139.547,66,3.9,GNM001,36.7722,139.2248,810,1998-01-26, 11:16:34,100Hz,119,U-D,0.0002384185791015,6.183,99.0565417822769,189,197.0,21.637481762083688,4.698412947475736,4.803365700853065,5.327063929943876,7.183538466246241,7.192714286299658,0.0124212496971875,0.0124212496971875,0.0124212496971875,0.0124212496971875,0.0124212496971875,2.483660635915752,2.483660635915752,2.483660635915752,2.228786913827061,2.228786913827061,E-W,0.0002384185791015,6.589,N-S,0.0002384185791015,6.06
19980126111600.knt,GNM0039801261116.UD,1998-01-26, 11:16:00,35.92,139.547,66,3.9,GNM003,36.6578,139.0784,462,1998-01-26, 11:16:32,100Hz,119,U-D,0.0002384185791015,1.936,92.16507070343718,290,309.0,19.977877082398187,6.198626530968528,5.47279378687735,5.912349672985686,8.425387765842625,14.341096041851516,0.0075376440591688,0.0075376440591688,0.0075376440591688,0.0075376440591688,0.0075376440591688,1.1056473384905412,1.1056473384905412,1.1056473384905412,0.8046482234371674,0.6287854023127609,E-W,0.0002384185791015,6.534,N-S,0.0002384185791015,6.133
19980126111600.knt,GNM0099801261116.UD,1998-01-26, 11:16:00,35.92,139.547,66,3.9,GNM009,36.4106,139.3251,114,1998-01-26, 11:16:26,100Hz,119,U-D,0.0002384185791015,5.707,58.07530672505174,535,543.0,13.66181623235727,11.968692036134572,9.68789308905508,6.739647866331741,3.79445866630125,2.587826034875659,0.1481069329360244,0.1478735956333386,0.1328218243347085,0.0897331826164298,0.073033051359982,4.212614989177511,3.3277614773564004,3.085042574434853,2.9673554957073245,2.6210945329906608,E-W,0.0002384185791015,21.351,N-S,0.0002384185791015,18.732
19980126111600.knt,GNM0119801261116.UD,1998-01-26, 11:16:00,35.92,139.547,66,3.9,GNM011,36.2914,139.3609,42,1998-01-26, 11:16:24,100Hz,119,U-D,0.0002384185791015,1.78,44.553612963564014,605,601.0,21.0776295807096,1.093862191687628,0.9923023226166776,0.9320821262356912,0.8527691111791114,0.7915292087412114,0.0019268466006432,0.0019268466006432,0.0019268466006432,0.0019268466006432,0.0019268466006432,1.1568968926638443,1.1568968926638443,1.1568968926638443,1.1568968926638443,1.0854856587603994,E-W,0.0002384185791015,4.203,N-S,0.0002384185791015,3.204
19980126111600.knt,IBR0149801261116.UD,1998-01-26, 11:16:00,35.92,139.547,66,3.9,IBR014,36.0729,140.1947,11,1998-01-26, 11:16:27,100Hz,119,U-D,0.0002384185791015,2.168,60.69837835720504,494,494.00000000000006,14.80279355149837,6.266832106762829,5.160419968292436,4.088120902260397,3.6661948185349713,4.69547378449447,0.0054641874222005,0.0053549458040258,0.0053549458040258,0.0053549458040258,0.0053549458040258,0.8366252995334024,0.8366252995334024,0.8003442014941342,0.7016699210054484,0.4984079971268894,E-W,0.0002384185791015,3.334,N-S,0.0002384185791015,4.03
19980126111600.knt,SIT0039801261116.UD,1998-01-26, 11:16:00,35.92,139.547,66,3.9,SIT003,36.072,139.6968,9,1998-01-26, 11:16:15,100Hz,119,U-D,0.0002384185791015,4.412,21.616665992151347,1426,1424.0,18.79421639850793,2.4425629602510086,2.455176577185549,2.003371328671756,0.9747904684073992,0.2357172741504586,0.0073309339537413,0.0073309339537413,0.0073309339537413,0.0053037251159776,0.0018647270570983,4.385656823135932,4.385656823135932,4.385656823135932,4.385656823135932,4.385656823135932,E-W,0.0002384185791015,2.522,N-S,0.0002384185791015,2.477
19980126111600.knt,SIT0049801261116.UD,1998-01-26, 11:16:00,35.92,139.547,66,3.9,SIT004,36.1179,139.1045,140,1998-01-26, 11:16:23,100Hz,89,U-D,0.0002384185791015,3.606,45.47575023565611,713,707.0,14.278860605845043,3.895231146533945,3.73637388190369,3.381939377993341,2.717059504283917,1.8617680474611011,0.0059503283103092,0.0059478695644395,0.0057366902372121,0.0044456263299479,0.0035050892310819,2.8774531262141605,2.8774531262141605,2.8774531262141605,1.6775736214431487,1.4052564294224406,E-W,0.0002384185791015,13.529,N-S,0.0002384185791015,11.868
19980126111600.knt,SIT0059801261116.UD,1998-01-26, 11:16:00,35.92,139.547,66,3.9,SIT005,36.0562,139.2626,90,1998-01-26, 11:16:22,100Hz,119,U-D,0.0002384185791015,2.691,29.73402242490969,704,704.0,17.61460982155658,3.967910648145099,3.770090254500563,3.456707157012316,2.9994383350934504,1.993757178746181,0.0047685889197281,0.0047685889197281,0.0047685889197281,0.0047685889197281,0.0039344031856878,2.539089770997522,2.539089770997522,2.539089770997522,2.539089770997522,2.539089770997522,E-W,0.0002384185791015,5.129,N-S,0.0002384185791015,9.179
