earthquake name,records name,earthquake date,earthquake time,lat,long,depth,mag,stn_code,stn_lat,stn_long,stn_height,rcd_date,rcd_time,frequency,rcd_duration,direction,scale_factor,max_pga,epi_dist,pick_index_manually,pick_index_kalkan,snr_db_kalkan,tc_5sec,tc_4sec,tc_3sec,tc_2sec,tc_1sec,Pd_5sec,Pd_4sec,Pd_3sec,Pd_2sec,Pd_1sec,Pga_5sec,Pga_4sec,Pga_3sec,Pga_2sec,Pga_1sec,Channel,Scale_factor,PGA_ew,Channel.1,Scale_factor.1,PGA_ns
19970114155300.knt,TKY0069701141553.UD,1997-01-14, 15:53:00,35.62,139.547,30,3.6,TKY006,35.699,139.5029,71.0,1997-01-14, 15:54:55,100Hz,59,U-D,0.0002384185791015,3.061,9.645712648229866,978,976.0,24.34970382898392,0.5408113417120609,0.6132487820920413,0.7492821817532698,0.8818998882987138,1.0506356290441468,0.003140003625495,0.003140003625495,0.003140003625495,0.003140003625495,0.003140003625495,2.624161726423696,2.4825704785356093,1.919332994194002,1.919332994194002,1.919332994194002,E-W,0.0002384185791015,5.659,N-S,0.0002384185791015,6.023
19970114155300.knt,TKY0079701141553.UD,1997-01-14, 15:53:00,35.62,139.547,30,3.6,TKY007,35.7107,139.6859,34.0,1997-01-14, 15:54:57,100Hz,59,U-D,0.0002384185791015,2.947,16.098712464991845,837,38.0,19.71493662483733,1.1322381772840473,1.1741632960652446,1.3657002283723718,1.4494397049536218,1.261362163964976,0.0040464931554113,0.0040464931554113,0.0040464931554113,0.0040464931554113,0.0040464931554113,2.9490018353552485,2.9490018353552485,2.7012485853152497,2.7012485853152497,2.7012485853152497,E-W,0.0002384185791015,5.461,N-S,0.0002384185791015,4.923
19970114204700.knt,FKS0049701142047.UD,1997-01-14, 20:47:00,37.47,141.264,50,4.0,FKS004,37.6799,140.7346,488.0,1997-01-14, 20:48:15,100Hz,59,U-D,0.0002384185791015,4.767,52.16734634912631,698,703.0,27.53287439752573,5.114806520194068,4.634735334433582,4.150366918444708,3.7654592898283537,3.2514964188943085,0.0082615296322763,0.0082529980054068,0.0075989795553233,0.0074000381322784,0.0074000381322784,3.8283324145382336,3.8283324145382336,3.8283324145382336,3.8283324145382336,3.8283324145382336,E-W,0.0002384185791015,12.299,N-S,0.0002384185791015,16.934
19970114204700.knt,FKS0069701142047.UD,1997-01-14, 20:47:00,37.47,141.264,50,4.0,FKS006,37.5031,140.7588,472.0,1997-01-14, 20:48:13,100Hz,59,U-D,0.0002384185791015,13.082,44.72682509069707,810,813.0000000000001,29.43358851099333,8.632973213657987,9.305749972947506,8.308870704881688,7.033584938900916,7.333130048283202,0.013299998389394,0.013299998389394,0.013299998389394,0.0126472068142349,0.00968334991605,2.0293179002731727,2.0293179002731727,2.0293179002731727,1.7444208897479812,1.3276795647280863,E-W,0.0002384185791015,27.268,N-S,0.0002384185791015,31.388
19970114204700.knt,FKS0079701142047.UD,1997-01-14, 20:47:00,37.47,141.264,50,4.0,FKS007,37.4061,140.9632,70.0,1997-01-14, 20:48:05,100Hz,59,U-D,0.0002384185791015,6.978,27.49169281788235,1467,1468.0,33.13146422632018,4.259985889019548,3.063592216193779,1.547988456468615,1.0037911012665384,0.9440758433081328,0.0114249578365543,0.0108036291707889,0.0062692364193885,0.0033481537203512,0.0033481537203512,6.99391256730693,6.99391256730693,6.99391256730693,6.99391256730693,6.99391256730693,E-W,0.0002384185791015,17.713,N-S,0.0002384185791015,17.947
19970114204700.knt,FKS0089701142047.UD,1997-01-14, 20:47:00,37.47,141.264,50,4.0,FKS008,37.4363,140.5668,430.0,1997-01-14, 20:48:11,100Hz,59,U-D,0.0002384185791015,7.054,61.65720310667886,1183,1202.0,24.09681562503296,5.468496988416979,4.895098563040141,3.8882930230037576,2.8800655267167845,0.8172170191108896,0.0079164125195555,0.0079164125195555,0.0076379120299237,0.0054586195114086,0.0018854271511891,3.27953539526439,3.27953539526439,3.27953539526439,3.27953539526439,3.27953539526439,E-W,0.0002384185791015,27.288,N-S,0.0002384185791015,35.888
19970114204700.knt,FKS0099701142047.UD,1997-01-14, 20:47:00,37.47,141.264,50,4.0,FKS009,37.2778,140.6349,440.0,1997-01-14, 20:48:16,100Hz,59,U-D,0.0002384185791015,4.257,59.55726475545298,661,668.0,30.443493256715904,2.721430749948221,2.866753021678009,3.309442788708488,4.27946098477468,3.1013729997730546,0.0022845150322043,0.0022845150322043,0.0022845150322043,0.0022845150322043,0.0022144750110138,1.6360920147380256,1.6360920147380256,1.6360920147380256,0.8045045051422175,0.8045045051422175,E-W,0.0002384185791015,8.846,N-S,0.0002384185791015,11.088
19970114204700.knt,FKS0109701142047.UD,1997-01-14, 20:47:00,37.47,141.264,50,4.0,FKS010,37.2342,141.0016,50.0,1997-01-14, 20:48:13,100Hz,59,U-D,0.0002384185791015,2.406,35.006136474149464,764,764.0,29.239210013231364,2.9212955926087623,3.084921255359947,3.610069232020212,4.068770858906401,3.639155564707087,0.0048813716122427,0.0048813716122427,0.0048813716122427,0.0048813716122427,0.0048790273380962,2.4187934112169684,2.4187934112169684,2.4187934112169684,2.4187934112169684,2.4187934112169684,E-W,0.0002384185791015,6.327,N-S,0.0002384185791015,5.926
19970114204700.knt,FKS0119701142047.UD,1997-01-14, 20:47:00,37.47,141.264,50,4.0,FKS011,37.0911,140.9035,165.0,1997-01-14, 20:48:15,100Hz,59,U-D,0.0002384185791015,5.33,52.84307844203151,711,715.0,27.66138656515381,3.5992125035114846,3.6326770899303926,3.3237414960446774,2.4985749415656784,1.206505666478967,0.0054051225342279,0.0054051225342279,0.0054051225342279,0.004740865999819,0.0032720128358674,2.489781068002981,2.489781068002981,2.489781068002981,2.489781068002981,2.489781068002981,E-W,0.0002384185791015,7.169,N-S,0.0002384185791015,9.444
19970114204700.knt,FKS0169701142047.UD,1997-01-14, 20:47:00,37.47,141.264,50,4.0,FKS016,37.1228,140.1914,375.0,1997-01-14, 20:48:26,100Hz,59,U-D,0.0002384185791015,2.84,102.43197163001014,8,163.0,14.25325980252715,5.002334204474523,5.716549972402206,4.99958174716956,3.365866920181909,1.391920685788444,0.0019113237331416,0.0019113237331416,0.0015041254446022,0.0010557624057915,0.0001981095340408,0.3977001779389849,0.3977001779389849,0.2790593474717749,0.1590370550633297,0.0889005747692257,E-W,0.0002384185791015,4.264,N-S,0.0002384185791015,4.412
19970114204700.knt,FKS0179701142047.UD,1997-01-14, 20:47:00,37.47,141.264,50,4.0,FKS017,37.2842,140.3689,263.0,1997-01-14, 20:48:22,100Hz,59,U-D,0.0002384185791015,1.963,81.74613091306364,359,57.99999999999999,19.124045684381816,3.3966595052042763,2.7173483462821584,1.8880836745108445,2.414616973778582,3.3532653198040623,0.0031819786449988,0.002962878020901,0.0020328279968646,0.0017943338444356,0.0017943338444356,1.089168826750008,1.089168826750008,1.089168826750008,0.675685929219047,0.6493785293922205,E-W,0.0002384185791015,2.513,N-S,0.0002384185791015,2.618
19970114204700.knt,FKS0199701142047.UD,1997-01-14, 20:47:00,37.47,141.264,50,4.0,FKS019,37.603,140.4368,235.0,1997-01-14, 20:48:19,100Hz,59,U-D,0.0002384185791015,3.901,74.42124727300795,550,560.0,30.25196315686193,4.166084872158931,3.844280732679146,3.0483402132189434,1.949508347007515,0.5780353668311388,0.0058362297537078,0.0058362297537078,0.0058125624221204,0.0048257369313244,0.0022802957709898,3.9012007997144726,3.9012007997144726,3.9012007997144726,3.9012007997144726,3.9012007997144726,E-W,0.0002384185791015,5.9,N-S,0.0002384185791015,5.874
19970114204700.knt,FKS0319701142047.UD,1997-01-14, 20:47:00,37.47,141.264,50,4.0,FKS031,37.3364,140.8132,399.0,1997-01-14, 20:48:13,100Hz,59,U-D,0.0002384185791015,4.316,42.50047695334435,787,792.0,29.86198316864369,15.637184105136823,17.334790514032903,17.68034035649758,19.607487316549225,17.388024471946068,0.0201066005523578,0.0201066005523578,0.0201066005523578,0.0201066005523578,0.0201066005523578,4.321914550204668,4.321914550204668,4.321914550204668,3.0480864131233347,3.0480864131233347,E-W,0.0002384185791015,5.651,N-S,0.0002384185791015,7.316
19970114204700.knt,IBR0029701142047.UD,1997-01-14, 20:47:00,37.47,141.264,50,4.0,IBR002,36.7061,140.7068,9.0,1997-01-14, 20:48:26,100Hz,59,U-D,0.0002384185791015,1.506,98.2739603052178,13,91.0,17.764225965505915,4.481577136946219,4.97529328198016,5.357911942349001,4.5475301987389765,2.6923455887000296,0.0018047708742595,0.0018047708742595,0.0018047708742595,0.0017956331352568,0.0008107951185409,0.3052861445960905,0.3052861445960905,0.3052861445960905,0.1741899805957924,0.1358238977927139,E-W,0.0002384185791015,3.053,N-S,0.0002384185791015,2.7
19970114204700.knt,IBR0039701142047.UD,1997-01-14, 20:47:00,37.47,141.264,50,4.0,IBR003,36.5915,140.6453,58.0,1997-01-14, 20:48:27,100Hz,59,U-D,0.0002384185791015,6.269,112.06448209024488,153,162.0,26.534137239866805,5.053125066051168,5.752991136010069,5.999875214078765,6.097772208309406,5.660077954858539,0.0046979553444494,0.0046979553444494,0.0046979553444494,0.0046979553444494,0.0046097843418234,1.2866357600214982,1.2866357600214982,1.2866357600214982,1.2866357600214982,0.941681729871995,E-W,0.0002384185791015,16.848,N-S,0.0002384185791015,13.026
19970118003700.knt,KGS0309701180037.UD,1997-01-18, 00:37:00,28.804,129.898,37,4.9,KGS030,28.451,129.6784,4.0,1997-01-18, 00:37:19,100Hz,59,U-D,0.0002384185791015,9.897,44.72235855139866,1199,1191.0,42.72279366254014,0.8520998087205152,0.7663875035796166,0.6476668230864913,0.7576281964090104,1.0600683766468764,0.0123879023765599,0.0115235796209722,0.0109026557787925,0.0101846992116779,0.0101846992116779,5.870197931479389,5.870197931479389,5.870197931479389,3.5667986211686724,1.818416143262868,E-W,0.0002384185791015,23.39,N-S,0.0002384185791015,25.341
19970118003700.knt,KGS0319701180037.UD,1997-01-18, 00:37:00,28.804,129.898,37,4.9,KGS031,28.3571,129.3937,2.0,1997-01-18, 00:37:21,100Hz,59,U-D,0.0002384185791015,12.678,69.95852869890254,1395,1386.0,44.85085846785865,1.4125964870531953,1.5719246315258064,1.8481582844349356,2.41474776806142,2.5879123500586005,0.0143406562386332,0.0143406562386332,0.0143406562386332,0.0143406562386332,0.0143406562386332,4.536066853671451,4.536066853671451,4.536066853671451,2.483007679522292,1.9443358990766184,E-W,0.0002384185791015,23.949,N-S,0.0002384185791015,17.409
19970118003700.knt,KGS0329701180037.UD,1997-01-18, 00:37:00,28.804,129.898,37,4.9,KGS032,28.1388,129.3206,2.0,1997-01-18, 00:37:35,100Hz,59,U-D,0.0002384185791015,2.175,93.03958073348493,314,329.0,29.50812479876731,2.376423259700816,2.7075517532030675,3.6262026134505376,6.465516829942786,8.154508930411684,0.0101481451783081,0.0101481451783081,0.0101481451783081,0.0101481451783081,0.0101481451783081,1.425552496288136,1.425552496288136,1.041752883084242,0.3851436081849378,0.2782974906997428,E-W,0.0002384185791015,6.82,N-S,0.0002384185791015,5.744
19970118005300.knt,KGS0289701180053.UD,1997-01-18, 00:53:00,28.821,129.915,36,6.0,KGS028,30.4208,130.5769,4.0,1997-01-18, 00:54:46,100Hz,65,U-D,0.0002384185791015,2.916,189.04449694187812,1206,1269.0,34.67904177264171,2.157084565849212,1.7265409925400723,1.904239373877917,1.8548533113648589,4.401051936793564,0.0075524661480114,0.0049659502418069,0.0049659502418069,0.0038925042051269,0.0014262331502973,1.5777957343363016,1.3989120212822712,1.2085685835500355,0.6835417338659364,0.2567762677825409,E-W,0.0002384185791015,7.054,N-S,0.0002384185791015,8.095
19970118005300.knt,KGS0309701180053.UD,1997-01-18, 00:53:00,28.821,129.915,36,6.0,KGS030,28.451,129.6784,4.0,1997-01-18, 00:54:26,100Hz,72,U-D,0.0002384185791015,21.626,47.17892089246069,1201,1228.0,41.0555316142306,1.304750009480774,1.5971400544947487,1.6698339128186972,1.3372292465636346,1.7202467999568796,0.0356972672689873,0.0356972672689873,0.0356972672689873,0.0210326744667347,0.0084776789012205,9.948895430019126,6.877575242390733,5.777666225132131,4.572808344605948,1.1161794295545322,E-W,0.0002384185791015,51.234,N-S,0.0002384185791015,51.519
19970118005300.knt,KGS0319701180053.UD,1997-01-18, 00:53:00,28.821,129.915,36,6.0,KGS031,28.3571,129.3937,2.0,1997-01-18, 00:54:28,100Hz,113,U-D,0.0002384185791015,22.457,72.46692140956907,1373,1431.0,35.86058508784242,0.9073899619373292,1.162634384382008,1.449820824072666,1.6553069413419204,2.7419450395796785,0.020541029637855,0.020541029637855,0.020541029637855,0.0185821245691894,0.0110849924355527,10.45000395520488,9.90885551791064,7.287219487206765,6.283569671116135,2.0208153418554264,E-W,0.0002384185791015,63.429,N-S,0.0002384185791015,42.04
19970118005300.knt,KGS0329701180053.UD,1997-01-18, 00:53:00,28.821,129.915,36,6.0,KGS032,28.1388,129.3206,2.0,1997-01-18, 00:54:34,100Hz,59,U-D,0.0002384185791015,6.535,95.5476592244326,1128,1206.0,31.955848443259285,1.823014999568675,2.6899633185038474,2.387932498378517,2.4749970747634813,2.116202052215118,0.0245816166658891,0.0245816166658891,0.0225198857484287,0.0073732749921545,0.0040015834132686,3.555854003347685,2.7205958738483638,2.322788250457702,1.1176494409996287,0.3993651434422432,E-W,0.0002384185791015,18.014,N-S,0.0002384185791015,16.348
19970118005300.knt,KGS0339701180053.UD,1997-01-18, 00:53:00,28.821,129.915,36,6.0,KGS033,27.6882,128.9427,135.0,1997-01-18, 00:54:47,100Hz,59,U-D,0.0002384185791015,5.252,157.9085113306571,770,865.0,31.416207950970872,2.084271249801672,2.2276528898574366,2.827002091076399,1.2689473803894291,1.8428118084166984,0.0172718000891801,0.0172718000891801,0.0172718000891801,0.0130573146392698,0.0018181789223236,2.2293485517558933,2.2293485517558933,1.2956215681566188,0.8543410626244596,0.3793273811673771,E-W,0.0002384185791015,17.048,N-S,0.0002384185791015,15.874
19970120180900.knt,TKY0089701201809.UD,1997-01-20, 18:09:00,34.52,139.247,8,3.8,TKY008,34.7852,139.3909,67.0,1997-01-20, 18:09:20,100Hz,59,U-D,0.0002384185791015,4.149,32.29316650954332,952,968.0,26.86582035399401,1.641255166266854,1.7802233319908711,1.9600662436304088,2.1522605072923877,1.2750732326378411,0.0058766724526833,0.0058766724526833,0.0058766724526833,0.0058766724526833,0.0037005568795744,2.647367143923342,1.091058048124637,1.091058048124637,1.091058048124637,0.928131243325954,E-W,0.0002384185791015,9.167,N-S,0.0002384185791015,8.581
19970120180900.knt,TKY0099701201809.UD,1997-01-20, 18:09:00,34.52,139.247,8,3.8,TKY009,34.6874,139.4412,60.0,1997-01-20, 18:09:15,100Hz,59,U-D,0.0002384185791015,5.498,25.737107505125564,1370,1367.0,19.72501062623115,1.933395705804748,1.4091595733541868,1.4525590838236,1.503494065373904,0.717169973739919,0.015526151357397,0.01262398118551,0.01262398118551,0.01262398118551,0.0094155866835749,5.446846846582776,5.446846846582776,5.446846846582776,5.446846846582776,5.446846846582776,E-W,0.0002384185791015,4.133,N-S,0.0002384185791015,5.186
19970120180900.knt,TKY0109701201809.UD,1997-01-20, 18:09:00,34.52,139.247,8,3.8,TKY010,34.3775,139.2557,13.0,1997-01-20, 18:09:13,100Hz,59,U-D,0.0002384185791015,11.701,15.865345968203473,1444,1450.0,26.514757276672206,0.5147704942256005,0.5556448914503692,0.5403186066964407,0.4617510246410785,0.4961011221734975,0.0187448302221262,0.0187448302221262,0.0187448302221262,0.0083561949887223,0.0083561949887223,9.382534159975991,9.382534159975991,8.695466360725755,6.822254272011317,6.076333123932928,E-W,0.0002384185791015,22.138,N-S,0.0002384185791015,24.017
19970120180900.knt,TKY0119701201809.UD,1997-01-20, 18:09:00,34.52,139.247,8,3.8,TKY011,34.1228,139.5315,42.0,1997-01-20, 18:09:26,100Hz,59,U-D,0.0002384185791015,0.708,51.315688428891775,749,638.0,17.079284384388732,1.4805538015635182,1.611531813380032,1.6457106432802622,1.7818404506524816,2.0955775316851515,0.0022177443573354,0.0022177443573354,0.0022177443573354,0.0021390552408272,0.0021390552408272,0.316057721097118,0.316057721097118,0.316057721097118,0.2977846953871524,0.2428421904818864,E-W,0.0002384185791015,2.086,N-S,0.0002384185791015,2.591
19970120193000.knt,TKY0089701201930.UD,1997-01-20, 19:30:00,34.52,139.247,6,3.9,TKY008,34.7852,139.3909,67.0,1997-01-20, 19:30:11,100Hz,59,U-D,0.0002384185791015,2.898,32.29316650954332,916,948.0,23.434838046846803,2.45948504602662,2.746894927592331,2.077068186974669,2.2546074812338723,0.7529141595415719,0.0076389963536152,0.0076389963536152,0.0047817605299533,0.0047817605299533,0.0026502814723483,1.0671795061924023,1.0028987811475785,1.0028987811475785,0.9565210650903034,0.8060413671975045,E-W,0.0002384185791015,4.501,N-S,0.0002384185791015,7.844
19970120193000.knt,TKY0099701201930.UD,1997-01-20, 19:30:00,34.52,139.247,6,3.9,TKY009,34.6874,139.4412,60.0,1997-01-20, 19:30:09,100Hz,59,U-D,0.0002384185791015,2.831,25.737107505125564,1031,1027.0,19.174189790391186,1.4014779338204728,1.4417482580203478,1.4241144219991602,2.145152219022812,1.117615485414617,0.0123436120176655,0.0089396512391285,0.0089396512391285,0.0089396512391285,0.0052330965886637,1.6291164847098931,1.6291164847098931,1.6291164847098931,1.6291164847098931,1.42740484317452,E-W,0.0002384185791015,3.982,N-S,0.0002384185791015,4.739
19970120193000.knt,TKY0109701201930.UD,1997-01-20, 19:30:00,34.52,139.247,6,3.9,TKY010,34.3775,139.2557,13.0,1997-01-20, 19:30:04,100Hz,59,U-D,0.0002384185791015,16.508,15.865345968203473,1366,1361.0,32.08177342148245,0.5415724497334105,0.6637000033143113,0.6737089480831029,0.4120073520372804,0.4461090208793815,0.0503197302139933,0.0320376887509676,0.0286630692230611,0.0109540503352259,0.0109540503352259,13.2587583488705,12.333715445859486,11.469119432948952,11.469119432948952,11.469119432948952,E-W,0.0002384185791015,24.173,N-S,0.0002384185791015,31.582
19970123144400.knt,AKT0239701231444.UD,1997-01-23, 14:44:00,38.886,141.014,10,3.8,AKT023,39.1462,140.717,280.0,1997-01-23, 14:44:39,100Hz,59,U-D,0.0002384185791015,1.04,38.671833175476266,983,983.0,25.352356523153787,1.0268346155594008,1.3632713196737878,1.2938260016701268,0.8676120200223955,0.5489039807542114,0.0010491550310824,0.0010491550310824,0.0010491550310824,0.0008476095187232,0.0007680780848675,0.6129864733676484,0.4177584693644695,0.4177584693644695,0.4177584693644695,0.4177584693644695,E-W,0.0002384185791015,1.439,N-S,0.0002384185791015,2.24
19970123144400.knt,IWT0099701231444.UD,1997-01-23, 14:44:00,38.886,141.014,10,3.8,IWT009,39.0187,141.4031,150.0,1997-01-23, 14:44:39,100Hz,59,U-D,0.0002384185791015,1.549,36.73984762876817,973,982.0,25.58906732665376,1.4953772943416086,1.532384979946546,1.6465838689388954,1.6706376222388148,2.000765441122605,0.0014737034936204,0.0012436951188624,0.0012436951188624,0.0012436951188624,0.0012436951188624,0.9164879528151432,0.8305981014130053,0.8305981014130053,0.8305981014130053,0.8305981014130053,E-W,0.0002384185791015,4.103,N-S,0.0002384185791015,6.233
19970123144400.knt,IWT0109701231444.UD,1997-01-23, 14:44:00,38.886,141.014,10,3.8,IWT010,38.9334,141.1173,37.0,1997-01-23, 14:44:32,100Hz,59,U-D,0.0002384185791015,4.683,10.376309493816812,1273,1273.0,16.512178838008968,1.089222115276925,0.956535408665568,0.8637391661548512,0.6296056126113648,0.7877278545299707,0.0096665186061461,0.0096665186061461,0.0074894091878439,0.0034264324662076,0.0023289574008192,4.686951779420577,4.686951779420577,4.686951779420577,4.478237480955211,4.478237480955211,E-W,0.0002384185791015,8.263,N-S,0.0002384185791015,12.166
19970123144400.knt,MYG0029701231444.UD,1997-01-23, 14:44:00,38.886,141.014,10,3.8,MYG002,38.7262,141.5109,79.0,1997-01-23, 14:44:43,100Hz,59,U-D,0.0002384185791015,1.703,46.57921147698194,751,765.0,28.786381444788177,5.457286012692107,5.822606094103578,5.406022379170235,4.922455493382461,3.6188231310425096,0.0041949777138358,0.0041949777138358,0.0040902517955053,0.0040902517955053,0.0034831415382382,1.7062534998613812,1.7062534998613812,1.7062534998613812,1.7062534998613812,1.7062534998613812,E-W,0.0002384185791015,4.247,N-S,0.0002384185791015,5.396
19970123144400.knt,MYG0039701231444.UD,1997-01-23, 14:44:00,38.886,141.014,10,3.8,MYG003,38.7348,141.3106,28.0,1997-01-23, 14:44:39,100Hz,59,U-D,0.0002384185791015,1.505,30.710095509865997,882,882.0,30.77004386797621,2.018818533784263,1.6818635362109071,0.9622921461979188,0.689810151246289,0.6700838486608851,0.0035211657397941,0.0026568703021859,0.0015490896651298,0.0009544666935308,0.0009349358626353,1.507195578054506,1.507195578054506,1.507195578054506,1.507195578054506,1.507195578054506,E-W,0.0002384185791015,3.466,N-S,0.0002384185791015,3.033
