earthquake name,records name,earthquake date,earthquake time,lat,long,depth,mag,stn_code,stn_lat,stn_long,stn_height,rcd_date,rcd_time,frequency,rcd_duration,direction,scale_factor,max_pga,epi_dist,pick_index_manually,pick_index_kalkan,snr_db_kalkan,tc_5sec,tc_4sec,tc_3sec,tc_2sec,tc_1sec,Pd_5sec,Pd_4sec,Pd_3sec,Pd_2sec,Pd_1sec,Pga_5sec,Pga_4sec,Pga_3sec,Pga_2sec,Pga_1sec,Channel,Scale_factor,PGA_ew,Channel.1,Scale_factor.1,PGA_ns
20010928111600.knt,TCG0100109281116.UD,2001-09-28, 11:16:00,36.65,139.459,11.0,3.5,TCG010,36.6347,139.4376,640.0,2001-09-28, 11:16:29,100Hz,119.0,U-D,0.0002384185791015,31.583,2.557310157927104,1315.0,1313.0,19.2549183587846,2.1772874525767167,2.170117958956892,1.7844849626157406,0.7893746734950365,0.768880718606962,0.0178456896378145,0.0178456896378145,0.0178456896378145,0.0130222961074497,0.0021541639282237,31.652889408059067,31.652889408059067,31.652889408059067,31.652889408059067,3.6625478754168665,E-W,0.0002384185791015,56.137,N-S,0.0002384185791015,40.632
20010928111600.knt,TCG0110109281116.UD,2001-09-28, 11:16:00,36.65,139.459,11.0,3.5,TCG011,36.3867,139.6145,93.0,2001-09-28, 11:16:36,100Hz,119.0,U-D,0.0002384185791015,1.511,32.407997984661705,1059.0,30.0,7.217935925617285,2.2224115144120944,3.5439522652157183,3.1463622258138355,3.1295026402546524,4.056642975263272,0.0019595839456346,0.0014529974010649,0.0013702128004912,0.0013702128004912,0.0013702128004912,1.5148255041860954,0.4692909600993,0.4692909600993,0.393821061241264,0.393821061241264,E-W,0.0002384185791015,2.82,N-S,0.0002384185791015,2.324
20010929020700.knt,HKD1080109290207.UD,2001-09-29, 02:07:00,41.936,142.136,54.0,4.2,HKD108,42.2528,142.5643,42.0,2001-09-29, 02:07:40,100Hz,120.0,U-D,0.0002384185791015,1.062,49.89770609781845,492.0,505.0,24.91515019596722,1.732565391107027,1.3782538395515505,1.212988889740848,1.2122524021534795,1.4251891887512682,0.0017846712618083,0.0013587068912465,0.0011423806775421,0.0011423806775421,0.0011423806775421,0.5006619782917248,0.5006619782917248,0.5006619782917248,0.5006619782917248,0.3647275340280594,E-W,0.0002384185791015,4.002,N-S,0.0002384185791015,4.087
20010929020700.knt,HKD1570109290207.UD,2001-09-29, 02:07:00,41.936,142.136,54.0,4.2,HKD157,41.9051,140.9697,37.0,2001-09-29, 02:07:48,100Hz,119.0,U-D,0.0002384185791015,3.513,96.55660052523707,186.0,217.0,22.109285564219103,2.8987708716928515,2.9479333912586685,3.077815225485525,3.258395569430389,3.770599533817535,0.0055843834584485,0.0055843834584485,0.0055843834584485,0.0055843834584485,0.00521224214955,1.899997741314484,1.899997741314484,1.899997741314484,1.899997741314484,1.4855281535368632,E-W,0.0002384185791015,8.007,N-S,0.0002384185791015,11.235
20010929020700.knt,HKD1580109290207.UD,2001-09-29, 02:07:00,41.936,142.136,54.0,4.2,HKD158,41.8345,141.1411,6.0,2001-09-29, 02:07:46,100Hz,120.0,U-D,0.0002384185791015,3.335,83.12980800916665,257.0,270.0,25.07358324354332,2.943071773940308,2.920913185928084,3.2776076668937915,3.6503104472884975,3.878048948763302,0.0048986529044164,0.0048986529044164,0.0048986529044164,0.0048986529044164,0.0048986529044164,1.3496679584373328,1.3496679584373328,1.3496679584373328,1.3496679584373328,0.9508036524589252,E-W,0.0002384185791015,2.827,N-S,0.0002384185791015,5.06
20010929020700.knt,HKD1590109290207.UD,2001-09-29, 02:07:00,41.936,142.136,54.0,4.2,HKD159,41.7162,141.0025,35.0,2001-09-29, 02:07:48,100Hz,119.0,U-D,0.0002384185791015,3.812,97.0482070585292,0.0,226.00000000000003,20.386932435225656,0.0,0.0,0.0,0.0,0.0,0.0,0.0,0.0,0.0,0.0,0.0,0.0,0.0,0.0,0.0,E-W,0.0002384185791015,6.412,N-S,0.0002384185791015,5.582
20010929063700.knt,CHB0110109290637.UD,2001-09-29, 06:37:00,35.745,140.682,49.0,3.8,CHB011,35.6021,140.5014,2.0,2001-09-29, 06:37:30,100Hz,119.0,U-D,0.0002384185791015,1.137,22.77310909532938,680.0,-100.0,,2.138103175136617,2.2146684033442,2.12472280023487,2.168502353298909,2.4647870964077274,0.00462495898389,0.00462495898389,0.00462495898389,0.0042087768059412,0.0042087768059412,0.8797298061066905,0.8797298061066905,0.8797298061066905,0.8797298061066905,0.8797298061066905,E-W,0.0002384185791015,3.223,N-S,0.0002384185791015,2.815
20010929195800.knt,ISK0080109291958.UD,2001-09-29, 19:58:00,36.725,136.869,13.0,3.3,ISK008,36.8918,136.7783,15.0,2001-09-29, 19:58:44,100Hz,119.0,U-D,0.0002384185791015,6.017,20.228816610440067,1216.0,1225.0,22.03520607939476,0.433240646895813,0.4227465674928408,0.4101373408959796,0.6350877755959257,0.2387075970902903,0.0030760182170442,0.0030760182170442,0.0030760182170442,0.0015574492284816,0.000671653244675,5.978928721859109,5.978928721859109,5.978928721859109,1.4465657962564955,1.4465657962564955,E-W,0.0002384185791015,3.871,N-S,0.0002384185791015,4.197
20010929195800.knt,ISK0090109291958.UD,2001-09-29, 19:58:00,36.725,136.869,13.0,3.3,ISK009,36.7318,136.6989,40.0,2001-09-29, 19:58:44,100Hz,119.0,U-D,0.0002384185791015,2.746,15.178229262639562,1151.0,42.0,12.762612940173735,0.7133028891385907,0.6087667338453695,0.7057741927473439,1.788842219829142,1.855356999916951,0.0042798518490539,0.0042041579507055,0.0030306168946428,0.0014939011813698,0.0014646437701922,2.7536366100272254,2.7536366100272254,2.7536366100272254,1.250992964893083,1.250992964893083,E-W,0.0002384185791015,5.351,N-S,0.0002384185791015,4.843
20010929195800.knt,TYM0020109291958.UD,2001-09-29, 19:58:00,36.725,136.869,13.0,3.3,TYM002,36.866,136.9747,3.0,2001-09-29, 19:58:45,100Hz,119.0,U-D,0.0002384185791015,1.03,18.28651361387223,1087.0,1086.0,15.98254280066251,1.2509942055065628,1.3491111454833191,1.812743029298751,2.7097344589612145,2.127872000781976,0.0018842679908746,0.0018842679908746,0.0018842679908746,0.0013352731178101,0.0012608097726936,1.0200197110747895,1.0200197110747895,1.0200197110747895,1.0200197110747895,1.0200197110747895,E-W,0.0002384185791015,4.502,N-S,0.0002384185791015,2.569
20010929195800.knt,TYM0050109291958.UD,2001-09-29, 19:58:00,36.725,136.869,13.0,3.3,TYM005,36.7824,137.0803,2.0,2001-09-29, 19:58:46,100Hz,119.0,U-D,0.0002384185791015,1.594,19.8775158999077,1051.0,934.0,17.514112626210416,1.7779857179761702,1.984623300139168,1.983193020047876,1.736015890549704,0.5069583054334099,0.0023187202506403,0.0023187202506403,0.0023187202506403,0.0017498178559036,0.0006604103156899,1.5878962042131166,1.5878962042131166,1.5878962042131166,1.5878962042131166,1.5878962042131166,E-W,0.0002384185791015,3.731,N-S,0.0002384185791015,2.854
20010929195800.knt,TYM0060109291958.UD,2001-09-29, 19:58:00,36.725,136.869,13.0,3.3,TYM006,36.6716,136.897,29.0,2001-09-29, 19:58:43,100Hz,119.0,U-D,0.0002384185791015,2.991,6.441221822641057,1198.0,1.0,5.7677532622646055,6.323617074547144,6.813454101273774,8.232921108969286,7.1675024297268175,4.734876482270919,0.0200766444689729,0.0200766444689729,0.0200766444689729,0.0199662334847423,0.0135933909356958,2.9961379497204987,2.9961379497204987,2.9961379497204987,2.9961379497204987,1.7445448451002852,E-W,0.0002384185791015,7.057,N-S,0.0002384185791015,9.19
20011001024500.knt,SMN0060110010245.UD,2001-10-01, 02:45:00,35.018,132.369,13.0,3.7,SMN006,35.1942,132.4978,36.0,2001-10-01, 02:45:14,100Hz,119.0,U-D,0.0002384185791015,1.347,22.82862204131383,1062.0,1062.0,21.0187965585946,1.2375681164939978,1.19290625236405,2.1677865736589887,1.8458220865388544,1.2433745184466798,0.0015099838455123,0.0015099838455123,0.0011097727693291,0.0011097727693291,0.0011097727693291,1.352864998564197,1.352864998564197,0.4451407448497397,0.4451407448497397,0.4451407448497397,E-W,0.0002384185791015,2.093,N-S,0.0002384185791015,3.177
20011001024500.knt,SMN0080110010245.UD,2001-10-01, 02:45:00,35.018,132.369,13.0,3.7,SMN008,34.8523,132.5308,335.0,2001-10-01, 02:45:14,100Hz,119.0,U-D,0.0002384185791015,3.794,23.601322145143477,1076.0,1082.0,27.399327238174266,2.583006726393797,2.9900186996290348,6.833875757787712,8.388669499149875,10.630327914426108,0.0044705106888394,0.0044705106888394,0.0044705106888394,0.0044705106888394,0.0044705106888394,3.8030129981444896,3.8030129981444896,1.212753674390377,1.212753674390377,0.8159386103452719,E-W,0.0002384185791015,4.211,N-S,0.0002384185791015,6.108
20011001024500.knt,SMN0090110010245.UD,2001-10-01, 02:45:00,35.018,132.369,13.0,3.7,SMN009,35.0112,132.2227,20.0,2001-10-01, 02:45:09,100Hz,119.0,U-D,0.0002384185791015,10.15,13.344875264993496,1422.0,1424.0,35.079699680392466,0.6119537311536649,0.4863972143449961,0.3540884661184533,0.3236519665707638,0.373938017599924,0.0053453956225512,0.0053453956225512,0.0039371548120191,0.0038828429299335,0.0038828429299335,10.147986390922911,10.147986390922911,10.147986390922911,10.147986390922911,10.147986390922911,E-W,0.0002384185791015,10.415,N-S,0.0002384185791015,13.467
20011002172000.knt,AKT0110110021720.UD,2001-10-02, 17:20:00,37.728,141.814,41.0,5.4,AKT011,39.8128,140.5803,320.0,2001-10-02, 17:20:57,100Hz,119.0,U-D,0.0002384185791015,1.185,255.29513327311383,0.0,-100.0,,0.0,0.0,0.0,0.0,0.0,0.0,0.0,0.0,0.0,0.0,0.0,0.0,0.0,0.0,0.0,E-W,0.0002384185791015,3.98,N-S,0.0002384185791015,3.548
20011002172000.knt,FKS0010110021720.UD,2001-10-02, 17:20:00,37.728,141.814,41.0,5.4,FKS001,37.7949,140.9196,9.0,2001-10-02, 17:20:05,100Hz,119.0,U-D,0.0002384185791015,22.628,78.9748968265259,1409.0,1408.0,46.47188177424429,0.6554285594526075,0.6910515824955316,0.7104292816481257,0.7221420227040114,0.6015233962610067,0.039182036853677,0.039182036853677,0.039182036853677,0.039182036853677,0.039182036853677,22.732625022488016,22.732625022488016,22.732625022488016,22.732625022488016,22.732625022488016,E-W,0.0002384185791015,29.86,N-S,0.0002384185791015,48.469
20011002172000.knt,FKS0020110021720.UD,2001-10-02, 17:20:00,37.728,141.814,41.0,5.4,FKS002,37.8449,140.6013,42.0,2001-10-02, 17:20:09,100Hz,119.0,U-D,0.0002384185791015,6.046,107.35788940471085,1405.0,1404.0,39.96283019020406,0.9488158956015852,0.9132596160340304,0.8720328367307163,0.7978456721670996,0.6233979592375386,0.0253773869969693,0.0253773869969693,0.0253773869969693,0.0253773869969693,0.0253773869969693,5.483798280359723,5.483798280359723,5.483798280359723,5.483798280359723,5.483798280359723,E-W,0.0002384185791015,23.481,N-S,0.0002384185791015,24.179
20011002172000.knt,FKS0030110021720.UD,2001-10-02, 17:20:00,37.728,141.814,41.0,5.4,FKS003,37.7613,140.4799,64.0,2001-10-02, 17:20:10,100Hz,119.0,U-D,0.0002384185791015,12.408,117.3608738056222,1455.0,1453.0,29.31686668799121,0.5784825518453433,0.6035848375854226,0.6429794458159863,0.6569032283738302,0.6226016551441189,0.0341243563874906,0.0341243563874906,0.0341243563874906,0.0341243563874906,0.0341243563874906,11.774404282896665,11.774404282896665,11.774404282896665,11.774404282896665,11.774404282896665,E-W,0.0002384185791015,21.565,N-S,0.0002384185791015,22.638
20011002172000.knt,FKS0040110021720.UD,2001-10-02, 17:20:00,37.728,141.814,41.0,5.4,FKS004,37.6799,140.7346,488.0,2001-10-02, 17:20:07,100Hz,119.0,U-D,0.0002384185791015,14.818,95.1105677228873,1411.0,1428.0,22.57075730395725,0.6447858886565271,0.6761933270407418,0.7000577891318117,0.7068881797692929,0.6899307850797154,0.0149710352119368,0.0149710352119368,0.0149710352119368,0.0149710352119368,0.0149710352119368,11.12165888893882,11.12165888893882,11.12165888893882,11.12165888893882,11.12165888893882,E-W,0.0002384185791015,33.73,N-S,0.0002384185791015,39.039
20011002172000.knt,FKS0050110021720.UD,2001-10-02, 17:20:00,37.728,141.814,41.0,5.4,FKS005,37.6385,140.9849,16.0,2001-10-02, 17:20:04,100Hz,119.0,U-D,0.0002384185791015,25.743,73.63607741274627,1447.0,1444.0,38.47694365079828,0.5408747828784171,0.5214090689249071,0.5051558728241885,0.466483054248699,0.4704592388928915,0.0528958747049652,0.0528958747049652,0.0528958747049652,0.0528958747049652,0.0528958747049652,26.154774088859945,26.154774088859945,26.154774088859945,26.154774088859945,26.154774088859945,E-W,0.0002384185791015,47.06,N-S,0.0002384185791015,82.306
20011002172000.knt,FKS0060110021720.UD,2001-10-02, 17:20:00,37.728,141.814,41.0,5.4,FKS006,37.5031,140.7588,472.0,2001-10-02, 17:20:07,100Hz,119.0,U-D,0.0002384185791015,23.215,96.24716812170176,1412.0,1403.0,28.68850483773334,0.5813929440155581,0.607897005050055,0.6311163957284135,0.6394135998852236,0.6609367595320667,0.0132859946237875,0.0132859946237875,0.0132859946237875,0.0132859946237875,0.0132859946237875,7.568401824142013,7.568401824142013,7.568401824142013,7.568401824142013,7.548968197305758,E-W,0.0002384185791015,65.834,N-S,0.0002384185791015,102.093
20011002172000.knt,FKS0070110021720.UD,2001-10-02, 17:20:00,37.728,141.814,41.0,5.4,FKS007,37.4061,140.9632,70.0,2001-10-02, 17:20:06,100Hz,119.0,U-D,0.0002384185791015,8.711,83.09166755964694,1345.0,1371.0,22.29926358329992,0.8126755862122059,0.8299207403323522,0.8333510637189537,0.8797533838594569,0.8291932339099087,0.0220211477065512,0.0220211477065512,0.0220211477065512,0.0220211477065512,0.0220211477065512,3.952191342253073,3.5468489219569994,3.5468489219569994,3.5468489219569994,3.5468489219569994,E-W,0.0002384185791015,20.587,N-S,0.0002384185791015,20.979
20011002172000.knt,FKS0080110021720.UD,2001-10-02, 17:20:00,37.728,141.814,41.0,5.4,FKS008,37.4363,140.5668,430.0,2001-10-02, 17:20:10,100Hz,119.0,U-D,0.0002384185791015,15.912,114.58824833868697,1365.0,1360.0,45.77718263933781,0.8388459921791017,0.8567133051534676,0.8576062520713574,0.7959346030119065,0.4776425097109787,0.0096874828831948,0.0096874828831948,0.0096874828831948,0.0096874828831948,0.0092363546048897,7.09241759080569,7.09241759080569,7.09241759080569,7.09241759080569,6.070018075925555,E-W,0.0002384185791015,37.765,N-S,0.0002384185791015,55.768
20011002172000.knt,FKS0090110021720.UD,2001-10-02, 17:20:00,37.728,141.814,41.0,5.4,FKS009,37.2778,140.6349,440.0,2001-10-02, 17:20:09,100Hz,119.0,U-D,0.0002384185791015,11.531,115.430918896322,1457.0,1451.0,24.86080356999513,0.6962891600004035,0.6968586965326191,0.6954655085757163,0.6947322398385513,0.5836927418405591,0.0113947879677372,0.0113947879677372,0.0113947879677372,0.0113947879677372,0.0113947879677372,4.041327089951175,4.041327089951175,4.041327089951175,4.041327089951175,4.041327089951175,E-W,0.0002384185791015,50.582,N-S,0.0002384185791015,32.697
20011002172000.knt,FKS0100110021720.UD,2001-10-02, 17:20:00,37.728,141.814,41.0,5.4,FKS010,37.2342,141.0016,50.0,2001-10-02, 17:20:07,100Hz,119.0,U-D,0.0002384185791015,13.207,90.29722176837112,1369.0,1366.0,41.92864443279134,0.802672703879752,0.843464652623086,0.8915191784771033,0.9602428683679536,0.9140735623170742,0.020209617327981,0.020209617327981,0.020209617327981,0.020209617327981,0.020209617327981,5.788793303033454,5.788793303033454,5.788793303033454,5.788793303033454,5.788793303033454,E-W,0.0002384185791015,57.44,N-S,0.0002384185791015,39.629
20011002172000.knt,FKS0110110021720.UD,2001-10-02, 17:20:00,37.728,141.814,41.0,5.4,FKS011,37.0911,140.9035,165.0,2001-10-02, 17:20:09,100Hz,119.0,U-D,0.0002384185791015,11.172,107.15598653429682,1340.0,1369.0,28.65442637312225,0.6731370641691945,0.7099337792371364,0.7756996709407512,0.846322617174243,1.000739392376968,0.0088866042818405,0.0088866042818405,0.0088866042818405,0.0088866042818405,0.0088866042818405,3.995853364022307,3.995853364022307,3.995853364022307,3.995853364022307,1.56888575499968,E-W,0.0002384185791015,14.779,N-S,0.0002384185791015,17.958
20011002172000.knt,FKS0130110021720.UD,2001-10-02, 17:20:00,37.728,141.814,41.0,5.4,FKS013,37.09,140.5563,320.0,2001-10-02, 17:20:12,100Hz,119.0,U-D,0.0002384185791015,9.79,131.80385915948142,1370.0,1369.0,37.07761482742799,0.5070916334568977,0.5331045766398481,0.5707411586272154,0.6723121549578245,0.731751386379817,0.0038686096615489,0.0038686096615489,0.0038686096615489,0.0038686096615489,0.0038686096615489,3.228515382631552,3.228515382631552,3.228515382631552,2.352566264545988,2.038948724676916,E-W,0.0002384185791015,17.637,N-S,0.0002384185791015,33.342
20011002172000.knt,FKS0160110021720.UD,2001-10-02, 17:20:00,37.728,141.814,41.0,5.4,FKS016,37.1228,140.1914,375.0,2001-10-02, 17:20:16,100Hz,119.0,U-D,0.0002384185791015,8.247,158.2965236458718,1380.0,1379.0,35.75418681514464,0.5606804188436538,0.5639802747223998,0.5666562358651964,0.6348862636269199,0.5632480100483186,0.0137233237133148,0.0137233237133148,0.0137233237133148,0.0137233237133148,0.0137233237133148,3.4719590980895663,3.4719590980895663,3.4719590980895663,3.3459692967772403,3.3459692967772403,E-W,0.0002384185791015,29.713,N-S,0.0002384185791015,35.068
20011002172000.knt,FKS0170110021720.UD,2001-10-02, 17:20:00,37.728,141.814,41.0,5.4,FKS017,37.2842,140.3689,263.0,2001-10-02, 17:20:13,100Hz,119.0,U-D,0.0002384185791015,10.126,136.68857210981915,1383.0,1384.0,37.38781023467337,0.6503358621872903,0.6758488924653743,0.6817909645819679,0.765110251140931,0.7370429806898848,0.0122675438691761,0.0122675438691761,0.0122675438691761,0.0122675438691761,0.0122675438691761,4.433843166110669,4.433843166110669,4.433843166110669,3.793361565122124,3.6059892683531545,E-W,0.0002384185791015,18.241,N-S,0.0002384185791015,20.411
20011002172000.knt,FKS0180110021720.UD,2001-10-02, 17:20:00,37.728,141.814,41.0,5.4,FKS018,37.3961,140.3622,245.0,2001-10-02, 17:20:12,100Hz,119.0,U-D,0.0002384185791015,15.784,133.18054555990844,1444.0,1444.0,35.69526624528212,0.4088469111377806,0.4106634846986102,0.409145457090017,0.4159858200133211,0.4782834919116371,0.0203710442051848,0.0203710442051848,0.0203710442051848,0.0203710442051848,0.0203710442051848,13.232879215383557,13.232879215383557,13.232879215383557,13.232879215383557,12.067503194203043,E-W,0.0002384185791015,27.455,N-S,0.0002384185791015,34.901
20011002172000.knt,FKS0190110021720.UD,2001-10-02, 17:20:00,37.728,141.814,41.0,5.4,FKS019,37.603,140.4368,235.0,2001-10-02, 17:20:11,100Hz,119.0,U-D,0.0002384185791015,17.235,122.015581131777,1392.0,1416.0,25.79941656082724,0.6676801215994,0.6850762131690564,0.6771296384346874,0.6958577131215462,0.5855980273741901,0.0129047989633452,0.0129047989633452,0.0129047989633452,0.0129047989633452,0.0127333361612817,6.766321543080367,6.766321543080367,6.766321543080367,6.766321543080367,6.096180541137188,E-W,0.0002384185791015,34.549,N-S,0.0002384185791015,42.39
20011002172000.knt,FKS0200110021720.UD,2001-10-02, 17:20:00,37.728,141.814,41.0,5.4,FKS020,37.5474,140.1078,516.0,2001-10-02, 17:20:16,100Hz,122.0,U-D,0.0002384185791015,6.975,151.57158383357557,1292.0,1316.0,28.26091391998053,0.8284050429856326,0.8863125627469206,0.8655218569409874,1.135650657323834,1.7455859094981534,0.0101494481987163,0.0101494481987163,0.0101494481987163,0.0101494481987163,0.0073147092982066,4.667110716767639,4.667110716767639,4.667110716767639,3.899362215926794,1.3285817175270571,E-W,0.0002384185791015,17.986,N-S,0.0002384185791015,30.741
20011002172000.knt,FKS0230110021720.UD,2001-10-02, 17:20:00,37.728,141.814,41.0,5.4,FKS023,37.4774,139.9294,219.0,2001-10-02, 17:20:20,100Hz,119.0,U-D,0.0002384185791015,6.052,168.34368188039352,0.0,124.0,22.112065570646067,0.0,0.0,0.0,0.0,0.0,0.0,0.0,0.0,0.0,0.0,0.0,0.0,0.0,0.0,0.0,E-W,0.0002384185791015,20.642,N-S,0.0002384185791015,15.287
20011002172000.knt,FKS0240110021720.UD,2001-10-02, 17:20:00,37.728,141.814,41.0,5.4,FKS024,37.3957,140.1325,527.0,2001-10-02, 17:20:15,100Hz,119.0,U-D,0.0002384185791015,11.918,152.74767881473065,1397.0,1454.0,35.02182756044783,0.6191236789161273,0.5221244042652601,0.5417880858365524,0.5609712967675545,0.5422988754889643,0.0175663115213629,0.0175663115213629,0.0135233922662666,0.012354825407502,0.012354825407502,4.550666084583873,4.550666084583873,4.550666084583873,4.550666084583873,4.550666084583873,E-W,0.0002384185791015,25.164,N-S,0.0002384185791015,17.117
