earthquake name,records name,earthquake date,earthquake time,lat,long,depth,mag,stn_code,stn_lat,stn_long,stn_height,rcd_date,rcd_time,frequency,rcd_duration,direction,scale_factor,max_pga,epi_dist,pick_index_manually,pick_index_kalkan,snr_db_kalkan,tc_5sec,tc_4sec,tc_3sec,tc_2sec,tc_1sec,Pd_5sec,Pd_4sec,Pd_3sec,Pd_2sec,Pd_1sec,Pga_5sec,Pga_4sec,Pga_3sec,Pga_2sec,Pga_1sec,Channel,Scale_factor,PGA_ew,Channel.1,Scale_factor.1,PGA_ns
19990124093700.knt,MYZ0089901240937.UD,1999-01-24, 09:37:00,30.587,131.248,49,6.2,MYZ008,32.106,131.3928,65,1999-01-24, 09:38:35,100Hz,119,U-D,0.0002384185791015,3.996,169.46384166701372,1210,1277.0,28.697819751325177,0.7855681147566655,0.8289609475097718,0.9202787836042462,1.0497449163530557,1.817633064706351,0.0095441549534637,0.0095441549534637,0.0095441549534637,0.0055305708871995,0.0055305708871995,3.9788903461985097,3.483022995751323,3.407127803227171,2.1490717095726595,0.7668657465602662,E-W,0.0002384185791015,9.762,N-S,0.0002384185791015,11.977
19990124093700.knt,MYZ0119901240937.UD,1999-01-24, 09:37:00,30.587,131.248,49,6.2,MYZ011,31.9951,131.2557,26,1999-01-24, 09:38:37,100Hz,119,U-D,0.0002384185791015,5.868,156.5752855119243,869,873.0,29.687092123711945,3.468236390607778,3.823165375582173,4.326573317733023,6.203334900960514,7.547113436763946,0.0224290250373466,0.0224290250373466,0.0224290250373466,0.0190870632009017,0.0137861864328415,2.061574811900581,2.061574811900581,2.061574811900581,1.433761670089405,0.6425597754628523,E-W,0.0002384185791015,13.383,N-S,0.0002384185791015,12.946
19990124093700.knt,MYZ0149901240937.UD,1999-01-24, 09:37:00,30.587,131.248,49,6.2,MYZ014,31.8454,131.3026,135,1999-01-24, 09:38:33,100Hz,119,U-D,0.0002384185791015,4.9,140.02398739167572,1055,1059.0,22.245682246410997,1.2140673182948911,1.278852747034917,1.623079098224207,2.2533980689807125,4.712650408704209,0.0115830519173329,0.0115830519173329,0.0115830519173329,0.0115830519173329,0.0115830519173329,3.4264520973571453,3.4264520973571453,2.031679320587521,2.031679320587521,0.7982453552730328,E-W,0.0002384185791015,9.766,N-S,0.0002384185791015,12.809
19990124093700.knt,MYZ0159901240937.UD,1999-01-24, 09:37:00,30.587,131.248,49,6.2,MYZ015,31.7185,131.0621,159,1999-01-24, 09:38:31,100Hz,119,U-D,0.0002384185791015,10.95,127.05452926855658,1187,1234.0,27.078344362973716,1.113380827770147,1.149218455677044,1.179926348138035,1.3178613873466112,2.129881460806621,0.0301392526341121,0.0301392526341121,0.0301392526341121,0.0301392526341121,0.0282503842062838,11.01344578248414,11.01344578248414,8.739226576840764,5.191264423651408,3.7268327737144618,E-W,0.0002384185791015,17.913,N-S,0.0002384185791015,22.125
19990124093700.knt,MYZ0169901240937.UD,1999-01-24, 09:37:00,30.587,131.248,49,6.2,MYZ016,31.6129,131.3743,9,1999-01-24, 09:38:29,100Hz,119,U-D,0.0002384185791015,5.221,114.70692288832824,1155,1165.0,24.002070215713186,1.337539480697007,1.297569664363021,1.210559389916074,1.246981273990881,2.06074305902741,0.0205596894606016,0.020142910271697,0.0169525174789318,0.0169525174789318,0.0169525174789318,5.211303519466473,5.211303519466473,2.9106612339679026,2.054903851540145,1.5519371336016057,E-W,0.0002384185791015,14.163,N-S,0.0002384185791015,15.035
19990124093700.knt,MYZ0179901240937.UD,1999-01-24, 09:37:00,30.587,131.248,49,6.2,MYZ017,31.4637,131.2277,6,1999-01-24, 09:38:25,100Hz,122,U-D,0.0002384185791015,16.071,97.50378045834069,1364,1442.0,27.60027074479387,0.574624195112993,0.556169385415724,0.6655618493572197,0.9389856640495072,1.4647112402429636,0.014815982215374,0.0125585130447884,0.0122068889682858,0.0096312847506247,0.0096312847506247,14.056418337699853,14.056418337699853,11.93473760426054,4.947848793755982,2.189618036642595,E-W,0.0002384185791015,32.453,N-S,0.0002384185791015,35.007
19990124093700.knt,OIT0139901240937.UD,1999-01-24, 09:37:00,30.587,131.248,49,6.2,OIT013,33.0647,131.6328,117,1999-01-24, 09:38:59,100Hz,119,U-D,0.0002384185791015,7.051,277.8951370016345,216,467.0,21.45960378649692,3.6555585893604,3.995165397804588,8.169545341590545,11.609012143754684,19.639659410317662,0.0122349402972111,0.0122349402972111,0.0122349402972111,0.0122349402972111,0.0121808052148786,1.1991588478777906,1.1991588478777906,0.4567397908842893,0.2371934820418268,0.1086557200388472,E-W,0.0002384185791015,8.076,N-S,0.0002384185791015,13.761
19990125050300.knt,KOC0159901250503.UD,1999-01-25, 05:03:00,32.703,132.315,42,4.0,KOC015,32.937,132.7252,2,1999-01-25, 05:03:31,100Hz,119,U-D,0.0002384185791015,5.994,46.32831061217109,702,712.0,25.024835812876063,6.611545278706936,6.69341946125001,5.810084739942285,3.9556606756969575,2.333219560057444,0.0135341854626347,0.0135341854626347,0.0135341854626347,0.011129373795798,0.0057690149437798,2.8432831354453407,2.8432831354453407,2.8432831354453407,2.8432831354453407,2.8432831354453407,E-W,0.0002384185791015,8.612,N-S,0.0002384185791015,5.259
19990125050300.knt,KOC0169901250503.UD,1999-01-25, 05:03:00,32.703,132.315,42,4.0,KOC016,32.7672,132.9711,88,1999-01-25, 05:03:35,100Hz,119,U-D,0.0002384185791015,1.095,61.78196412281249,469,468.0,21.94181955177248,2.7299742915278657,1.9788655036030365,2.0434251573801845,2.216689098175025,2.185795551053254,0.0025794873304283,0.0015079788707355,0.0015079788707355,0.0015079788707355,0.0015079788707355,1.0940370468099538,1.0940370468099538,1.0940370468099538,1.0940370468099538,1.0940370468099538,E-W,0.0002384185791015,2.139,N-S,0.0002384185791015,2.595
19990125050300.knt,MYZ0019901250503.UD,1999-01-25, 05:03:00,32.703,132.315,42,4.0,MYZ001,32.705,131.3089,370,1999-01-25, 05:03:42,100Hz,119,U-D,0.0002384185791015,1.024,94.1382071895639,124,136.0,16.659888352568576,7.16075620513184,8.451031024878402,7.668298621721222,4.239599460249547,0.9911460342003792,0.0126311727713931,0.0126311727713931,0.0126311727713931,0.0101060599797045,0.0031083790378973,1.020818330893952,1.020818330893952,1.020818330893952,1.020818330893952,1.020818330893952,E-W,0.0002384185791015,2.154,N-S,0.0002384185791015,2.065
19990125050300.knt,MYZ0029901250503.UD,1999-01-25, 05:03:00,32.703,132.315,42,4.0,MYZ002,32.6978,131.6831,19,1999-01-25, 05:03:24,100Hz,119,U-D,0.0002384185791015,6.911,59.13045059237592,1473,1472.0,24.67064880226911,0.5163564649919319,0.5233558785061373,0.4946372820424006,0.3143423602047466,0.1852432845170129,0.0028332910011931,0.0028332910011931,0.0028332910011931,0.0028332910011931,0.0028332910011931,6.895865558201031,6.895865558201031,6.895865558201031,6.895865558201031,6.895865558201031,E-W,0.0002384185791015,10.809,N-S,0.0002384185791015,6.586
19990125050300.knt,OIT0139901250503.UD,1999-01-25, 05:03:00,32.703,132.315,42,4.0,OIT013,33.0647,131.6328,117,1999-01-25, 05:03:38,100Hz,119,U-D,0.0002384185791015,1.266,75.3364945975336,278,289.0,25.108998272669865,1.0762682260953056,1.215135693437983,1.364926428916539,2.307781166498092,2.7357075768292938,0.0030922735257202,0.0030922735257202,0.0030922735257202,0.0030922735257202,0.0030922735257202,1.2745795957929271,1.2745795957929271,1.2745795957929271,0.688815201883348,0.688815201883348,E-W,0.0002384185791015,2.037,N-S,0.0002384185791015,2.27
19990125050300.knt,OIT0149901250503.UD,1999-01-25, 05:03:00,32.703,132.315,42,4.0,OIT014,33.0656,131.8589,8,1999-01-25, 05:03:32,100Hz,119,U-D,0.0002384185791015,1.988,58.64734912253827,657,650.0,20.167858554717924,4.079060701818901,3.9083474572484014,3.687406040724577,3.540807177750623,2.680346201166343,0.0046701812352027,0.0046701812352027,0.0046701812352027,0.0045624934554025,0.0045624934554025,1.9806124101145697,1.9806124101145697,1.9806124101145697,1.9806124101145697,1.9806124101145697,E-W,0.0002384185791015,2.975,N-S,0.0002384185791015,3.071
19990125050300.knt,OIT0189901250503.UD,1999-01-25, 05:03:00,32.703,132.315,42,4.0,OIT018,32.7972,131.9251,10,1999-01-25, 05:03:28,100Hz,119,U-D,0.0002384185791015,1.422,37.93775974622177,796,796.0,19.75213192914884,4.422396931222496,4.221060942450827,3.5619910698100763,2.42215640489181,0.8949139918988135,0.0056318525115885,0.0056318525115885,0.0056318525115885,0.0054374935070343,0.0031771549779468,1.425126989009425,1.425126989009425,1.425126989009425,1.425126989009425,1.425126989009425,E-W,0.0002384185791015,3.023,N-S,0.0002384185791015,2.168
19990127102700.knt,SZO0019901271027.UD,1999-01-27, 10:27:00,34.82,139.647,38,3.6,SZO001,35.1424,139.0795,76,1999-01-27, 10:27:00,100Hz,119,U-D,0.0002384185791015,1.894,62.91530863957313,331,330.0,19.711043766661348,5.892360278295642,6.110212422337599,7.109835465665912,8.115202705112113,8.689845890417127,0.0054487173412979,0.0054487173412979,0.0054487173412979,0.0054487173412979,0.0054487173412979,1.9030928847033697,1.9030928847033697,1.9030928847033697,1.9030928847033697,1.9030928847033697,E-W,0.0002384185791015,3.883,N-S,0.0002384185791015,2.735
19990127102700.knt,SZO0039901271027.UD,1999-01-27, 10:27:00,34.82,139.647,38,3.6,SZO003,34.8158,139.0546,149,1999-01-27, 10:27:55,100Hz,119,U-D,0.0002384185791015,9.997,54.080828130387744,12,768.0,16.2467615079208,13.075549245780984,13.574510921891768,11.581741640869192,7.17294569776125,3.1896107820587374,0.0267060492359545,0.0267060492359545,0.0267060492359545,0.0236148567193597,0.0114168021624939,0.2445849787400164,0.2445849787400164,0.2445849787400164,0.1464989940182908,0.1464989940182908,E-W,0.0002384185791015,17.307,N-S,0.0002384185791015,25.836
19990127102700.knt,TKY0089901271027.UD,1999-01-27, 10:27:00,34.82,139.647,38,3.6,TKY008,34.7852,139.3909,67,1999-01-27, 10:27:45,100Hz,119,U-D,0.0002384185791015,16.267,23.70115677196299,1390,1398.0,17.233008361265092,0.1942932984201246,0.1967956050395442,0.1840833883955585,0.1768184140524296,0.1786082823052631,0.0038375482599761,0.002841271607283,0.002841271607283,0.002841271607283,0.002841271607283,6.022234403871234,6.022234403871234,6.022234403871234,6.022234403871234,6.022234403871234,E-W,0.0002384185791015,38.782,N-S,0.0002384185791015,30.317
19990127102700.knt,TKY0099901271027.UD,1999-01-27, 10:27:00,34.82,139.647,38,3.6,TKY009,34.6874,139.4412,60,1999-01-27, 10:27:45,100Hz,119,U-D,0.0002384185791015,9.594,23.8935247403005,1422,1423.0,18.74079041610125,1.3893034574750738,1.472368601547831,1.1095059846211217,0.8169281015247011,0.8844309881292928,0.0043118440061033,0.0043118440061033,0.0039675660117949,0.0038696728912157,0.0038696728912157,7.005477214852679,7.005477214852679,7.005477214852679,7.005477214852679,7.005477214852679,E-W,0.0002384185791015,17.182,N-S,0.0002384185791015,19.654
19990128102500.knt,GIF0079901281025.UD,1999-01-28, 10:25:00,36.37,137.997,9,4.7,GIF007,36.0378,137.4861,995,1999-01-28, 10:26:57,100Hz,127,U-D,0.0002384185791015,11.841,58.871364971337314,1420,1432.0,32.06849433845923,1.2035092516575987,1.289878954778489,1.110076199227465,0.620845668537931,0.5119025283363668,0.0098828514986711,0.0098828514986711,0.0090216208029989,0.0069211442229835,0.0051213478864354,4.758807525008237,4.758807525008237,4.758807525008237,4.010755443072258,4.010755443072258,E-W,0.0002384185791015,62.171,N-S,0.0002384185791015,38.552
19990128102500.knt,GIF0089901281025.UD,1999-01-28, 10:25:00,36.37,137.997,9,4.7,GIF008,35.9515,137.26,522,1999-01-28, 10:26:10,100Hz,119,U-D,0.0002384185791015,1.737,80.88959205693996,491,486.00000000000006,21.24566839009775,5.376136670434637,4.476829205157942,3.2753705415005325,2.0418344048134114,2.8275378430238893,0.0109430544342077,0.0101875680918931,0.009047984647011,0.0063580978917078,0.0063580978917078,0.7220950702435757,0.7220950702435757,0.7220950702435757,0.7220950702435757,0.5042709074248652,E-W,0.0002384185791015,4.391,N-S,0.0002384185791015,5.538
19990128102500.knt,GIF0109901281025.UD,1999-01-28, 10:25:00,36.37,137.997,9,4.7,GIF010,35.8029,137.245,362,1999-01-28, 10:26:14,100Hz,119,U-D,0.0002384185791015,1.62,92.42619925823657,282,282.0,25.19608302808802,0.6407974488320118,0.6328645542892185,0.6379047451223413,0.68434883462643,0.6846561277965878,0.0043377848470262,0.0043377848470262,0.0043377848470262,0.0043377848470262,0.0043377848470262,1.0235106419178794,1.0235106419178794,1.0235106419178794,1.0235106419178794,1.0235106419178794,E-W,0.0002384185791015,5.652,N-S,0.0002384185791015,3.325
19990128102500.knt,GIF0149901281025.UD,1999-01-28, 10:25:00,36.37,137.997,9,4.7,GIF014,35.6576,137.4258,463,1999-01-28, 10:26:14,100Hz,120,U-D,0.0002384185791015,0.993,94.4160447828767,320,312.0,8.25538415280906,1.0562083654725205,0.7285006425341973,0.6796292752348705,0.6943224022314719,0.593503508800778,0.0035881458852908,0.0025806682888824,0.0025806682888824,0.0025806682888824,0.0017161191066284,0.5824515342992813,0.5824515342992813,0.5824515342992813,0.5769935137437506,0.4078879765855097,E-W,0.0002384185791015,3.334,N-S,0.0002384185791015,2.519
19990128102500.knt,GIF0189901281025.UD,1999-01-28, 10:25:00,36.37,137.997,9,4.7,GIF018,35.4887,137.5,320,1999-01-28, 10:26:18,100Hz,119,U-D,0.0002384185791015,2.945,107.72947395674402,105,106.0,25.789424031650885,1.8918316047276649,1.9195310313149945,1.8636539378789392,1.5052541912652542,1.3494631949296418,0.0066425878216232,0.0066425878216232,0.0066425878216232,0.0066425878216232,0.0052572293897495,1.586861929389073,1.586861929389073,1.586861929389073,1.586861929389073,1.586861929389073,E-W,0.0002384185791015,6.774,N-S,0.0002384185791015,5.294
19990128102500.knt,GNM0039901281025.UD,1999-01-28, 10:25:00,36.37,137.997,9,4.7,GNM003,36.6578,139.0784,462,1999-01-28, 10:26:17,100Hz,119,U-D,0.0002384185791015,1.284,101.80330552571006,153,181.0,14.98065546669745,1.244091848967736,1.311458493159384,1.3819635864798308,1.2749244454156998,1.262844362865835,0.0041551857062316,0.0041551857062316,0.0041551857062316,0.0041551857062316,0.0041551857062316,0.6430734483940503,0.6430734483940503,0.6430734483940503,0.5564422950478712,0.5564422950478712,E-W,0.0002384185791015,4.741,N-S,0.0002384185791015,5.084
19990128102500.knt,GNM0059901281025.UD,1999-01-28, 10:25:00,36.37,137.997,9,4.7,GNM005,36.5133,138.5177,900,1999-01-28, 10:26:02,100Hz,119,U-D,0.0002384185791015,2.475,49.22778951155126,822,841.0,26.472039953486743,2.456167274369483,2.7948831186478853,2.9599385540289607,3.086414146144174,4.037272493227184,0.0083233297261213,0.0083233297261213,0.0055556771465771,0.0055424823229023,0.0055424823229023,0.7223767772259471,0.7223767772259471,0.7223767772259471,0.7223767772259471,0.6892048951251941,E-W,0.0002384185791015,4.393,N-S,0.0002384185791015,3.473
19990128102500.knt,GNM0149901281025.UD,1999-01-28, 10:25:00,36.37,137.997,9,4.7,GNM014,36.35,138.7179,465,1999-01-28, 10:26:06,100Hz,119,U-D,0.0002384185791015,2.041,64.59196564776529,648,648.0,22.787631137216632,6.807821837414009,6.406567567220232,5.560820673009185,4.260552754557952,2.298499286006676,0.0320288967999139,0.0320288967999139,0.0320288967999139,0.0276496814560082,0.02024546372111,2.065227373976546,2.065227373976546,2.065227373976546,2.065227373976546,2.065227373976546,E-W,0.0002384185791015,3.351,N-S,0.0002384185791015,3.905
19990128102500.knt,NGN0019901281025.UD,1999-01-28, 10:25:00,36.37,137.997,9,4.7,NGN001,36.8514,138.366,315,1999-01-28, 10:26:06,100Hz,119,U-D,0.0002384185791015,1.31,62.85003101159841,608,117.0,16.163773919493018,2.130371129603374,2.083577451305795,1.4435840657531311,1.0915501090787505,1.0383143624895743,0.0037123177685394,0.0037123177685394,0.0030102338857943,0.0030102338857943,0.0030102338857943,0.7143499668040711,0.7143499668040711,0.7143499668040711,0.7143499668040711,0.4943187329654637,E-W,0.0002384185791015,2.942,N-S,0.0002384185791015,3.01
19990128102500.knt,NGN0039901281025.UD,1999-01-28, 10:25:00,36.37,137.997,9,4.7,NGN003,36.7403,138.4129,581,1999-01-28, 10:26:03,100Hz,120,U-D,0.0002384185791015,6.857,55.456534506290296,739,742.0,26.52117587000971,2.3857233073347213,2.454572942185625,2.22125685341686,1.8256038215301529,1.121109278506013,0.0055890799755673,0.0055890799755673,0.0055890799755673,0.0055890799755673,0.0047433264542015,2.119042713345292,2.119042713345292,2.119042713345292,2.119042713345292,2.119042713345292,E-W,0.0002384185791015,16.662,N-S,0.0002384185791015,14.898
19990128102500.knt,NGN0049901281025.UD,1999-01-28, 10:25:00,36.37,137.997,9,4.7,NGN004,36.6486,138.1938,360,1999-01-28, 10:26:53,100Hz,119,U-D,0.0002384185791015,6.851,35.62383190304555,1450,1447.0,22.80326206867856,1.372376615074998,1.57565536057764,1.3545117906458144,1.1926627235357683,1.3078164677829494,0.0189561754830471,0.0189561754830471,0.0189561754830471,0.0189561754830471,0.0189561754830471,6.810613657361363,4.649678443257937,4.649678443257937,4.649678443257937,4.649678443257937,E-W,0.0002384185791015,9.628,N-S,0.0002384185791015,10.123
19990128102500.knt,NGN0079901281025.UD,1999-01-28, 10:25:00,36.37,137.997,9,4.7,NGN007,36.5339,138.1191,361,1999-01-28, 10:26:51,100Hz,123,U-D,0.0002384185791015,16.411,21.24630659039657,1409,1416.0,24.36821977777404,0.6979125971522545,0.7292766565674433,0.7173008440769477,0.5588151477688654,0.555954272887622,0.0533846521982599,0.0533846521982599,0.0533846521982599,0.0304240053499557,0.0304240053499557,16.46490409083101,16.46490409083101,16.46490409083101,16.46490409083101,16.46490409083101,E-W,0.0002384185791015,28.434,N-S,0.0002384185791015,17.651
19990128102500.knt,NGN0099901281025.UD,1999-01-28, 10:25:00,36.37,137.997,9,4.7,NGN009,36.3378,137.8694,567,1999-01-28, 10:26:49,100Hz,124,U-D,0.0002384185791015,28.273,11.974796754489148,1489,1501.0,21.09817648183808,0.6931372851800183,0.5600488069957221,0.5237269057490518,0.5499058486429491,0.5844165837566571,0.0574314191875727,0.0574314191875727,0.0574314191875727,0.0574314191875727,0.0574314191875727,27.90578435428875,27.90578435428875,27.90578435428875,27.90578435428875,27.90578435428875,E-W,0.0002384185791015,97.47,N-S,0.0002384185791015,117.739
19990128102500.knt,NGN0109901281025.UD,1999-01-28, 10:25:00,36.37,137.997,9,4.7,NGN010,36.3281,138.4357,740,1999-01-28, 10:26:00,100Hz,119,U-D,0.0002384185791015,4.524,39.56466645373552,902,900.0,33.916074251095345,0.9291472030022668,0.9859431814424264,0.9966997288390316,1.0065033302228084,1.0972608419030154,0.0157941507679017,0.0157941507679017,0.0157941507679017,0.0157941507679017,0.0157941507679017,1.4207198717102758,1.4207198717102758,1.4207198717102758,1.4207198717102758,1.4207198717102758,E-W,0.0002384185791015,8.416,N-S,0.0002384185791015,7.666
19990128102500.knt,NGN0119901281025.UD,1999-01-28, 10:25:00,36.37,137.997,9,4.7,NGN011,36.2564,138.2669,678,1999-01-28, 10:26:52,100Hz,123,U-D,0.0002384185791015,7.632,27.28331124084228,1403,1399.0,37.57735305830912,1.0956885301092785,1.2731836532493217,0.7538807159449079,0.7665950983333529,0.8503369176685175,0.0434010631799123,0.0434010631799123,0.0129814555535206,0.0129814555535206,0.0129814555535206,5.504547416035347,5.504547416035347,3.1191444668138386,3.1191444668138386,3.1191444668138386,E-W,0.0002384185791015,30.832,N-S,0.0002384185791015,50.337
19990128102500.knt,NGN0129901281025.UD,1999-01-28, 10:25:00,36.37,137.997,9,4.7,NGN012,36.2564,137.9785,641,1999-01-28, 10:26:50,100Hz,123,U-D,0.0002384185791015,25.7,12.74003852003689,1418,1429.0,34.39454894832954,0.6152483192679343,0.5483598737522903,0.39609124869063,0.4003262793958451,0.4320399893686446,0.0478374814556563,0.0478374814556563,0.0373501317893766,0.0142558361916223,0.0142558361916223,25.742569092943555,25.742569092943555,25.742569092943555,19.440498625740453,14.974695677651306,E-W,0.0002384185791015,135.193,N-S,0.0002384185791015,76.265
19990128102500.knt,NGN0139901281025.UD,1999-01-28, 10:25:00,36.37,137.997,9,4.7,NGN013,36.1833,137.7852,730,1999-01-28, 10:26:52,100Hz,124,U-D,0.0002384185791015,14.873,28.132809807308647,1428,1423.0,39.36941949658874,0.5234243441941298,0.6959890201400803,0.9121282286572954,0.6540026041158207,0.4294381720291759,0.0346548825859,0.0346548825859,0.0121814893273058,0.011833311913183,0.011833311913183,14.847439411708182,11.87341311048578,5.139591886144663,5.139591886144663,5.139591886144663,E-W,0.0002384185791015,54.481,N-S,0.0002384185791015,48.166
