earthquake name,records name,earthquake date,earthquake time,lat,long,depth,mag,stn_code,stn_lat,stn_long,stn_height,rcd_date,rcd_time,frequency,rcd_duration,direction,scale_factor,max_pga,epi_dist,pick_index_manually,pick_index_kalkan,snr_db_kalkan,tc_5sec,tc_4sec,tc_3sec,tc_2sec,tc_1sec,Pd_5sec,Pd_4sec,Pd_3sec,Pd_2sec,Pd_1sec,Pga_5sec,Pga_4sec,Pga_3sec,Pga_2sec,Pga_1sec,Channel,Scale_factor,PGA_ew,Channel.1,Scale_factor.1,PGA_ns
19970127002600.knt,SIT0049701270026.UD,1997-01-27, 00:26:00,35.753,140.08,77,4.2,SIT004,36.1179,139.1045,140.0,1997-01-27, 00:27:11,100Hz,59,U-D,0.0002384185791015,1.407,96.74540609337016,175,180.0,22.126128599554665,5.100240877949788,5.065723324748879,4.074936356616394,2.1651179696691383,0.362206503206688,0.0063041844395868,0.0063041844395868,0.0063041844395868,0.0051339116855472,0.0008179024324726,1.2995728757872165,1.2995728757872165,1.2995728757872165,1.2995728757872165,0.9111475217390682,E-W,0.0002384185791015,5.805,N-S,0.0002384185791015,5.434
19970127002600.knt,SIT0079701270026.UD,1997-01-27, 00:26:00,35.753,140.08,77,4.2,SIT007,36.054,139.3912,25.0,1997-01-27, 00:27:06,100Hz,59,U-D,0.0002384185791015,1.025,70.49144427676852,406,414.0,25.38407815876128,0.876973470389874,0.6853793474973384,0.6245691355445417,0.5999459565550849,0.59077421287054,0.0026972507197846,0.0020010470676561,0.0020010470676561,0.0020010470676561,0.0020010470676561,0.8618441734067447,0.8618441734067447,0.8618441734067447,0.8618441734067447,0.8618441734067447,E-W,0.0002384185791015,3.773,N-S,0.0002384185791015,2.997
19970127002600.knt,SIT0089701270026.UD,1997-01-27, 00:26:00,35.753,140.08,77,4.2,SIT008,35.9745,139.7526,5.0,1997-01-27, 00:27:04,100Hz,59,U-D,0.0002384185791015,2.309,38.43252163395384,422,421.0,29.071051188379688,2.859721051264259,2.1665592570514014,2.203566195991796,2.8444702666006303,3.428282774625837,0.0103257585393318,0.006454667475695,0.006454667475695,0.006454667475695,0.006454667475695,1.183828805851289,1.183828805851289,1.183828805851289,0.9215554151551364,0.9215554151551364,E-W,0.0002384185791015,5.721,N-S,0.0002384185791015,5.771
19970127002600.knt,SIT0109701270026.UD,1997-01-27, 00:26:00,35.753,140.08,77,4.2,SIT010,35.9065,139.6481,13.0,1997-01-27, 00:27:05,100Hz,59,U-D,0.0002384185791015,2.476,42.5135527818976,351,356.0,29.2492286724652,1.169545676571548,1.1958056340808785,1.4418749576866106,1.3961702795326807,1.901028882253465,0.0035856651791594,0.0032179919123136,0.0032179919123136,0.0028137421902889,0.0028137421902889,1.3839305917593905,1.3839305917593905,1.230440819433339,1.2074219030362432,0.9467426317469586,E-W,0.0002384185791015,3.236,N-S,0.0002384185791015,7.092
19970127002600.knt,SIT0119701270026.UD,1997-01-27, 00:26:00,35.753,140.08,77,4.2,SIT011,35.8098,139.7212,2.0,1997-01-27, 00:27:05,100Hz,59,U-D,0.0002384185791015,1.705,32.97682790419262,295,295.0,27.18340606622249,3.937878552827742,4.387519365215777,3.1433271887664795,0.930633000037126,0.8573383079818064,0.0081777683054668,0.0081777683054668,0.0071626697440176,0.0023539907854994,0.0012555141028423,1.1029024615198808,1.1029024615198808,1.0848034177204846,1.0848034177204846,0.6833220202488758,E-W,0.0002384185791015,5.682,N-S,0.0002384185791015,5.329
19970127002600.knt,SZO0019701270026.UD,1997-01-27, 00:26:00,35.753,140.08,77,4.2,SZO001,35.1424,139.0795,76.0,1997-01-27, 00:27:13,100Hz,59,U-D,0.0002384185791015,2.37,113.23998355602218,110,122.0,26.196681260625425,7.127491972976706,8.038052877142349,7.942921987311654,6.818432326367679,5.966026881433831,0.0100887120285937,0.0100887120285937,0.0100887120285937,0.0100887120285937,0.0085501939100415,2.2457423423541285,2.2457423423541285,2.2457423423541285,2.2457423423541285,2.049083155701264,E-W,0.0002384185791015,10.518,N-S,0.0002384185791015,8.128
19970127002600.knt,TCG0079701270026.UD,1997-01-27, 00:26:00,35.753,140.08,77,4.2,TCG007,36.5692,139.8861,138.0,1997-01-27, 00:27:10,100Hz,59,U-D,0.0002384185791015,1.148,92.41150834770384,207,207.0,20.598367065070303,0.5401625858227084,0.6043314750871589,0.5368439972457989,0.5238480766269874,0.5975956885526081,0.0006556071991352,0.0006556071991352,0.0005350960715374,0.0004212013874118,0.0004212013874118,0.6826597677892771,0.497749111052606,0.497749111052606,0.4675787803980661,0.4306672506833402,E-W,0.0002384185791015,2.087,N-S,0.0002384185791015,2.739
19970127002600.knt,TCG0089701270026.UD,1997-01-27, 00:26:00,35.753,140.08,77,4.2,TCG008,36.56,139.7675,153.0,1997-01-27, 00:27:10,100Hz,59,U-D,0.0002384185791015,3.009,94.01786781321329,217,236.0,25.83846071992465,1.235740248518582,1.2958696162006478,1.3537384235568783,1.403710662094169,0.989044459622866,0.0023328283904608,0.0023328283904608,0.0023328283904608,0.0022817313510436,0.0016165514385049,1.5985935633437758,1.062341345225341,1.062341345225341,0.8761568238609665,0.5149233582104144,E-W,0.0002384185791015,5.196,N-S,0.0002384185791015,4.303
19970127002600.knt,TCG0119701270026.UD,1997-01-27, 00:26:00,35.753,140.08,77,4.2,TCG011,36.3867,139.6145,93.0,1997-01-27, 00:27:09,100Hz,59,U-D,0.0002384185791015,1.496,81.9489220725591,222,222.00000000000003,26.38862853360825,3.6087666436499903,4.050276226993044,4.722550116840335,5.899958318569433,7.331591857443216,0.0026114039361217,0.0026114039361217,0.0026114039361217,0.0026114039361217,0.0026114039361217,0.6260995522823813,0.5219908539638587,0.5219908539638587,0.5219908539638587,0.5151075495953946,E-W,0.0002384185791015,3.338,N-S,0.0002384185791015,2.614
19970127002600.knt,TCG0129701270026.UD,1997-01-27, 00:26:00,35.753,140.08,77,4.2,TCG012,36.2859,139.8047,33.0,1997-01-27, 00:27:07,100Hz,59,U-D,0.0002384185791015,2.289,64.22046012234242,220,253.00000000000003,24.800784235614277,5.664552899084062,6.516622500148287,8.753097617278028,12.126374992391126,14.929735124622654,0.0082069322691466,0.0082069322691466,0.0082069322691466,0.0082069322691466,0.0082069322691466,1.375190805207635,1.375190805207635,1.375190805207635,1.1154003115021998,0.7168386105450618,E-W,0.0002384185791015,2.813,N-S,0.0002384185791015,3.391
19970127002600.knt,TCG0139701270026.UD,1997-01-27, 00:26:00,35.753,140.08,77,4.2,TCG013,36.4368,140.0225,67.0,1997-01-27, 00:27:07,100Hz,59,U-D,0.0002384185791015,2.684,76.21040460400401,314,324.0,30.51898882328928,4.288522097265307,4.338521581636853,4.720904462682798,6.447255269860908,11.1054559819046,0.0103765141370398,0.0103765141370398,0.0103765141370398,0.0103765141370398,0.0103765141370398,2.681031779637134,2.681031779637134,2.681031779637134,2.412645822963501,0.9086761159814488,E-W,0.0002384185791015,6.506,N-S,0.0002384185791015,7.039
19970127002600.knt,TCG0149701270026.UD,1997-01-27, 00:26:00,35.753,140.08,77,4.2,TCG014,36.545,140.1742,130.0,1997-01-27, 00:27:09,100Hz,59,U-D,0.0002384185791015,4.093,88.47159666749633,274,274.0,25.0125401556919,1.53412124414319,1.642317099739091,1.926284686742024,2.088887559901288,3.1518277632279585,0.0066573374301995,0.0066573374301995,0.0066573374301995,0.0066573374301995,0.0066573374301995,2.51296683527795,2.51296683527795,2.51296683527795,2.51296683527795,2.51296683527795,E-W,0.0002384185791015,12.795,N-S,0.0002384185791015,7.929
19970127002600.knt,TKY0029701270026.UD,1997-01-27, 00:26:00,35.753,140.08,77,4.2,TKY002,35.7304,139.1454,302.0,1997-01-27, 00:27:11,100Hz,59,U-D,0.0002384185791015,1.422,84.38692372753458,72,72.0,21.832086284814736,1.2374671380816185,1.21564599879422,1.2398359329901023,1.141337437953877,0.6505940802351289,0.0019086984239232,0.0019086984239232,0.0019086984239232,0.0019086984239232,0.0013859980634046,1.4246551759230175,1.4246551759230175,1.4246551759230175,1.4246551759230175,1.4246551759230175,E-W,0.0002384185791015,3.601,N-S,0.0002384185791015,1.864
19970127002600.knt,TKY0049701270026.UD,1997-01-27, 00:26:00,35.753,140.08,77,4.2,TKY004,35.6282,139.4034,81.0,1997-01-27, 00:27:07,100Hz,59,U-D,0.0002384185791015,3.336,62.659727546473896,300,307.0,29.285264832022257,5.607466689334862,6.424894967490678,7.417353781082347,9.084359875195917,13.49675746442986,0.0211178186452356,0.0211178186452356,0.0211178186452356,0.0211178186452356,0.0211178186452356,2.919281074640685,2.739135817121103,2.739135817121103,2.739135817121103,1.1244267449395633,E-W,0.0002384185791015,9.866,N-S,0.0002384185791015,7.986
19970127002600.knt,TKY0059701270026.UD,1997-01-27, 00:26:00,35.753,140.08,77,4.2,TKY005,35.5782,139.4156,109.0,1997-01-27, 00:27:09,100Hz,59,U-D,0.0002384185791015,2.568,63.08946290203804,148,33.0,22.40706759055296,4.698821902352067,5.22251601224025,5.337250595762312,4.94818039614919,3.2163562623637336,0.0160061629252135,0.0160061629252135,0.0160061629252135,0.0160061629252135,0.0157567734554004,2.1142391123188737,2.1142391123188737,2.1142391123188737,2.1142391123188737,2.1142391123188737,E-W,0.0002384185791015,5.228,N-S,0.0002384185791015,4.455
19970127002600.knt,TKY0069701270026.UD,1997-01-27, 00:26:00,35.753,140.08,77,4.2,TKY006,35.699,139.5029,71.0,1997-01-27, 00:27:06,100Hz,59,U-D,0.0002384185791015,2.738,52.43970654367512,319,319.0,28.27073295372607,3.236464900973559,3.207873242080915,3.221702360344292,3.490725639917333,3.973582474827897,0.0171241610250008,0.0171241610250008,0.0171241610250008,0.0171241610250008,0.0171241610250008,2.632475017647874,2.632475017647874,2.632475017647874,2.632475017647874,2.632475017647874,E-W,0.0002384185791015,4.051,N-S,0.0002384185791015,5.262
19970127002600.knt,TKY0079701270026.UD,1997-01-27, 00:26:00,35.753,140.08,77,4.2,TKY007,35.7107,139.6859,34.0,1997-01-27, 00:27:04,100Hz,59,U-D,0.0002384185791015,3.992,35.88242442194996,424,424.0,25.39991346187668,5.241426335709474,4.661515429262204,4.81424469848284,5.53614679604772,6.957533418588293,0.0367372063255879,0.0367372063255879,0.0367372063255879,0.0367372063255879,0.0367372063255879,3.973773873527125,3.7571053738357256,2.895908295874756,2.895908295874756,2.895908295874756,E-W,0.0002384185791015,6.744,N-S,0.0002384185791015,5.69
19970127002600.knt,TKY0089701270026.UD,1997-01-27, 00:26:00,35.753,140.08,77,4.2,TKY008,34.7852,139.3909,67.0,1997-01-27, 00:27:06,100Hz,59,U-D,0.0002384185791015,5.287,124.47637488484808,917,922.0,37.35192499479213,1.204359885545374,1.0980502435950092,1.0701742045758629,1.2486373176017025,1.5547421452112955,0.002532229494705,0.002532229494705,0.002532229494705,0.002532229494705,0.002532229494705,1.1249442008631418,1.1249442008631418,1.1249442008631418,1.1249442008631418,1.08726760517464,E-W,0.0002384185791015,14.838,N-S,0.0002384185791015,16.269
19970127002600.knt,YMN0029701270026.UD,1997-01-27, 00:26:00,35.753,140.08,77,4.2,YMN002,35.6132,138.947,368.0,1997-01-27, 00:27:13,100Hz,59,U-D,0.0002384185791015,2.529,103.50445123961651,93,93.0,24.84298913613157,2.447891708552458,2.4281895757357668,2.144160947519491,1.4383322737927262,1.3694089841967638,0.0075356306930925,0.0075356306930925,0.0075356306930925,0.006552465679377,0.0039837135181528,2.536450690144264,2.536450690144264,2.536450690144264,2.536450690144264,1.457173184177847,E-W,0.0002384185791015,3.573,N-S,0.0002384185791015,4.943
19970127002600.knt,YMN0049701270026.UD,1997-01-27, 00:26:00,35.753,140.08,77,4.2,YMN004,35.702,138.7266,393.0,1997-01-27, 00:27:03,100Hz,59,U-D,0.0002384185791015,4.152,122.29984236169685,1335,1345.0,18.60945283508842,1.2424085817253003,1.1941947482571724,0.9772495089289364,0.6620034064705126,0.3691482921858347,0.0036731053145228,0.0036731053145228,0.0035528770920273,0.0029326674683117,0.002105734184259,4.149502218325679,4.149502218325679,4.149502218325679,4.149502218325679,4.149502218325679,E-W,0.0002384185791015,2.722,N-S,0.0002384185791015,2.455
19970127154100.knt,EHM0069701271541.UD,1997-01-27, 15:41:00,33.703,131.948,76,3.8,EHM006,33.641,133.0082,552.0,1997-01-27, 15:42:14,100Hz,59,U-D,0.0002384185791015,0.498,98.35155890388586,13,39.0,14.915824616155287,4.150113591880753,4.820960389595076,4.3340832703108765,3.388517407535899,1.2640702849586525,0.0011111032484576,0.0011111032484576,0.00099775682832,0.0009726218036098,0.0006008203531613,0.4981046144531956,0.4981046144531956,0.4981046144531956,0.4981046144531956,0.4615073077544958,E-W,0.0002384185791015,3.883,N-S,0.0002384185791015,3.518
19970127154100.knt,EHM0099701271541.UD,1997-01-27, 15:41:00,33.703,131.948,76,3.8,EHM009,33.6324,132.7963,250.0,1997-01-27, 15:42:11,100Hz,59,U-D,0.0002384185791015,1.489,78.89624666151484,183,190.0,21.607597914843257,6.733846944270033,7.555146913283893,5.72108480059029,3.1135514521135983,5.482213734297474,0.0076422088176236,0.0076422088176236,0.0075152725306319,0.0038285081084316,0.0026674614647613,0.7647086328126602,0.7647086328126602,0.7647086328126602,0.7647086328126602,0.7647086328126602,E-W,0.0002384185791015,3.201,N-S,0.0002384185791015,2.155
19970127154100.knt,EHM0119701271541.UD,1997-01-27, 15:41:00,33.703,131.948,76,3.8,EHM011,33.4496,132.4336,10.0,1997-01-27, 15:42:06,100Hz,59,U-D,0.0002384185791015,2.429,53.08247551960438,466,153.0,12.023320567926753,3.906189433593381,3.844119715722025,3.634827367385773,3.4413580624300915,3.1129670015015583,0.0032087418769834,0.0032087418769834,0.0032087418769834,0.0032087418769834,0.0028936443085058,1.576871162662115,1.576871162662115,1.576871162662115,1.576871162662115,1.576871162662115,E-W,0.0002384185791015,6.041,N-S,0.0002384185791015,7.981
19970127154100.knt,EHM0129701271541.UD,1997-01-27, 15:41:00,33.703,131.948,76,3.8,EHM012,33.2217,132.5727,37.0,1997-01-27, 15:42:11,100Hz,59,U-D,0.0002384185791015,0.717,78.8816248397336,162,172.0,19.025906038429305,2.642355863241648,2.7394706683960446,2.708078233863971,2.8237470384406835,2.9322959600115297,0.001904444457044,0.001904444457044,0.001904444457044,0.001904444457044,0.001904444457044,0.7207731161724004,0.7207731161724004,0.7207731161724004,0.7207731161724004,0.7207731161724004,E-W,0.0002384185791015,1.69,N-S,0.0002384185791015,2.916
19970127154100.knt,EHM0139701271541.UD,1997-01-27, 15:41:00,33.703,131.948,76,3.8,EHM013,33.3924,132.1141,18.0,1997-01-27, 15:42:05,100Hz,59,U-D,0.0002384185791015,1.011,37.81210963692298,433,433.0,22.02589074759912,1.8113735455684945,1.9226291993516167,2.064005789511406,1.721010940070626,1.177719176392181,0.0009040287367216,0.0009040287367216,0.0009040287367216,0.0007643639958217,0.0007643639958217,0.7216509949619485,0.7216509949619485,0.7216509949619485,0.7216509949619485,0.7216509949619485,E-W,0.0002384185791015,4.004,N-S,0.0002384185791015,1.543
19970127154100.knt,EHM0159701271541.UD,1997-01-27, 15:41:00,33.703,131.948,76,3.8,EHM015,33.6155,132.48,2.0,1997-01-27, 15:42:06,100Hz,59,U-D,0.0002384185791015,2.645,50.190181122514055,432,432.0,19.911212564243897,6.23871541807666,6.030612357186,4.743427222158566,2.5262028807494805,0.5892348767842038,0.0064578377568489,0.0064578377568489,0.0064578377568489,0.0052070437029608,0.0012586689303299,2.641372075085021,2.641372075085021,2.641372075085021,2.641372075085021,2.641372075085021,E-W,0.0002384185791015,2.448,N-S,0.0002384185791015,2.954
19970127154100.knt,OIT0019701271541.UD,1997-01-27, 15:41:00,33.703,131.948,76,3.8,OIT001,33.6786,131.5937,12.0,1997-01-27, 15:42:03,100Hz,59,U-D,0.0002384185791015,1.083,32.89155132964277,599,71.0,15.52154454397706,2.8218347889984536,1.975374057542182,1.5007366892630272,1.3012954698374657,1.0377307547014996,0.0020781630925141,0.0011750634705562,0.0007510207232688,0.0007510207232688,0.0007485485188148,0.8340759818718124,0.8340759818718124,0.8340759818718124,0.8340759818718124,0.8340759818718124,E-W,0.0002384185791015,5.547,N-S,0.0002384185791015,2.565
19970127154100.knt,OIT0049701271541.UD,1997-01-27, 15:41:00,33.703,131.948,76,3.8,OIT004,33.5666,131.7378,7.0,1997-01-27, 15:42:02,100Hz,59,U-D,0.0002384185791015,2.421,24.67254617880868,628,625.0,18.511430060725186,7.0111289891084745,6.068367607386639,4.560539645821741,2.7600814467847115,1.5136853711831648,0.0053996220176091,0.005137283557159,0.0048515053387292,0.003818347306366,0.0021018151327974,1.591480207501081,1.591480207501081,1.591480207501081,1.591480207501081,1.1557934856066112,E-W,0.0002384185791015,4.872,N-S,0.0002384185791015,3.757
19970127154100.knt,OIT0119701271541.UD,1997-01-27, 15:41:00,33.703,131.948,76,3.8,OIT011,33.2461,131.8811,7.0,1997-01-27, 15:42:06,100Hz,59,U-D,0.0002384185791015,1.479,51.18248076783516,422,426.0,21.760405193652453,2.896296950957679,2.9813709126391528,2.544450862524544,1.232061137711748,0.3808955962570597,0.0013575936656075,0.0013575936656075,0.0013575936656075,0.0008291603924346,0.0002583917461004,0.5696466722991367,0.5696466722991367,0.5696466722991367,0.5696466722991367,0.4912659311864187,E-W,0.0002384185791015,2.36,N-S,0.0002384185791015,2.71
19970127154100.knt,YMG0099701271541.UD,1997-01-27, 15:41:00,33.703,131.948,76,3.8,YMG009,34.2319,131.8169,375.0,1997-01-27, 15:42:07,100Hz,59,U-D,0.0002384185791015,0.816,60.04082141574529,366,376.0,19.822801661846803,4.809461595868688,5.020343761797967,4.310685657901629,2.238567116483432,0.910496280447754,0.0020596215067946,0.0020596215067946,0.0020596215067946,0.0014957633886464,0.0006435147152773,0.5456712629058472,0.5456712629058472,0.5456712629058472,0.5456712629058472,0.5456712629058472,E-W,0.0002384185791015,3.443,N-S,0.0002384185791015,3.6
19970127154100.knt,YMG0139701271541.UD,1997-01-27, 15:41:00,33.703,131.948,76,3.8,YMG013,34.031,131.5348,3.0,1997-01-27, 15:42:05,100Hz,59,U-D,0.0002384185791015,2.073,52.77911561349799,487,496.0,26.83917857433733,4.093870160506832,2.903322340343749,1.8427794450505135,1.56131419366224,1.718339091072752,0.0037528756741575,0.0031547690325973,0.0023124456076757,0.0023124456076757,0.0023124456076757,1.6818822676388607,1.6818822676388607,1.6818822676388607,1.6818822676388607,1.6818822676388607,E-W,0.0002384185791015,5.089,N-S,0.0002384185791015,6.643
19970128080100.knt,IWT0079701280801.UD,1997-01-28, 08:01:00,39.32,142.063,52,3.6,IWT007,39.2701,141.8561,11.0,1997-01-28, 08:02:11,100Hz,59,U-D,0.0002384185791015,5.143,18.64896502473997,854,854.0000000000001,19.662354519594643,1.8594153191288627,1.9701551900968968,1.364204886324616,0.5754983405898638,0.6687483976853053,0.0029083597377455,0.002554208664889,0.0024941192343748,0.0009330615716132,0.0009330615716132,1.4028511561343462,1.4028511561343462,1.4028511561343462,1.3043491382331762,1.2687083089453646,E-W,0.0002384185791015,21.788,N-S,0.0002384185791015,11.484
19970128080100.knt,IWT0089701280801.UD,1997-01-28, 08:01:00,39.32,142.063,52,3.6,IWT008,39.0815,141.7083,50.0,1997-01-28, 08:02:13,100Hz,59,U-D,0.0002384185791015,1.712,40.465677129792695,819,825.0,18.320662603997423,2.617184854323348,2.543152290698225,2.7459380610232698,2.93066319983928,1.8440764884158312,0.001184100810205,0.001184100810205,0.001184100810205,0.001184100810205,0.0008395436901101,0.4760840681168027,0.4760840681168027,0.4760840681168027,0.4325690943930905,0.4325690943930905,E-W,0.0002384185791015,3.315,N-S,0.0002384185791015,9.115
19970128080100.knt,IWT0099701280801.UD,1997-01-28, 08:01:00,39.32,142.063,52,3.6,IWT009,39.0187,141.4031,150.0,1997-01-28, 08:02:18,100Hz,59,U-D,0.0002384185791015,0.95,66.02042793001705,585,582.0,21.84321122600743,7.294789357325697,7.986968871287711,8.53588357706354,8.136364511994078,5.697120245582845,0.0033124637316664,0.0033124637316664,0.0033124637316664,0.0033124637316664,0.0028178865254815,0.5913934500389133,0.5913934500389133,0.5577578610780611,0.5497714251348593,0.4612939384786683,E-W,0.0002384185791015,2.935,N-S,0.0002384185791015,5.431
19970128080100.knt,MYG0029701280801.UD,1997-01-28, 08:01:00,39.32,142.063,52,3.6,MYG002,38.7262,141.5109,79.0,1997-01-28, 08:02:21,100Hz,59,U-D,0.0002384185791015,1.105,81.45111576565706,473,487.0,20.72229516618882,9.26558820990407,9.57155406468735,8.843855157538096,6.8340739471414125,3.028137767964631,0.0040658963007761,0.0040658963007761,0.0040658963007761,0.0035552777205206,0.0025244593187124,0.5839003493206625,0.5839003493206625,0.5839003493206625,0.2838922985313802,0.2639912640994571,E-W,0.0002384185791015,3.507,N-S,0.0002384185791015,6.105
