earthquake name,records name,earthquake date,earthquake time,lat,long,depth,mag,stn_code,stn_lat,stn_long,stn_height,rcd_date,rcd_time,frequency,rcd_duration,direction,scale_factor,max_pga,epi_dist,pick_index_manually,pick_index_kalkan,snr_db_kalkan,tc_5sec,tc_4sec,tc_3sec,tc_2sec,tc_1sec,Pd_5sec,Pd_4sec,Pd_3sec,Pd_2sec,Pd_1sec,Pga_5sec,Pga_4sec,Pga_3sec,Pga_2sec,Pga_1sec,Channel,Scale_factor,PGA_ew,Channel.1,Scale_factor.1,PGA_ns
20010105051500.knt,EHM0150101050515.UD,2001-01-05, 05:15:00,33.778,132.529,47.0,4.0,EHM015,33.6105,132.4814,4.0,2001-01-05, 05:15:15,100Hz,119.0,U-D,0.0002384185791015,12.33,19.138678050422847,1405.0,1419.0,35.69941478465316,0.5355799685741305,0.571801596175547,0.644518350403995,0.7422287866941462,0.5763816110185002,0.0027692423902781,0.0027692423902781,0.0027692423902781,0.0027071538210821,0.0026080794439178,5.090695144333893,5.090695144333893,5.090695144333893,4.435313437738972,3.5198100213420225,E-W,0.0002384185791015,25.37,N-S,0.0002384185791015,36.561
20010105051500.knt,EHM0160101050515.UD,2001-01-05, 05:15:00,33.778,132.529,47.0,4.0,EHM016,33.7658,132.7088,2.0,2001-01-05, 05:15:20,100Hz,119.0,U-D,0.0002384185791015,2.119,16.67447136163369,935.0,319.0,17.36941517023389,0.802986124148313,0.784354441680725,0.9545236144211556,1.0298452523390689,1.3578013867935466,0.0025151616805055,0.0025151616805055,0.0025151616805055,0.0025151616805055,0.0025151616805055,2.111512492863977,1.5435247840272153,1.5435247840272153,1.5435247840272153,1.3175084369227998,E-W,0.0002384185791015,7.691,N-S,0.0002384185791015,6.768
20010105051500.knt,HRS0060101050515.UD,2001-01-05, 05:15:00,33.778,132.529,47.0,4.0,HRS006,34.6659,132.4077,371.0,2001-01-05, 05:15:36,100Hz,119.0,U-D,0.0002384185791015,1.562,99.35786358669708,190.0,214.0,18.929932122260546,2.256478901346444,2.24230460672641,2.3560736682863426,2.33912652703911,3.0141982103789755,0.0020468528877104,0.0020468528877104,0.0020468528877104,0.0020468528877104,0.0020468528877104,1.132855199281266,1.132855199281266,1.132855199281266,1.132855199281266,0.9092496628102432,E-W,0.0002384185791015,3.678,N-S,0.0002384185791015,4.766
20010105051500.knt,HRS0080101050515.UD,2001-01-05, 05:15:00,33.778,132.529,47.0,4.0,HRS008,34.6107,132.7193,202.0,2001-01-05, 05:15:36,100Hz,119.0,U-D,0.0002384185791015,1.978,94.23166515713524,161.0,161.0,12.56963706863282,13.222578970115183,15.733785645358816,20.117965065671264,22.08203065287823,15.636818582280664,0.0410770153414274,0.0410770153414274,0.0410770153414274,0.0410770153414274,0.0396509270719162,0.9504947820008578,0.9504947820008578,0.9504947820008578,0.9504947820008578,0.4525886052364155,E-W,0.0002384185791015,4.097,N-S,0.0002384185791015,5.619
20010105051500.knt,HRS0120101050515.UD,2001-01-05, 05:15:00,33.778,132.529,47.0,4.0,HRS012,34.4276,132.7422,215.0,2001-01-05, 05:15:31,100Hz,119.0,U-D,0.0002384185791015,1.808,74.85198912035347,361.0,425.0,19.13542964751076,5.439241407596676,5.298484238623722,5.81578573070342,7.133426398161993,12.799149252249586,0.0047797491759938,0.0047797491759938,0.0047797491759938,0.0047797491759938,0.0047797491759938,0.8564498114596177,0.8564498114596177,0.8564498114596177,0.8564498114596177,0.2913291975085612,E-W,0.0002384185791015,3.861,N-S,0.0002384185791015,3.727
20010105051500.knt,HRS0130101050515.UD,2001-01-05, 05:15:00,33.778,132.529,47.0,4.0,HRS013,34.3768,132.4505,2.0,2001-01-05, 05:15:29,100Hz,119.0,U-D,0.0002384185791015,3.768,66.97488929023638,481.0,488.0,23.613187338803105,4.876379480947467,4.008882358162104,2.9547542905873114,2.047511719738177,2.2998275824228647,0.0121018143863561,0.0121018143863561,0.0096357778461249,0.0086025496545541,0.0086025496545541,2.988660881816909,2.988660881816909,2.988660881816909,2.988660881816909,2.988660881816909,E-W,0.0002384185791015,6.0,N-S,0.0002384185791015,7.546
20010105051500.knt,HRS0140101050515.UD,2001-01-05, 05:15:00,33.778,132.529,47.0,4.0,HRS014,34.2869,132.2766,3.0,2001-01-05, 05:15:28,100Hz,119.0,U-D,0.0002384185791015,5.529,61.18047779701291,517.0,526.0,25.14857376039785,8.199996633429455,6.786411044752876,4.806375087134265,2.83942651825792,2.530693338520063,0.0265603730993369,0.0265603730993369,0.0237355672506659,0.0150515305134184,0.0150515305134184,3.289348704966002,3.289348704966002,3.289348704966002,2.87153799378424,2.87153799378424,E-W,0.0002384185791015,15.013,N-S,0.0002384185791015,15.273
20010105051500.knt,HRS0170101050515.UD,2001-01-05, 05:15:00,33.778,132.529,47.0,4.0,HRS017,34.404,133.0832,16.0,2001-01-05, 05:15:34,100Hz,119.0,U-D,0.0002384185791015,1.232,86.31152202984686,217.0,246.0,17.79730274326122,3.4504250584874283,3.530310347550264,3.846005995183636,3.963382440524975,2.710541920393411,0.0016645867822509,0.0016645867822509,0.0016645867822509,0.0016645867822509,0.0014066382218265,0.6134605649749931,0.6134605649749931,0.6134605649749931,0.6134605649749931,0.6134605649749931,E-W,0.0002384185791015,3.31,N-S,0.0002384185791015,3.87
20010105051500.knt,HRS0190101050515.UD,2001-01-05, 05:15:00,33.778,132.529,47.0,4.0,HRS019,34.2485,132.5647,3.0,2001-01-05, 05:15:26,100Hz,119.0,U-D,0.0002384185791015,5.119,52.420586685844754,626.0,635.0,14.903453560628828,9.080090222118123,9.681204185565925,10.69067595532803,10.82153858724799,9.165471326899503,0.0358714756360908,0.0358714756360908,0.0358714756360908,0.0358714756360908,0.0358714756360908,3.78538977258544,3.78538977258544,3.78538977258544,3.78538977258544,3.78538977258544,E-W,0.0002384185791015,13.477,N-S,0.0002384185791015,8.339
20010105051500.knt,KOC0080101050515.UD,2001-01-05, 05:15:00,33.778,132.529,47.0,4.0,KOC008,33.7758,133.3465,560.0,2001-01-05, 05:15:31,100Hz,119.0,U-D,0.0002384185791015,1.257,75.55860710907899,408.0,408.0,22.960523568154727,7.8076750494424285,8.011350896597007,6.642158115013445,3.90098152602721,2.131741418624902,0.0108843230939875,0.0108843230939875,0.0108843230939875,0.0084491491805376,0.0045855483419169,0.8267286943352039,0.8267286943352039,0.8267286943352039,0.8267286943352039,0.7117883163981135,E-W,0.0002384185791015,5.114,N-S,0.0002384185791015,6.396
20010105051500.knt,KOC0090101050515.UD,2001-01-05, 05:15:00,33.778,132.529,47.0,4.0,KOC009,33.5742,133.1718,105.0,2001-01-05, 05:15:29,100Hz,119.0,U-D,0.0002384185791015,1.439,63.65185263738669,462.0,462.0,23.12177100963325,6.033642076278503,4.92055811569162,3.61996108244596,2.963039885140053,3.5134903020307475,0.005800948723182,0.0057541311526046,0.005351033719788,0.005351033719788,0.005351033719788,1.416312938336767,1.416312938336767,1.416312938336767,1.416312938336767,1.416312938336767,E-W,0.0002384185791015,3.316,N-S,0.0002384185791015,4.673
20010105051500.knt,KOC0100101050515.UD,2001-01-05, 05:15:00,33.778,132.529,47.0,4.0,KOC010,33.3925,133.2896,4.0,2001-01-05, 05:15:34,100Hz,119.0,U-D,0.0002384185791015,0.892,82.47108630481591,188.0,188.0,17.595645084101818,3.6424698017847903,4.069347973809032,3.754173243050363,3.387263110757206,2.782618185427496,0.001169338438192,0.001169338438192,0.001169338438192,0.001169338438192,0.001169338438192,0.4566232470764699,0.4566232470764699,0.4566232470764699,0.4566232470764699,0.4566232470764699,E-W,0.0002384185791015,1.894,N-S,0.0002384185791015,3.413
20010105051500.knt,KOC0120101050515.UD,2001-01-05, 05:15:00,33.778,132.529,47.0,4.0,KOC012,33.1967,132.9758,150.0,2001-01-05, 05:15:33,100Hz,120.0,U-D,0.0002384185791015,0.594,76.77792548731112,262.0,262.0,12.895550189575406,1.1837712374419544,1.1556617609222737,1.1233656086238066,0.9613856676850652,0.8438284461695169,0.0007339904419076,0.0007339904419076,0.0007339904419076,0.0007339904419076,0.0007339904419076,0.5468422398696177,0.5468422398696177,0.5468422398696177,0.5468422398696177,0.5468422398696177,E-W,0.0002384185791015,1.735,N-S,0.0002384185791015,2.679
20010105051500.knt,KOC0150101050515.UD,2001-01-05, 05:15:00,33.778,132.529,47.0,4.0,KOC015,32.937,132.7252,2.0,2001-01-05, 05:15:36,100Hz,119.0,U-D,0.0002384185791015,2.315,95.2737199820486,170.0,189.0,22.17350780380114,2.364350035371745,2.4904301376668703,2.736867426634799,2.913756577015141,3.154133041131604,0.0026084717982898,0.0026084717982898,0.0026084717982898,0.0026084717982898,0.0025465488181645,1.1446935632551565,1.1446935632551565,1.1446935632551565,1.1446935632551565,1.1059301708156124,E-W,0.0002384185791015,3.615,N-S,0.0002384185791015,2.571
20010105051500.knt,OIT0040101050515.UD,2001-01-05, 05:15:00,33.778,132.529,47.0,4.0,OIT004,33.5666,131.7378,7.0,2001-01-05, 05:15:32,100Hz,119.0,U-D,0.0002384185791015,1.411,76.89743865518325,334.0,349.0,22.610125505309338,2.497639007603221,2.399554142897641,2.094566757650729,1.6984007410927373,1.8369662447103572,0.0022335867559587,0.0022335867559587,0.0019834389629001,0.0014269054460502,0.0011557929555159,1.0017267443729396,0.976897062429432,0.976897062429432,0.976897062429432,0.7482509220200327,E-W,0.0002384185791015,3.853,N-S,0.0002384185791015,3.068
20010105051500.knt,YMG0160101050515.UD,2001-01-05, 05:15:00,33.778,132.529,47.0,4.0,YMG016,34.1699,132.1766,7.0,2001-01-05, 05:15:26,100Hz,119.0,U-D,0.0002384185791015,2.216,54.35946413271942,632.0,649.0,22.232618689330373,4.646925218781745,4.373592249291042,3.4653972034031493,2.296199382986089,1.4784571943331206,0.0061238097533637,0.0061238097533637,0.0056734292695848,0.00439165866829,0.002471257147474,2.2240783727901574,2.2240783727901574,2.2240783727901574,2.2240783727901574,1.2829315214702686,E-W,0.0002384185791015,3.757,N-S,0.0002384185791015,3.637
20010105051500.knt,YMG0170101050515.UD,2001-01-05, 05:15:00,33.778,132.529,47.0,4.0,YMG017,33.9649,132.1011,2.0,2001-01-05, 05:15:24,100Hz,119.0,U-D,0.0002384185791015,3.129,44.63833724713487,717.0,718.0,22.80679211386419,3.9579332474043087,4.293986294838952,4.083301194131443,3.742093142629518,3.241567568543778,0.0049971141339155,0.0049971141339155,0.0049971141339155,0.0049971141339155,0.0039957712920896,1.9058287639855789,1.9058287639855789,1.9058287639855789,1.9058287639855789,1.3029071125940623,E-W,0.0002384185791015,8.786,N-S,0.0002384185791015,6.594
20010105051500.knt,YMG0180101050515.UD,2001-01-05, 05:15:00,33.778,132.529,47.0,4.0,YMG018,33.9091,132.3561,2.0,2001-01-05, 05:15:15,100Hz,119.0,U-D,0.0002384185791015,11.352,21.62142717435016,1420.0,1424.0,34.25562149053496,3.7602120974889326,3.791416888315583,3.395170919894502,2.4511914282906373,0.949593538492399,0.016286200795079,0.016286200795079,0.016286200795079,0.0159980745074213,0.0083003137718429,11.349910268563992,11.349910268563992,11.349910268563992,11.349910268563992,11.349910268563992,E-W,0.0002384185791015,8.064,N-S,0.0002384185791015,11.225
20010105051500.knt,YMG0190101050515.UD,2001-01-05, 05:15:00,33.778,132.529,47.0,4.0,YMG019,33.8388,132.1205,90.0,2001-01-05, 05:15:16,100Hz,119.0,U-D,0.0002384185791015,6.526,38.34290720500464,1475.0,1483.0,23.8608423307598,0.976935536553942,0.9992039995346574,0.960717589785766,0.6548013505603416,0.3315245033128706,0.0030633082300643,0.0030633082300643,0.0030633082300643,0.0030535087873741,0.0028653168521739,4.088085765244733,4.088085765244733,4.088085765244733,4.088085765244733,4.088085765244733,E-W,0.0002384185791015,15.471,N-S,0.0002384185791015,13.059
20010106114800.knt,AIC0020101061148.UD,2001-01-06, 11:48:00,35.378,137.095,48.0,4.6,AIC002,35.2979,136.9153,20.0,2001-01-06, 11:48:21,100Hz,119.0,U-D,0.0002384185791015,14.507,18.574862001910724,1482.0,1487.0,29.58154062149877,0.8185109990779414,0.6287527955113046,0.4226991238576437,0.3654131989824169,0.3963097038539863,0.0102843124641949,0.0102843124641949,0.0102843124641949,0.0102843124641949,0.0102843124641949,14.53431973194336,14.53431973194336,14.53431973194336,14.53431973194336,14.53431973194336,E-W,0.0002384185791015,31.622,N-S,0.0002384185791015,42.184
20010106114800.knt,AIC0040101061148.UD,2001-01-06, 11:48:00,35.378,137.095,48.0,4.6,AIC004,35.0634,136.9736,30.0,2001-01-06, 11:48:23,100Hz,119.0,U-D,0.0002384185791015,12.998,36.67899054701778,1442.0,1455.0,22.530587697083323,2.4395855483264586,2.2852712210055306,1.6189121213037847,0.9553247128235962,0.7104080342708343,0.0194661749913182,0.0194661749913182,0.0154021739459211,0.0093161353992342,0.00820584926576,5.591273078006129,5.591273078006129,5.591273078006129,4.713709672183307,4.558687437781713,E-W,0.0002384185791015,13.287,N-S,0.0002384185791015,19.047
20010106114800.knt,AIC0050101061148.UD,2001-01-06, 11:48:00,35.378,137.095,48.0,4.6,AIC005,35.1979,137.2056,150.0,2001-01-06, 11:48:22,100Hz,119.0,U-D,0.0002384185791015,8.556,22.40133665571951,1399.0,1408.0,26.95537561795802,1.4078509250260964,1.1933824999985685,0.7852688859755669,0.6479585641076654,0.5925052133753774,0.005618973945479,0.005618973945479,0.0036099292403277,0.0032709318450169,0.0032709318450169,6.272251058997324,6.272251058997324,6.272251058997324,6.272251058997324,6.272251058997324,E-W,0.0002384185791015,36.075,N-S,0.0002384185791015,20.984
20010106114800.knt,AIC0060101061148.UD,2001-01-06, 11:48:00,35.378,137.095,48.0,4.6,AIC006,35.2159,137.5086,510.0,2001-01-06, 11:48:31,100Hz,119.0,U-D,0.0002384185791015,6.001,41.63915052131088,652.0,364.0,19.540890044717127,13.667876734390433,13.448668904861014,12.01586607929956,8.988853193807005,5.778025001902064,0.0682788344836077,0.0682788344836077,0.0682788344836077,0.0641426525901275,0.0452104995180054,4.123467095937173,4.123467095937173,3.9910839246417176,3.9910839246417176,3.678700910088627,E-W,0.0002384185791015,18.303,N-S,0.0002384185791015,26.34
20010106114800.knt,AIC0070101061148.UD,2001-01-06, 11:48:00,35.378,137.095,48.0,4.6,AIC007,35.1394,137.3353,158.0,2001-01-06, 11:48:23,100Hz,119.0,U-D,0.0002384185791015,14.136,34.35028306974603,1375.0,1408.0,26.011112487738405,0.3692205769086921,0.3903446443430821,0.4791821990296664,0.5886563758009096,0.7692027312201076,0.0029689816314623,0.0029689816314623,0.0029689816314623,0.0029689816314623,0.0029689816314623,5.228051153013451,5.212900588261927,4.123561713780765,4.123561713780765,3.0683584953335625,E-W,0.0002384185791015,25.942,N-S,0.0002384185791015,9.177
20010106114800.knt,AIC0080101061148.UD,2001-01-06, 11:48:00,35.378,137.095,48.0,4.6,AIC008,35.0977,137.5697,465.0,2001-01-06, 11:48:32,100Hz,119.0,U-D,0.0002384185791015,3.397,53.19862965117973,663.0,649.0,18.00546418161744,18.417494447473025,17.369652870978843,14.775714936780902,10.916318734623044,6.539309585171146,0.0602959789200307,0.0602959789200307,0.0602959789200307,0.0560975766109026,0.0424934905595744,2.7339872613621137,2.7339872613621137,2.4052818725415306,2.4052818725415306,2.4052818725415306,E-W,0.0002384185791015,11.597,N-S,0.0002384185791015,7.616
20010106114800.knt,AIC0090101061148.UD,2001-01-06, 11:48:00,35.378,137.095,48.0,4.6,AIC009,35.0812,137.1464,60.0,2001-01-06, 11:48:25,100Hz,119.0,U-D,0.0002384185791015,8.315,33.33123317316173,1181.0,1201.0,24.07510497558924,1.2237651944160564,0.8099124373860842,0.4516721151952531,0.3989951972766863,0.5305497553749858,0.0087567656235345,0.0060968986577326,0.0040440247660194,0.0028379491294794,0.0028379491294794,4.162059268621862,3.3150535107712003,3.3150535107712003,2.7804996987443222,1.7802897095776171,E-W,0.0002384185791015,18.127,N-S,0.0002384185791015,19.347
20010106114800.knt,AIC0100101061148.UD,2001-01-06, 11:48:00,35.378,137.095,48.0,4.6,AIC010,34.976,137.4236,525.0,2001-01-06, 11:48:28,100Hz,119.0,U-D,0.0002384185791015,6.898,53.75946320192848,1089.0,1111.0,29.764867975867396,0.7252006802390364,0.6360180121879733,0.5349718213639127,0.6656850709706094,0.9153714891875838,0.0035739971408193,0.0025610833200545,0.0024896027583457,0.0024896027583457,0.0024896027583457,3.5828327215371263,3.5828327215371263,2.991504052540188,2.476089935150967,1.779718819338001,E-W,0.0002384185791015,11.867,N-S,0.0002384185791015,10.742
20010106114800.knt,AIC0120101061148.UD,2001-01-06, 11:48:00,35.378,137.095,48.0,4.6,AIC012,34.9119,137.0447,6.0,2001-01-06, 11:48:25,100Hz,119.0,U-D,0.0002384185791015,5.075,52.029350525284855,1393.0,1394.0,28.70910625836541,2.162893182189701,1.980015516426209,1.566692593404999,0.8946346229964689,0.5484605146596774,0.0109719464699164,0.0109719464699164,0.0109719464699164,0.0075782310715111,0.0055417805253034,3.6461037501263394,3.6461037501263394,3.6461037501263394,3.6461037501263394,3.6461037501263394,E-W,0.0002384185791015,18.464,N-S,0.0002384185791015,15.127
20010106114800.knt,AIC0140101061148.UD,2001-01-06, 11:48:00,35.378,137.095,48.0,4.6,AIC014,34.8263,137.22,4.0,2001-01-06, 11:48:35,100Hz,119.0,U-D,0.0002384185791015,4.064,62.39125697425991,469.0,485.00000000000006,24.46830544180841,6.838401708111024,5.420732932052585,3.9786662844625167,3.4600340171576267,4.665418680673703,0.0200774921840413,0.0183234759655387,0.0173028543496024,0.0173028543496024,0.0173028543496024,4.067187274246786,4.067187274246786,4.067187274246786,4.067187274246786,4.067187274246786,E-W,0.0002384185791015,13.557,N-S,0.0002384185791015,14.252
20010106114800.knt,AIC0170101061148.UD,2001-01-06, 11:48:00,35.378,137.095,48.0,4.6,AIC017,34.6694,137.2633,10.0,2001-01-06, 11:48:39,100Hz,119.0,U-D,0.0002384185791015,2.28,80.26923169636981,336.0,366.0,21.143636252064056,6.097866809207282,5.890782649609746,6.52706925835589,7.721782625694312,11.487337689503498,0.0172829934586044,0.0172829934586044,0.0172829934586044,0.0172829934586044,0.0172829934586044,1.3862229529424013,1.3862229529424013,1.3862229529424013,1.3862229529424013,0.9665408623042254,E-W,0.0002384185791015,3.48,N-S,0.0002384185791015,2.854
20010106114800.knt,FKI0040101061148.UD,2001-01-06, 11:48:00,35.378,137.095,48.0,4.6,FKI004,35.9789,136.4865,175.0,2001-01-06, 11:48:39,100Hz,119.0,U-D,0.0002384185791015,3.174,86.51746458450864,373.0,384.0,27.765146769324097,3.3236152826776406,3.277659549434827,4.115212646113909,4.991863242252912,6.653304675896407,0.0073831443107626,0.0073831443107626,0.0073831443107626,0.0073831443107626,0.0073831443107626,1.272873539032157,1.272873539032157,1.272873539032157,1.272873539032157,0.7845134302571365,E-W,0.0002384185791015,7.419,N-S,0.0002384185791015,6.803
20010106114800.knt,FKI0050101061148.UD,2001-01-06, 11:48:00,35.378,137.095,48.0,4.6,FKI005,35.9067,136.1743,32.0,2001-01-06, 11:48:33,100Hz,119.0,U-D,0.0002384185791015,4.224,101.87245149244464,1197.0,1197.0,24.9509172522486,0.5581165519333541,0.570129975168964,0.5374297030522408,0.3929367155154841,0.2863735696880117,0.0029416014608708,0.0029416014608708,0.0029416014608708,0.0023283356631793,0.0011221089017888,3.4884630535925782,3.4884630535925782,3.4884630535925782,3.4884630535925782,3.4884630535925782,E-W,0.0002384185791015,14.138,N-S,0.0002384185791015,16.954
20010106114800.knt,FKI0060101061148.UD,2001-01-06, 11:48:00,35.378,137.095,48.0,4.6,FKI006,35.7731,136.1998,127.0,2001-01-06, 11:48:41,100Hz,119.0,U-D,0.0002384185791015,2.698,92.11339471403912,267.0,290.0,16.387708177456194,10.720972905282366,11.142362008850862,13.906122296613908,18.849834377122555,30.318894858363684,0.0482326371347525,0.0482326371347525,0.0482326371347525,0.0482326371347525,0.0482326371347525,1.921780687928457,1.921780687928457,1.921780687928457,1.8036861908531463,1.0382646062037837,E-W,0.0002384185791015,13.148,N-S,0.0002384185791015,7.04
20010106114800.knt,FKI0080101061148.UD,2001-01-06, 11:48:00,35.378,137.095,48.0,4.6,FKI008,35.5479,135.9084,13.0,2001-01-06, 11:48:46,100Hz,119.0,U-D,0.0002384185791015,5.462,109.11427793594784,12.0,36.0,10.497725744483343,6.200725997384804,6.098176103894648,4.931687286708476,3.411540129888422,1.2303746195071006,0.0335914202982319,0.0335914202982319,0.0328265582220619,0.028477131546933,0.0147493475246478,1.467446446039037,1.467446446039037,1.467446446039037,1.467446446039037,1.4181211916535506,E-W,0.0002384185791015,7.502,N-S,0.0002384185791015,7.489
