earthquake name,records name,earthquake date,earthquake time,lat,long,depth,mag,stn_code,stn_lat,stn_long,stn_height,rcd_date,rcd_time,frequency,rcd_duration,direction,scale_factor,max_pga,epi_dist,pick_index_manually,pick_index_kalkan,snr_db_kalkan,tc_5sec,tc_4sec,tc_3sec,tc_2sec,tc_1sec,Pd_5sec,Pd_4sec,Pd_3sec,Pd_2sec,Pd_1sec,Pga_5sec,Pga_4sec,Pga_3sec,Pga_2sec,Pga_1sec,Channel,Scale_factor,PGA_ew,Channel.1,Scale_factor.1,PGA_ns
20010102153200.knt,SMN0010101021532.UD,2001-01-02, 15:32:00,35.371,133.305,11.0,3.6,SMN001,35.5372,133.1612,2.0,2001-01-02, 15:32:42,100Hz,119.0,U-D,0.0002384185791015,1.591,22.609353019935277,1113.0,1113.0,22.25332009008813,0.9601599313786544,0.437999369090183,0.5196932885694132,0.5516916353674292,0.6762452424481118,0.0038136872220535,0.0020816046087005,0.0020816046087005,0.0020816046087005,0.0020816046087005,1.578754861623234,1.578754861623234,1.2809869448712652,1.2809869448712652,1.2809869448712652,E-W,0.0002384185791015,5.187,N-S,0.0002384185791015,6.932
20010102153200.knt,SMN0020101021532.UD,2001-01-02, 15:32:00,35.371,133.305,11.0,3.6,SMN002,35.4714,133.0682,2.0,2001-01-02, 15:32:43,100Hz,119.0,U-D,0.0002384185791015,2.023,24.187929390654507,1042.0,338.0,13.578983319812288,2.044351142672031,2.190324220089017,2.4447367591517315,2.2971408383207894,2.2487080910509376,0.0029828289281609,0.0029828289281609,0.0029828289281609,0.0029828289281609,0.0028900573152361,2.014806504978668,2.014806504978668,2.014806504978668,2.014806504978668,2.014806504978668,E-W,0.0002384185791015,2.597,N-S,0.0002384185791015,2.3
20010102153200.knt,TTR0070101021532.UD,2001-01-02, 15:32:00,35.371,133.305,11.0,3.6,TTR007,35.2826,133.4876,155.0,2001-01-02, 15:32:38,100Hz,119.0,U-D,0.0002384185791015,6.665,19.26234890938606,1469.0,1471.0,23.99364684877124,1.6553382281678652,0.7918597764084399,0.8489167844415403,0.8523902447417838,0.5645444398384152,0.0070932489842869,0.0030567297277908,0.0030567297277908,0.0030567297277908,0.0030567297277908,6.678874849782178,6.678874849782178,6.678874849782178,6.678874849782178,6.678874849782178,E-W,0.0002384185791015,5.992,N-S,0.0002384185791015,4.641
20010102153200.knt,TTR0080101021532.UD,2001-01-02, 15:32:00,35.371,133.305,11.0,3.6,TTR008,35.4258,133.3301,2.0,2001-01-02, 15:32:36,100Hz,119.0,U-D,0.0002384185791015,16.378,6.504338817526021,1447.0,915.0,19.517388873965057,0.8296766218779762,0.7124082441986446,0.5882810312402164,0.5365423161645418,0.2167047662455871,0.0297270240163274,0.0297270240163274,0.0249107189706772,0.0116829356778498,0.0052655056093202,16.33225941140277,16.33225941140277,16.33225941140277,16.33225941140277,16.33225941140277,E-W,0.0002384185791015,18.598,N-S,0.0002384185791015,13.558
20010102153200.knt,TTR0090101021532.UD,2001-01-02, 15:32:00,35.371,133.305,11.0,3.6,TTR009,35.1629,133.3063,299.0,2001-01-02, 15:32:42,100Hz,119.0,U-D,0.0002384185791015,0.978,23.13996522127036,1149.0,1146.0,20.94761661027002,1.7883526121701006,2.4536260204678517,3.654707189636595,4.317301981041789,4.343476720390419,0.0026048184846988,0.0026048184846988,0.0026048184846988,0.0026048184846988,0.0026048184846988,0.9742983837561086,0.89398361594859,0.89398361594859,0.89398361594859,0.89398361594859,E-W,0.0002384185791015,2.301,N-S,0.0002384185791015,3.06
20010102195300.knt,FKS0290101021953.UD,2001-01-02, 19:53:00,37.265,138.602,15.0,4.4,FKS029,37.0159,139.3801,957.0,2001-01-02, 19:53:36,100Hz,119.0,U-D,0.0002384185791015,1.108,74.32447809152654,1373.0,1380.0,22.18772706065053,2.647004455277873,2.717854613944457,2.9055606385285606,2.932002874484032,2.0649183614006734,0.0022512376163418,0.0022512376163418,0.0022512376163418,0.0022512376163418,0.0016798777465977,0.6629275242072279,0.6629275242072279,0.6629275242072279,0.6629275242072279,0.4753545412502786,E-W,0.0002384185791015,4.333,N-S,0.0002384185791015,3.413
20010102195300.knt,GNM0010101021953.UD,2001-01-02, 19:53:00,37.265,138.602,15.0,4.4,GNM001,36.7722,139.2248,810.0,2001-01-02, 19:53:36,100Hz,119.0,U-D,0.0002384185791015,8.232,77.84620047502551,1419.0,1435.0,27.671831244265547,2.1328908522092678,2.1400276173651345,1.9054822895688468,1.176715913669126,0.4424129205726604,0.0135196278175507,0.0135196278175507,0.0135196278175507,0.0122902667983187,0.004820206314548,8.27385694304368,8.27385694304368,8.27385694304368,8.27385694304368,8.27385694304368,E-W,0.0002384185791015,9.274,N-S,0.0002384185791015,9.153
20010102195300.knt,GNM0020101021953.UD,2001-01-02, 19:53:00,37.265,138.602,15.0,4.4,GNM002,36.7819,138.9695,494.0,2001-01-02, 19:53:42,100Hz,119.0,U-D,0.0002384185791015,1.935,62.84947174437625,558.0,571.0,24.3352091832232,5.637585520267885,4.652494214811179,3.0223245027491874,1.4461891584093614,1.249825096501428,0.0068099098022438,0.0068099098022438,0.0054659783514648,0.0029106403826747,0.0029106403826747,1.9415471863337923,1.9415471863337923,1.9415471863337923,1.9415471863337923,1.9415471863337923,E-W,0.0002384185791015,3.541,N-S,0.0002384185791015,2.983
20010102195300.knt,GNM0040101021953.UD,2001-01-02, 19:53:00,37.265,138.602,15.0,4.4,GNM004,36.6172,138.5918,1222.0,2001-01-02, 19:53:44,100Hz,119.0,U-D,0.0002384185791015,2.491,72.03777714621909,557.0,595.0,20.723477136380875,4.6498865316660565,4.298620810962636,2.315216790579322,0.924295343207046,0.4816181972733075,0.0096318413824358,0.0096318413824358,0.0075815558130341,0.0027488100328617,0.0011349056839856,0.6062995824837426,0.6062995824837426,0.6062995824837426,0.6062995824837426,0.5197205416898713,E-W,0.0002384185791015,6.076,N-S,0.0002384185791015,8.131
20010102195300.knt,NGN0010101021953.UD,2001-01-02, 19:53:00,37.265,138.602,15.0,4.4,NGN001,36.8514,138.366,315.0,2001-01-02, 19:53:39,100Hz,119.0,U-D,0.0002384185791015,2.427,50.53366870078799,733.0,748.0,25.16497908674232,3.600779901120044,4.176991711040985,4.494170503670929,4.767943884611052,7.700726269308392,0.0041978081065669,0.00395999472763,0.0037931024613101,0.0037931024613101,0.0036114641080581,0.7916587690536872,0.7916587690536872,0.7916587690536872,0.7916587690536872,0.3241911679336104,E-W,0.0002384185791015,4.556,N-S,0.0002384185791015,4.507
20010102195300.knt,NGN0030101021953.UD,2001-01-02, 19:53:00,37.265,138.602,15.0,4.4,NGN003,36.7403,138.4129,581.0,2001-01-02, 19:53:41,100Hz,119.0,U-D,0.0002384185791015,0.843,60.71239925968733,621.0,634.0,18.72662208793713,4.57876444017074,5.115388390364176,5.430177861167618,6.073209700412107,12.47368589304232,0.0021701993587162,0.0021701993587162,0.0021458909191367,0.0021458909191367,0.0019463035475505,0.5256609881613148,0.5256609881613148,0.5256609881613148,0.5256609881613148,0.1572609965559829,E-W,0.0002384185791015,3.751,N-S,0.0002384185791015,2.767
20010102195300.knt,NIG0050101021953.UD,2001-01-02, 19:53:00,37.265,138.602,15.0,4.4,NIG005,37.9204,138.4981,4.0,2001-01-02, 19:53:45,100Hz,119.0,U-D,0.0002384185791015,1.584,73.44984090651113,459.0,462.0,15.310855939590478,2.756482763310031,2.910866321180251,3.227927893500662,3.748973577162473,4.334570185596297,0.0010662226031028,0.0010662226031028,0.0010662226031028,0.0010662226031028,0.0010662226031028,0.3434664977983349,0.3434664977983349,0.3434664977983349,0.3374068787821747,0.3374068787821747,E-W,0.0002384185791015,6.786,N-S,0.0002384185791015,3.805
20010102195300.knt,NIG0170101021953.UD,2001-01-02, 19:53:00,37.265,138.602,15.0,4.4,NIG017,37.4416,138.8431,22.0,2001-01-02, 19:53:34,100Hz,119.0,U-D,0.0002384185791015,1.483,28.978644153570063,927.0,919.0,23.43144654083348,2.271570349229287,2.075239841705784,2.5504272881309693,3.151206596260828,3.936281930320173,0.0052190909416683,0.0048224551110946,0.0044044196596562,0.0044044196596562,0.0044044196596562,1.173661280931055,1.049873947612717,1.049873947612717,0.9631874322092,0.9631874322092,E-W,0.0002384185791015,3.583,N-S,0.0002384185791015,3.089
20010102195300.knt,NIG0180101021953.UD,2001-01-02, 19:53:00,37.265,138.602,15.0,4.4,NIG018,37.3724,138.5579,10.0,2001-01-02, 19:53:26,100Hz,119.0,U-D,0.0002384185791015,8.033,12.562950284403533,1429.0,282.0,20.4393539351987,1.276634269009676,1.1469827707824207,1.277192500686342,1.0319393213358876,0.7731797999466758,0.0423464058233137,0.0293897982276877,0.0293897982276877,0.0215085058826517,0.0215085058826517,8.014937909452676,8.014937909452676,8.014937909452676,8.014937909452676,8.014937909452676,E-W,0.0002384185791015,34.867,N-S,0.0002384185791015,23.372
20010102195300.knt,NIG0190101021953.UD,2001-01-02, 19:53:00,37.265,138.602,15.0,4.4,NIG019,37.3057,138.7898,52.0,2001-01-02, 19:53:27,100Hz,119.0,U-D,0.0002384185791015,5.033,17.21997021450732,1450.0,1444.0,37.398137942596,0.6475530969874567,0.6770915798264521,0.7301231414786349,0.8897984945541645,0.8529436007304254,0.0130703584269285,0.0130703584269285,0.0130703584269285,0.0130703584269285,0.0130703584269285,5.053493647971394,4.3748846752720905,4.3748846752720905,4.3748846752720905,3.7453198943094814,E-W,0.0002384185791015,13.662,N-S,0.0002384185791015,14.194
20010102195300.knt,NIG0200101021953.UD,2001-01-02, 19:53:00,37.265,138.602,15.0,4.4,NIG020,37.2332,138.962,93.0,2001-01-02, 19:53:34,100Hz,119.0,U-D,0.0002384185791015,1.864,32.06005317704979,936.0,933.0,21.58269951230764,3.4534195966278527,3.546292433070624,2.933097477417757,2.6925983575299712,3.099345301888264,0.0174817939377686,0.0174817939377686,0.0174817939377686,0.0174817939377686,0.0174817939377686,1.861468116410342,1.861468116410342,1.861468116410342,1.861468116410342,1.861468116410342,E-W,0.0002384185791015,4.58,N-S,0.0002384185791015,4.075
20010102195300.knt,NIG0210101021953.UD,2001-01-02, 19:53:00,37.265,138.602,15.0,4.4,NIG021,37.1281,138.7468,147.0,2001-01-02, 19:53:28,100Hz,119.0,U-D,0.0002384185791015,6.465,19.90530580929548,1382.0,1382.0,33.15098129287713,2.553070838766961,2.2832416730389715,1.98972588264033,1.1309509075824953,1.030150445119568,0.0433151102335174,0.0326169251729577,0.0326169251729577,0.0271960370237737,0.0271960370237737,6.385577238472006,6.385577238472006,6.385577238472006,6.385577238472006,6.385577238472006,E-W,0.0002384185791015,8.221,N-S,0.0002384185791015,11.999
20010102195300.knt,NIG0220101021953.UD,2001-01-02, 19:53:00,37.265,138.602,15.0,4.4,NIG022,37.0364,138.8462,182.0,2001-01-02, 19:53:29,100Hz,119.0,U-D,0.0002384185791015,6.979,33.38485147009058,1437.0,1448.0,20.852522336462936,0.9148648856201334,0.8586060909941636,0.6709609399914664,0.772603967091982,0.6861145382882339,0.0140491358265341,0.013525293724657,0.0062981699716476,0.0062981699716476,0.0062981699716476,6.987072919873996,6.987072919873996,6.987072919873996,6.987072919873996,6.987072919873996,E-W,0.0002384185791015,5.636,N-S,0.0002384185791015,5.379
20010102195300.knt,NIG0230101021953.UD,2001-01-02, 19:53:00,37.265,138.602,15.0,4.4,NIG023,37.0147,138.6529,241.0,2001-01-02, 19:53:33,100Hz,119.0,U-D,0.0002384185791015,1.595,28.19541731879121,995.0,986.0,27.633752904202996,1.4985625019546136,1.5838079642466116,1.6853458447561047,1.8122344734586204,1.834270203852009,0.0127744421136157,0.0127744421136157,0.0127744421136157,0.0127744421136157,0.0127744421136157,1.3420459388470452,1.277008810119756,1.1679051937883502,1.1679051937883502,1.044462506010267,E-W,0.0002384185791015,5.167,N-S,0.0002384185791015,4.364
20010102195300.knt,NIG0250101021953.UD,2001-01-02, 19:53:00,37.265,138.602,15.0,4.4,NIG025,37.1607,138.2235,11.0,2001-01-02, 19:53:35,100Hz,119.0,U-D,0.0002384185791015,3.812,35.467783972430944,898.0,915.0,27.502054794568583,1.3643320691383225,1.489211741542139,1.5918502052079986,2.646549327013438,2.109678243340092,0.0054589827016767,0.0054589827016767,0.0054589827016767,0.0054589827016767,0.0054589827016767,1.348164194602564,1.2655904487955492,1.2655904487955492,1.2655904487955492,1.2655904487955492,E-W,0.0002384185791015,9.444,N-S,0.0002384185791015,16.916
20010102195300.knt,NIG0260101021953.UD,2001-01-02, 19:53:00,37.265,138.602,15.0,4.4,NIG026,37.0228,138.2507,70.0,2001-01-02, 19:53:37,100Hz,119.0,U-D,0.0002384185791015,3.787,41.16864411183936,787.0,802.9999999999999,27.13464053701612,2.856716638536938,3.1523016351851387,4.128147728046847,7.127838187669191,6.3833728583073,0.0072149347593627,0.0064059658791593,0.0064059658791593,0.0064059658791593,0.0064059658791593,1.1515217844191314,1.1515217844191314,1.1515217844191314,0.6734612560312971,0.5225479256322606,E-W,0.0002384185791015,14.398,N-S,0.0002384185791015,16.23
20010102195300.knt,NIG0270101021953.UD,2001-01-02, 19:53:00,37.265,138.602,15.0,4.4,NIG027,37.0235,137.8624,106.0,2001-01-02, 19:53:45,100Hz,119.0,U-D,0.0002384185791015,1.101,70.84140917822943,475.0,474.0,20.78379387407617,2.1070175233264723,2.040109351964555,2.231534184477668,2.5628328353598984,2.5765304644847693,0.0026084473623676,0.0023649757809539,0.0023649757809539,0.0023649757809539,0.0023649757809539,0.7339958669511549,0.7339958669511549,0.7339958669511549,0.7339958669511549,0.7339958669511549,E-W,0.0002384185791015,5.775,N-S,0.0002384185791015,2.667
20010103234700.knt,HKD0640101032347.UD,2001-01-03, 23:47:00,43.606,147.721,48.0,5.6,HKD064,44.0202,145.1886,17.0,2001-01-03, 23:51:28,100Hz,119.0,U-D,0.0002384185791015,3.246,208.34088630302725,1173.0,1210.0,28.50758169298738,1.3951412772961311,1.2700560394658298,1.3388927519111475,1.0096414517746437,4.020642228607573,0.025853569239726,0.025853569239726,0.025853569239726,0.0105869958732794,0.0105869958732794,3.269987990775402,3.269987990775402,2.495415444932188,1.437682742761687,0.4928151110240868,E-W,0.0002384185791015,5.253,N-S,0.0002384185791015,4.524
20010103234700.knt,HKD0660101032347.UD,2001-01-03, 23:47:00,43.606,147.721,48.0,5.6,HKD066,43.6619,145.1307,2.0,2001-01-03, 23:51:27,100Hz,119.0,U-D,0.0002384185791015,8.934,208.5483651032711,1320.0,1372.0,27.686192259977712,1.4250507824578242,0.9643177503301916,0.4268877441390342,0.4584841495141259,1.2478159000652655,0.020128364921783,0.020119366152676,0.0072832410651494,0.0072832410651494,0.0072832410651494,8.92297953545949,8.92297953545949,8.92297953545949,8.92297953545949,4.113373950548263,E-W,0.0002384185791015,13.467,N-S,0.0002384185791015,12.286
20010103234700.knt,HKD0700101032347.UD,2001-01-03, 23:47:00,43.606,147.721,48.0,5.6,HKD070,43.3852,145.284,6.0,2001-01-03, 23:51:27,100Hz,120.0,U-D,0.0002384185791015,4.375,198.09761921163036,1179.0,1208.0,30.67721296808058,0.9885769178195316,1.0092861234592454,1.0589784141393113,0.8876877542198452,1.0198549490690592,0.0145997520191767,0.0145997520191767,0.0145997520191767,0.0085795779479875,0.0085795779479875,4.35749495075958,4.35749495075958,4.35749495075958,2.1606701353307005,1.2858605161447976,E-W,0.0002384185791015,10.821,N-S,0.0002384185791015,9.076
20010103234700.knt,HKD0720101032347.UD,2001-01-03, 23:47:00,43.606,147.721,48.0,5.6,HKD072,43.1948,145.5209,46.0,2001-01-03, 23:51:24,100Hz,119.0,U-D,0.0002384185791015,8.223,183.5283430888608,1327.0,1369.0,32.92494275844595,2.447707461076285,1.3862113601835957,0.6528306356362165,0.4999830139763009,0.4965480289521589,0.0191892984151353,0.0140540382154967,0.0047684593935286,0.0047684593935286,0.0021700343209215,3.798273286330616,3.798273286330616,3.798273286330616,3.798273286330616,1.845919026374784,E-W,0.0002384185791015,29.64,N-S,0.0002384185791015,27.167
20010103234700.knt,HKD0730101032347.UD,2001-01-03, 23:47:00,43.606,147.721,48.0,5.6,HKD073,43.3327,145.6003,36.0,2001-01-03, 23:51:22,100Hz,119.0,U-D,0.0002384185791015,5.448,173.81022816989218,1329.0,1371.0,24.95344644559524,1.0076128726633709,1.0384952520039683,0.9461150757720208,0.9908142353098164,1.303578532478331,0.0078650404205834,0.0078650404205834,0.0078650404205834,0.0078650404205834,0.0071828543793908,4.468380019840841,4.468380019840841,4.468380019840841,4.468380019840841,2.4899973883189945,E-W,0.0002384185791015,14.575,N-S,0.0002384185791015,12.114
20010103234700.knt,HKD0740101032347.UD,2001-01-03, 23:47:00,43.606,147.721,48.0,5.6,HKD074,43.3687,145.8028,16.0,2001-01-03, 23:51:20,100Hz,119.0,U-D,0.0002384185791015,9.647,156.9801867144729,1326.0,1374.0,29.040173654622897,2.59275448366125,2.019522853435197,1.4013583930954243,0.990832119763459,0.9759239685588792,0.0253825710371039,0.0235744059327506,0.0168939417981126,0.0112814982223751,0.0062107180527659,6.161207132255649,6.161207132255649,6.161207132255649,6.161207132255649,2.686062917673397,E-W,0.0002384185791015,27.947,N-S,0.0002384185791015,25.25
20010103234700.knt,HKD0750101032347.UD,2001-01-03, 23:47:00,43.606,147.721,48.0,5.6,HKD075,43.0767,145.1296,11.0,2001-01-03, 23:51:29,100Hz,119.0,U-D,0.0002384185791015,7.699,217.6624999136815,1243.0,1284.0,27.414733218631817,0.928706939250508,0.9460892163993172,0.8718893855722192,0.6493834531673829,0.6237181074021934,0.0069514830555932,0.0069514830555932,0.0069514830555932,0.003384812935844,0.0023486131780112,2.9900520227646794,2.9900520227646794,2.9900520227646794,2.9900520227646794,2.21087321900764,E-W,0.0002384185791015,9.821,N-S,0.0002384185791015,8.343
20010103234700.knt,HKD0780101032347.UD,2001-01-03, 23:47:00,43.606,147.721,48.0,5.6,HKD078,43.1486,144.4976,21.0,2001-01-03, 23:51:34,100Hz,119.0,U-D,0.0002384185791015,7.626,265.42044093829907,1313.0,1353.0,27.206741350794275,1.6926470769440012,1.3267030760622924,0.8408128277087399,0.5049423727722843,0.4698092600069926,0.0267240965243858,0.0264029719951608,0.0183358956505722,0.0090057606027836,0.0077826348635559,7.666742386158988,7.666742386158988,7.623390562894946,5.012323123597736,5.012323123597736,E-W,0.0002384185791015,8.872,N-S,0.0002384185791015,9.37
20010103234700.knt,HKD0790101032347.UD,2001-01-03, 23:47:00,43.606,147.721,48.0,5.6,HKD079,43.3033,144.5996,32.0,2001-01-03, 23:51:34,100Hz,119.0,U-D,0.0002384185791015,4.18,254.17736223062292,1249.0,1268.0,24.3729639370618,1.169296361057342,1.2597375022023485,1.2968893195348308,1.147078354917734,1.1593323377404172,0.008555045228545,0.008555045228545,0.008555045228545,0.0079710322744629,0.0079710322744629,4.158955823306493,4.158955823306493,4.158955823306493,3.732147576564615,1.631781188620666,E-W,0.0002384185791015,3.656,N-S,0.0002384185791015,3.755
20010103234700.knt,HKD0810101032347.UD,2001-01-03, 23:47:00,43.606,147.721,48.0,5.6,HKD081,43.6427,144.3901,130.0,2001-01-03, 23:51:38,100Hz,119.0,U-D,0.0002384185791015,1.935,268.1226720301968,986.0,1023.0,27.929155607442407,1.8422378871578815,2.0000658583754056,2.6134007246047046,3.3487699134094417,5.977460435290976,0.0105320182651021,0.0105320182651021,0.0105320182651021,0.0105320182651021,0.0105320182651021,1.93281964344738,1.93281964344738,1.93281964344738,1.93281964344738,0.6798734750939974,E-W,0.0002384185791015,3.614,N-S,0.0002384185791015,3.045
20010103234700.knt,HKD0830101032347.UD,2001-01-03, 23:47:00,43.606,147.721,48.0,5.6,HKD083,43.233,144.3248,38.0,2001-01-03, 23:51:37,100Hz,119.0,U-D,0.0002384185791015,4.126,277.3929709700816,1209.0,1248.0,32.686944868823055,2.1800397996811323,1.1546771051628153,0.6900363740030575,0.6909577879751609,0.8165663634737776,0.022517725763894,0.0175594245148303,0.0095005520556405,0.0095005520556405,0.0095005520556405,4.1100702176423045,4.1100702176423045,4.1100702176423045,2.502692281076525,1.63675771797992,E-W,0.0002384185791015,5.267,N-S,0.0002384185791015,5.339
20010104131800.knt,FKS0080101041318.UD,2001-01-04, 13:18:00,36.961,138.759,14.0,5.1,FKS008,37.4363,140.5668,430.0,2001-01-04, 13:19:51,100Hz,119.0,U-D,0.0002384185791015,1.237,168.61321185817732,1312.0,1364.0,21.7644143372718,1.6858283295877807,1.6152051385208677,1.6922497802938952,1.9057717373312133,1.0063947021208992,0.0081029842992346,0.0081029842992346,0.0081029842992346,0.0081029842992346,0.0013610000374996,1.252317209324003,1.252317209324003,1.252317209324003,1.252317209324003,0.2071555696307166,E-W,0.0002384185791015,3.41,N-S,0.0002384185791015,5.596
