earthquake name,records name,earthquake date,earthquake time,lat,long,depth,mag,stn_code,stn_lat,stn_long,stn_height,rcd_date,rcd_time,frequency,rcd_duration,direction,scale_factor,max_pga,epi_dist,pick_index_manually,pick_index_kalkan,snr_db_kalkan,tc_5sec,tc_4sec,tc_3sec,tc_2sec,tc_1sec,Pd_5sec,Pd_4sec,Pd_3sec,Pd_2sec,Pd_1sec,Pga_5sec,Pga_4sec,Pga_3sec,Pga_2sec,Pga_1sec,Channel,Scale_factor,PGA_ew,Channel.1,Scale_factor.1,PGA_ns
19960610142700.knt,IWT0019606101427.UD,1996-06-10, 14:27:00,41.47,141.996,61,4.5,IWT001,40.4099,141.7191,15,1996-06-10, 14:27:34,100Hz,59,U-D,0.0002384185791015,2.974,120.15020784751655,68,76.0,15.79414611187416,12.586958570795176,14.32017699429644,14.120606731622928,10.325179381004538,5.777037660508637,0.079821011389086,0.079821011389086,0.079821011389086,0.0778356866098195,0.0549287603543999,1.6838359256088415,1.6838359256088415,1.6838359256088415,1.2827172011392431,0.6796049557106804,E-W,0.0002384185791015,8.969,N-S,0.0002384185791015,8.104
19960611142500.knt,CHB0019606111425.UD,1996-06-11, 14:25:00,35.953,140.097,71,3.9,CHB001,35.9595,139.8733,13,1996-06-11, 14:26:05,100Hz,59,U-D,0.0002384185791015,3.628,20.14785750813654,537,83.0,14.07407380225562,10.061592221060788,8.662114867228581,6.199163739278699,3.543677182301971,2.500372907583006,0.0386046266692689,0.0386046266692689,0.0346003722668997,0.0230387866044058,0.0185668517183756,2.7647057836694384,2.350401839260303,2.261145009263821,1.6795918217928076,1.6795918217928076,E-W,0.0002384185791015,5.731,N-S,0.0002384185791015,9.518
19960611142500.knt,GNM0019606111425.UD,1996-06-11, 14:25:00,35.953,140.097,71,3.9,GNM001,36.7722,139.2248,810,1996-06-11, 14:26:19,100Hz,59,U-D,0.0002384185791015,2.254,119.98655588198832,1,23.0,10.087845415082157,12.010720981521388,12.678474381462522,10.546171377769165,6.415924332545262,2.757608865893502,0.0214160903061835,0.0214160903061835,0.0213205553086591,0.0175943457006234,0.0076295504596464,1.3238809921006465,1.3238809921006465,0.8706892557920866,0.8706892557920866,0.7055670587795302,E-W,0.0002384185791015,4.225,N-S,0.0002384185791015,4.394
19960611142500.knt,GNM0119606111425.UD,1996-06-11, 14:25:00,35.953,140.097,71,3.9,GNM011,36.2914,139.3609,42,1996-06-11, 14:26:11,100Hz,59,U-D,0.0002384185791015,1.415,76.07320668238457,294,82.0,20.63722264558644,4.245551434671933,3.772909356640399,3.083846634425617,2.0936271893907747,1.398686517586059,0.0030695637968509,0.0030695637968509,0.0029479293331073,0.0023877574975388,0.0019534723382438,0.6656428241861081,0.6656428241861081,0.6619972912651577,0.6619972912651577,0.6619972912651577,E-W,0.0002384185791015,2.777,N-S,0.0002384185791015,2.839
19960611142500.knt,IBR0019606111425.UD,1996-06-11, 14:25:00,35.953,140.097,71,3.9,IBR001,36.7761,140.3569,105,1996-06-11, 14:26:13,100Hz,59,U-D,0.0002384185791015,2.61,94.43669130940616,246,230.00000000000003,18.953675703318563,7.059588115824728,7.572627005962397,8.654387390649756,10.927134961038371,13.489347154051789,0.0076004806078974,0.0076004806078974,0.0076004806078974,0.0076004806078974,0.0076004806078974,0.6915484616676567,0.6915484616676567,0.6915484616676567,0.6915484616676567,0.6273084066397326,E-W,0.0002384185791015,3.595,N-S,0.0002384185791015,3.249
19960611142500.knt,IBR0049606111425.UD,1996-06-11, 14:25:00,35.953,140.097,71,3.9,IBR004,36.5273,140.4094,51,1996-06-11, 14:26:09,100Hz,59,U-D,0.0002384185791015,6.16,69.73486186733263,424,139.0,16.625300783335838,7.647885455463421,6.3708824058643545,5.792990352890326,6.468022985463096,8.926633709409979,0.0559764483455874,0.0559764483455874,0.0559764483455874,0.0559764483455874,0.0559764483455874,6.149555643985868,6.149555643985868,3.073844245742464,3.073844245742464,3.073844245742464,E-W,0.0002384185791015,13.739,N-S,0.0002384185791015,16.045
19960611142500.knt,IBR0059606111425.UD,1996-06-11, 14:25:00,35.953,140.097,71,3.9,IBR005,36.3851,140.2372,63,1996-06-11, 14:26:05,100Hz,59,U-D,0.0002384185791015,8.282,49.66818435482328,625,623.0,29.38365494570546,7.436630103620949,7.4515683211517185,6.560450974496106,4.899232141673207,2.5388139082427683,0.0196724021851064,0.0196724021851064,0.0196439574707848,0.0174993103111196,0.0101450320011073,2.4122882256179325,2.4122882256179325,2.4122882256179325,2.4122882256179325,2.4122882256179325,E-W,0.0002384185791015,9.525,N-S,0.0002384185791015,11.431
19960611142500.knt,IBR0069606111425.UD,1996-06-11, 14:25:00,35.953,140.097,71,3.9,IBR006,36.369,140.4528,20,1996-06-11, 14:26:09,100Hz,59,U-D,0.0002384185791015,4.003,56.2137321473951,307,315.0,21.224193070432783,8.243439751935309,8.059894927585631,8.962896149053508,10.921848685304846,12.82609959602599,0.036412631981345,0.036412631981345,0.036412631981345,0.036412631981345,0.036412631981345,3.99718757392162,3.99718757392162,3.99718757392162,3.99718757392162,3.99718757392162,E-W,0.0002384185791015,3.315,N-S,0.0002384185791015,4.148
19960611142500.knt,IBR0099606111425.UD,1996-06-11, 14:25:00,35.953,140.097,71,3.9,IBR009,36.1848,139.7037,17,1996-06-11, 14:26:06,100Hz,59,U-D,0.0002384185791015,1.131,43.74871679704292,510,75.0,17.800994539460685,1.5237628253705082,1.535782695711441,1.3827128639707058,0.6304872463436165,0.4965673015919763,0.0017126519919852,0.0017126519919852,0.0017126519919852,0.0009428867466908,0.000656618719699,0.7573417433926519,0.681870592985388,0.652356670963932,0.6063208731693766,0.6063208731693766,E-W,0.0002384185791015,2.285,N-S,0.0002384185791015,2.208
19960611142500.knt,IBR0109606111425.UD,1996-06-11, 14:25:00,35.953,140.097,71,3.9,IBR010,36.1843,139.9653,23,1996-06-11, 14:26:03,100Hz,59,U-D,0.0002384185791015,5.126,28.31265075912603,690,691.0,27.05923018045289,8.277262118253754,8.249628857800742,7.565641751065279,6.390764990432961,4.258842089595378,0.0127137913321667,0.0127137913321667,0.0127137913321667,0.0115644871610743,0.0096473946589247,3.432636619629939,3.432636619629939,3.432636619629939,3.432636619629939,3.432636619629939,E-W,0.0002384185791015,13.058,N-S,0.0002384185791015,10.524
19960611142500.knt,IBR0119606111425.UD,1996-06-11, 14:25:00,35.953,140.097,71,3.9,IBR011,36.1251,140.0903,26,1996-06-11, 14:26:04,100Hz,59,U-D,0.0002384185791015,2.421,19.14612669765058,545,545.0,28.73127595757934,1.0386203908788614,1.0577602215501558,1.0286709795634967,0.7465543217196305,0.4555179239280828,0.0019024821544342,0.0019024821544342,0.0019024821544342,0.0016279148223942,0.001348800534267,2.42749897965916,2.42749897965916,2.42749897965916,2.42749897965916,2.42749897965916,E-W,0.0002384185791015,6.873,N-S,0.0002384185791015,3.712
19960611142500.knt,IBR0139606111425.UD,1996-06-11, 14:25:00,35.953,140.097,71,3.9,IBR013,36.1587,140.4892,28,1996-06-11, 14:26:57,100Hz,59,U-D,0.0002384185791015,8.367,42.02616264677403,1400,1413.0,28.83954462117949,0.631851777887913,0.6499119197949962,0.7013191446050862,0.7765683765815907,0.6707233563239116,0.0088627316848795,0.0088627316848795,0.0088627316848795,0.0088627316848795,0.0088627316848795,8.34270158075363,8.34270158075363,8.34270158075363,8.34270158075363,8.34270158075363,E-W,0.0002384185791015,8.969,N-S,0.0002384185791015,12.35
19960611142500.knt,IBR0149606111425.UD,1996-06-11, 14:25:00,35.953,140.097,71,3.9,IBR014,36.0729,140.1947,11,1996-06-11, 14:26:55,100Hz,59,U-D,0.0002384185791015,4.643,15.96777150328204,1441,70.0,21.045328123533544,1.800081212660439,1.5237121984561102,1.1527193968661311,0.6432668850785771,0.5857519809016246,0.0051211626458349,0.0049928372666693,0.0042711868254858,0.0033280594566423,0.0033280594566423,3.66482237858134,3.66482237858134,3.66482237858134,3.66482237858134,3.66482237858134,E-W,0.0002384185791015,7.985,N-S,0.0002384185791015,6.986
19960611142500.knt,IBR0159606111425.UD,1996-06-11, 14:25:00,35.953,140.097,71,3.9,IBR015,36.0693,139.908,14,1996-06-11, 14:26:03,100Hz,59,U-D,0.0002384185791015,4.025,21.359485618389737,656,656.0,28.144329277608698,4.745165867327806,5.356398556778833,5.323421318517722,4.336090666709732,1.9296749758266412,0.0072214261795605,0.0072214261795605,0.0072214261795605,0.006480065152909,0.0043832466820472,2.1902082299425274,2.161901513057607,2.161901513057607,2.161901513057607,2.161901513057607,E-W,0.0002384185791015,8.07,N-S,0.0002384185791015,8.378
19960611142500.knt,IBR0169606111425.UD,1996-06-11, 14:25:00,35.953,140.097,71,3.9,IBR016,35.9112,140.0494,20,1996-06-11, 14:26:03,100Hz,59,U-D,0.0002384185791015,6.228,6.322242432415719,658,658.0,24.05305611007174,7.474279462081858,7.457414131801578,7.008421379482372,6.307877924925094,4.366041388753841,0.0258372749249427,0.0258372749249427,0.0258372749249427,0.0252258128288104,0.0205147060378535,5.276315693825548,5.276315693825548,5.276315693825548,5.276315693825548,5.276315693825548,E-W,0.0002384185791015,11.942,N-S,0.0002384185791015,9.362
19960611142500.knt,IBR0179606111425.UD,1996-06-11, 14:25:00,35.953,140.097,71,3.9,IBR017,35.9537,140.3194,17,1996-06-11, 14:26:56,100Hz,59,U-D,0.0002384185791015,7.766,20.01876471466469,1388,1386.0,30.7712826866897,0.6232835453015784,0.6191120098938224,0.5827555341086407,0.5073174780338935,0.4262431966895346,0.0049737231928465,0.0049737231928465,0.0049737231928465,0.0049737231928465,0.0049737231928465,7.772290028760927,7.772290028760927,7.772290028760927,7.772290028760927,7.772290028760927,E-W,0.0002384185791015,6.429,N-S,0.0002384185791015,8.191
19960611142500.knt,SIT0039606111425.UD,1996-06-11, 14:25:00,35.953,140.097,71,3.9,SIT003,36.072,139.6968,9,1996-06-11, 14:26:05,100Hz,59,U-D,0.0002384185791015,3.153,38.35074633974563,599,612.0,21.414705759741075,2.390580712834075,2.758802459269709,2.943368486553518,3.236323199147769,2.1142396690074725,0.004417247746517,0.004417247746517,0.004417247746517,0.003939040668979,0.0021258207739968,1.1423434782791069,1.1423434782791069,1.1423434782791069,0.6496161893828178,0.6496161893828178,E-W,0.0002384185791015,2.328,N-S,0.0002384185791015,1.753
19960611142500.knt,TCG0039606111425.UD,1996-06-11, 14:25:00,35.953,140.097,71,3.9,TCG003,36.8144,139.7153,398,1996-06-11, 14:26:15,100Hz,59,U-D,0.0002384185791015,0.829,101.69526982845768,177,178.0,18.95148732649944,8.799643877662902,7.808950167313057,9.436896814039072,13.442707403809818,19.481751179400767,0.0074085766429592,0.0074085766429592,0.0074085766429592,0.0074085766429592,0.0074085766429592,0.3273916617135775,0.3273916617135775,0.2147775939763165,0.2147775939763165,0.2147775939763165,E-W,0.0002384185791015,5.844,N-S,0.0002384185791015,6.548
19960611142500.knt,TCG0059606111425.UD,1996-06-11, 14:25:00,35.953,140.097,71,3.9,TCG005,36.8061,139.9264,197,1996-06-11, 14:26:15,100Hz,59,U-D,0.0002384185791015,1.469,96.08193902309372,125,61.0,17.42947813336906,2.215796624095711,2.4839785508628114,2.809824305926301,3.91752275459092,3.153337055946188,0.0015766921929513,0.0013287304550995,0.0013287304550995,0.0013265707624428,0.0010189466424997,0.4841752718751572,0.4841752718751572,0.4841752718751572,0.2517204407424642,0.2517204407424642,E-W,0.0002384185791015,6.001,N-S,0.0002384185791015,8.933
19960611142500.knt,TCG0079606111425.UD,1996-06-11, 14:25:00,35.953,140.097,71,3.9,TCG007,36.5692,139.8861,138,1996-06-11, 14:26:09,100Hz,59,U-D,0.0002384185791015,1.767,71.07960362007516,413,433.0,22.36961617147154,1.459261184331665,1.3896763492315254,1.62198811067017,1.760550480541767,1.6462091520822657,0.0013616568853856,0.0013616568853856,0.0013616568853856,0.0013616568853856,0.0013616568853856,0.7029039758596765,0.7029039758596765,0.6796738935939661,0.6796738935939661,0.5450129824718617,E-W,0.0002384185791015,4.883,N-S,0.0002384185791015,2.916
19960611142500.knt,TCG0099606111425.UD,1996-06-11, 14:25:00,35.953,140.097,71,3.9,TCG009,36.7258,139.7155,361,1996-06-11, 14:26:14,100Hz,59,U-D,0.0002384185791015,6.969,92.47602114981314,1370,30.0,17.198294737005206,0.2551373298617329,0.2511492138740283,0.2381339459362091,0.2460872120550113,0.3072175304691837,0.006288023372192,0.006288023372192,0.006288023372192,0.006288023372192,0.006288023372192,6.962726731156592,6.962726731156592,6.962726731156592,6.962726731156592,6.962726731156592,E-W,0.0002384185791015,15.129,N-S,0.0002384185791015,13.718
19960611142500.knt,TCG0109606111425.UD,1996-06-11, 14:25:00,35.953,140.097,71,3.9,TCG010,36.6347,139.4376,640,1996-06-11, 14:26:14,100Hz,59,U-D,0.0002384185791015,3.752,96.11555328931492,216,195.0,29.04939155711964,5.06510568754215,5.159913916757371,5.655009603329874,5.860928336001752,4.731730105662428,0.017927594399654,0.017927594399654,0.017927594399654,0.017927594399654,0.017927594399654,2.267820971025005,2.267820971025005,2.267820971025005,2.267820971025005,2.267820971025005,E-W,0.0002384185791015,5.151,N-S,0.0002384185791015,7.858
19960611142500.knt,TCG0129606111425.UD,1996-06-11, 14:25:00,35.953,140.097,71,3.9,TCG012,36.2859,139.8047,33,1996-06-11, 14:26:05,100Hz,59,U-D,0.0002384185791015,5.151,45.38240569532144,639,236.0,15.761066398934494,12.56563775989572,12.136903629015215,10.463630501326216,7.921126234072141,4.742150490754876,0.0264935212996743,0.0264935212996743,0.026194010890733,0.0226656244043506,0.0151729285912626,2.049358191275512,1.869837504306309,1.869837504306309,1.869837504306309,1.869837504306309,E-W,0.0002384185791015,7.333,N-S,0.0002384185791015,4.426
19960611142500.knt,TCG0139606111425.UD,1996-06-11, 14:25:00,35.953,140.097,71,3.9,TCG013,36.4368,140.0225,67,1996-06-11, 14:26:06,100Hz,59,U-D,0.0002384185791015,4.341,54.20990386195931,578,584.0,26.624239554302704,4.674624027398572,3.881327427870357,2.837335675196135,1.655870056011956,0.8247359083331617,0.0088912004458614,0.0085727761233728,0.0071447463627725,0.0048359065156705,0.0027036671650735,2.3323172066159787,2.3323172066159787,2.3323172066159787,2.3323172066159787,2.3323172066159787,E-W,0.0002384185791015,10.111,N-S,0.0002384185791015,9.008
19960611142500.knt,TCG0149606111425.UD,1996-06-11, 14:25:00,35.953,140.097,71,3.9,TCG014,36.545,140.1742,130,1996-06-11, 14:26:01,100Hz,59,U-D,0.0002384185791015,9.341,66.19040951932226,1185,1194.0,32.021517699359066,0.8089280778984467,0.6678757043936013,0.5798649531342935,0.5524138244788678,0.247257778953653,0.0032979572584166,0.0032979572584166,0.0032979572584166,0.0021932066343463,0.001147763932413,3.374825517290072,3.374825517290072,3.374825517290072,2.051839479105155,1.8395105325710288,E-W,0.0002384185791015,14.105,N-S,0.0002384185791015,12.211
19960612011500.knt,CHB0039606120115.UD,1996-06-12, 01:15:00,35.736,140.714,61,4.4,CHB003,35.7943,140.0564,28,1996-06-12, 01:15:23,100Hz,59,U-D,0.0002384185791015,3.179,59.685419157173264,265,276.0,24.059924174411464,7.809371649031491,8.23345705333274,9.735192626930887,11.960775757508346,12.37103110822964,0.0544530505548366,0.0544530505548366,0.0544530505548366,0.0544530505548366,0.0544530505548366,2.398251185106163,2.398251185106163,2.398251185106163,2.398251185106163,2.398251185106163,E-W,0.0002384185791015,12.598,N-S,0.0002384185791015,4.538
19960612011500.knt,CHB0049606120115.UD,1996-06-12, 01:15:00,35.736,140.714,61,4.4,CHB004,35.9007,140.4905,14,1996-06-12, 01:15:09,100Hz,59,U-D,0.0002384185791015,6.002,27.23042084538293,1350,1369.0,21.72720486925877,0.4623862594944156,0.4793835294319779,0.5077959585752801,0.4863329681330068,0.4042238115263853,0.0081803443752717,0.0081803443752717,0.0081803443752717,0.0081803443752717,0.0081803443752717,5.990306316419876,5.990306316419876,5.990306316419876,5.990306316419876,5.990306316419876,E-W,0.0002384185791015,13.136,N-S,0.0002384185791015,7.159
19960612011500.knt,CHB0069606120115.UD,1996-06-12, 01:15:00,35.736,140.714,61,4.4,CHB006,35.7801,140.3067,27,1996-06-12, 01:15:09,100Hz,59,U-D,0.0002384185791015,12.193,37.077887247364295,1429,1443.0,37.24061461098749,0.5422785395647636,0.537124451346706,0.5044154453186672,0.3745205440642061,0.3045769128008859,0.0105689723739121,0.0105689723739121,0.0105689723739121,0.0092281496507263,0.0092281496507263,12.206719862013538,12.206719862013538,12.206719862013538,12.206719862013538,12.206719862013538,E-W,0.0002384185791015,8.822,N-S,0.0002384185791015,7.631
19960612011500.knt,CHB0099606120115.UD,1996-06-12, 01:15:00,35.736,140.714,61,4.4,CHB009,35.6082,140.1022,4,1996-06-12, 01:15:12,100Hz,59,U-D,0.0002384185791015,2.876,57.06231018002475,1394,170.0,20.61842991434396,1.070482316208382,1.1027548053864746,1.1250146120957925,0.9848783399094492,0.6580388413170372,0.0078354668603929,0.0078354668603929,0.0078354668603929,0.0078354668603929,0.0073548983854121,2.885500336760064,2.885500336760064,2.885500336760064,2.885500336760064,2.885500336760064,E-W,0.0002384185791015,2.218,N-S,0.0002384185791015,3.594
19960612011500.knt,CHB0109606120115.UD,1996-06-12, 01:15:00,35.736,140.714,61,4.4,CHB010,35.7077,140.568,8,1996-06-12, 01:15:08,100Hz,59,U-D,0.0002384185791015,5.656,13.550574207616515,1373,1384.0,37.104176175790414,0.5802148001899389,0.5309384103469783,0.5064390015349439,0.3281178378475474,0.2706066483650746,0.0077745895600181,0.0077745895600181,0.0077745895600181,0.0042049831296058,0.0041763517130097,5.70629267488591,5.70629267488591,5.70629267488591,5.70629267488591,5.70629267488591,E-W,0.0002384185791015,21.198,N-S,0.0002384185791015,11.272
19960612011500.knt,CHB0119606120115.UD,1996-06-12, 01:15:00,35.736,140.714,61,4.4,CHB011,35.6021,140.5014,2,1996-06-12, 01:15:08,100Hz,59,U-D,0.0002384185791015,3.392,24.30059798754064,1447,1457.0,29.955241478569967,1.1855437252285426,1.1303117598558443,1.1823870534534495,1.183138374740784,1.0072275689494787,0.0079725322658962,0.0079725322658962,0.0079725322658962,0.0079725322658962,0.007223576560621,2.7222414177421297,2.7222414177421297,2.7222414177421297,2.7222414177421297,2.7222414177421297,E-W,0.0002384185791015,9.322,N-S,0.0002384185791015,8.887
19960612011500.knt,CHB0129606120115.UD,1996-06-12, 01:15:00,35.736,140.714,61,4.4,CHB012,35.5727,140.3333,62,1996-06-12, 01:15:10,100Hz,59,U-D,0.0002384185791015,5.919,38.8953507167127,1382,1390.0,36.09711813468741,0.96260980365384,0.8921469099717814,0.880823044004498,0.7058067656310597,0.4744571122722148,0.0140838593954319,0.0140838593954319,0.0140838593954319,0.0140838593954319,0.0140838593954319,5.905287789760286,5.905287789760286,5.905287789760286,5.905287789760286,5.905287789760286,E-W,0.0002384185791015,7.506,N-S,0.0002384185791015,8.172
19960612011500.knt,IBR0149606120115.UD,1996-06-12, 01:15:00,35.736,140.714,61,4.4,IBR014,36.0729,140.1947,11,1996-06-12, 01:15:11,100Hz,59,U-D,0.0002384185791015,2.88,59.92470880923578,1435,1421.0,30.367039295314022,1.3881283028592677,1.3565286180748222,0.9977151859961436,0.5547674504980509,0.4978313064233756,0.0066627176551971,0.0066627176551971,0.0066627176551971,0.0036725364574813,0.0036487241016382,2.8607166611935457,2.8607166611935457,2.8607166611935457,2.8607166611935457,2.8607166611935457,E-W,0.0002384185791015,4.777,N-S,0.0002384185791015,4.989
19960612011500.knt,TCG0149606120115.UD,1996-06-12, 01:15:00,35.736,140.714,61,4.4,TCG014,36.545,140.1742,130,1996-06-12, 01:15:30,100Hz,59,U-D,0.0002384185791015,1.335,102.1847821363814,77,90.0,26.15504224697792,1.1665225462165656,1.2212441128596092,1.2472498296761363,1.4285836946961463,0.6758856452805997,0.0028557872344022,0.0028557872344022,0.0026096212230321,0.002190312283587,0.0014383141698741,1.2951392094605172,1.2658511335963178,1.131529383334546,0.8375549964901338,0.3373227821851801,E-W,0.0002384185791015,3.733,N-S,0.0002384185791015,2.778
19960612070800.knt,KNG0129606120708.UD,1996-06-12, 07:08:00,35.486,138.947,24,3.2,KNG012,35.3794,139.2048,138,1996-06-12, 07:08:48,100Hz,59,U-D,0.0002384185791015,0.898,26.192594991401517,919,203.00000000000003,15.638152013678932,11.68284507871473,8.420743671726978,4.855530388659232,4.5001483864889495,12.744464314398783,0.0204140012722537,0.0191694867109868,0.0119993429249314,0.0046913525121895,0.0046913525121895,0.6538051817980773,0.4519000900428314,0.4519000900428314,0.4519000900428314,0.4519000900428314,E-W,0.0002384185791015,2.391,N-S,0.0002384185791015,1.866
