earthquake name,records name,earthquake date,earthquake time,lat,long,depth,mag,stn_code,stn_lat,stn_long,stn_height,rcd_date,rcd_time,frequency,rcd_duration,direction,scale_factor,max_pga,epi_dist,pick_index_manually,pick_index_kalkan,snr_db_kalkan,tc_5sec,tc_4sec,tc_3sec,tc_2sec,tc_1sec,Pd_5sec,Pd_4sec,Pd_3sec,Pd_2sec,Pd_1sec,Pga_5sec,Pga_4sec,Pga_3sec,Pga_2sec,Pga_1sec,Channel,Scale_factor,PGA_ew,Channel.1,Scale_factor.1,PGA_ns
19960523183600.knt,MYG0099605231836.UD,1996-05-23, 18:36:00,38.653,142.313,39,5.0,MYG009,38.4466,140.8874,25,1996-05-23, 18:37:04,100Hz,59,U-D,0.0002384185791015,5.409,126.07790045851834,119,134.0,21.06591119820541,3.031108969430903,3.232942239588372,3.1786399908738003,2.6459779284562863,1.6503353487644763,0.016235403376358,0.016235403376358,0.016235403376358,0.016235403376358,0.0140123304656353,2.552155304842079,2.552155304842079,2.552155304842079,2.552155304842079,2.552155304842079,E-W,0.0002384185791015,8.302,N-S,0.0002384185791015,7.717
19960523183600.knt,MYG0109605231836.UD,1996-05-23, 18:36:00,38.653,142.313,39,5.0,MYG010,38.4282,141.2809,2,1996-05-23, 18:37:47,100Hz,72,U-D,0.0002384185791015,12.481,93.17960548597355,1354,1368.0,32.77931079882508,0.3181613141046555,0.3178338074182525,0.3334781131490253,0.3359820825724354,0.298975347823865,0.0039827922862284,0.0039827922862284,0.0039827922862284,0.0039827922862284,0.0039827922862284,3.713273396807635,3.713273396807635,3.703410062041644,3.703410062041644,3.487067937985899,E-W,0.0002384185791015,61.689,N-S,0.0002384185791015,45.004
19960523183600.knt,MYG0119605231836.UD,1996-05-23, 18:36:00,38.653,142.313,39,5.0,MYG011,38.2972,141.5043,30,1996-05-23, 18:37:45,100Hz,89,U-D,0.0002384185791015,128.019,80.75390177367524,1404,1436.0,27.758222853106325,0.2723764395293406,0.2208910233492195,0.1877062856552381,0.183767448980963,0.1823790047088105,0.0088815642955772,0.0088815642955772,0.0079852279305056,0.0079852279305056,0.0079852279305056,23.4825321743142,23.4825321743142,19.477478779920624,19.477478779920624,16.908448772257216,E-W,0.0002384185791015,557.839,N-S,0.0002384185791015,567.939
19960523183600.knt,MYG0129605231836.UD,1996-05-23, 18:36:00,38.653,142.313,39,5.0,MYG012,38.3233,141.0272,2,1996-05-23, 18:37:50,100Hz,61,U-D,0.0002384185791015,9.721,117.76194903623356,1391,1405.0,31.79837307717518,5.062492253256615,5.207737326355929,4.737266127074549,2.4521460464435454,0.6106796179662494,0.048271497790551,0.048271497790551,0.0449689410536474,0.0283791684573097,0.008203068280549,4.3020737807654506,4.3020737807654506,4.3020737807654506,4.3020737807654506,4.3020737807654506,E-W,0.0002384185791015,16.709,N-S,0.0002384185791015,10.59
19960523183600.knt,MYG0139605231836.UD,1996-05-23, 18:36:00,38.653,142.313,39,5.0,MYG013,38.2663,140.9293,5,1996-05-23, 18:37:59,100Hz,59,U-D,0.0002384185791015,6.27,127.92138524910862,635,665.0,32.97245677821704,0.8171091752312527,0.731201749079774,0.7478768467191894,0.7718352799538241,0.6747148416800699,0.0047923700286094,0.0045372765837177,0.0045372765837177,0.0045372765837177,0.0026260962486239,2.955479860418914,2.955479860418914,2.955479860418914,2.955479860418914,1.678631367144022,E-W,0.0002384185791015,14.26,N-S,0.0002384185791015,18.431
19960523183600.knt,MYG0159605231836.UD,1996-05-23, 18:36:00,38.653,142.313,39,5.0,MYG015,38.1049,140.8699,3,1996-05-23, 18:37:54,100Hz,73,U-D,0.0002384185791015,5.644,139.77638718511713,1311,1355.0,31.846538157173782,0.4442815479243558,0.4261001836323642,0.4192390207010781,0.4541215178852626,0.6687879857457603,0.0115685297125827,0.0115685297125827,0.0115685297125827,0.0115685297125827,0.0114091890322888,3.203304098968288,3.203304098968288,3.203304098968288,3.203304098968288,1.4470048257675732,E-W,0.0002384185791015,13.42,N-S,0.0002384185791015,21.299
19960526045100.knt,FKS0049605260451.UD,1996-05-26, 04:51:00,36.72,141.297,41,4.2,FKS004,37.6799,140.7346,488,1996-05-26, 04:52:31,100Hz,59,U-D,0.0002384185791015,2.575,117.7863767400133,4,178.0,13.686732056059538,13.206891955186144,13.845458505875834,11.25827723101312,6.792918560739532,2.9481624023299937,0.0843927271167355,0.0843927271167355,0.0843927271167355,0.0704862907483381,0.0310060146045453,1.5764579281278208,1.5764579281278208,1.2260007583127654,0.8154714499176712,0.0997363569933654,E-W,0.0002384185791015,4.371,N-S,0.0002384185791015,7.116
19960526045100.knt,FKS0059605260451.UD,1996-05-26, 04:51:00,36.72,141.297,41,4.2,FKS005,37.6385,140.9849,16,1996-05-26, 04:52:28,100Hz,59,U-D,0.0002384185791015,1.495,105.80902922614452,265,265.0,24.98035118204846,8.088044635579543,8.549758242305876,10.351729818362193,13.202450289453743,15.360874693350873,0.0124638414000218,0.0124638414000218,0.0124638414000218,0.0124638414000218,0.0124638414000218,1.2580867895595182,1.2580867895595182,1.2580867895595182,1.0577195519541365,0.569256263592271,E-W,0.0002384185791015,3.907,N-S,0.0002384185791015,3.046
19960526045100.knt,FKS0089605260451.UD,1996-05-26, 04:51:00,36.72,141.297,41,4.2,FKS008,37.4363,140.5668,430,1996-05-26, 04:52:27,100Hz,59,U-D,0.0002384185791015,2.57,102.66444631510196,370,382.0,27.25957078947701,8.250474509710683,6.750307295303911,5.489483212498853,5.764389858141482,8.392049363834115,0.0171969798554424,0.0171969798554424,0.0171969798554424,0.0171969798554424,0.0171969798554424,2.537927482645869,2.537927482645869,2.537927482645869,2.537927482645869,2.537927482645869,E-W,0.0002384185791015,6.757,N-S,0.0002384185791015,5.928
19960526045100.knt,FKS0099605260451.UD,1996-05-26, 04:51:00,36.72,141.297,41,4.2,FKS009,37.2778,140.6349,440,1996-05-26, 04:52:24,100Hz,59,U-D,0.0002384185791015,2.654,85.46445932979796,442,454.0,19.132286730921336,9.313879699573851,7.361279278917915,5.919766173181845,6.080180589944094,8.278102039144875,0.0467675265567249,0.0467675265567249,0.0467675265567249,0.0467675265567249,0.0467675265567249,2.244493488241313,2.244493488241313,2.244493488241313,2.244493488241313,2.244493488241313,E-W,0.0002384185791015,3.867,N-S,0.0002384185791015,6.096
19960526045100.knt,FKS0109605260451.UD,1996-05-26, 04:51:00,36.72,141.297,41,4.2,FKS010,37.2342,141.0016,50,1996-05-26, 04:52:20,100Hz,59,U-D,0.0002384185791015,1.549,62.910283171613656,598,598.0,27.79126743267686,10.4467831717272,9.08619225163863,6.691433878077516,3.911037919947938,1.7306366739596055,0.0188891820760597,0.0188891820760597,0.0169999670400293,0.0108955677726892,0.0045258705547952,0.8342813897127391,0.8342813897127391,0.8342813897127391,0.7363407741513932,0.7363407741513932,E-W,0.0002384185791015,3.967,N-S,0.0002384185791015,3.27
19960526045100.knt,FKS0119605260451.UD,1996-05-26, 04:51:00,36.72,141.297,41,4.2,FKS011,37.0911,140.9035,165,1996-05-26, 04:52:11,100Hz,59,U-D,0.0002384185791015,3.318,54.10072166232408,1369,1369.0,34.79917433648679,6.050912103827383,5.938730678617289,4.772036180491079,2.964164083760053,1.2741876806514802,0.0158427187912642,0.0158427187912642,0.0154723455577727,0.0127947538933154,0.0071471058775494,3.295376294483881,3.295376294483881,3.295376294483881,3.295376294483881,3.295376294483881,E-W,0.0002384185791015,3.855,N-S,0.0002384185791015,4.338
19960526045100.knt,FKS0129605260451.UD,1996-05-26, 04:51:00,36.72,141.297,41,4.2,FKS012,36.9069,140.7929,2,1996-05-26, 04:52:10,100Hz,59,U-D,0.0002384185791015,6.286,49.45435780997396,1429,1444.0,17.080962245172444,2.3254471097734024,2.2136486242101543,1.7285911987174307,0.9839440882471956,0.4630568948909854,0.0117769172491282,0.0117769172491282,0.0110936197881362,0.0094657723180804,0.005567389734199,6.302363957038644,6.302363957038644,6.302363957038644,6.302363957038644,6.302363957038644,E-W,0.0002384185791015,5.728,N-S,0.0002384185791015,5.72
19960526045100.knt,FKS0179605260451.UD,1996-05-26, 04:51:00,36.72,141.297,41,4.2,FKS017,37.2842,140.3689,263,1996-05-26, 04:52:30,100Hz,59,U-D,0.0002384185791015,1.795,103.57689917741448,131,127.0,28.843867225575963,4.227759384756486,3.797215864181161,2.786453105501758,1.5174081560025947,0.5786618459625309,0.0089348661567242,0.0089348661567242,0.0089348661567242,0.0058372086435341,0.0032351043944209,1.8054792181549573,1.8054792181549573,1.8054792181549573,1.8054792181549573,1.8054792181549573,E-W,0.0002384185791015,3.026,N-S,0.0002384185791015,2.753
19960526045100.knt,IBR0039605260451.UD,1996-05-26, 04:51:00,36.72,141.297,41,4.2,IBR003,36.5915,140.6453,58,1996-05-26, 04:52:11,100Hz,59,U-D,0.0002384185791015,3.365,59.86474742778526,1425,1439.0,29.279974508039327,0.6373848541459227,0.5222427026692772,0.3584876446973997,0.2392379619734563,0.1979802382036709,0.0030614350157769,0.0029975026546029,0.002833011018323,0.0024470409868245,0.0024470409868245,3.269665762706779,3.269665762706779,3.269665762706779,3.269665762706779,3.269665762706779,E-W,0.0002384185791015,7.587,N-S,0.0002384185791015,7.992
19960526134300.knt,KGS0189605261343.UD,1996-05-26, 13:43:00,30.521,130.631,62,4.2,KGS018,31.3757,130.5449,51,1996-05-26, 13:43:02,100Hz,59,U-D,0.0002384185791015,6.487,95.3923206081363,1398,1203.0,23.73343950860167,0.807497247984225,0.6784451019085558,0.4685251578505668,0.3019971849333147,0.251358089493436,0.0079601548965015,0.0079601548965015,0.0073801905671846,0.0051519337698285,0.0051519337698285,6.480615667418375,6.480615667418375,6.480615667418375,6.480615667418375,6.480615667418375,E-W,0.0002384185791015,6.757,N-S,0.0002384185791015,7.705
19960526134300.knt,KGS0199605261343.UD,1996-05-26, 13:43:00,30.521,130.631,62,4.2,KGS019,31.2776,130.3008,10,1996-05-26, 13:43:12,100Hz,299,U-D,0.0002384185791015,2.313,89.8355822445415,300,309.0,19.46563238242998,4.060560276937435,3.755628351125244,3.815026848980043,4.744321764777308,6.763787959243315,0.0092874761413989,0.0092874761413989,0.0092874761413989,0.0092874761413989,0.0092874761413989,2.285972559050369,2.285972559050369,2.285972559050369,2.285972559050369,2.285972559050369,E-W,0.0002384185791015,8.474,N-S,0.0002384185791015,8.32
19960526134300.knt,KGS0209605261343.UD,1996-05-26, 13:43:00,30.521,130.631,62,4.2,KGS020,31.2396,130.4915,21,1996-05-26, 13:43:00,100Hz,59,U-D,0.0002384185791015,2.648,81.0060625047999,1424,295.0,24.333101314791,1.730271051822947,1.5894079957142695,1.2927921045591089,0.9327604804136332,0.7318012794406141,0.0073533721609806,0.0073533721609806,0.006481518476263,0.0042939884690619,0.0039384322588727,2.6304302173692555,2.6304302173692555,2.6304302173692555,2.6304302173692555,2.6304302173692555,E-W,0.0002384185791015,10.482,N-S,0.0002384185791015,12.027
19960526134300.knt,KGS0229605261343.UD,1996-05-26, 13:43:00,30.521,130.631,62,4.2,KGS022,31.2804,131.0504,12,1996-05-26, 13:43:01,100Hz,59,U-D,0.0002384185791015,3.046,93.44281655250876,1428,1443.0,28.405825984239897,0.4466397422027621,0.4144791065736036,0.366268301366401,0.3810645158023745,0.3729370811444658,0.0026305659085954,0.0026305659085954,0.0026305659085954,0.0026305659085954,0.0026305659085954,3.059322598985323,3.059322598985323,3.059322598985323,3.059322598985323,3.059322598985323,E-W,0.0002384185791015,3.772,N-S,0.0002384185791015,3.078
19960526134300.knt,KGS0239605261343.UD,1996-05-26, 13:43:00,30.521,130.631,62,4.2,KGS023,31.199,130.849,179,1996-05-26, 13:43:00,100Hz,59,U-D,0.0002384185791015,3.741,78.20910186122407,1358,1368.0,36.504471496205895,9.208910762648086,8.050638986734981,5.516175730731738,2.843639732113618,0.8062559676496672,0.0452805897616735,0.0447265765015695,0.0365224124612167,0.022718457300185,0.0034977017629932,2.4603605759096325,2.4603605759096325,2.4603605759096325,2.4603605759096325,2.4603605759096325,E-W,0.0002384185791015,6.224,N-S,0.0002384185791015,5.267
19960526134300.knt,KGS0269605261343.UD,1996-05-26, 13:43:00,30.521,130.631,62,4.2,KGS026,30.5202,130.9543,115,1996-05-26, 13:43:55,100Hz,59,U-D,0.0002384185791015,10.159,30.96853738273376,1428,1443.0,27.77745798958524,0.4851241949106917,0.4544472957960492,0.4747150998488021,0.5058242451740633,0.3910606718152793,0.0096370943349733,0.0096370943349733,0.0096370943349733,0.0096370943349733,0.0096370943349733,10.161941842004644,10.161941842004644,10.161941842004644,10.161941842004644,10.161941842004644,E-W,0.0002384185791015,7.317,N-S,0.0002384185791015,10.369
19960526134300.knt,KGS0289605261343.UD,1996-05-26, 13:43:00,30.521,130.631,62,4.2,KGS028,30.4208,130.5769,4,1996-05-26, 13:43:54,100Hz,299,U-D,0.0002384185791015,16.031,12.289034908074688,1441,1450.0,28.100143578941395,0.9596937763014868,0.7220732535906601,0.3429636954877809,0.2468372424469397,0.3327242530023009,0.0141329031067289,0.0137059934517634,0.0058273731639388,0.0034105122589555,0.0034105122589555,13.640080286001696,13.640080286001696,13.640080286001696,13.640080286001696,9.263724850281516,E-W,0.0002384185791015,52.041,N-S,0.0002384185791015,47.729
19960527053800.knt,AIC0059605270538.UD,1996-05-27, 05:38:00,34.903,138.197,30,4.7,AIC005,35.1979,137.2056,150,1996-05-27, 05:38:44,100Hz,59,U-D,0.0002384185791015,0.983,96.01872226585571,298,313.0,18.728321058715142,2.805780338410804,2.675173704427891,2.47926943705732,2.068216037662817,2.112516398001226,0.0021746868493057,0.0021746868493057,0.0021746868493057,0.0021746868493057,0.0012983020884995,0.5550545602129447,0.5550545602129447,0.5550545602129447,0.5506047442027175,0.4004675659579947,E-W,0.0002384185791015,3.425,N-S,0.0002384185791015,3.077
19960527053800.knt,AIC0069605270538.UD,1996-05-27, 05:38:00,34.903,138.197,30,4.7,AIC006,35.2159,137.5086,510,1996-05-27, 05:38:37,100Hz,59,U-D,0.0002384185791015,2.724,71.66933417892753,630,630.0,31.63877028934424,10.465131955906129,10.251374175133517,8.865105787005954,6.773426008734261,4.205036155278523,0.0128745353101563,0.0128745353101563,0.0128745353101563,0.011362721588374,0.0075686413303,1.3390351970147618,1.3390351970147618,1.3390351970147618,1.3390351970147618,1.3390351970147618,E-W,0.0002384185791015,11.376,N-S,0.0002384185791015,14.023
19960527053800.knt,AIC0089605270538.UD,1996-05-27, 05:38:00,34.903,138.197,30,4.7,AIC008,35.0977,137.5697,465,1996-05-27, 05:38:35,100Hz,59,U-D,0.0002384185791015,1.434,61.1016221515432,672,663.0,23.25150164684212,5.32534213147657,5.241162736533331,4.94521430280856,4.107742272404373,3.0031283491203657,0.0056726288219586,0.0056726288219586,0.0056726288219586,0.0056726288219586,0.0035682069115575,1.4308776564984405,1.4308776564984405,1.4308776564984405,1.3467663503520129,1.3467663503520129,E-W,0.0002384185791015,3.368,N-S,0.0002384185791015,5.536
19960527053800.knt,AIC0139605270538.UD,1996-05-27, 05:38:00,34.903,138.197,30,4.7,AIC013,34.9335,137.5761,80,1996-05-27, 05:38:27,100Hz,59,U-D,0.0002384185791015,8.39,56.71286632652989,1446,1445.0,35.57606376121592,0.7635178386692323,0.6060131963093198,0.4555361087625585,0.4227094069297648,0.4166546024396989,0.0079319488817943,0.0079319488817943,0.0079319488817943,0.0079319488817943,0.0079319488817943,8.358433927743395,8.358433927743395,8.358433927743395,8.358433927743395,8.358433927743395,E-W,0.0002384185791015,6.652,N-S,0.0002384185791015,5.718
19960527053800.knt,AIC0159605270538.UD,1996-05-27, 05:38:00,34.903,138.197,30,4.7,AIC015,34.7549,137.4047,8,1996-05-27, 05:38:40,100Hz,59,U-D,0.0002384185791015,1.483,74.16870990790082,438,43.0,18.583684926014264,3.614792639983555,3.2446649493259505,2.851702959602507,2.9390612869138253,3.4017029161300387,0.009611474278864,0.009611474278864,0.009611474278864,0.009611474278864,0.009611474278864,0.8767099401460388,0.8767099401460388,0.8767099401460388,0.8767099401460388,0.7819527728898193,E-W,0.0002384185791015,4.0,N-S,0.0002384185791015,3.24
19960527053800.knt,GIF0239605270538.UD,1996-05-27, 05:38:00,34.903,138.197,30,4.7,GIF023,35.3882,137.2158,275,1996-05-27, 05:38:46,100Hz,59,U-D,0.0002384185791015,1.121,104.25794258377132,219,218.00000000000003,10.521954942784246,3.9810795705782014,3.892843450374097,3.712237074191594,3.983829440767357,9.117905670726143,0.0036217204230942,0.0036217204230942,0.0035397439705142,0.0035397439705142,0.0031732463069294,0.7852598484303568,0.7852598484303568,0.7852598484303568,0.7852598484303568,0.3545723521821048,E-W,0.0002384185791015,3.374,N-S,0.0002384185791015,4.963
19960527053800.knt,SZO0039605270538.UD,1996-05-27, 05:38:00,34.903,138.197,30,4.7,SZO003,34.8158,139.0546,149,1996-05-27, 05:38:33,100Hz,59,U-D,0.0002384185791015,2.692,78.84716264221017,1162,1179.0,27.103642972610626,0.3352132611423082,0.340808349836017,0.3116973180816884,0.2914475479852499,0.3079655396275476,0.0034766847603665,0.0034766847603665,0.0034766847603665,0.0034766847603665,0.0034766847603665,2.6916351468512003,2.6916351468512003,2.6916351468512003,2.6916351468512003,2.6916351468512003,E-W,0.0002384185791015,5.038,N-S,0.0002384185791015,5.486
19960527053800.knt,SZO0049605270538.UD,1996-05-27, 05:38:00,34.903,138.197,30,4.7,SZO004,34.6469,138.8194,50,1996-05-27, 05:38:37,100Hz,59,U-D,0.0002384185791015,1.093,63.58076249512629,547,552.0,23.917067977683462,2.671238705257459,2.7650622153083035,2.143878591229321,1.1069857887912276,0.4966249369267789,0.0029822483939339,0.0029822483939339,0.0028227643374139,0.0015397693865795,0.0008513785854131,0.9428351250803352,0.9428351250803352,0.9428351250803352,0.9428351250803352,0.9428351250803352,E-W,0.0002384185791015,5.247,N-S,0.0002384185791015,3.958
19960527053800.knt,SZO0059605270538.UD,1996-05-27, 05:38:00,34.903,138.197,30,4.7,SZO005,34.7549,138.7841,8,1996-05-27, 05:38:35,100Hz,59,U-D,0.0002384185791015,1.891,56.06105812376511,631,626.0,10.667421619300669,5.161951241057345,4.176998750553292,2.863603069229286,1.5490519154132794,0.936518078965483,0.0102593145780827,0.0099510643861922,0.0078488983520234,0.0049485207903424,0.004472125631506,1.331002182525196,1.331002182525196,1.331002182525196,1.331002182525196,1.331002182525196,E-W,0.0002384185791015,8.703,N-S,0.0002384185791015,6.479
19960527053800.knt,SZO0149605270538.UD,1996-05-27, 05:38:00,34.903,138.197,30,4.7,SZO014,34.9649,138.3735,18,1996-05-27, 05:38:22,100Hz,59,U-D,0.0002384185791015,4.121,17.4999779180957,1403,1390.0,32.1850156550841,0.904437411057613,0.5935399450141798,0.5001347508187735,0.4907578635958121,0.4986716388029901,0.0104882525353447,0.0068505131719359,0.0068505131719359,0.0068505131719359,0.0068505131719359,4.153724632547471,4.153724632547471,4.153724632547471,4.153724632547471,4.153724632547471,E-W,0.0002384185791015,8.845,N-S,0.0002384185791015,13.052
19960527053800.knt,SZO0169605270538.UD,1996-05-27, 05:38:00,34.903,138.197,30,4.7,SZO016,34.8566,138.3113,3,1996-05-27, 05:38:21,100Hz,59,U-D,0.0002384185791015,14.903,11.633081968343353,1489,1487.0,35.92931379850525,0.5737283718758587,0.5143115453672678,0.4543561241879683,0.4124128291398483,0.4131018717836414,0.0230802579232491,0.0230802579232491,0.0230802579232491,0.0230802579232491,0.0230802579232491,14.76565453409248,14.76565453409248,14.76565453409248,14.76565453409248,14.76565453409248,E-W,0.0002384185791015,5.853,N-S,0.0002384185791015,11.922
19960527053800.knt,SZO0179605270538.UD,1996-05-27, 05:38:00,34.903,138.197,30,4.7,SZO017,34.6374,138.1281,8,1996-05-27, 05:38:31,100Hz,59,U-D,0.0002384185791015,3.137,30.196463485382296,827,53.0,21.47905033806472,9.947619332826772,11.476486002410894,17.30639237857158,23.94180521887249,25.05148681447845,0.0449847968468534,0.0449847968468534,0.0449847968468534,0.0449847968468534,0.0449847968468534,0.6366461482099038,0.6366461482099038,0.6366461482099038,0.6366461482099038,0.4745584075735972,E-W,0.0002384185791015,5.444,N-S,0.0002384185791015,4.239
19960527053800.knt,SZO0189605270538.UD,1996-05-27, 05:38:00,34.903,138.197,30,4.7,SZO018,34.7402,138.2241,4,1996-05-27, 05:38:28,100Hz,59,U-D,0.0002384185791015,4.428,18.270778773396213,932,932.0,35.40537805755805,2.1619205560438672,2.331869103177766,2.539045643390478,2.739865263412751,2.5186601221927893,0.0212904512650243,0.0212904512650243,0.0212904512650243,0.0212904512650243,0.0212904512650243,3.47248712279713,3.47248712279713,3.47248712279713,3.47248712279713,3.47248712279713,E-W,0.0002384185791015,15.265,N-S,0.0002384185791015,26.269
