earthquake name,records name,earthquake date,earthquake time,lat,long,depth,mag,stn_code,stn_lat,stn_long,stn_height,rcd_date,rcd_time,frequency,rcd_duration,direction,scale_factor,max_pga,epi_dist,pick_index_manually,pick_index_kalkan,snr_db_kalkan,tc_5sec,tc_4sec,tc_3sec,tc_2sec,tc_1sec,Pd_5sec,Pd_4sec,Pd_3sec,Pd_2sec,Pd_1sec,Pga_5sec,Pga_4sec,Pga_3sec,Pga_2sec,Pga_1sec,Channel,Scale_factor,PGA_ew,Channel.1,Scale_factor.1,PGA_ns
19960608161500.knt,IBR0079606081615.UD,1996-06-08, 16:15:00,36.47,140.597,54,4.1,IBR007,36.3523,140.5955,24,1996-06-08, 16:15:13,100Hz,299,U-D,0.0002384185791015,5.303,13.088331204234324,804,806.0,20.2153415495215,4.927541484371042,5.080493259182119,4.941623898573175,4.539866592467374,3.467820407188389,0.0134321434989891,0.0134321434989891,0.0134321434989891,0.0134321434989891,0.0134321434989891,2.555562015136762,2.555562015136762,2.555562015136762,2.555562015136762,2.555562015136762,E-W,0.0002384185791015,8.608,N-S,0.0002384185791015,8.912
19960608161500.knt,IBR0089606081615.UD,1996-06-08, 16:15:00,36.47,140.597,54,4.1,IBR008,36.3062,139.9828,20,1996-06-08, 16:15:19,100Hz,59,U-D,0.0002384185791015,8.465,57.9176721687927,564,34.0,14.072564805949083,7.592973398179292,6.992110987644413,5.716191060503124,3.612981731448323,1.3324198328558534,0.0191606413504361,0.0191606413504361,0.0182426147792108,0.0155038360899942,0.006814901662812,4.158118319004289,2.94946618297835,2.94946618297835,2.94946618297835,1.831700484505812,E-W,0.0002384185791015,15.412,N-S,0.0002384185791015,18.161
19960608161500.knt,IBR0099606081615.UD,1996-06-08, 16:15:00,36.47,140.597,54,4.1,IBR009,36.1848,139.7037,17,1996-06-08, 16:15:25,100Hz,59,U-D,0.0002384185791015,1.584,86.07922473281681,238,244.0,22.867471594196168,9.75358201070234,10.872500195898436,13.064082929214509,13.917982579344294,13.645632488612572,0.0111566523355051,0.0111566523355051,0.0111566523355051,0.0111566523355051,0.011103460800804,1.079318758943938,1.079318758943938,1.079318758943938,1.079318758943938,0.8868998405700518,E-W,0.0002384185791015,5.42,N-S,0.0002384185791015,3.293
19960608161500.knt,IBR0109606081615.UD,1996-06-08, 16:15:00,36.47,140.597,54,4.1,IBR010,36.1843,139.9653,23,1996-06-08, 16:15:20,100Hz,59,U-D,0.0002384185791015,4.873,64.89722049838188,514,513.0,27.982734833510325,7.385677395162171,5.785079135080963,3.944294442327199,2.5706653723003487,2.631053298811209,0.018853723980973,0.0179170597184021,0.0140375565720584,0.0121623518362695,0.0121623518362695,2.304870035986369,2.304870035986369,2.304870035986369,2.304870035986369,2.304870035986369,E-W,0.0002384185791015,10.18,N-S,0.0002384185791015,9.102
19960608161500.knt,IBR0119606081615.UD,1996-06-08, 16:15:00,36.47,140.597,54,4.1,IBR011,36.1251,140.0903,26,1996-06-08, 16:15:19,100Hz,59,U-D,0.0002384185791015,2.154,59.43738903558712,554,547.0,32.70165020323365,2.9623319147325904,2.88049367916208,2.574041372802852,2.7378445252916648,3.0379635471274997,0.0036766659154321,0.003613798677645,0.003613798677645,0.003613798677645,0.003613798677645,1.178736468685583,0.7888981078259809,0.7888981078259809,0.7888981078259809,0.7888981078259809,E-W,0.0002384185791015,7.702,N-S,0.0002384185791015,10.571
19960608161500.knt,IBR0149606081615.UD,1996-06-08, 16:15:00,36.47,140.597,54,4.1,IBR014,36.0729,140.1947,11,1996-06-08, 16:15:18,100Hz,59,U-D,0.0002384185791015,3.529,57.01230950291752,630,630.0,29.250175393939767,10.708147777305122,10.183858616932875,8.407101167159732,5.991513719993093,3.758189023553725,0.0236810943684218,0.0236810943684218,0.0226563582098564,0.0200692842164427,0.0135085029222433,2.1678624632917898,2.1678624632917898,2.1678624632917898,2.1678624632917898,2.1678624632917898,E-W,0.0002384185791015,7.705,N-S,0.0002384185791015,16.896
19960608161500.knt,IBR0159606081615.UD,1996-06-08, 16:15:00,36.47,140.597,54,4.1,IBR015,36.0693,139.908,14,1996-06-08, 16:15:23,100Hz,59,U-D,0.0002384185791015,4.889,76.16136474775529,345,343.0,22.754650438711025,7.826572668188398,6.412645119634544,6.0677786837630725,7.774465932549255,11.221707124030754,0.0131706154616573,0.0124823835584058,0.0124823835584058,0.0124823835584058,0.0124823835584058,1.3298825821801414,1.3298825821801414,1.3298825821801414,1.3298825821801414,1.3298825821801414,E-W,0.0002384185791015,9.867,N-S,0.0002384185791015,16.704
19960608161500.knt,IBR0169606081615.UD,1996-06-08, 16:15:00,36.47,140.597,54,4.1,IBR016,35.9112,140.0494,20,1996-06-08, 16:15:23,100Hz,59,U-D,0.0002384185791015,5.624,79.21948669353466,387,359.0,21.06283034078644,4.556638471758548,4.269199310156582,4.232156062048192,4.700752635047454,5.808654504465516,0.0181836768325872,0.0181836768325872,0.0181836768325872,0.0181836768325872,0.0181836768325872,2.370626109097113,2.370626109097113,2.370626109097113,2.370626109097113,2.359184165426617,E-W,0.0002384185791015,9.644,N-S,0.0002384185791015,10.264
19960608161500.knt,SIT0039606081615.UD,1996-06-08, 16:15:00,36.47,140.597,54,4.1,SIT003,36.072,139.6968,9,1996-06-08, 16:15:24,100Hz,59,U-D,0.0002384185791015,4.904,92.03900173344935,428,421.0,23.46421962614729,1.516090131704373,1.2636086421919714,0.9307056091465464,0.6279867850465708,0.4459781220294564,0.0030363169565458,0.0028398153921431,0.0024053472725704,0.0020949688615221,0.0020949688615221,1.6073733580948208,1.6073733580948208,1.6073733580948208,1.6073733580948208,1.6073733580948208,E-W,0.0002384185791015,2.735,N-S,0.0002384185791015,2.627
19960608161500.knt,SIT0099606081615.UD,1996-06-08, 16:15:00,36.47,140.597,54,4.1,SIT009,35.9032,139.4837,22,1996-06-08, 16:15:31,100Hz,59,U-D,0.0002384185791015,2.598,118.12937650711594,1,23.0,17.164094305316997,4.956902473007011,4.721100278497064,4.0539330636087945,2.5367679508694723,1.143930639109011,0.0077348232417305,0.0077348232417305,0.0077348232417305,0.0067929174507707,0.0032127622314594,2.077564607309396,2.077564607309396,2.077564607309396,2.077564607309396,1.5422903249493476,E-W,0.0002384185791015,3.841,N-S,0.0002384185791015,5.237
19960608161500.knt,TCG0069606081615.UD,1996-06-08, 16:15:00,36.47,140.597,54,4.1,TCG006,36.7639,140.1297,122,1996-06-08, 16:15:10,100Hz,59,U-D,0.0002384185791015,5.359,52.98490677807271,1405,1405.0,32.050926010035894,2.4197743221065062,2.433770203339342,2.093619797469321,1.1117680041745153,0.4575732656694366,0.008631986466128,0.008631986466128,0.008631986466128,0.0062028380047956,0.0038041998864335,2.4484186944100568,2.4484186944100568,2.4484186944100568,2.4484186944100568,2.4484186944100568,E-W,0.0002384185791015,13.586,N-S,0.0002384185791015,15.046
19960608161500.knt,TCG0079606081615.UD,1996-06-08, 16:15:00,36.47,140.597,54,4.1,TCG007,36.5692,139.8861,138,1996-06-08, 16:15:20,100Hz,59,U-D,0.0002384185791015,3.906,64.4779325067155,486,474.0,33.106868067210826,4.418265403873922,3.5185177262453053,2.7036768525232096,2.337128426301745,2.6344169270314977,0.0066130223171702,0.0064454733425445,0.0064454733425445,0.0064454733425445,0.0064454733425445,1.532343770025332,1.532343770025332,1.532343770025332,1.532343770025332,1.532343770025332,E-W,0.0002384185791015,6.161,N-S,0.0002384185791015,6.041
19960608161500.knt,TCG0089606081615.UD,1996-06-08, 16:15:00,36.47,140.597,54,4.1,TCG008,36.56,139.7675,153,1996-06-08, 16:15:22,100Hz,59,U-D,0.0002384185791015,4.254,74.80253808845072,408,408.0,27.837615086304357,1.3163609891343886,1.2870622406263033,1.3174891169789211,1.4234298252905042,1.6677454259046025,0.005988052185962,0.005988052185962,0.005988052185962,0.005988052185962,0.005988052185962,2.510738073429032,2.510738073429032,2.510738073429032,2.510738073429032,1.8099697613849612,E-W,0.0002384185791015,6.503,N-S,0.0002384185791015,6.187
19960608161500.knt,TCG0099606081615.UD,1996-06-08, 16:15:00,36.47,140.597,54,4.1,TCG009,36.7258,139.7155,361,1996-06-08, 16:15:13,100Hz,59,U-D,0.0002384185791015,6.452,83.67529190249081,1413,1436.0,18.581792946524228,0.4227571385024904,0.3885819230468446,0.3836959130927632,0.4100675212411011,0.3950297980088394,0.0047918491630632,0.0047918491630632,0.0047918491630632,0.0047918491630632,0.0047918491630632,6.453115636639765,6.453115636639765,6.453115636639765,6.453115636639765,6.453115636639765,E-W,0.0002384185791015,12.437,N-S,0.0002384185791015,9.108
19960608161500.knt,TCG0109606081615.UD,1996-06-08, 16:15:00,36.47,140.597,54,4.1,TCG010,36.6347,139.4376,640,1996-06-08, 16:15:29,100Hz,59,U-D,0.0002384185791015,3.092,105.16874686327355,99,111.0,21.49712671936633,4.720224217033748,4.6446274883407535,4.343230720472275,3.5379720832284502,2.3084085521368416,0.0102289994933949,0.0102289994933949,0.0102289994933949,0.0102289994933949,0.0084314954970693,3.1014206182468,3.1014206182468,3.1014206182468,3.1014206182468,3.1014206182468,E-W,0.0002384185791015,3.615,N-S,0.0002384185791015,5.132
19960608161500.knt,TCG0139606081615.UD,1996-06-08, 16:15:00,36.47,140.597,54,4.1,TCG013,36.4368,140.0225,67,1996-06-08, 16:15:10,100Hz,59,U-D,0.0002384185791015,13.366,51.5148273146316,1392,1404.0,34.54918090033233,0.8317986983206624,0.7175937433249668,0.5056220610861082,0.3315953157090943,0.3167123687466273,0.0083417780856871,0.0083417780856871,0.0083417780856871,0.0083417780856871,0.0083417780856871,13.451743409362097,13.451743409362097,13.451743409362097,13.451743409362097,13.451743409362097,E-W,0.0002384185791015,31.044,N-S,0.0002384185791015,23.124
19960608161500.knt,TCG0149606081615.UD,1996-06-08, 16:15:00,36.47,140.597,54,4.1,TCG014,36.545,140.1742,130,1996-06-08, 16:15:08,100Hz,59,U-D,0.0002384185791015,25.902,38.69750754345328,1483,1491.0,33.29423026173521,0.2378165934892493,0.2589514151020512,0.2372999571700394,0.1945446967924362,0.1683839285121194,0.0051330410270526,0.0047212694029318,0.003754093106607,0.003754093106607,0.003754093106607,10.807045000947843,8.204089993092397,8.204089993092397,8.204089993092397,8.204089993092397,E-W,0.0002384185791015,36.475,N-S,0.0002384185791015,33.928
19960609014600.knt,MIE0019606090146.UD,1996-06-09, 01:46:00,34.77,136.097,62,4.0,MIE001,35.1718,136.4943,128,1996-06-09, 01:46:31,100Hz,59,U-D,0.0002384185791015,1.631,57.50341863172829,496,499.0,23.967153399946334,9.59931111406011,7.868500740235611,4.806486397772502,1.8442748072881692,1.1689334630225836,0.0103795440371082,0.0102512965715793,0.0086863537956445,0.0039865760851336,0.0013305726046724,1.6391785600270146,1.6391785600270146,1.6391785600270146,1.6391785600270146,1.6391785600270146,E-W,0.0002384185791015,3.423,N-S,0.0002384185791015,4.197
19960609014600.knt,MIE0039606090146.UD,1996-06-09, 01:46:00,34.77,136.097,62,4.0,MIE003,34.9704,136.6357,2,1996-06-09, 01:46:32,100Hz,59,U-D,0.0002384185791015,1.842,53.96128812605368,420,427.00000000000006,20.743350817767645,1.9107490671009144,1.627647036583285,1.528817643697708,1.7462782665727514,1.7072515078084216,0.0017413119497462,0.0013991090999094,0.0013991090999094,0.0013991090999094,0.0013991090999094,0.7173001717332788,0.7173001717332788,0.7173001717332788,0.7173001717332788,0.7173001717332788,E-W,0.0002384185791015,6.752,N-S,0.0002384185791015,3.598
19960609014600.knt,MIE0049606090146.UD,1996-06-09, 01:46:00,34.77,136.097,62,4.0,MIE004,34.8569,136.4493,79,1996-06-09, 01:46:28,100Hz,59,U-D,0.0002384185791015,3.257,33.58259453380339,605,578.0,14.600584343086297,12.827170627649869,10.425381956721983,8.09628218214494,5.283288619928498,2.0948543626470477,0.0918118099463837,0.0792455853114936,0.0676847901709417,0.0611840252542647,0.0366230738826446,2.324875895231341,2.324875895231341,2.324875895231341,2.324875895231341,2.263139772266918,E-W,0.0002384185791015,9.613,N-S,0.0002384185791015,6.963
19960609014600.knt,MIE0059606090146.UD,1996-06-09, 01:46:00,34.77,136.097,62,4.0,MIE005,34.7677,136.1151,134,1996-06-09, 01:46:18,100Hz,59,U-D,0.0002384185791015,3.921,1.6729562207448012,1396,1396.0,36.198324802317615,1.0535745463080168,0.7751317163143575,0.4181110269718894,0.2471917825725282,0.2442182652512021,0.0034862346625314,0.0034096346561191,0.0022412150141393,0.0019844547709972,0.0019844547709972,3.906716016460645,3.906716016460645,3.906716016460645,3.906716016460645,3.906716016460645,E-W,0.0002384185791015,3.527,N-S,0.0002384185791015,4.475
19960609014600.knt,MIE0099606090146.UD,1996-06-09, 01:46:00,34.77,136.097,62,4.0,MIE009,34.5788,136.5276,8,1996-06-09, 01:46:28,100Hz,59,U-D,0.0002384185791015,1.817,44.74974568858148,648,648.0,24.64779904615396,2.046288702174411,1.3516219968891368,0.6998867900108247,0.4867484688148659,0.5860835919128374,0.0017371015089807,0.0015098952749557,0.0009566554985844,0.0006780568024985,0.0006780568024985,1.0711031104692592,1.0711031104692592,1.0711031104692592,1.0711031104692592,1.0711031104692592,E-W,0.0002384185791015,3.332,N-S,0.0002384185791015,2.892
19960609014600.knt,MIE0119606090146.UD,1996-06-09, 01:46:00,34.77,136.097,62,4.0,MIE011,34.4283,136.3329,143,1996-06-09, 01:46:26,100Hz,59,U-D,0.0002384185791015,5.586,43.70178732309555,635,643.0,26.672992413971564,1.998811823015116,2.1553400706541552,1.9727242411670665,1.3778960535745155,0.819954013200002,0.001525432246462,0.001525432246462,0.001525432246462,0.0013444872245039,0.0008476326644951,1.414238207076008,1.223525251588775,1.223525251588775,1.223525251588775,1.223525251588775,E-W,0.0002384185791015,19.489,N-S,0.0002384185791015,14.512
19960609014600.knt,MIE0149606090146.UD,1996-06-09, 01:46:00,34.77,136.097,62,4.0,MIE014,34.0638,136.1687,85,1996-06-09, 01:46:33,100Hz,59,U-D,0.0002384185791015,1.864,78.80080140940926,441,451.0,26.113596880150222,5.398391095795686,5.024893336687635,4.757300209129772,5.394088368984852,9.031786141688697,0.0033775395410824,0.0033775395410824,0.0033775395410824,0.0033775395410824,0.0033775395410824,0.7752479568917705,0.7752479568917705,0.7752479568917705,0.7752479568917705,0.4502600276222902,E-W,0.0002384185791015,4.388,N-S,0.0002384185791015,3.623
19960609014600.knt,SIG0029606090146.UD,1996-06-09, 01:46:00,34.77,136.097,62,4.0,SIG002,35.4215,136.0243,95,1996-06-09, 01:46:33,100Hz,59,U-D,0.0002384185791015,1.405,72.74479973770801,411,408.0,27.69838350148349,0.8166832070204889,0.8803582053003115,0.8756378643769039,0.5631753663465928,0.4340622348404835,0.001030385587179,0.001030385587179,0.0009923805439639,0.0009315381127409,0.0006320541931782,1.0372522029329443,1.0372522029329443,1.0372522029329443,1.0372522029329443,0.8347679924097618,E-W,0.0002384185791015,3.854,N-S,0.0002384185791015,4.852
19960609014600.knt,SIG0089606090146.UD,1996-06-09, 01:46:00,34.77,136.097,62,4.0,SIG008,35.0701,136.2946,218,1996-06-09, 01:46:27,100Hz,59,U-D,0.0002384185791015,3.852,37.92238118262238,686,686.0,34.68591502194091,6.285911481406163,6.002094489684362,4.833280669643338,3.3813542616254364,1.854955956562133,0.0093331396565089,0.0093331396565089,0.0086993854737492,0.0071170796115023,0.0051932195315212,2.927547168899511,2.927547168899511,2.927547168899511,2.927547168899511,2.927547168899511,E-W,0.0002384185791015,9.506,N-S,0.0002384185791015,10.058
19960609014600.knt,SIG0109606090146.UD,1996-06-09, 01:46:00,34.77,136.097,62,4.0,SIG010,34.9718,135.8965,110,1996-06-09, 01:46:19,100Hz,59,U-D,0.0002384185791015,3.905,28.94978272984288,1396,1396.0,27.902105478738303,0.5610392181385407,0.5400612142848763,0.3891039828100082,0.3585694991540665,0.2960376711454512,0.0024671853360294,0.0024671853360294,0.0024671853360294,0.0024671853360294,0.0024671853360294,3.917658389955321,3.917658389955321,3.917658389955321,3.917658389955321,3.917658389955321,E-W,0.0002384185791015,2.686,N-S,0.0002384185791015,2.879
19960609014600.knt,SIG0119606090146.UD,1996-06-09, 01:46:00,34.77,136.097,62,4.0,SIG011,34.8779,136.0587,283,1996-06-09, 01:46:18,100Hz,59,U-D,0.0002384185791015,10.643,12.496913752967425,1420,1419.0,38.24379443508876,0.831175631492744,0.8314131314968443,0.7966238148178985,0.5364248357046074,0.2049004144556455,0.0043807969399282,0.0043807969399282,0.0043807969399282,0.0041175733325452,0.0038568754304059,10.626073279968466,10.626073279968466,10.626073279968466,10.626073279968466,10.626073279968466,E-W,0.0002384185791015,7.866,N-S,0.0002384185791015,7.626
19960609014600.knt,SIG0129606090146.UD,1996-06-09, 01:46:00,34.77,136.097,62,4.0,SIG012,34.9043,136.2307,230,1996-06-09, 01:46:18,100Hz,59,U-D,0.0002384185791015,8.284,19.28484760231705,1469,1469.0,38.30145096559855,0.6894766021190479,0.6982711348744605,0.7225912339306749,0.6937973886199242,0.5386469870848811,0.0034524686734899,0.0034524686734899,0.0034524686734899,0.0034524686734899,0.0034524686734899,8.28215573694348,8.28215573694348,8.28215573694348,8.28215573694348,8.28215573694348,E-W,0.0002384185791015,34.722,N-S,0.0002384185791015,15.689
19960609014600.knt,WKY0139606090146.UD,1996-06-09, 01:46:00,34.77,136.097,62,4.0,WKY013,34.216,135.586,823,1996-06-09, 01:46:34,100Hz,59,U-D,0.0002384185791015,0.874,77.3817042123038,369,372.0,18.4628971134586,8.306859361265728,8.89832074758339,5.968899593199563,2.741455432783406,1.7080919342993344,0.0059572115157847,0.0059572115157847,0.0051668528173271,0.0030147814583422,0.0012154668351823,0.8667486175967963,0.8667486175967963,0.8667486175967963,0.8667486175967963,0.8667486175967963,E-W,0.0002384185791015,1.337,N-S,0.0002384185791015,2.788
19960610142700.knt,AOM0049606101427.UD,1996-06-10, 14:27:00,41.47,141.996,61,4.5,AOM004,41.4051,141.4472,29,1996-06-10, 14:27:21,100Hz,59,U-D,0.0002384185791015,1.822,46.31375874809027,576,576.0,32.41001362042364,1.88499269531158,1.577047210979421,1.0376950608950255,0.6510159939921398,0.7230465176130736,0.0037816763476704,0.0035560343599218,0.0029455872481937,0.0020307864284359,0.0020307864284359,1.3728760712774888,1.3728760712774888,1.3728760712774888,1.3728760712774888,1.110373736224367,E-W,0.0002384185791015,4.431,N-S,0.0002384185791015,4.553
19960610142700.knt,AOM0079606101427.UD,1996-06-10, 14:27:00,41.47,141.996,61,4.5,AOM007,41.2256,141.3958,10,1996-06-10, 14:27:15,100Hz,78,U-D,0.0002384185791015,6.158,56.997585169841,1290,1306.0,33.294067345843914,0.5912340117828474,0.5323228098426556,0.5803524356625384,0.6455946693804979,0.9436914721288796,0.0028134734601312,0.0022124339262006,0.0022124339262006,0.0022124339262006,0.0022124339262006,3.360683530326463,3.360683530326463,3.360683530326463,3.360683530326463,0.8799429425989775,E-W,0.0002384185791015,11.129,N-S,0.0002384185791015,6.878
19960610142700.knt,AOM0099606101427.UD,1996-06-10, 14:27:00,41.47,141.996,61,4.5,AOM009,40.9665,141.3733,10,1996-06-10, 14:27:26,100Hz,59,U-D,0.0002384185791015,4.416,76.46649813988547,384,394.0,27.60941665658257,6.484151766041663,5.820802732945332,5.7576856746843,7.020435751087448,9.338105879759445,0.0189374928069174,0.0189374928069174,0.0189374928069174,0.0189374928069174,0.0189374928069174,1.7481730442724572,1.7481730442724572,1.7481730442724572,1.7481730442724572,1.22032168901643,E-W,0.0002384185791015,4.938,N-S,0.0002384185791015,7.587
19960610142700.knt,AOM0129606101427.UD,1996-06-10, 14:27:00,41.47,141.996,61,4.5,AOM012,40.5138,141.4805,15,1996-06-10, 14:27:33,100Hz,59,U-D,0.0002384185791015,4.011,114.78988932870988,138,154.0,20.88591972876248,9.696136672596449,11.753878501778695,14.283582947145756,14.523795039708771,10.841730041864553,0.0179922625033803,0.0179922625033803,0.0179922625033803,0.0179922625033803,0.0162766721262601,1.4163928250464677,1.048958544531994,1.048958544531994,0.777974331049078,0.4626517997773622,E-W,0.0002384185791015,7.793,N-S,0.0002384185791015,8.923
19960610142700.knt,HKD1599606101427.UD,1996-06-10, 14:27:00,41.47,141.996,61,4.5,HKD159,41.7162,141.0025,35,1996-06-10, 14:27:17,100Hz,72,U-D,0.0002384185791015,6.982,87.03654593352789,1371,1391.0,31.4522320000463,1.2395024446717111,1.1330409084725126,0.8859752332252728,0.8117539876192748,1.0145695067705154,0.0058103829097215,0.0058103829097215,0.0051845754004047,0.0051845754004047,0.0051845754004047,3.288883469183136,3.288883469183136,3.288883469183136,3.288883469183136,2.865397393459574,E-W,0.0002384185791015,10.484,N-S,0.0002384185791015,8.843
