earthquake name,records name,earthquake date,earthquake time,lat,long,depth,mag,stn_code,stn_lat,stn_long,stn_height,rcd_date,rcd_time,frequency,rcd_duration,direction,scale_factor,max_pga,epi_dist,pick_index_manually,pick_index_kalkan,snr_db_kalkan,tc_5sec,tc_4sec,tc_3sec,tc_2sec,tc_1sec,Pd_5sec,Pd_4sec,Pd_3sec,Pd_2sec,Pd_1sec,Pga_5sec,Pga_4sec,Pga_3sec,Pga_2sec,Pga_1sec,Channel,Scale_factor,PGA_ew,Channel.1,Scale_factor.1,PGA_ns
19990201015200.knt,FKS0169902010152.UD,1999-02-01, 01:52:00,37.12,141.547,49,5.1,FKS016,37.1228,140.1914,375,1999-02-01, 01:52:12,100Hz,119,U-D,0.0002384185791015,6.885,120.18989874903822,1355,1355.0,40.78212943209941,0.9054566735202608,0.9086002987612644,0.9324222995953684,0.9738211508609996,0.8793029750870903,0.019966677985072,0.019966677985072,0.019966677985072,0.019966677985072,0.0197075568012723,6.89521591380745,6.89521591380745,6.89521591380745,6.89521591380745,5.990283978251012,E-W,0.0002384185791015,27.111,N-S,0.0002384185791015,21.522
19990201015200.knt,FKS0179902010152.UD,1999-02-01, 01:52:00,37.12,141.547,49,5.1,FKS017,37.2842,140.3689,263,1999-02-01, 01:52:09,100Hz,119,U-D,0.0002384185791015,6.977,105.9261692758585,1437,720.0,20.05683183658739,0.7461650853332636,0.7463490419205949,0.7618797947094686,0.7741418858879603,0.6200305725153048,0.0211216117386404,0.0211216117386404,0.0211216117386404,0.0211216117386404,0.0211216117386404,4.526892872047408,4.526892872047408,4.526892872047408,4.526892872047408,4.526892872047408,E-W,0.0002384185791015,16.015,N-S,0.0002384185791015,14.934
19990201015200.knt,FKS0189902010152.UD,1999-02-01, 01:52:00,37.12,141.547,49,5.1,FKS018,37.3961,140.3622,245,1999-02-01, 01:52:22,100Hz,119,U-D,0.0002384185791015,8.105,109.25819200411917,170,171.0,26.871012848365638,3.695626602045336,3.828524840760167,3.8784044905933657,3.5898343930421213,2.713961068867359,0.0693375899463214,0.0693375899463214,0.0693375899463214,0.0693375899463214,0.0693375899463214,8.186395213944534,8.186395213944534,8.186395213944534,8.186395213944534,8.186395213944534,E-W,0.0002384185791015,14.974,N-S,0.0002384185791015,11.525
19990201015200.knt,FKS0199902010152.UD,1999-02-01, 01:52:00,37.12,141.547,49,5.1,FKS019,37.603,140.4368,235,1999-02-01, 01:52:21,100Hz,119,U-D,0.0002384185791015,9.151,111.85559222648416,288,289.0,21.53535099487545,9.98756231777557,9.951137715333356,11.39455460081381,14.39483377270418,19.214869683127866,0.165932976063171,0.165932976063171,0.165932976063171,0.165932976063171,0.165932976063171,3.546986391063463,3.546986391063463,3.2836406804900453,3.2836406804900453,2.4889097945009944,E-W,0.0002384185791015,20.786,N-S,0.0002384185791015,19.457
19990201015200.knt,FKS0239902010152.UD,1999-02-01, 01:52:00,37.12,141.547,49,5.1,FKS023,37.4774,139.9294,219,1999-02-01, 01:52:17,100Hz,119,U-D,0.0002384185791015,3.343,148.49759999351988,1193,1193.0,30.035805547418363,1.1530323583225643,1.1302214044913488,0.956716289057648,1.2229310632445491,1.5202447559423973,0.0100867673163921,0.0100867673163921,0.0100867673163921,0.0100867673163921,0.0078234152078319,2.1493122027315,2.1493122027315,2.1493122027315,1.422669600807404,1.2790203700972231,E-W,0.0002384185791015,8.836,N-S,0.0002384185791015,8.712
19990201015200.knt,FKS0249902010152.UD,1999-02-01, 01:52:00,37.12,141.547,49,5.1,FKS024,37.3957,140.1325,527,1999-02-01, 01:52:13,100Hz,119,U-D,0.0002384185791015,7.364,128.8838806155341,1342,1383.0,31.167129258675388,0.9391377895378572,0.9111440712935954,0.7772151219465768,0.6787746225099794,0.7083675066718075,0.0376717134728144,0.0376112725841996,0.0249705051754918,0.0249705051754918,0.0249705051754918,6.715644069650104,6.715644069650104,6.715644069650104,6.715644069650104,6.715644069650104,E-W,0.0002384185791015,14.594,N-S,0.0002384185791015,13.698
19990201015200.knt,FKS0319902010152.UD,1999-02-01, 01:52:00,37.12,141.547,49,5.1,FKS031,37.3364,140.8132,399,1999-02-01, 01:52:04,100Hz,119,U-D,0.0002384185791015,8.608,69.28110358236746,1437,1434.0,42.41217117686041,1.3054514506498254,1.3149063132716676,1.1955345958284151,1.0288596957983236,0.7327590168326873,0.0271363811681182,0.0271363811681182,0.0271363811681182,0.0271363811681182,0.0271363811681182,8.017137815568821,6.865198726443969,6.865198726443969,6.865198726443969,5.985163402635206,E-W,0.0002384185791015,14.289,N-S,0.0002384185791015,19.475
19990201015200.knt,IBR0019902010152.UD,1999-02-01, 01:52:00,37.12,141.547,49,5.1,IBR001,36.7761,140.3569,105,1999-02-01, 01:52:11,100Hz,119,U-D,0.0002384185791015,6.375,112.45810342194991,1312,1335.0,24.096749823159826,0.9735590048138696,0.8235737589097145,0.7827155437168579,0.8100530466102879,0.933068000520458,0.0090870187987393,0.0090870187987393,0.0090870187987393,0.0090870187987393,0.0090870187987393,3.636892240980989,3.636892240980989,3.636892240980989,3.636892240980989,2.596398267438397,E-W,0.0002384185791015,8.446,N-S,0.0002384185791015,8.863
19990201015200.knt,IBR0029902010152.UD,1999-02-01, 01:52:00,37.12,141.547,49,5.1,IBR002,36.7061,140.7068,9,1999-02-01, 01:52:10,100Hz,119,U-D,0.0002384185791015,3.936,87.73790944059681,1071,1086.0,27.961469994598534,3.2277311787194254,2.575194976191005,1.582891197515397,1.0493764854482512,0.9479016333011764,0.0126757012702354,0.0126757012702354,0.010417877303059,0.0055067300963695,0.0055067300963695,1.164465706773415,1.164465706773415,1.164465706773415,1.164465706773415,1.164465706773415,E-W,0.0002384185791015,10.218,N-S,0.0002384185791015,11.949
19990201015200.knt,IBR0039902010152.UD,1999-02-01, 01:52:00,37.12,141.547,49,5.1,IBR003,36.5915,140.6453,58,1999-02-01, 01:52:09,100Hz,119,U-D,0.0002384185791015,8.25,99.44653105168602,1317,1344.0,32.74106948380654,0.7706086208323693,0.6691962386888504,0.5994739655553579,0.6407703638828611,0.6352682309407431,0.0038736353121173,0.0038403733416706,0.0038403733416706,0.0038403733416706,0.0038403733416706,3.171331034423782,2.9157819425668903,2.9157819425668903,2.515107773941033,2.317691677106396,E-W,0.0002384185791015,17.23,N-S,0.0002384185791015,21.455
19990201015200.knt,IWT0129902010152.UD,1999-02-01, 01:52:00,37.12,141.547,49,5.1,IWT012,39.3209,141.1378,64,1999-02-01, 01:52:30,100Hz,119,U-D,0.0002384185791015,4.214,247.32499298924236,1150,1286.0,23.774703753796334,0.9405571088716422,0.8667940531356049,0.6672367915189112,0.6307230085392947,0.5274772716784483,0.0042563694662817,0.0042563694662817,0.003288202519968,0.003288202519968,0.0010389250234459,1.3354514681999483,1.3354514681999483,1.1021536933121527,1.1021536933121527,0.2119166919938885,E-W,0.0002384185791015,13.061,N-S,0.0002384185791015,15.148
19990201015200.knt,MYG0029902010152.UD,1999-02-01, 01:52:00,37.12,141.547,49,5.1,MYG002,38.7262,141.5109,79,1999-02-01, 01:52:21,100Hz,119,U-D,0.0002384185791015,5.31,178.62935386181863,1169,1237.0,29.666754054174863,1.3778186000485684,1.3465871127407154,1.087647221417146,0.745909246512152,0.9322488744864936,0.0026633303269885,0.0026633303269885,0.002150235625434,0.0018748245284742,0.0010467216810239,1.6143519966880342,1.5436076587879235,1.5436076587879235,1.2481430392827442,0.2577384723036285,E-W,0.0002384185791015,19.986,N-S,0.0002384185791015,17.19
19990201015200.knt,MYG0039902010152.UD,1999-02-01, 01:52:00,37.12,141.547,49,5.1,MYG003,38.7348,141.3106,28,1999-02-01, 01:52:32,100Hz,119,U-D,0.0002384185791015,4.306,180.75054582158089,83,139.0,21.958793915438108,6.220948711947474,6.800637830543146,6.831287724865456,5.946040129585186,5.167522543786987,0.0169382494180308,0.0169382494180308,0.0169382494180308,0.0169382494180308,0.011006034644797,1.7385639252975431,1.4421913940276552,1.4421913940276552,1.4421913940276552,0.3674859250434817,E-W,0.0002384185791015,13.365,N-S,0.0002384185791015,12.269
19990201015200.knt,MYG0049902010152.UD,1999-02-01, 01:52:00,37.12,141.547,49,5.1,MYG004,38.7292,141.0217,40,1999-02-01, 01:52:33,100Hz,119,U-D,0.0002384185791015,5.342,184.7707927989296,79,163.0,19.68539561839346,1.66033348145501,1.698722358332052,2.122415419873433,2.513093410950562,1.4601605671796958,0.0049174319984272,0.0049174319984272,0.0043587617803822,0.0043373651938102,0.0033771476899607,1.1977478234022014,1.1977478234022014,1.1211952885614969,0.4146130221919896,0.3988066051007619,E-W,0.0002384185791015,12.745,N-S,0.0002384185791015,13.537
19990201015200.knt,MYG0109902010152.UD,1999-02-01, 01:52:00,37.12,141.547,49,5.1,MYG010,38.4282,141.2809,2,1999-02-01, 01:52:26,100Hz,119,U-D,0.0002384185791015,5.329,147.33316018789466,256,254.0,30.884685704535357,1.8384782549345384,1.940564719831947,1.9714464805089496,2.1589890000550325,3.1182878116541577,0.0139693576642348,0.0139693576642348,0.0139693576642348,0.0139693576642348,0.0139693576642348,1.6961987628829538,1.6961987628829538,1.6961987628829538,1.6106883388745998,0.6680339299977944,E-W,0.0002384185791015,12.459,N-S,0.0002384185791015,13.701
19990201015200.knt,MYG0119902010152.UD,1999-02-01, 01:52:00,37.12,141.547,49,5.1,MYG011,38.2972,141.5043,30,1999-02-01, 01:52:13,100Hz,119,U-D,0.0002384185791015,16.142,130.95254745273732,1323,1381.0,28.92323174893377,0.8385294905396579,0.6760906605405886,0.4562031084852983,0.4916995749244518,0.7028163285312851,0.0030630882936951,0.0027909373795032,0.0019747178774839,0.0019747178774839,0.0019747178774839,2.863340619631332,2.863340619631332,2.3784165501088728,2.3784165501088728,1.0157941534596835,E-W,0.0002384185791015,49.942,N-S,0.0002384185791015,60.113
19990201015200.knt,MYG0129902010152.UD,1999-02-01, 01:52:00,37.12,141.547,49,5.1,MYG012,38.3233,141.0272,2,1999-02-01, 01:52:16,100Hz,90,U-D,0.0002384185791015,8.803,141.3953510127021,1185,740.0,30.757281491058883,0.5429116823411884,0.5971153297853903,0.6151050727286198,0.6337602535323661,0.7113920824021004,0.0116960680992204,0.0116960680992204,0.0116960680992204,0.0116960680992204,0.0116960680992204,2.7443329185544223,2.672474826376232,2.672474826376232,2.2663788864396905,1.756362450397522,E-W,0.0002384185791015,9.32,N-S,0.0002384185791015,15.125
19990201015200.knt,MYG0139902010152.UD,1999-02-01, 01:52:00,37.12,141.547,49,5.1,MYG013,38.2663,140.9293,5,1999-02-01, 01:52:26,100Hz,119,U-D,0.0002384185791015,5.435,138.56557981822925,149,174.0,13.920442776083975,5.734564114959717,5.9177218873712265,6.169635865017465,6.578682435223995,6.561643350662022,0.0592374948368954,0.0592374948368954,0.0592374948368954,0.0592374948368954,0.0561606745360436,2.615429197774445,2.615429197774445,2.615429197774445,2.206037255914445,1.106405548413906,E-W,0.0002384185791015,8.585,N-S,0.0002384185791015,9.557
19990201015200.knt,MYG0159902010152.UD,1999-02-01, 01:52:00,37.12,141.547,49,5.1,MYG015,38.1049,140.8699,3,1999-02-01, 01:52:13,100Hz,119,U-D,0.0002384185791015,11.737,124.70199151434336,1260,1260.0,39.28570352382754,0.9506995766866356,1.0160763229834209,0.9820551826555368,1.0002588183758858,0.6699300683433645,0.0104172138105653,0.0104172138105653,0.0104172138105653,0.0104172138105653,0.0085812432573432,3.5317851687058,2.901767067258433,1.9609725681196364,1.9270940851026328,1.7408533826752233,E-W,0.0002384185791015,33.845,N-S,0.0002384185791015,31.533
19990201015200.knt,MYG0179902010152.UD,1999-02-01, 01:52:00,37.12,141.547,49,5.1,MYG017,37.9763,140.7818,35,1999-02-01, 01:52:22,100Hz,119,U-D,0.0002384185791015,8.948,116.69069557296712,251,252.0,23.718581366571563,7.093133271399749,7.169757167538841,7.915680488737684,9.214630856498225,8.265985670122765,0.1267724483099976,0.1267724483099976,0.1267724483099976,0.1267724483099976,0.1267724483099976,5.260825021413836,5.260825021413836,5.260825021413836,3.996615835829812,3.996615835829812,E-W,0.0002384185791015,17.935,N-S,0.0002384185791015,21.74
19990201015200.knt,TCG0069902010152.UD,1999-02-01, 01:52:00,37.12,141.547,49,5.1,TCG006,36.7639,140.1297,122,1999-02-01, 01:52:27,100Hz,119,U-D,0.0002384185791015,3.278,132.03383395441935,1,38.0,8.686498176322965,1.4863838915063987,1.5214073181305718,1.487721103268521,1.077901479457997,1.0156236526831754,0.0112512005286535,0.0112512005286535,0.0112512005286535,0.010914491585392,0.010914491585392,1.1165155539118543,1.054130394263454,0.9591767409043652,0.9591767409043652,0.9591767409043652,E-W,0.0002384185791015,5.236,N-S,0.0002384185791015,6.976
19990201015200.knt,TCG0149902010152.UD,1999-02-01, 01:52:00,37.12,141.547,49,5.1,TCG014,36.545,140.1742,130,1999-02-01, 01:52:17,100Hz,119,U-D,0.0002384185791015,5.509,137.89465789395115,1038,1069.0,29.9550934927234,0.7073477029068074,0.7432672462876706,0.7883227345550863,0.9472694933854322,1.1675023867398395,0.0060521205161148,0.0060521205161148,0.0060521205161148,0.0060521205161148,0.0060521205161148,2.003611191945769,2.003611191945769,2.003611191945769,1.8398727945853568,1.5977638954507831,E-W,0.0002384185791015,14.954,N-S,0.0002384185791015,19.484
19990201020100.knt,FKS0019902010201.UD,1999-02-01, 02:01:00,37.136,141.514,48,4.4,FKS001,37.7949,140.9196,9,1999-02-01, 02:02:42,100Hz,119,U-D,0.0002384185791015,6.778,90.110778850781,1451,1451.0,38.73269896239831,0.4133227300958078,0.3414091822833481,0.2593253546620894,0.1916649109533294,0.177130183315115,0.0024679075941694,0.0024679075941694,0.0024679075941694,0.0024679075941694,0.0024679075941694,6.761811901489097,6.761811901489097,6.761811901489097,6.761811901489097,6.761811901489097,E-W,0.0002384185791015,15.656,N-S,0.0002384185791015,20.138
19990201020100.knt,FKS0029902010201.UD,1999-02-01, 02:01:00,37.136,141.514,48,4.4,FKS002,37.8449,140.6013,42,1999-02-01, 02:02:46,100Hz,119,U-D,0.0002384185791015,2.207,112.68398868908729,1385,1386.0,30.12141613805187,1.7387436899055508,1.7544108352278338,1.6094495030368157,1.245318031529607,0.6612884452098531,0.0048190442542744,0.0048190442542744,0.0048190442542744,0.0042505697085364,0.0028708666300868,2.19609085732927,2.19609085732927,2.19609085732927,2.19609085732927,2.19609085732927,E-W,0.0002384185791015,12.479,N-S,0.0002384185791015,8.774
19990201020100.knt,FKS0049902010201.UD,1999-02-01, 02:01:00,37.136,141.514,48,4.4,FKS004,37.6799,140.7346,488,1999-02-01, 02:02:43,100Hz,119,U-D,0.0002384185791015,7.886,91.6332036015834,1374,1384.0,32.26041911277519,0.5252881619738711,0.5485163295923081,0.4716007517421351,0.2883702138233205,0.2186363411094854,0.0027405588668894,0.0027405588668894,0.0027405588668894,0.0017546273709812,0.0011516960879208,5.007641645132254,5.007641645132254,5.007641645132254,5.007641645132254,5.007641645132254,E-W,0.0002384185791015,17.506,N-S,0.0002384185791015,19.292
19990201020100.knt,FKS0059902010201.UD,1999-02-01, 02:01:00,37.136,141.514,48,4.4,FKS005,37.6385,140.9849,16,1999-02-01, 02:02:40,100Hz,119,U-D,0.0002384185791015,4.933,72.85055930506041,1446,1447.0,23.67977871423394,1.3406882564752822,0.9078973009655932,0.8649573727594009,0.9164917363516424,0.8585400848884187,0.0055873662404038,0.0033176212524218,0.0033176212524218,0.0033176212524218,0.0033176212524218,4.928812261797087,4.928812261797087,4.928812261797087,4.928812261797087,4.928812261797087,E-W,0.0002384185791015,7.179,N-S,0.0002384185791015,10.169
19990201020100.knt,FKS0069902010201.UD,1999-02-01, 02:01:00,37.136,141.514,48,4.4,FKS006,37.5031,140.7588,472,1999-02-01, 02:02:50,100Hz,119,U-D,0.0002384185791015,6.545,78.26890036223281,505,505.0,38.29613969147819,0.8507889814611003,0.7794156014533485,0.8193242918656289,0.7469992766019118,0.7539349292856903,0.0039589264789531,0.0033964050293478,0.0033964050293478,0.0033964050293478,0.0033964050293478,3.6378154328642895,3.6378154328642895,3.6378154328642895,3.6378154328642895,3.6378154328642895,E-W,0.0002384185791015,13.35,N-S,0.0002384185791015,16.54
19990201020100.knt,FKS0079902010201.UD,1999-02-01, 02:01:00,37.136,141.514,48,4.4,FKS007,37.4061,140.9632,70,1999-02-01, 02:02:38,100Hz,119,U-D,0.0002384185791015,8.21,57.24896164340383,1471,1470.0,36.574767173128855,1.5907239924313776,1.30198934643972,1.0458153176555909,1.0193260832026043,0.9665431970140578,0.0099073296431882,0.0099073296431882,0.0085788307043352,0.0085788307043352,0.0085788307043352,6.714502308046663,6.714502308046663,6.714502308046663,6.714502308046663,5.120520402839873,E-W,0.0002384185791015,15.703,N-S,0.0002384185791015,21.051
19990201020100.knt,FKS0089902010201.UD,1999-02-01, 02:01:00,37.136,141.514,48,4.4,FKS008,37.4363,140.5668,430,1999-02-01, 02:02:42,100Hz,119,U-D,0.0002384185791015,8.77,90.20517595084354,1460,1459.0,39.334338450712586,0.5303899619934506,0.5531987107316119,0.4740940380735057,0.2670775748634483,0.2030816915093933,0.0024161993607515,0.0024161993607515,0.0023625712760409,0.0023625712760409,0.0023625712760409,8.753588893799662,8.753588893799662,8.753588893799662,8.753588893799662,8.753588893799662,E-W,0.0002384185791015,18.216,N-S,0.0002384185791015,14.031
19990201020100.knt,FKS0099902010201.UD,1999-02-01, 02:01:00,37.136,141.514,48,4.4,FKS009,37.2778,140.6349,440,1999-02-01, 02:02:41,100Hz,119,U-D,0.0002384185791015,11.863,79.43511235927026,1428,1445.0,22.279571984218023,1.764772570049498,1.63131443131029,1.257211965955234,0.7687570027189898,0.5572704522542703,0.0045565194292498,0.0045565194292498,0.0039353300240208,0.0026307526705551,0.0025122563518098,3.225284064849864,3.225284064849864,3.225284064849864,3.225284064849864,3.225284064849864,E-W,0.0002384185791015,26.803,N-S,0.0002384185791015,25.697
19990201020100.knt,FKS0109902010201.UD,1999-02-01, 02:01:00,37.136,141.514,48,4.4,FKS010,37.2342,141.0016,50,1999-02-01, 02:02:38,100Hz,119,U-D,0.0002384185791015,8.582,46.68708272676594,1403,1404.0,28.928054188754714,0.5170973041215504,0.5222170863658642,0.4203235607518641,0.3684516257412436,0.3453320449899525,0.0045545769506093,0.0045545769506093,0.0045545769506093,0.0045545769506093,0.0045545769506093,5.349857932311656,5.349857932311656,5.349857932311656,5.349857932311656,5.349857932311656,E-W,0.0002384185791015,31.787,N-S,0.0002384185791015,50.988
19990201020100.knt,FKS0119902010201.UD,1999-02-01, 02:01:00,37.136,141.514,48,4.4,FKS011,37.0911,140.9035,165,1999-02-01, 02:02:38,100Hz,117,U-D,0.0002384185791015,8.043,54.363549503378245,1459,1475.0,25.32129771433912,1.8993181141663211,2.030270116117135,1.68432412741885,0.9369910731867126,0.3709760804290226,0.0078951181440601,0.0078951181440601,0.0076674248771355,0.0047054607698391,0.0031083216032621,4.486861755008822,4.486861755008822,4.486861755008822,4.486861755008822,4.486861755008822,E-W,0.0002384185791015,11.525,N-S,0.0002384185791015,21.106
19990201020100.knt,FKS0129902010201.UD,1999-02-01, 02:01:00,37.136,141.514,48,4.4,FKS012,36.9069,140.7929,2,1999-02-01, 02:02:48,100Hz,119,U-D,0.0002384185791015,3.534,68.90077326941795,621,621.0,22.244486394156706,4.292227538336449,4.4674203059005455,3.9316960335417375,2.9186356478198467,1.4854025136105242,0.0064052032966778,0.0064052032966778,0.0064052032966778,0.006122924493592,0.0043009029995802,2.1290505610546857,2.1290505610546857,2.1290505610546857,2.1290505610546857,2.1290505610546857,E-W,0.0002384185791015,6.839,N-S,0.0002384185791015,11.254
19990201020100.knt,FKS0139902010201.UD,1999-02-01, 02:01:00,37.136,141.514,48,4.4,FKS013,37.09,140.5563,320,1999-02-01, 02:02:51,100Hz,119,U-D,0.0002384185791015,4.936,85.07477439381684,505,504.0,34.45000177890523,1.1676015960063346,0.619445575475017,0.3205875645004086,0.2394159686263216,0.2484672531978907,0.0035658670019493,0.002219305670195,0.0009176471515068,0.0008884323562643,0.0008884323562643,2.0499128285699366,2.0499128285699366,2.0499128285699366,2.0499128285699366,2.0499128285699366,E-W,0.0002384185791015,8.079,N-S,0.0002384185791015,9.675
19990201020100.knt,FKS0149902010201.UD,1999-02-01, 02:01:00,37.136,141.514,48,4.4,FKS014,36.8683,140.43,178,1999-02-01, 02:02:55,100Hz,119,U-D,0.0002384185791015,1.327,100.75768522133674,313,320.0,25.74615455207598,5.111298663450086,4.734692788363468,4.916202460938279,5.44903027320253,5.64320258252546,0.0062159477095243,0.0062159477095243,0.0062159477095243,0.0062159477095243,0.0062159477095243,1.315209530898514,1.315209530898514,1.315209530898514,1.315209530898514,1.315209530898514,E-W,0.0002384185791015,3.811,N-S,0.0002384185791015,3.167
