earthquake name,records name,earthquake date,earthquake time,lat,long,depth,mag,stn_code,stn_lat,stn_long,stn_height,rcd_date,rcd_time,frequency,rcd_duration,direction,scale_factor,max_pga,epi_dist,pick_index_manually,pick_index_kalkan,snr_db_kalkan,tc_5sec,tc_4sec,tc_3sec,tc_2sec,tc_1sec,Pd_5sec,Pd_4sec,Pd_3sec,Pd_2sec,Pd_1sec,Pga_5sec,Pga_4sec,Pga_3sec,Pga_2sec,Pga_1sec,Channel,Scale_factor,PGA_ew,Channel.1,Scale_factor.1,PGA_ns
19960603021800.knt,IBR0169606030218.UD,1996-06-03, 02:18:00,36.353,140.647,61,3.7,IBR016,35.9112,140.0494,20,1996-06-03, 02:18:36,100Hz,59,U-D,0.0002384185791015,2.622,72.75766098997366,327,322.0,21.493814684566885,5.6244510655033,5.31254011399421,5.839740703761926,6.787779410352863,8.226533375255075,0.0128559728008561,0.0128559728008561,0.0128559728008561,0.0128559728008561,0.0128559728008561,1.72992109256059,1.72992109256059,1.72992109256059,1.72992109256059,1.506058552728866,E-W,0.0002384185791015,5.016,N-S,0.0002384185791015,5.558
19960603021800.knt,IBR0189606030218.UD,1996-06-03, 02:18:00,36.353,140.647,61,3.7,IBR018,35.977,140.6322,39,1996-06-03, 02:18:23,100Hz,59,U-D,0.0002384185791015,6.619,41.83039664033919,1378,1379.0,35.2436686174397,0.2564285648875412,0.2437528712968807,0.2468532526862111,0.2580707960702331,0.274204184342951,0.0030933882481659,0.0030933882481659,0.0030933882481659,0.0030933882481659,0.0030933882481659,6.604339999060811,6.604339999060811,6.604339999060811,6.604339999060811,6.604339999060811,E-W,0.0002384185791015,5.019,N-S,0.0002384185791015,5.213
19960603021800.knt,TCG0039606030218.UD,1996-06-03, 02:18:00,36.353,140.647,61,3.7,TCG003,36.8144,139.7153,398,1996-06-03, 02:18:41,100Hz,59,U-D,0.0002384185791015,0.841,97.73746709432226,160,167.0,19.24487963298031,8.602181887716114,6.540901078409008,4.503821943842938,5.610122905334845,10.966692812123483,0.0041691453269403,0.0040357508151182,0.0026970819440611,0.0021225736127618,0.0021225736127618,0.2630267145124774,0.2630267145124774,0.2463087961169668,0.2463087961169668,0.2402085091690449,E-W,0.0002384185791015,3.664,N-S,0.0002384185791015,4.91
19960603021800.knt,TCG0059606030218.UD,1996-06-03, 02:18:00,36.353,140.647,61,3.7,TCG005,36.8061,139.9264,197,1996-06-03, 02:18:39,100Hz,59,U-D,0.0002384185791015,1.057,81.72221611281749,199,201.00000000000003,23.541552562324664,12.146571094837162,16.324396408844425,21.41437706965076,25.98267341175747,26.705651937512243,0.0046888674141529,0.0046888674141529,0.0046888674141529,0.0046888674141529,0.0046888674141529,0.3155096634471619,0.3155096634471619,0.2933318190475306,0.2550022282789699,0.1869748717486211,E-W,0.0002384185791015,2.758,N-S,0.0002384185791015,3.043
19960603021800.knt,TCG0069606030218.UD,1996-06-03, 02:18:00,36.353,140.647,61,3.7,TCG006,36.7639,140.1297,122,1996-06-03, 02:18:35,100Hz,59,U-D,0.0002384185791015,3.07,64.97953762409472,406,411.00000000000006,25.6243266865488,9.09560297546732,7.354499688179549,6.5240604259795,7.595883268723061,10.73232213735058,0.0210427463912631,0.0210427463912631,0.0210427463912631,0.0210427463912631,0.0210427463912631,1.3669016812041077,1.3669016812041077,1.3669016812041077,1.3669016812041077,1.3669016812041077,E-W,0.0002384185791015,2.912,N-S,0.0002384185791015,3.835
19960603021800.knt,TCG0109606030218.UD,1996-06-03, 02:18:00,36.353,140.647,61,3.7,TCG010,36.6347,139.4376,640,1996-06-03, 02:18:44,100Hz,59,U-D,0.0002384185791015,1.446,112.55597652261264,50,64.0,18.334771206024016,2.783665798586485,2.4276330228333864,1.488167584876878,0.6063715711402783,0.2952918412831039,0.0024370727523346,0.0024370727523346,0.0020619980404953,0.0009608210120993,0.0002566352850785,0.8942209952855087,0.8942209952855087,0.8942209952855087,0.8942209952855087,0.4034215843082461,E-W,0.0002384185791015,3.007,N-S,0.0002384185791015,3.957
19960603021800.knt,TCG0129606030218.UD,1996-06-03, 02:18:00,36.353,140.647,61,3.7,TCG012,36.2859,139.8047,33,1996-06-03, 02:18:36,100Hz,59,U-D,0.0002384185791015,4.731,75.83170282937806,407,419.00000000000006,27.442451213535865,7.422832569423356,6.308296203978272,5.87189594176628,7.022639152220556,9.956583219395336,0.0271518143350304,0.0271518143350304,0.0271518143350304,0.0271518143350304,0.0271518143350304,2.816620933921808,2.816620933921808,2.816620933921808,2.203910029779003,1.7944352980672995,E-W,0.0002384185791015,4.303,N-S,0.0002384185791015,2.617
19960603021800.knt,TCG0139606030218.UD,1996-06-03, 02:18:00,36.353,140.647,61,3.7,TCG013,36.4368,140.0225,67,1996-06-03, 02:18:26,100Hz,59,U-D,0.0002384185791015,5.929,56.66773555455053,1212,1220.0,34.5287365223197,2.020040749212332,2.113424363921381,1.9557985570115275,1.8971464788938768,1.5379650495124064,0.0050784403943897,0.0050784403943897,0.0050784403943897,0.0049531479474027,0.00404887726643,4.054680756262275,4.054680756262275,4.054680756262275,4.054680756262275,3.4605493202541533,E-W,0.0002384185791015,13.818,N-S,0.0002384185791015,11.23
19960603021800.knt,TCG0149606030218.UD,1996-06-03, 02:18:00,36.353,140.647,61,3.7,TCG014,36.545,140.1742,130,1996-06-03, 02:18:23,100Hz,59,U-D,0.0002384185791015,10.571,47.37241442594128,1430,1428.0,44.33545397209801,0.7801862854487159,0.8038012722583896,0.8161490747460398,0.7292109508395008,0.6056973598234489,0.00575140891219,0.00575140891219,0.00575140891219,0.00575140891219,0.00575140891219,5.156697857333845,5.156697857333845,5.156697857333845,5.156697857333845,5.156697857333845,E-W,0.0002384185791015,14.682,N-S,0.0002384185791015,18.832
19960605093700.knt,IWT0019606050937.UD,1996-06-05, 09:37:00,39.486,141.696,12,4.4,IWT001,40.4099,141.7191,15,1996-06-05, 09:38:21,100Hz,59,U-D,0.0002384185791015,1.567,102.75186196200032,155,151.0,16.181066194096832,7.86646729406409,8.467414253965055,9.275665632681768,9.88466736306859,9.044365311196753,0.0126490349947971,0.0126490349947971,0.0126490349947971,0.0126490349947971,0.0114192187410081,1.0218435712389322,1.0218435712389322,1.0218435712389322,0.6722165696438078,0.6190907746332397,E-W,0.0002384185791015,3.808,N-S,0.0002384185791015,3.414
19960605093700.knt,IWT0059606050937.UD,1996-06-05, 09:37:00,39.486,141.696,12,4.4,IWT005,39.6472,141.9464,4,1996-06-05, 09:38:00,100Hz,59,U-D,0.0002384185791015,7.118,27.96408472284575,1077,1079.0,16.318530513799143,0.6948005823332931,1.7272105280383576,2.5786708854479348,2.776907027933871,2.773733567581304,0.0118614970420054,0.0098182213857796,0.0098182213857796,0.0098182213857796,0.0098182213857796,7.069313380949913,4.895042948125981,2.3263585068099344,2.3263585068099344,2.3263585068099344,E-W,0.0002384185791015,6.113,N-S,0.0002384185791015,7.93
19960605093700.knt,IWT0069606050937.UD,1996-06-05, 09:37:00,39.486,141.696,12,4.4,IWT006,39.4806,141.9652,4,1996-06-05, 09:38:56,100Hz,59,U-D,0.0002384185791015,8.662,23.11090056448021,1395,1394.0,32.23850419045973,0.3887336416716458,0.4269735989092945,0.4550739562606163,0.3240636331938388,0.2538727377226953,0.0104890617481112,0.0104890617481112,0.0036685442582563,0.0034411082801035,0.0034411082801035,8.629425516374948,8.629425516374948,4.735051542668887,4.735051542668887,4.735051542668887,E-W,0.0002384185791015,22.778,N-S,0.0002384185791015,21.715
19960605093700.knt,IWT0079606050937.UD,1996-06-05, 09:37:00,39.486,141.696,12,4.4,IWT007,39.2701,141.8561,11,1996-06-05, 09:38:56,100Hz,59,U-D,0.0002384185791015,21.677,27.6711644769988,1429,1429.0,38.68909723122686,1.0042232704162093,1.0862544854060208,1.5033295456503513,1.1446836456800038,0.5931000410414441,0.013532556109635,0.013532556109635,0.013532556109635,0.0110858511980902,0.0085481273545791,21.634529094630075,20.03261716165292,20.03261716165292,20.03261716165292,20.03261716165292,E-W,0.0002384185791015,35.385,N-S,0.0002384185791015,31.412
19960605093700.knt,IWT0089606050937.UD,1996-06-05, 09:37:00,39.486,141.696,12,4.4,IWT008,39.0815,141.7083,50,1996-06-05, 09:38:59,100Hz,59,U-D,0.0002384185791015,3.368,44.99080401921092,1386,1385.0,32.82820478515531,0.9800333438114276,0.5420635701035118,0.5021887251411518,0.4784942014992964,0.3444132037298555,0.0031836760863049,0.002210708423487,0.002210708423487,0.002210708423487,0.002210708423487,3.3862137032412454,3.3862137032412454,3.3862137032412454,3.3862137032412454,3.3862137032412454,E-W,0.0002384185791015,6.189,N-S,0.0002384185791015,4.377
19960605093700.knt,IWT0099606050937.UD,1996-06-05, 09:37:00,39.486,141.696,12,4.4,IWT009,39.0187,141.4031,150,1996-06-05, 09:38:07,100Hz,59,U-D,0.0002384185791015,7.453,57.7584676723391,792,797.0,31.56875971775346,12.150911481345227,12.712609523326096,12.362209727038518,9.86005051374834,6.200261146011462,0.0178365470283895,0.0178365470283895,0.0178365470283895,0.0176910240375422,0.0129987576146237,1.76968403495908,1.76968403495908,1.76968403495908,1.76968403495908,1.6868083325153171,E-W,0.0002384185791015,12.505,N-S,0.0002384185791015,17.514
19960605093700.knt,IWT0119606050937.UD,1996-06-05, 09:37:00,39.486,141.696,12,4.4,IWT011,39.1454,141.152,45,1996-06-05, 09:38:11,100Hz,59,U-D,0.0002384185791015,1.434,60.20378394890916,478,477.00000000000006,19.56816232101249,2.78685976429663,2.2486388848662098,1.9051899250781383,1.0676214255254854,0.6134773883420607,0.0028861683704097,0.0024748157936194,0.0021759402359947,0.00164327678445,0.0008814269352645,0.5999032810871596,0.5999032810871596,0.3187692229508939,0.2621625829462375,0.2330069746062024,E-W,0.0002384185791015,2.712,N-S,0.0002384185791015,1.69
19960605093700.knt,IWT0129606050937.UD,1996-06-05, 09:37:00,39.486,141.696,12,4.4,IWT012,39.3209,141.1378,64,1996-06-05, 09:38:00,100Hz,59,U-D,0.0002384185791015,4.752,51.35384720060529,1408,1408.0,37.34292524766794,2.474110951003671,2.089582259434752,1.6902050953508556,0.9391451453226144,0.4989146617473054,0.005405443396122,0.0053822041890765,0.0039929352487943,0.0026104197917978,0.0016319611039386,1.3942966397298648,1.3942966397298648,1.169359549815543,1.169359549815543,1.169359549815543,E-W,0.0002384185791015,17.966,N-S,0.0002384185791015,25.171
19960605093700.knt,IWT0139606050937.UD,1996-06-05, 09:37:00,39.486,141.696,12,4.4,IWT013,39.3367,141.5378,272,1996-06-05, 09:38:55,100Hz,299,U-D,0.0002384185791015,32.672,21.45508686188049,1425,1429.0,20.80073025759877,0.3841563991530525,0.3773452538865031,0.4893108392612979,0.5133002766777981,0.2659266391585556,0.0160464476606131,0.0160464476606131,0.0160464476606131,0.0040263271348534,0.001760361272514,32.690582544275344,32.690582544275344,32.690582544275344,7.275135528854771,7.275135528854771,E-W,0.0002384185791015,64.352,N-S,0.0002384185791015,57.375
19960605093700.knt,IWT0149606050937.UD,1996-06-05, 09:37:00,39.486,141.696,12,4.4,IWT014,39.4844,141.147,86,1996-06-05, 09:38:05,100Hz,59,U-D,0.0002384185791015,4.717,47.11489727648773,843,843.0,28.209672818759817,8.986553052671743,8.909518375738122,7.99510585816603,5.750848577670783,3.3876246257132285,0.0206173872308972,0.0206173872308972,0.0202652212760459,0.0178165640306554,0.0108744502535706,1.2561152991159803,1.2561152991159803,1.2561152991159803,1.2561152991159803,1.2561152991159803,E-W,0.0002384185791015,7.549,N-S,0.0002384185791015,8.922
19960605093700.knt,IWT0179606050937.UD,1996-06-05, 09:37:00,39.486,141.696,12,4.4,IWT017,39.6336,141.4376,630,1996-06-05, 09:38:59,100Hz,299,U-D,0.0002384185791015,4.731,27.56933187676648,1114,1138.0,24.696610618612187,2.0602575005133423,2.472216366869728,3.754200829708336,4.26485371801767,7.236738808416794,0.0111750864144605,0.0111750864144605,0.0081891550300414,0.0051156164952394,0.0051156164952394,4.690034933583518,4.028958248520738,2.682237220786144,1.985944200052946,0.7938757110334341,E-W,0.0002384185791015,10.245,N-S,0.0002384185791015,11.875
19960605093700.knt,IWT0189606050937.UD,1996-06-05, 09:37:00,39.486,141.696,12,4.4,IWT018,39.6953,141.1478,125,1996-06-05, 09:38:06,100Hz,59,U-D,0.0002384185791015,2.664,52.42358409329005,815,821.0000000000001,24.27809564987013,10.92864860501736,11.828920421116123,12.82150335754085,12.803310204157542,13.363643430688446,0.0089691667592113,0.0089691667592113,0.0089691667592113,0.0089691667592113,0.0086446571057362,1.2783715124062842,1.2783715124062842,1.2783715124062842,1.2783715124062842,0.7890330969243793,E-W,0.0002384185791015,7.327,N-S,0.0002384185791015,4.585
19960605093700.knt,IWT0199606050937.UD,1996-06-05, 09:37:00,39.486,141.696,12,4.4,IWT019,39.8428,141.7952,103,1996-06-05, 09:38:03,100Hz,299,U-D,0.0002384185791015,6.941,40.57283471690896,944,969.0,26.558281409297425,3.916762061322769,4.146361985042316,5.1945841361021206,6.68538261674761,9.262247450204288,0.0116461772162131,0.0116461772162131,0.0116461772162131,0.0116461772162131,0.0116461772162131,3.3432649425744203,3.3432649425744203,3.0306307283663814,2.471168881563452,1.6865905859832684,E-W,0.0002384185791015,13.764,N-S,0.0002384185791015,16.891
19960605093700.knt,IWT0209606050937.UD,1996-06-05, 09:37:00,39.486,141.696,12,4.4,IWT020,39.7841,141.3295,690,1996-06-05, 09:38:05,100Hz,59,U-D,0.0002384185791015,3.002,45.6479336548538,812,795.0,19.141997454231905,21.295080527207507,23.617074420419417,27.61085398734813,37.79194824233956,35.175618600559325,0.0677225108439137,0.0677225108439137,0.0677225108439137,0.0677225108439137,0.0677225108439137,1.2438598525838578,1.2438598525838578,1.2438598525838578,1.1249867428386902,0.6932225903931141,E-W,0.0002384185791015,6.359,N-S,0.0002384185791015,4.116
19960605093700.knt,IWT0219606050937.UD,1996-06-05, 09:37:00,39.486,141.696,12,4.4,IWT021,39.9203,141.082,282,1996-06-05, 09:38:12,100Hz,59,U-D,0.0002384185791015,1.2,71.35253150103088,543,565.0,24.17455970290767,5.571227039994354,5.473684753194204,4.823873452837987,3.843796726564346,1.6157239668607746,0.006893560814802,0.006893560814802,0.0066684345545071,0.0055430590317437,0.0022299560634107,0.6568182943178771,0.5037506978501198,0.4354702668090796,0.4354702668090796,0.2520201634500707,E-W,0.0002384185791015,4.151,N-S,0.0002384185791015,5.486
19960605093700.knt,MYG0039606050937.UD,1996-06-05, 09:37:00,39.486,141.696,12,4.4,MYG003,38.7348,141.3106,28,1996-06-05, 09:38:17,100Hz,59,U-D,0.0002384185791015,2.449,89.90471831641432,289,319.0,27.70454573802691,7.715379893950096,8.931914270892893,10.471991808347768,11.625525468402014,9.427980055797828,0.0053264316791329,0.0053264316791329,0.0053264316791329,0.0053264316791329,0.0049834422097378,0.677356774597273,0.6518965846888295,0.6518965846888295,0.505957613345002,0.505957613345002,E-W,0.0002384185791015,4.929,N-S,0.0002384185791015,4.336
19960605093700.knt,MYG0049606050937.UD,1996-06-05, 09:37:00,39.486,141.696,12,4.4,MYG004,38.7292,141.0217,40,1996-06-05, 09:38:22,100Hz,59,U-D,0.0002384185791015,0.734,102.30564751432138,1,79.0,21.037866601192043,4.572105984556945,5.827407136118724,4.811804283236851,3.1215434217773,1.4200608213423858,0.0044529155424799,0.0044529155424799,0.003772139542018,0.0026846823729641,0.0012692349281531,0.3379602203079578,0.2847221576413324,0.2847221576413324,0.2792290225157766,0.2792290225157766,E-W,0.0002384185791015,2.259,N-S,0.0002384185791015,2.79
19960605125100.knt,HKD0789606051251.UD,1996-06-05, 12:51:00,42.986,143.846,85,3.8,HKD078,43.1486,144.4976,21,1996-06-05, 12:52:15,100Hz,59,U-D,0.0002384185791015,2.974,55.93441905663759,273,332.0,24.51569376596631,1.5561256921201705,1.4073949047210088,1.414648564028983,2.048469868275577,4.355740143721887,0.0016969695810098,0.0016969695810098,0.0016969695810098,0.0016969695810098,0.0016969695810098,0.8449595383343453,0.8449595383343453,0.8449595383343453,0.5306952244343086,0.4289415747617329,E-W,0.0002384185791015,3.99,N-S,0.0002384185791015,2.867
19960605125100.knt,HKD0849606051251.UD,1996-06-05, 12:51:00,42.986,143.846,85,3.8,HKD084,43.1141,144.123,30,1996-06-05, 12:52:12,100Hz,59,U-D,0.0002384185791015,1.23,26.6365391311831,412,415.00000000000006,20.728333276713048,5.360063333699147,4.422556597086019,4.074887418309091,4.4234546844723255,6.922787128956416,0.0061562795483186,0.0061562795483186,0.0061562795483186,0.0061562795483186,0.0061562795483186,0.5365039365001268,0.5365039365001268,0.5365039365001268,0.5365039365001268,0.5365039365001268,E-W,0.0002384185791015,4.316,N-S,0.0002384185791015,3.548
19960605125100.knt,HKD0859606051251.UD,1996-06-05, 12:51:00,42.986,143.846,85,3.8,HKD085,42.9581,144.0697,5,1996-06-05, 12:52:11,100Hz,59,U-D,0.0002384185791015,2.314,18.462695995637382,476,477.00000000000006,21.83666541473904,6.356998613200864,5.042345094465081,3.6956633657611375,3.236733211401712,4.23100395515519,0.0110141598324228,0.0102936195463057,0.0098745264255411,0.0098745264255411,0.0098745264255411,2.307257105364881,2.307257105364881,2.307257105364881,2.307257105364881,2.307257105364881,E-W,0.0002384185791015,6.849,N-S,0.0002384185791015,5.368
19960605125100.knt,HKD0879606051251.UD,1996-06-05, 12:51:00,42.986,143.846,85,3.8,HKD087,43.1502,143.8916,170,1996-06-05, 12:52:10,100Hz,59,U-D,0.0002384185791015,0.881,18.630170232091142,553,555.0,23.84419312587022,2.4305739213009403,2.4695746979631417,2.374579863574455,1.8493617931545845,1.0057642143613814,0.00211926513826,0.00211926513826,0.00211926513826,0.00211926513826,0.0012105044953155,0.8833450369194319,0.8833450369194319,0.8833450369194319,0.8833450369194319,0.8833450369194319,E-W,0.0002384185791015,2.943,N-S,0.0002384185791015,4.998
19960605125100.knt,HKD0909606051251.UD,1996-06-05, 12:51:00,42.986,143.846,85,3.8,HKD090,43.1213,143.6183,65,1996-06-05, 12:52:11,100Hz,59,U-D,0.0002384185791015,3.329,23.845953705278426,468,490.00000000000006,27.968328854074457,3.390994769762877,2.764673496039904,1.786337882066837,1.0681103335995472,1.2613417248541647,0.0049823125244441,0.0048134546990491,0.0038555970976338,0.0025318333122986,0.0025318333122986,1.2229793254649322,1.2229793254649322,1.2229793254649322,1.2229793254649322,0.892897687798847,E-W,0.0002384185791015,6.493,N-S,0.0002384185791015,5.394
19960605125100.knt,HKD0929606051251.UD,1996-06-05, 12:51:00,42.986,143.846,85,3.8,HKD092,42.9283,143.4483,17,1996-06-05, 12:52:12,100Hz,59,U-D,0.0002384185791015,2.445,32.99441679558015,2,226.00000000000003,9.897767906861146,13.548566809442256,14.086269847763557,11.21563144495122,6.670535024797131,2.885470438726365,0.1429585889633971,0.1429585889633971,0.1429461290403957,0.1172491925317532,0.0499272853548736,0.7559337216699429,0.2501466391971648,0.2501466391971648,0.2184514443681988,0.2184514443681988,E-W,0.0002384185791015,4.809,N-S,0.0002384185791015,3.758
19960605125100.knt,HKD0979606051251.UD,1996-06-05, 12:51:00,42.986,143.846,85,3.8,HKD097,42.6181,143.4209,33,1996-06-05, 12:52:15,100Hz,59,U-D,0.0002384185791015,1.207,53.63118358821933,251,262.0,20.124239742188934,5.481316204825913,5.603458398591161,5.963499626115259,6.21189810975533,6.20918305488727,0.0060050610004172,0.0060050610004172,0.0060050610004172,0.0060050610004172,0.0060050610004172,0.6282485719310251,0.6282485719310251,0.6282485719310251,0.6282485719310251,0.6070479814487845,E-W,0.0002384185791015,3.037,N-S,0.0002384185791015,4.284
19960605212600.knt,AOM0129606052126.UD,1996-06-05, 21:26:00,39.803,141.729,4,3.6,AOM012,40.5138,141.4805,15,1996-06-05, 21:27:12,100Hz,59,U-D,0.0002384185791015,1.809,81.80989926398043,255,256.0,21.94725443265355,7.610853099895544,8.24259688000874,9.74999232269575,10.991457843453691,13.878065577424277,0.0102039584281278,0.0102039584281278,0.0102039584281278,0.0102039584281278,0.0102039584281278,0.9780175821946596,0.9780175821946596,0.9780175821946596,0.9780175821946596,0.9162981378089424,E-W,0.0002384185791015,4.426,N-S,0.0002384185791015,3.938
19960605212600.knt,IWT0019606052126.UD,1996-06-05, 21:26:00,39.803,141.729,4,3.6,IWT001,40.4099,141.7191,15,1996-06-05, 21:27:59,100Hz,59,U-D,0.0002384185791015,4.535,67.48945304328403,1423,1434.0,28.72868386183861,0.9077971131123488,0.7247955309778802,0.3639544495211815,0.203161582367628,0.2162780250979208,0.0034038113192827,0.0034038113192827,0.0022996315212914,0.0015189214087983,0.0015189214087983,4.175957454173152,4.175957454173152,4.175957454173152,4.175957454173152,4.175957454173152,E-W,0.0002384185791015,9.499,N-S,0.0002384185791015,8.256
