earthquake name,records name,earthquake date,earthquake time,lat,long,depth,mag,stn_code,stn_lat,stn_long,stn_height,rcd_date,rcd_time,frequency,rcd_duration,direction,scale_factor,max_pga,epi_dist,pick_index_manually,pick_index_kalkan,snr_db_kalkan,tc_5sec,tc_4sec,tc_3sec,tc_2sec,tc_1sec,Pd_5sec,Pd_4sec,Pd_3sec,Pd_2sec,Pd_1sec,Pga_5sec,Pga_4sec,Pga_3sec,Pga_2sec,Pga_1sec,Channel,Scale_factor,PGA_ew,Channel.1,Scale_factor.1,PGA_ns
19960605212600.knt,IWT0039606052126.UD,1996-06-05, 21:26:00,39.803,141.729,4,3.6,IWT003,40.0083,141.8861,9,1996-06-05, 21:27:05,100Hz,59,U-D,0.0002384185791015,3.229,26.47072470199428,548,566.0,23.56625154093333,10.844085378229314,9.076048680188984,6.433513802171842,3.6796962666589694,1.9118934416581284,0.0266527644784379,0.0266527644784379,0.0240438513089925,0.0167233756681494,0.0098073541840566,1.7030230866178138,1.7030230866178138,1.7030230866178138,1.7030230866178138,1.6968271559051904,E-W,0.0002384185791015,3.788,N-S,0.0002384185791015,2.845
19960605212600.knt,IWT0049606052126.UD,1996-06-05, 21:26:00,39.803,141.729,4,3.6,IWT004,39.7369,141.9697,8,1996-06-05, 21:27:04,100Hz,299,U-D,0.0002384185791015,7.311,21.84538299272572,619,624.0,17.169975459355697,13.614635845988252,12.262608371074728,9.590681316678118,6.082170247580315,2.845691451832883,0.0256042632099479,0.0256042632099479,0.0256042632099479,0.0212460879522397,0.0107449218055794,2.7606943131565247,2.7606943131565247,2.7606943131565247,2.7606943131565247,2.7606943131565247,E-W,0.0002384185791015,14.148,N-S,0.0002384185791015,7.63
19960605212600.knt,IWT0069606052126.UD,1996-06-05, 21:26:00,39.803,141.729,4,3.6,IWT006,39.4806,141.9652,4,1996-06-05, 21:27:06,100Hz,59,U-D,0.0002384185791015,8.221,41.16071382975235,521,86.0,-1.244101661707885,11.634656145679942,9.25950140655364,6.337884589856345,3.6741189367943057,3.2129093485352387,0.5638405366765463,0.5617971635155804,0.4922398412191567,0.3222305272765736,0.3222305272765736,2.949898799265957,2.949898799265957,2.949898799265957,2.949898799265957,2.949898799265957,E-W,0.0002384185791015,12.175,N-S,0.0002384185791015,14.75
19960605212600.knt,IWT0079606052126.UD,1996-06-05, 21:26:00,39.803,141.729,4,3.6,IWT007,39.2701,141.8561,11,1996-06-05, 21:27:08,100Hz,59,U-D,0.0002384185791015,4.502,60.24984912433992,479,483.0,28.71739615636752,8.90041660612515,7.137122668344719,5.032271313450535,3.558796378515027,4.196310034059021,0.018551485348731,0.0183901185576414,0.0148251682184297,0.0146103339104048,0.0146103339104048,2.4742340513248404,2.4742340513248404,2.4742340513248404,2.4742340513248404,2.4742340513248404,E-W,0.0002384185791015,11.25,N-S,0.0002384185791015,8.104
19960605212600.knt,IWT0089606052126.UD,1996-06-05, 21:26:00,39.803,141.729,4,3.6,IWT008,39.0815,141.7083,50,1996-06-05, 21:27:12,100Hz,59,U-D,0.0002384185791015,1.073,80.24682848563491,289,293.0,22.388503410879828,3.8386824813717353,3.593160078303696,3.588568337437171,3.8285168943479504,3.823324398064486,0.0019713619891758,0.0019713619891758,0.0019713619891758,0.0019713619891758,0.0019713619891758,0.7093570417367228,0.7093570417367228,0.7093570417367228,0.7093570417367228,0.7093570417367228,E-W,0.0002384185791015,3.093,N-S,0.0002384185791015,2.561
19960605212600.knt,IWT0099606052126.UD,1996-06-05, 21:26:00,39.803,141.729,4,3.6,IWT009,39.0187,141.4031,150,1996-06-05, 21:27:14,100Hz,59,U-D,0.0002384185791015,1.833,91.59411642781512,212,212.0,24.854321061762853,9.111332503199511,13.29028041177756,22.121691099698168,30.47633422264185,26.797088410655945,0.0181007630948079,0.0181007630948079,0.0181007630948079,0.0181007630948079,0.0181007630948079,0.9824212511619408,0.9824212511619408,0.9824212511619408,0.9824212511619408,0.9824212511619408,E-W,0.0002384185791015,5.289,N-S,0.0002384185791015,10.429
19960605212600.knt,IWT0119606052126.UD,1996-06-05, 21:26:00,39.803,141.729,4,3.6,IWT011,39.1454,141.152,45,1996-06-05, 21:27:15,100Hz,59,U-D,0.0002384185791015,1.143,88.31460935151391,75,80.0,16.731029779717183,5.758638709640185,5.7546447144991735,4.93953390578134,2.911171405730124,1.272664537290061,0.0032861064303245,0.0032861064303245,0.0032861064303245,0.0026196996900604,0.0011747266736846,0.8139281827987428,0.8139281827987428,0.8139281827987428,0.8139281827987428,0.8139281827987428,E-W,0.0002384185791015,2.576,N-S,0.0002384185791015,1.464
19960605212600.knt,IWT0129606052126.UD,1996-06-05, 21:26:00,39.803,141.729,4,3.6,IWT012,39.3209,141.1378,64,1996-06-05, 21:27:00,100Hz,59,U-D,0.0002384185791015,3.459,73.77086930092035,1406,1397.0,34.35960707670369,0.7553852019795926,0.7506628186051726,0.7551565791166478,0.7800239352492314,0.6389816523488626,0.0012303881726773,0.0012303881726773,0.0012303881726773,0.0012303881726773,0.0012303881726773,1.439890900727811,1.439890900727811,1.439890900727811,1.439890900727811,1.439890900727811,E-W,0.0002384185791015,16.174,N-S,0.0002384185791015,8.859
19960605212600.knt,IWT0139606052126.UD,1996-06-05, 21:26:00,39.803,141.729,4,3.6,IWT013,39.3367,141.5378,272,1996-06-05, 21:27:08,100Hz,299,U-D,0.0002384185791015,9.647,54.37852815500637,445,83.0,6.1435481201533895,9.371635057802902,7.365655144255981,5.717549011424998,5.608150856143626,7.554590828800289,0.0988709973077325,0.0988709973077325,0.0988709973077325,0.0988709973077325,0.0988709973077325,6.218509039445069,6.218509039445069,6.218509039445069,6.218509039445069,6.218509039445069,E-W,0.0002384185791015,16.045,N-S,0.0002384185791015,11.488
19960605212600.knt,IWT0149606052126.UD,1996-06-05, 21:26:00,39.803,141.729,4,3.6,IWT014,39.4844,141.147,86,1996-06-05, 21:27:59,100Hz,59,U-D,0.0002384185791015,3.87,61.1417555800922,1374,1379.0,28.551056580414254,1.2394064673941592,1.2558121693251985,1.2458374980667888,1.1249776239194644,0.8782851420850831,0.0033490279529675,0.0033490279529675,0.0033490279529675,0.0033490279529675,0.0033490279529675,3.880373423829064,3.880373423829064,3.880373423829064,3.880373423829064,3.880373423829064,E-W,0.0002384185791015,2.79,N-S,0.0002384185791015,2.626
19960605212600.knt,IWT0209606052126.UD,1996-06-05, 21:26:00,39.803,141.729,4,3.6,IWT020,39.7841,141.3295,690,1996-06-05, 21:27:57,100Hz,59,U-D,0.0002384185791015,3.024,34.1967875899758,1405,1396.0,36.22787233494711,0.3960814523162546,0.3554539602196802,0.238611605727759,0.1640607703182682,0.1617131856618474,0.0016970874673872,0.0016970874673872,0.0016970874673872,0.0016970874673872,0.0016970874673872,3.0267556490835337,3.0267556490835337,3.0267556490835337,3.0267556490835337,3.0267556490835337,E-W,0.0002384185791015,5.979,N-S,0.0002384185791015,4.231
19960605212600.knt,IWT0219606052126.UD,1996-06-05, 21:26:00,39.803,141.729,4,3.6,IWT021,39.9203,141.082,282,1996-06-05, 21:27:59,100Hz,59,U-D,0.0002384185791015,1.818,56.742413451035326,1356,1370.0,27.9397823472268,1.3737759246429375,1.4180210738817622,1.4589675803575983,1.6276054831577111,1.3013597448989542,0.0021644430103941,0.0021644430103941,0.0021644430103941,0.0021644430103941,0.0021644430103941,1.052263449187363,1.052263449187363,1.052263449187363,1.052263449187363,1.052263449187363,E-W,0.0002384185791015,6.728,N-S,0.0002384185791015,7.164
19960605212600.knt,IWT0249606052126.UD,1996-06-05, 21:26:00,39.803,141.729,4,3.6,IWT024,40.2632,141.2901,94,1996-06-05, 21:27:09,100Hz,59,U-D,0.0002384185791015,1.501,63.36297510737951,424,430.0,21.76912640999245,3.2004163121552653,2.7618672480788677,2.298233289383039,2.0764613266823644,2.2675275185269204,0.0037385534015078,0.0037385534015078,0.0037385534015078,0.0037385534015078,0.0037385534015078,0.9981476731162862,0.9981476731162862,0.9981476731162862,0.9981476731162862,0.9981476731162862,E-W,0.0002384185791015,4.82,N-S,0.0002384185791015,2.236
19960606082500.knt,KGS0209606060825.UD,1996-06-06, 08:25:00,30.487,130.965,20,4.2,KGS020,31.2396,130.4915,21,1996-06-06, 08:25:46,100Hz,59,U-D,0.0002384185791015,1.64,95.1092211733946,205,218.00000000000003,11.588831215916864,9.29649175183024,10.3395417642143,12.533038433872926,13.531843646279846,12.773466470124028,0.0370578115192005,0.0370578115192005,0.0370578115192005,0.0370578115192005,0.0370578115192005,1.6598979342078135,1.6598979342078135,1.6598979342078135,1.6598979342078135,1.6598979342078135,E-W,0.0002384185791015,3.696,N-S,0.0002384185791015,4.298
19960606082500.knt,KGS0239606060825.UD,1996-06-06, 08:25:00,30.487,130.965,20,4.2,KGS023,31.199,130.849,179,1996-06-06, 08:25:42,100Hz,299,U-D,0.0002384185791015,2.336,79.94156216771424,326,332.0,15.876293675620364,11.148856182363655,8.921403121790577,5.7919781237092485,4.067829475828662,9.15893836068594,0.1070037818773781,0.1066862671591843,0.0853085851281421,0.0461675162844142,0.0461675162844142,1.6454005917058012,1.6454005917058012,1.6454005917058012,1.6454005917058012,1.3181313659508398,E-W,0.0002384185791015,3.045,N-S,0.0002384185791015,3.768
19960606082500.knt,KGS0269606060825.UD,1996-06-06, 08:25:00,30.487,130.965,20,4.2,KGS026,30.5202,130.9543,115,1996-06-06, 08:25:19,100Hz,59,U-D,0.0002384185791015,74.159,3.831357716577162,1401,1411.0,36.09419165587525,0.3689887094337107,0.3045148259857167,0.217642558848742,0.1876080555420192,0.1752564261670292,0.0522856940908543,0.0522856940908543,0.0407628924968195,0.0290763500388046,0.0255056307080033,74.28822832528967,74.28822832528967,74.28822832528967,74.28822832528967,74.28822832528967,E-W,0.0002384185791015,79.544,N-S,0.0002384185791015,153.617
19960606082500.knt,KGS0279606060825.UD,1996-06-06, 08:25:00,30.487,130.965,20,4.2,KGS027,30.3488,130.8829,15,1996-06-06, 08:25:20,100Hz,59,U-D,0.0002384185791015,36.747,17.26631597834037,1436,1452.0,32.86342196042305,0.5551684649930365,0.4630944845129565,0.4719210095642441,0.464338816419737,0.4416193895728362,0.0261412939730535,0.0261412939730535,0.0261412939730535,0.0261412939730535,0.0261412939730535,36.74024904719365,36.74024904719365,36.74024904719365,36.74024904719365,36.74024904719365,E-W,0.0002384185791015,32.118,N-S,0.0002384185791015,33.872
19960606082500.knt,KGS0289606060825.UD,1996-06-06, 08:25:00,30.487,130.965,20,4.2,KGS028,30.4208,130.5769,4,1996-06-06, 08:25:24,100Hz,299,U-D,0.0002384185791015,37.364,37.92227291383276,1408,1415.0,32.46033046863886,0.6036797337112925,0.5422537444052433,0.3837677135079388,0.281078374780423,0.2662842438459095,0.0121981652550284,0.0121981652550284,0.0111654953953211,0.0111654953953211,0.0111654953953211,37.32647500243195,37.32647500243195,37.32647500243195,37.32647500243195,37.32647500243195,E-W,0.0002384185791015,37.362,N-S,0.0002384185791015,41.504
19960608161500.knt,CHB0019606081615.UD,1996-06-08, 16:15:00,36.47,140.597,54,4.1,CHB001,35.9595,139.8733,13,1996-06-08, 16:15:25,100Hz,59,U-D,0.0002384185791015,5.585,86.24074918637386,247,80.0,16.298132978982856,10.537749160861688,11.109002386647973,13.942209482596637,20.674715928029475,31.620695446547654,0.0341948551944292,0.0341948551944292,0.0341948551944292,0.0341948551944292,0.0341948551944292,1.743798001660689,1.743798001660689,1.743798001660689,1.5331709179367885,1.3128053370124058,E-W,0.0002384185791015,10.703,N-S,0.0002384185791015,11.475
19960608161500.knt,CHB0029606081615.UD,1996-06-08, 16:15:00,36.47,140.597,54,4.1,CHB002,35.7868,139.9031,14,1996-06-08, 16:15:26,100Hz,59,U-D,0.0002384185791015,3.895,98.25934472031273,315,315.0,20.069597349487683,5.733036865153822,6.1817771173688,6.644647368359668,6.922931512223304,6.916411729243118,0.0074444564640389,0.0074444564640389,0.0074444564640389,0.0074444564640389,0.0074444564640389,1.391561755662774,1.391561755662774,1.391561755662774,1.391561755662774,1.1569439883272432,E-W,0.0002384185791015,4.589,N-S,0.0002384185791015,4.077
19960608161500.knt,CHB0079606081615.UD,1996-06-08, 16:15:00,36.47,140.597,54,4.1,CHB007,35.7234,140.2267,24,1996-06-08, 16:15:26,100Hz,59,U-D,0.0002384185791015,2.77,89.43663908047007,227,236.0,22.869030606139056,7.133662892039091,8.006198020772567,9.740805907806164,15.697734025615924,19.371180268449223,0.0069407987621638,0.0069407987621638,0.0069407987621638,0.0069407987621638,0.006860841612504,0.7385709148127959,0.6362995001435962,0.6362995001435962,0.3615114597583433,0.2912802547423979,E-W,0.0002384185791015,3.982,N-S,0.0002384185791015,4.474
19960608161500.knt,FKS0069606081615.UD,1996-06-08, 16:15:00,36.47,140.597,54,4.1,FKS006,37.5031,140.7588,472,1996-06-08, 16:15:30,100Hz,59,U-D,0.0002384185791015,3.245,115.77084223456514,148,111.0,18.603687076596195,6.562609485075969,6.203982309862474,7.169763877178204,9.505180753663282,12.287545322575678,0.0057718035678272,0.0057718035678272,0.0057718035678272,0.0057718035678272,0.0057718035678272,0.765921919016585,0.765921919016585,0.765921919016585,0.765921919016585,0.5446413789528036,E-W,0.0002384185791015,8.251,N-S,0.0002384185791015,5.371
19960608161500.knt,FKS0089606081615.UD,1996-06-08, 16:15:00,36.47,140.597,54,4.1,FKS008,37.4363,140.5668,430,1996-06-08, 16:15:28,100Hz,59,U-D,0.0002384185791015,1.682,107.4811613636632,188,203.00000000000003,23.46697776755065,3.119922386075096,3.472329308085103,4.259498069253528,5.738628052460859,4.876706807932835,0.0017535103744656,0.0017535103744656,0.0017535103744656,0.0017535103744656,0.0015565135753196,0.964615113415903,0.8660376979966826,0.8660376979966826,0.4489980072428308,0.4489980072428308,E-W,0.0002384185791015,8.161,N-S,0.0002384185791015,5.673
19960608161500.knt,FKS0099606081615.UD,1996-06-08, 16:15:00,36.47,140.597,54,4.1,FKS009,37.2778,140.6349,440,1996-06-08, 16:15:25,100Hz,59,U-D,0.0002384185791015,1.405,89.88650173656453,282,290.0,28.06101655833214,4.048590558259543,4.372044551564333,4.33914148164762,4.041133770235271,2.674726303457632,0.0023466392448033,0.0023466392448033,0.0023466392448033,0.0022894294943376,0.0018433217952584,0.7102156065603633,0.7102156065603633,0.7102156065603633,0.7102156065603633,0.495838832562693,E-W,0.0002384185791015,3.05,N-S,0.0002384185791015,4.312
19960608161500.knt,FKS0149606081615.UD,1996-06-08, 16:15:00,36.47,140.597,54,4.1,FKS014,36.8683,140.43,178,1996-06-08, 16:15:16,100Hz,59,U-D,0.0002384185791015,4.158,46.72640012160587,730,725.0,34.047231678003534,1.4900607161743735,1.5027007250365565,1.35151738006363,1.107291179084588,1.2874177972542196,0.0019374099997438,0.0019374099997438,0.0019374099997438,0.0019374099997438,0.0019374099997438,1.6736662595934553,1.6736662595934553,1.6736662595934553,1.6736662595934553,1.2922061702334804,E-W,0.0002384185791015,13.414,N-S,0.0002384185791015,5.384
19960608161500.knt,FKS0159606081615.UD,1996-06-08, 16:15:00,36.47,140.597,54,4.1,FKS015,37.0217,140.3775,315,1996-06-08, 16:15:20,100Hz,59,U-D,0.0002384185791015,1.533,64.38826444760798,508,508.0,27.917656741392086,3.522094921308028,3.735340644125793,3.5546765497037693,2.990859370778145,2.0245650750241238,0.0031916055787533,0.0031916055787533,0.0031916055787533,0.0031674583268291,0.0027455574324503,0.4318656931378667,0.4318656931378667,0.4318656931378667,0.4318656931378667,0.4318656931378667,E-W,0.0002384185791015,4.684,N-S,0.0002384185791015,4.343
19960608161500.knt,FKS0169606081615.UD,1996-06-08, 16:15:00,36.47,140.597,54,4.1,FKS016,37.1228,140.1914,375,1996-06-08, 16:15:24,100Hz,299,U-D,0.0002384185791015,7.453,81.07585064556656,299,310.0,15.66546410121118,7.030586553728524,6.825188946338992,7.43209076072221,8.652287104977884,9.401513863920147,0.0258964903827122,0.0258964903827122,0.0258964903827122,0.0258964903827122,0.0258964903827122,2.70105256185166,2.70105256185166,2.70105256185166,2.70105256185166,2.70105256185166,E-W,0.0002384185791015,14.611,N-S,0.0002384185791015,11.179
19960608161500.knt,FKS0179606081615.UD,1996-06-08, 16:15:00,36.47,140.597,54,4.1,FKS017,37.2842,140.3689,263,1996-06-08, 16:15:26,100Hz,59,U-D,0.0002384185791015,2.567,92.78034245178844,234,242.0,23.04251125145932,7.181965825286063,7.557229544896671,8.602819864276222,9.699936368045693,8.51852296934751,0.0116331429434251,0.0116331429434251,0.0116331429434251,0.0116331429434251,0.0116331429434251,1.0760847971930454,1.0279904265670785,1.0279904265670785,1.0279904265670785,0.9498201301351632,E-W,0.0002384185791015,3.602,N-S,0.0002384185791015,3.427
19960608161500.knt,FKS0249606081615.UD,1996-06-08, 16:15:00,36.47,140.597,54,4.1,FKS024,37.3957,140.1325,527,1996-06-08, 16:15:30,100Hz,59,U-D,0.0002384185791015,1.7,110.9038288710392,30,25.0,24.43191549602567,0.4734360952970524,0.4674307053724615,0.4812354003721095,0.4836092547826232,0.2155835604368445,0.0011222114140744,0.0011222114140744,0.0011222114140744,0.0011222114140744,0.000543933046458,1.0608248817797212,1.0608248817797212,1.0608248817797212,1.0608248817797212,1.0608248817797212,E-W,0.0002384185791015,3.006,N-S,0.0002384185791015,3.372
19960608161500.knt,GNM0019606081615.UD,1996-06-08, 16:15:00,36.47,140.597,54,4.1,GNM001,36.7722,139.2248,810,1996-06-08, 16:15:20,100Hz,59,U-D,0.0002384185791015,3.989,126.98699142529767,1289,1207.0,23.474769778962216,2.801317275598449,2.464702917781201,1.7660433482896,0.8494961282713478,0.2417271611958456,0.0071000403638472,0.0071000403638472,0.0069506920980468,0.0041622552385348,0.0010251753735844,3.5525985813122336,3.5525985813122336,3.5525985813122336,3.5525985813122336,2.0247094404177792,E-W,0.0002384185791015,8.747,N-S,0.0002384185791015,8.227
19960608161500.knt,GNM0099606081615.UD,1996-06-08, 16:15:00,36.47,140.597,54,4.1,GNM009,36.4106,139.3251,114,1996-06-08, 16:15:30,100Hz,59,U-D,0.0002384185791015,4.392,113.96684634962564,104,103.0,18.300441285239565,10.890186260860787,12.309532719351338,12.685386413335372,10.537586950283565,6.758782909978136,0.0415573550377606,0.0415573550377606,0.0415573550377606,0.0414318565555151,0.0346979386904163,4.213556146073496,4.213556146073496,4.213556146073496,4.213556146073496,4.213556146073496,E-W,0.0002384185791015,13.319,N-S,0.0002384185791015,11.747
19960608161500.knt,IBR0019606081615.UD,1996-06-08, 16:15:00,36.47,140.597,54,4.1,IBR001,36.7761,140.3569,105,1996-06-08, 16:15:10,100Hz,59,U-D,0.0002384185791015,14.232,40.2196538570329,1277,1272.0,30.439736572192743,0.6513129962732872,0.7206738623706418,0.7883513656892095,0.6822116885437363,0.702247553148947,0.0033141830774143,0.0033141830774143,0.0033141830774143,0.0033141830774143,0.0033141830774143,3.670358838925487,3.4174639825800788,3.4174639825800788,3.4174639825800788,2.488919491969744,E-W,0.0002384185791015,23.102,N-S,0.0002384185791015,17.32
19960608161500.knt,IBR0039606081615.UD,1996-06-08, 16:15:00,36.47,140.597,54,4.1,IBR003,36.5915,140.6453,58,1996-06-08, 16:15:07,100Hz,59,U-D,0.0002384185791015,10.44,14.182707573063876,1400,911.0,28.936333451653702,2.1039986081060515,2.244205470398512,2.3507047732708406,2.160175068279238,1.5685633889195532,0.0096047251978009,0.0096047251978009,0.0096047251978009,0.0096047251978009,0.0090867484284505,5.066896900033816,3.972266279411359,3.972266279411359,3.972266279411359,3.972266279411359,E-W,0.0002384185791015,18.033,N-S,0.0002384185791015,22.797
19960608161500.knt,IBR0049606081615.UD,1996-06-08, 16:15:00,36.47,140.597,54,4.1,IBR004,36.5273,140.4094,51,1996-06-08, 16:15:12,100Hz,59,U-D,0.0002384185791015,14.513,17.938530148220757,956,960.0,35.97708983247323,3.92834982438916,5.047834603002875,6.072110246663571,6.591165507762104,6.400601066661492,0.0207198174144508,0.0207198174144508,0.0207198174144508,0.0207198174144508,0.0207198174144508,6.265963318822856,5.056027436747335,4.342635298842624,3.564470595381824,3.564470595381824,E-W,0.0002384185791015,95.914,N-S,0.0002384185791015,79.997
19960608161500.knt,IBR0069606081615.UD,1996-06-08, 16:15:00,36.47,140.597,54,4.1,IBR006,36.369,140.4528,20,1996-06-08, 16:15:11,100Hz,59,U-D,0.0002384185791015,9.995,17.105766715953457,1056,1062.0,28.86565836769563,1.3517041255389042,1.5974576551271489,1.93687293456745,2.871664953675266,2.843032684237721,0.007505074672934,0.007505074672934,0.007505074672934,0.007505074672934,0.007505074672934,5.803510662364743,5.033889193689315,4.877658880532401,3.1350526473215283,2.5775462668175955,E-W,0.0002384185791015,16.207,N-S,0.0002384185791015,23.946
