earthquake name,records name,earthquake date,earthquake time,lat,long,depth,mag,stn_code,stn_lat,stn_long,stn_height,rcd_date,rcd_time,frequency,rcd_duration,direction,scale_factor,max_pga,epi_dist,pick_index_manually,pick_index_kalkan,snr_db_kalkan,tc_5sec,tc_4sec,tc_3sec,tc_2sec,tc_1sec,Pd_5sec,Pd_4sec,Pd_3sec,Pd_2sec,Pd_1sec,Pga_5sec,Pga_4sec,Pga_3sec,Pga_2sec,Pga_1sec,Channel,Scale_factor,PGA_ew,Channel.1,Scale_factor.1,PGA_ns
19970129113600.knt,IBR0029701291136.UD,1997-01-29, 11:36:00,36.67,141.397,34,4.2,IBR002,36.7061,140.7068,9.0,1997-01-29, 11:36:42,100Hz,59,U-D,0.0002384185791015,4.183,61.67386652675999,670,662.0,25.61684632333271,4.115453842712914,4.560729069458651,4.4979839832436985,3.7750090538650976,2.662825993270645,0.0034126062620958,0.0034126062620958,0.0034126062620958,0.0031268529668872,0.0028118257383637,0.9540700318445604,0.9540700318445604,0.9540700318445604,0.9540700318445604,0.9540700318445604,E-W,0.0002384185791015,8.692,N-S,0.0002384185791015,8.0
19970129113600.knt,IBR0039701291136.UD,1997-01-29, 11:36:00,36.67,141.397,34,4.2,IBR003,36.5915,140.6453,58.0,1997-01-29, 11:36:44,100Hz,59,U-D,0.0002384185791015,3.55,67.64230138975387,530,530.0,24.857202581700648,1.3020239957668434,1.1450328540853718,0.818975032185678,0.4949871506983022,0.4488925331766417,0.0024128564148521,0.0023144316202485,0.0018753926643732,0.0015155382400468,0.0015155382400468,1.1791965562806108,1.1791965562806108,1.1791965562806108,1.1791965562806108,1.1791965562806108,E-W,0.0002384185791015,6.351,N-S,0.0002384185791015,8.583
19970129113600.knt,IBR0049701291136.UD,1997-01-29, 11:36:00,36.67,141.397,34,4.2,IBR004,36.5273,140.4094,51.0,1997-01-29, 11:36:49,100Hz,59,U-D,0.0002384185791015,2.02,89.57991239332993,328,354.0,23.7860092308063,2.5489111966038838,2.839363847696432,2.7681097864941835,3.160664043923379,2.3503193238709112,0.0016272104023672,0.0016272104023672,0.0014836647031866,0.001482597697797,0.0011507241734641,0.9286524009143668,0.9286524009143668,0.7588855006287232,0.5206575128368063,0.5206575128368063,E-W,0.0002384185791015,4.91,N-S,0.0002384185791015,4.529
19970129113600.knt,IBR0059701291136.UD,1997-01-29, 11:36:00,36.67,141.397,34,4.2,IBR005,36.3851,140.2372,63.0,1997-01-29, 11:36:53,100Hz,59,U-D,0.0002384185791015,3.253,108.3646917905855,151,154.0,22.369170594363545,10.935420590284734,12.48397982975146,14.381136119604902,15.501281267274043,12.543468409393968,0.0283192610090323,0.0283192610090323,0.0283192610090323,0.0283192610090323,0.0270510375534156,1.354586380632245,1.354586380632245,1.354586380632245,1.354586380632245,0.8058662623627055,E-W,0.0002384185791015,8.088,N-S,0.0002384185791015,9.479
19970129113600.knt,IBR0069701291136.UD,1997-01-29, 11:36:00,36.67,141.397,34,4.2,IBR006,36.369,140.4528,20.0,1997-01-29, 11:36:51,100Hz,59,U-D,0.0002384185791015,1.68,90.77117731227312,166,170.0,23.937019533741303,4.562823132250663,4.9961212867301255,5.183377664425675,4.721986002660281,3.860477260851999,0.0041316183385131,0.0041316183385131,0.0041316183385131,0.0041044039394086,0.003465301335709,0.9131548775696732,0.9131548775696732,0.9131548775696732,0.9131548775696732,0.799403209585327,E-W,0.0002384185791015,2.684,N-S,0.0002384185791015,4.025
19970129113600.knt,IBR0139701291136.UD,1997-01-29, 11:36:00,36.67,141.397,34,4.2,IBR013,36.1587,140.4892,28.0,1997-01-29, 11:36:53,100Hz,59,U-D,0.0002384185791015,2.759,99.15160600941758,77,77.0,27.54887186409945,5.831600693904445,6.252214523378976,6.367224373889258,5.5572688532161125,3.1176021425100235,0.0094279051661803,0.0094279051661803,0.0094279051661803,0.0085710578887719,0.0059381558602054,1.2816318337381063,1.2816318337381063,1.2816318337381063,1.2816318337381063,1.2816318337381063,E-W,0.0002384185791015,6.341,N-S,0.0002384185791015,6.248
19970129113600.knt,TCG0149701291136.UD,1997-01-29, 11:36:00,36.67,141.397,34,4.2,TCG014,36.545,140.1742,130.0,1997-01-29, 11:36:53,100Hz,59,U-D,0.0002384185791015,2.626,110.02845861654578,196,196.0,28.95002162276869,1.0391865031107603,0.7242469968843795,0.500031372864261,0.5961328970744827,0.6769757750111859,0.0024068456898882,0.0019738940932729,0.0009401138909464,0.0009401138909464,0.0009401138909464,1.0497779713170687,0.8894529835717194,0.8894529835717194,0.8798330380934671,0.7821689713358132,E-W,0.0002384185791015,6.782,N-S,0.0002384185791015,5.994
19970130105100.knt,WKY0019701301051.UD,1997-01-30, 10:51:00,34.22,135.147,9,3.3,WKY001,34.2288,135.1694,8.0,1997-01-30, 10:51:09,100Hz,59,U-D,0.0002384185791015,36.944,2.2801098639869783,1479,1479.0,34.0104363148492,0.3119756687526238,0.2707753800503518,0.2660896843004687,0.2558169019963218,0.2288994562340909,0.0157040838487753,0.0157040838487753,0.0157040838487753,0.0157040838487753,0.0143130601649774,37.03629539713697,37.03629539713697,37.03629539713697,37.03629539713697,31.580201034155365,E-W,0.0002384185791015,88.867,N-S,0.0002384185791015,80.042
19970201215900.knt,FKO0169702012159.UD,1997-02-01, 21:59:00,32.703,130.015,15,3.8,FKO016,33.0159,130.4471,24.0,1997-02-01, 21:59:50,100Hz,59,U-D,0.0002384185791015,0.991,53.28658032105225,812,819.9999999999999,16.804290575747896,1.8001527307239955,1.8335955307986007,1.734363447721863,1.660298078910036,1.6779515649619532,0.0021407082477275,0.0021407082477275,0.0021407082477275,0.0021407082477275,0.0021407082477275,0.9950095941307886,0.9950095941307886,0.9950095941307886,0.9950095941307886,0.9950095941307886,E-W,0.0002384185791015,4.598,N-S,0.0002384185791015,2.31
19970201215900.knt,KMM0039702012159.UD,1997-02-01, 21:59:00,32.703,130.015,15,3.8,KMM003,32.9336,130.5477,14.0,1997-02-01, 21:59:52,100Hz,59,U-D,0.0002384185791015,1.051,55.99529611107585,676,676.0,24.606120587252057,4.640568489424765,5.394766482541231,4.742555909328271,3.371572279652943,2.117860048928808,0.002782305751292,0.002782305751292,0.0027528550564128,0.0019893264542087,0.0013249807969988,0.3927426622554418,0.3927426622554418,0.3927426622554418,0.3927426622554418,0.3927426622554418,E-W,0.0002384185791015,2.584,N-S,0.0002384185791015,3.054
19970201215900.knt,NGS0039702012159.UD,1997-02-01, 21:59:00,32.703,130.015,15,3.8,NGS003,33.2016,129.4128,22.0,1997-02-01, 21:59:58,100Hz,59,U-D,0.0002384185791015,2.019,78.93635506816237,485,498.00000000000006,27.29196054776045,4.0466875285605415,3.3275564663483577,2.3282553140035747,1.4424039252439342,1.1979067870145312,0.0057341915417909,0.005396276034803,0.0043848690261893,0.0035534027071436,0.0035534027071436,1.555917783229218,1.555917783229218,1.555917783229218,1.555917783229218,1.555917783229218,E-W,0.0002384185791015,4.684,N-S,0.0002384185791015,4.379
19970201215900.knt,NGS0049702012159.UD,1997-02-01, 21:59:00,32.703,130.015,15,3.8,NGS004,33.1808,129.7177,23.0,1997-02-01, 21:59:53,100Hz,59,U-D,0.0002384185791015,1.359,59.93629813893547,606,614.0,24.980810307387443,7.897836767659978,6.903948099575405,5.218806778061727,3.378043086466783,1.6597912255799254,0.0053239974869256,0.0051908689759338,0.004926680843371,0.0037807727896042,0.0018169539023607,0.7825613006682386,0.7825613006682386,0.7825613006682386,0.5978652341337876,0.425401717089983,E-W,0.0002384185791015,3.262,N-S,0.0002384185791015,4.005
19970201215900.knt,NGS0069702012159.UD,1997-02-01, 21:59:00,32.703,130.015,15,3.8,NGS006,32.9327,129.6428,24.0,1997-02-01, 21:59:48,100Hz,59,U-D,0.0002384185791015,3.033,43.15209497137873,853,852.0,20.337146106617386,13.813386963300328,16.253350900845643,18.989847422364985,19.905666222424557,21.306261456458024,0.0209142989040167,0.0209142989040167,0.0209142989040167,0.0209142989040167,0.020720323268964,2.45840792689963,2.45840792689963,1.7329333930413295,1.7329333930413295,0.9595025336001476,E-W,0.0002384185791015,8.236,N-S,0.0002384185791015,2.296
19970201215900.knt,NGS0099702012159.UD,1997-02-01, 21:59:00,32.703,130.015,15,3.8,NGS009,32.8456,130.0218,23.0,1997-02-01, 21:59:38,100Hz,59,U-D,0.0002384185791015,16.03,15.869136660772275,1474,1480.0,13.17598139069565,1.667823949604602,1.6777257801174357,1.5815073593543332,1.2273729627645569,0.595130728701588,0.0241591360717566,0.0241591360717566,0.0241591360717566,0.0241591360717566,0.0185773915157686,15.940918469775587,15.940918469775587,15.940918469775587,15.940918469775587,15.940918469775587,E-W,0.0002384185791015,5.674,N-S,0.0002384185791015,9.233
19970201215900.knt,NGS0109702012159.UD,1997-02-01, 21:59:00,32.703,130.015,15,3.8,NGS010,32.7353,129.8763,77.0,1997-02-01, 21:59:38,100Hz,59,U-D,0.0002384185791015,80.002,13.463508876444315,1394,1410.0,23.172522155493454,0.2600224915009756,0.2183445870715991,0.2042635158297789,0.3291258805588613,0.2874948380289083,0.0185164408884708,0.0185164408884708,0.0185164408884708,0.0080083585314107,0.0041986720873247,79.8268049469849,79.8268049469849,79.8268049469849,15.05741710068141,15.05741710068141,E-W,0.0002384185791015,153.715,N-S,0.0002384185791015,185.696
19970201215900.knt,NGS0119702012159.UD,1997-02-01, 21:59:00,32.703,130.015,15,3.8,NGS011,32.7839,130.2024,34.0,1997-02-01, 21:59:42,100Hz,59,U-D,0.0002384185791015,1.984,19.700522729243104,1141,1132.0,26.67849110901357,2.8220904861158487,3.6514176910222793,4.680498575047436,4.055247865750994,1.9554924066095976,0.0072173353455274,0.0067494499425287,0.0059104204197001,0.0041113529724382,0.002056371654427,1.988555261414553,1.988555261414553,1.4268177765545065,1.3326330868673726,1.3326330868673726,E-W,0.0002384185791015,6.601,N-S,0.0002384185791015,2.603
19970201215900.knt,NGS0139702012159.UD,1997-02-01, 21:59:00,32.703,130.015,15,3.8,NGS013,32.5811,129.7596,3.0,1997-02-01, 21:59:43,100Hz,59,U-D,0.0002384185791015,3.378,27.488076348732434,1097,1108.0,24.97420088699654,1.7987155624282205,2.6288974946507064,2.732138622787056,1.902585392179896,0.471189798407752,0.0067092393240875,0.0056382292153919,0.0035767454942829,0.0026889562455727,0.0007157034538978,3.3587497497503054,3.07770645464056,1.297735610127884,1.1875316884776423,1.1875316884776423,E-W,0.0002384185791015,7.048,N-S,0.0002384185791015,7.208
19970201215900.knt,NGS0199702012159.UD,1997-02-01, 21:59:00,32.703,130.015,15,3.8,NGS019,32.9002,129.9582,2.0,1997-02-01, 21:59:42,100Hz,59,U-D,0.0002384185791015,3.336,22.56113545972718,1143,1143.0,24.904372293262973,0.2315490213650299,0.2303552164891894,0.2534312847783235,0.2496467821396,0.2363949626054755,0.0029272273827505,0.0029272273827505,0.0024753632669039,0.0024753632669039,0.0024753632669039,3.344623757363052,3.344623757363052,3.344623757363052,3.344623757363052,3.344623757363052,E-W,0.0002384185791015,9.728,N-S,0.0002384185791015,5.318
19970206181500.knt,AOM0059702061815.UD,1997-02-06, 18:15:00,40.953,141.996,57,4.4,AOM005,41.2948,141.1972,10.0,1997-02-06, 18:15:27,100Hz,59,U-D,0.0002384185791015,1.259,76.94953810693173,283,283.0,20.92215932848777,2.7086764279799054,2.759210257643663,2.1940075372421246,1.300738152322535,0.9256727139502576,0.0071343309715161,0.0071343309715161,0.0071343309715161,0.0040477622049981,0.0040477622049981,1.2616270137365984,1.2616270137365984,1.2616270137365984,1.2616270137365984,1.2616270137365984,E-W,0.0002384185791015,2.56,N-S,0.0002384185791015,3.238
19970206181500.knt,AOM0079702061815.UD,1997-02-06, 18:15:00,40.953,141.996,57,4.4,AOM007,41.2256,141.3958,10.0,1997-02-06, 18:15:23,100Hz,59,U-D,0.0002384185791015,2.842,58.72739259760757,428,426.0,29.42720579553052,3.053983985747025,2.5214401449365837,2.424240918116207,2.844291161976609,4.719401232592038,0.0070626830654967,0.0070626830654967,0.0069535713364556,0.0069535713364556,0.0069535713364556,1.877435132576164,1.877435132576164,1.877435132576164,1.62741256609529,1.234396515609191,E-W,0.0002384185791015,5.114,N-S,0.0002384185791015,4.344
19970206181500.knt,AOM0119702061815.UD,1997-02-06, 18:15:00,40.953,141.996,57,4.4,AOM011,40.683,141.3696,41.0,1997-02-06, 18:15:23,100Hz,59,U-D,0.0002384185791015,6.205,60.66231373009215,519,519.0,22.562825694275865,9.821903537525245,8.265784711436504,5.586185843998566,3.2041842615422635,3.144307453524686,0.0375909428727754,0.0375909428727754,0.03245851003552,0.0172338281613001,0.0155173347914284,1.971867898208714,1.971867898208714,1.971867898208714,1.4083556453080055,1.127077331243476,E-W,0.0002384185791015,6.467,N-S,0.0002384185791015,8.135
19970206181500.knt,AOM0129702061815.UD,1997-02-06, 18:15:00,40.953,141.996,57,4.4,AOM012,40.5138,141.4805,15.0,1997-02-06, 18:15:15,100Hz,59,U-D,0.0002384185791015,11.899,65.35760407526419,1361,1361.0,29.26616847600821,3.8510280997216415,3.785737842277464,2.659775995108796,1.2141642682453877,0.6527352087842193,0.0086393459343226,0.0086393459343226,0.0077286216139663,0.0047052978752421,0.0018828916972151,2.5946941255017464,2.5946941255017464,2.5946941255017464,2.5946941255017464,1.7170495640019807,E-W,0.0002384185791015,18.398,N-S,0.0002384185791015,23.128
19970206181500.knt,AOM0219702061815.UD,1997-02-06, 18:15:00,40.953,141.996,57,4.4,AOM021,40.6152,141.208,68.0,1997-02-06, 18:15:26,100Hz,59,U-D,0.0002384185791015,2.288,76.2395316692712,386,46.0,18.214618156207635,5.496097816674851,4.933754697469824,4.578312081253737,4.881885912588327,5.915480366758115,0.0105830687443378,0.0105830687443378,0.0105830687443378,0.0105830687443378,0.0105830687443378,1.3273919915338004,1.3273919915338004,1.3273919915338004,1.3273919915338004,1.3273919915338004,E-W,0.0002384185791015,5.388,N-S,0.0002384185791015,3.649
19970206181500.knt,AOM0229702061815.UD,1997-02-06, 18:15:00,40.953,141.996,57,4.4,AOM022,40.9924,140.9155,3.0,1997-02-06, 18:15:28,100Hz,59,U-D,0.0002384185791015,2.548,90.81812308954242,301,295.0,27.12183692852434,2.857751970454735,2.809579513547092,2.61385339148408,2.652827021711828,2.7982498560568203,0.007188383159924,0.007188383159924,0.007188383159924,0.007188383159924,0.007188383159924,2.553945399738417,2.553945399738417,2.553945399738417,2.553945399738417,2.553945399738417,E-W,0.0002384185791015,6.958,N-S,0.0002384185791015,4.212
19970206181500.knt,IWT0019702061815.UD,1997-02-06, 18:15:00,40.953,141.996,57,4.4,IWT001,40.4099,141.7191,15.0,1997-02-06, 18:15:20,100Hz,59,U-D,0.0002384185791015,6.552,64.74663620581845,818,827.9999999999999,27.93068028352859,2.902935304928607,3.1409620430415424,3.0058249485381987,2.6493538917879365,2.469050961983568,0.0064047858850864,0.0064047858850864,0.0064047858850864,0.0056428504018211,0.00520660606868,2.592029211133034,2.592029211133034,2.592029211133034,2.592029211133034,2.549050873678986,E-W,0.0002384185791015,9.004,N-S,0.0002384185791015,9.815
19970208172800.knt,KNG0139702081728.UD,1997-02-08, 17:28:00,35.036,139.097,5,3.5,KNG013,35.2641,139.152,11.0,1997-02-08, 17:28:32,100Hz,59,U-D,0.0002384185791015,2.298,25.85179393940185,996,366.0,16.20958539759734,0.49672198297588,0.6134948372519262,0.6718744049413475,0.6029934663198698,0.4694422343784482,0.0052202717155352,0.001873637335958,0.001873637335958,0.001873637335958,0.0014711953012979,2.2637786200309256,1.272949831679269,0.8185902366555675,0.8185902366555675,0.8185902366555675,E-W,0.0002384185791015,2.514,N-S,0.0002384185791015,1.974
19970208172800.knt,SZO0019702081728.UD,1997-02-08, 17:28:00,35.036,139.097,5,3.5,SZO001,35.1424,139.0795,76.0,1997-02-08, 17:28:25,100Hz,59,U-D,0.0002384185791015,8.735,11.937803849202348,1422,1422.0,35.15821662493111,0.4917343292028835,0.3983928550001525,0.2989532927369047,0.2910037580453011,0.3267476196254037,0.0044451869884768,0.0044451869884768,0.0044451869884768,0.0044451869884768,0.0014846549116342,8.721007647692275,8.721007647692275,8.721007647692275,6.539727900002396,6.341522863008022,E-W,0.0002384185791015,43.16,N-S,0.0002384185791015,42.64
19970208172800.knt,SZO0039702081728.UD,1997-02-08, 17:28:00,35.036,139.097,5,3.5,SZO003,34.8158,139.0546,149.0,1997-02-08, 17:28:27,100Hz,59,U-D,0.0002384185791015,5.937,24.788373317315987,1431,1440.0,20.913401600080213,0.3595097329812784,0.3742596496567342,0.3224234079439406,0.2815640898557539,0.2568101017317576,0.0043348481765991,0.0043348481765991,0.0032356948893043,0.0032356948893043,0.0032356948893043,5.970304362379873,5.970304362379873,5.970304362379873,5.970304362379873,5.970304362379873,E-W,0.0002384185791015,9.0,N-S,0.0002384185791015,11.991
19970208172800.knt,SZO0079702081728.UD,1997-02-08, 17:28:00,35.036,139.097,5,3.5,SZO007,34.9771,138.9466,49.0,1997-02-08, 17:28:27,100Hz,59,U-D,0.0002384185791015,4.344,15.1833522706682,1297,1310.0,26.318056979814884,1.848738441519696,1.0743210367465978,0.7539675602265761,0.9586757075325736,0.8118861728739994,0.0084966098413293,0.0059484910918175,0.0025694087591358,0.0024148161124023,0.0013497942856262,4.368189454843563,4.368189454843563,3.354621789005826,3.354621789005826,1.941466444731376,E-W,0.0002384185791015,18.471,N-S,0.0002384185791015,7.023
19970211033300.knt,FKS0149702110333.UD,1997-02-11, 03:33:00,36.253,139.747,70,3.9,FKS014,36.8683,140.43,178.0,1997-02-11, 03:33:39,100Hz,59,U-D,0.0002384185791015,1.0,91.66343365068109,229,229.0,23.25167036412679,1.4859776802398523,1.2254762992999184,0.7577457558601932,0.4949182993255287,0.5180189227897877,0.0013897445520762,0.0013897445520762,0.0007946830590904,0.0007946830590904,0.0007946830590904,1.0039116815397064,1.0039116815397064,1.0039116815397064,1.0039116815397064,1.0039116815397064,E-W,0.0002384185791015,2.376,N-S,0.0002384185791015,1.966
19970211033300.knt,FKS0169702110333.UD,1997-02-11, 03:33:00,36.253,139.747,70,3.9,FKS016,37.1228,140.1914,375.0,1997-02-11, 03:33:42,100Hz,59,U-D,0.0002384185791015,1.319,104.51976801528124,72,80.0,19.939948931444945,0.748201483858867,0.7569702502582811,0.7701193129549643,0.7157127684324052,0.5280774656305715,0.0018539287494267,0.0018539287494267,0.0018539287494267,0.0018539287494267,0.0018539287494267,1.319210038427731,1.319210038427731,1.319210038427731,1.319210038427731,1.319210038427731,E-W,0.0002384185791015,4.308,N-S,0.0002384185791015,3.29
19970211033300.knt,GNM0019702110333.UD,1997-02-11, 03:33:00,36.253,139.747,70,3.9,GNM001,36.7722,139.2248,810.0,1997-02-11, 03:33:25,100Hz,59,U-D,0.0002384185791015,6.302,74.23607851694379,1409,1416.0,31.517076104788792,2.0442317471925184,1.9419829292309705,1.560721005143244,0.9725627132993466,0.3736977515629256,0.0070839188083593,0.0070839188083593,0.0070839188083593,0.0061535450785977,0.0035708366039692,6.298399718408956,6.298399718408956,6.298399718408956,6.298399718408956,6.298399718408956,E-W,0.0002384185791015,5.16,N-S,0.0002384185791015,9.296
19970211033300.knt,GNM0029702110333.UD,1997-02-11, 03:33:00,36.253,139.747,70,3.9,GNM002,36.7819,138.9695,494.0,1997-02-11, 03:33:39,100Hz,59,U-D,0.0002384185791015,0.958,91.0287242478424,183,183.0,20.902732571874058,6.9119697581355,7.377564717462011,4.920787697771115,2.6334389761145696,3.4971055387352936,0.0093140855245268,0.0093140855245268,0.0089384428747391,0.0035005052558606,0.0028629216832182,0.9588471184600016,0.9588471184600016,0.9588471184600016,0.9588471184600016,0.9588471184600016,E-W,0.0002384185791015,4.117,N-S,0.0002384185791015,2.85
19970211033300.knt,GNM0039702110333.UD,1997-02-11, 03:33:00,36.253,139.747,70,3.9,GNM003,36.6578,139.0784,462.0,1997-02-11, 03:33:26,100Hz,59,U-D,0.0002384185791015,1.946,74.84444924978106,1326,1323.0,27.327764902054746,3.262891807156453,3.3917265057068984,3.544629981970418,3.8119931349339815,3.737655206101336,0.0108442579859196,0.0108442579859196,0.0108442579859196,0.0108442579859196,0.0108442579859196,1.951558505152896,1.951558505152896,1.951558505152896,1.951558505152896,1.951558505152896,E-W,0.0002384185791015,4.261,N-S,0.0002384185791015,6.427
19970211033300.knt,GNM0079702110333.UD,1997-02-11, 03:33:00,36.253,139.747,70,3.9,GNM007,36.4619,139.0101,186.0,1997-02-11, 03:33:38,100Hz,59,U-D,0.0002384185791015,1.156,69.95746073512413,84,90.0,18.56450182802774,5.409592701265738,5.729282309157234,5.65254033685405,4.934343830008524,3.47963018951928,0.0054123004246098,0.0054123004246098,0.0054123004246098,0.0054123004246098,0.0039967383465601,0.9580067445786272,0.9580067445786272,0.9580067445786272,0.9580067445786272,0.8263310440884034,E-W,0.0002384185791015,1.837,N-S,0.0002384185791015,2.621
