earthquake name,records name,earthquake date,earthquake time,lat,long,depth,mag,stn_code,stn_lat,stn_long,stn_height,rcd_date,rcd_time,frequency,rcd_duration,direction,scale_factor,max_pga,epi_dist,pick_index_manually,pick_index_kalkan,snr_db_kalkan,tc_5sec,tc_4sec,tc_3sec,tc_2sec,tc_1sec,Pd_5sec,Pd_4sec,Pd_3sec,Pd_2sec,Pd_1sec,Pga_5sec,Pga_4sec,Pga_3sec,Pga_2sec,Pga_1sec,Channel,Scale_factor,PGA_ew,Channel.1,Scale_factor.1,PGA_ns
19990109230000.knt,KYT0119901092300.UD,1999-01-09, 23:00:00,35.003,135.53,15,3.4,KYT011,35.017,135.5638,101,1999-01-09, 23:00:18,100Hz,119,U-D,0.0002384185791015625,19.43,3.4495550833309796,1474,1474.0,35.28328944968936,1.8556099607166097,1.8138477632301566,1.2320893330393836,0.7233430851498359,0.2377579094959438,0.011131743248624941,0.011131743248624941,0.010168473772049774,0.006376358504447021,0.0027962020659479583,19.45833061826387,19.45833061826387,19.45833061826387,19.45833061826387,19.45833061826387,E-W,0.0002384185791015625,28.131,N-S,0.0002384185791015625,37.272
19990109230000.knt,KYT0129901092300.UD,1999-01-09, 23:00:00,35.003,135.53,15,3.4,KYT012,34.9962,135.8188,89,1999-01-09, 23:00:25,100Hz,119,U-D,0.0002384185791015625,5.797,26.316491399704017,1030,1031.0,29.16703763847356,1.3271718438674118,1.4611501261932238,1.599028737431867,1.699922015924666,1.6497371809763863,0.0035642140279835244,0.0035642140279835244,0.0035642140279835244,0.0035642140279835244,0.0035642140279835244,5.807542497561927,5.807542497561927,5.807542497561927,5.807542497561927,5.807542497561927,E-W,0.0002384185791015625,3.741,N-S,0.0002384185791015625,6.4
19990109230000.knt,OSK0019901092300.UD,1999-01-09, 23:00:00,35.003,135.53,15,3.4,OSK001,34.9707,135.39,224,1999-01-09, 23:00:21,100Hz,119,U-D,0.0002384185791015625,15.847,13.250083369925019,1264,1310.0,13.451420056941487,0.39722180842370725,0.26593507956018114,0.2885068777514442,0.6676515974675274,0.661035989184463,0.005542407388453192,0.004894809059850361,0.004805961689327975,0.0016832978843621777,0.0016832978843621777,15.875561030281933,15.875561030281933,15.875561030281933,2.269235842620068,2.269235842620068,E-W,0.0002384185791015625,17.723,N-S,0.0002384185791015625,21.782
19990109230000.knt,OSK0029901092300.UD,1999-01-09, 23:00:00,35.003,135.53,15,3.4,OSK002,34.8573,135.5958,34,1999-01-09, 23:00:23,100Hz,119,U-D,0.0002384185791015625,2.06,17.27594028581811,1127,817.0,16.39493329602982,0.9679680240751579,0.9467514526782864,1.374802024358694,1.552024011463267,1.4488612476821299,0.003843902008028828,0.0017661738555121154,0.0014232778655024968,0.0010552036718084056,0.001005964461221301,2.0526355779534113,2.0526355779534113,1.6776821725830164,1.3536901859716397,1.3536901859716397,E-W,0.0002384185791015625,4.224,N-S,0.0002384185791015625,5.109
19990109230000.knt,SIG0109901092300.UD,1999-01-09, 23:00:00,35.003,135.53,15,3.4,SIG010,34.9718,135.8965,110,1999-01-09, 23:00:22,100Hz,119,U-D,0.0002384185791015625,4.029,33.56773385415212,1453,1453.0,20.07586931049993,1.7487162119448272,1.3417279403168492,0.6801123980662174,0.2068097377903518,0.13161370287000776,0.00297902533962296,0.0028475111578242203,0.002043197057859914,0.0007678467972376587,0.0007678467972376587,4.025565632771556,4.025565632771556,4.025565632771556,4.025565632771556,4.025565632771556,E-W,0.0002384185791015625,2.244,N-S,0.0002384185791015625,2.125
19990109232200.knt,EHM0059901092322.UD,1999-01-09, 23:22:00,33.553,132.447,50,3.9,EHM005,33.7974,132.9141,136,1999-01-09, 23:22:44,100Hz,119,U-D,0.0002384185791015625,0.753,51.056780576288006,562,564.0,11.231662815852271,6.9638718002404305,6.150369063234181,4.3395930983700755,2.39676393333649,2.3836402864793595,0.0031017276203053616,0.0031017276203053616,0.0029081183547647726,0.0016496971163577948,0.0016496971163577948,0.3783571490249375,0.3783571490249375,0.3783571490249375,0.3783571490249375,0.3783571490249375,E-W,0.0002384185791015625,2.602,N-S,0.0002384185791015625,1.93
19990109232200.knt,EHM0099901092322.UD,1999-01-09, 23:22:00,33.553,132.447,50,3.9,EHM009,33.6324,132.7963,250,1999-01-09, 23:22:41,100Hz,119,U-D,0.0002384185791015625,1.178,33.53671180106818,662,662.0,21.902459980862407,2.4655846222180853,2.327253950179943,1.9250452882920257,1.7944597195892837,2.1536075729792987,0.001777835340751824,0.001592030781760445,0.0015764919388740531,0.0015764919388740531,0.0015764919388740531,1.0097066452396888,1.0097066452396888,1.0097066452396888,1.0097066452396888,0.7403320809872067,E-W,0.0002384185791015625,4.023,N-S,0.0002384185791015625,3.275
19990109232200.knt,EHM0109901092322.UD,1999-01-09, 23:22:00,33.553,132.447,50,3.9,EHM010,33.4506,132.6881,151,1999-01-09, 23:22:38,100Hz,119,U-D,0.0002384185791015625,4.322,25.087972436524602,902,912.0000000000001,22.773444894452666,0.9118508036139248,0.778578304403659,0.5152531731567259,0.29058500377447216,0.24990131059060472,0.0014996515448575443,0.0014437151709727006,0.0011982420985660097,0.0008490370368607433,0.0007307210539416399,1.3541869526651835,1.3541869526651835,1.3541869526651835,1.3541869526651835,1.3541869526651835,E-W,0.0002384185791015625,6.406,N-S,0.0002384185791015625,6.473
19990109232200.knt,EHM0119901092322.UD,1999-01-09, 23:22:00,33.553,132.447,50,3.9,EHM011,33.4496,132.4336,10,1999-01-09, 23:22:36,100Hz,119,U-D,0.0002384185791015625,2.841,11.56449476509988,984,988.0000000000001,23.443001161252855,3.995880094437591,3.782014814219478,2.8948710539970066,1.904335802028342,1.0333694683257482,0.00498370058373705,0.004708509554158321,0.0037957523436067306,0.0025253731711665887,0.0015404719586074318,1.6099785063448477,1.6099785063448477,1.6099785063448477,1.6099785063448477,1.6099785063448477,E-W,0.0002384185791015625,10.801,N-S,0.0002384185791015625,10.019
19990109232200.knt,EHM0129901092322.UD,1999-01-09, 23:22:00,33.553,132.447,50,3.9,EHM012,33.2217,132.5727,37,1999-01-09, 23:22:40,100Hz,119,U-D,0.0002384185791015625,2.0,38.643285817570444,805,818.0,19.120666960804915,6.815702545172157,7.638398242593279,8.491110344009748,9.618128257302018,11.961390919719774,0.00482631625809885,0.00482631625809885,0.00482631625809885,0.00482631625809885,0.00482631625809885,0.749205129178453,0.749205129178453,0.749205129178453,0.749205129178453,0.749205129178453,E-W,0.0002384185791015625,5.528,N-S,0.0002384185791015625,4.153
19990109232200.knt,EHM0139901092322.UD,1999-01-09, 23:22:00,33.553,132.447,50,3.9,EHM013,33.3924,132.1141,18,1999-01-09, 23:22:39,100Hz,119,U-D,0.0002384185791015625,1.706,35.66963773683429,848,862.0000000000001,20.761724357055996,8.596303768588836,10.149868357396272,8.993130364458182,5.46284757801782,2.2121724718371842,0.013841133005396463,0.013841133005396463,0.013841133005396463,0.011774545196770745,0.004938579516312076,1.2990693219811367,1.2990693219811367,1.2990693219811367,1.2990693219811367,1.2990693219811367,E-W,0.0002384185791015625,6.17,N-S,0.0002384185791015625,4.803
19990109232200.knt,EHM0149901092322.UD,1999-01-09, 23:22:00,33.553,132.447,50,3.9,EHM014,32.9453,132.5047,1,1999-01-09, 23:22:46,100Hz,119,U-D,0.0002384185791015625,2.898,67.78584510365926,519,522.0,14.12428601567293,7.976444595171016,6.13763498603937,4.2678401574346445,3.262455989745312,3.999796132649037,0.007480678513924091,0.006951262705044772,0.005217251742772966,0.005104739830630261,0.005104739830630261,0.9506443667694932,0.9506443667694932,0.9506443667694932,0.9506443667694932,0.9506443667694932,E-W,0.0002384185791015625,8.231,N-S,0.0002384185791015625,5.487
19990109232200.knt,EHM0159901092322.UD,1999-01-09, 23:22:00,33.553,132.447,50,3.9,EHM015,33.6105,132.4814,4,1999-01-09, 23:22:31,100Hz,89,U-D,0.0002384185791015625,3.307,7.143841344340794,1464,1473.0,21.589697515265293,0.7456276850785191,0.7239723118722753,0.702569986896752,0.7079803965049326,0.5661090064018168,0.0029314664730366816,0.0029314664730366816,0.0029314664730366816,0.0029314664730366816,0.0029314664730366816,3.325806346029758,3.325806346029758,3.325806346029758,3.325806346029758,3.325806346029758,E-W,0.0002384185791015625,6.705,N-S,0.0002384185791015625,5.592
19990109232200.knt,HRS0099901092322.UD,1999-01-09, 23:22:00,33.553,132.447,50,3.9,HRS009,34.4926,132.2794,219,1999-01-09, 23:22:58,100Hz,119,U-D,0.0002384185791015625,0.534,105.61428243709612,0,-100.0,,0.0,0.0,0.0,0.0,0.0,0.0,0.0,0.0,0.0,0.0,0.0,0.0,0.0,0.0,0.0,E-W,0.0002384185791015625,2.094,N-S,0.0002384185791015625,2.449
19990109232200.knt,KOC0129901092322.UD,1999-01-09, 23:22:00,33.553,132.447,50,3.9,KOC012,33.1967,132.9758,150,1999-01-09, 23:22:46,100Hz,119,U-D,0.0002384185791015625,0.954,63.09312418604334,498,498.00000000000006,11.937076029261089,0.8976701668124937,0.7219158940799683,0.734565286646748,0.6620655975998528,0.5213490470064155,0.0007085115996077844,0.0006101304625472849,0.0006101304625472849,0.0006101304625472849,0.0006101304625472849,0.9581114622490491,0.9581114622490491,0.9581114622490491,0.9581114622490491,0.9581114622490491,E-W,0.0002384185791015625,3.535,N-S,0.0002384185791015625,4.666
19990109232200.knt,KOC0159901092322.UD,1999-01-09, 23:22:00,33.553,132.447,50,3.9,KOC015,32.937,132.7252,2,1999-01-09, 23:22:48,100Hz,119,U-D,0.0002384185791015625,2.542,73.21907107531923,393,411.00000000000006,22.570287499931815,0.8102193403532663,0.7785055543991708,0.7660605866047311,0.7917750367606877,0.8676769986843068,0.0017484464165908751,0.0017484464165908751,0.0017484464165908751,0.0017484464165908751,0.0017484464165908751,2.1726466280347756,2.1726466280347756,2.1726466280347756,2.1726466280347756,2.1726466280347756,E-W,0.0002384185791015625,4.537,N-S,0.0002384185791015625,4.328
19990109232200.knt,YMG0179901092322.UD,1999-01-09, 23:22:00,33.553,132.447,50,3.9,YMG017,33.9649,132.1011,2,1999-01-09, 23:22:43,100Hz,119,U-D,0.0002384185791015625,1.893,55.859295910536474,664,324.0,13.282296680137849,1.9949908309436784,1.6240883550059075,1.542572698956138,1.4685729468915047,1.4819821177578354,0.0017124471506177348,0.0010493069979823338,0.0010493069979823338,0.0010493069979823338,0.0010493069979823338,0.7473731651672928,0.7473731651672928,0.7473731651672928,0.7473731651672928,0.7473731651672928,E-W,0.0002384185791015625,4.235,N-S,0.0002384185791015625,3.823
19990109232200.knt,YMG0189901092322.UD,1999-01-09, 23:22:00,33.553,132.447,50,3.9,YMG018,33.9091,132.3561,2,1999-01-09, 23:22:40,100Hz,119,U-D,0.0002384185791015625,1.431,40.47894211995814,785,785.0,24.200069949267817,5.804654982862676,6.393053171360576,6.898718736910723,7.203487638626129,7.181712643140757,0.004330603696332205,0.004330603696332205,0.004330603696332205,0.004330603696332205,0.004330603696332205,0.8853577893486,0.8853577893486,0.8853577893486,0.8853577893486,0.8853577893486,E-W,0.0002384185791015625,3.343,N-S,0.0002384185791015625,6.789
19990109232200.knt,YMG0199901092322.UD,1999-01-09, 23:22:00,33.553,132.447,50,3.9,YMG019,33.8388,132.1205,90,1999-01-09, 23:22:41,100Hz,119,U-D,0.0002384185791015625,4.618,43.84419789778664,731,740.0,22.816094043214736,5.559286207731834,5.203424519237396,5.0648160330866165,3.734847941468306,2.599354474826978,0.003717996851443503,0.003717996851443503,0.003717996851443503,0.003249690823968693,0.002519963497672194,1.2881792836573502,1.2881792836573502,1.2881792836573502,1.2881792836573502,1.2881792836573502,E-W,0.0002384185791015625,4.363,N-S,0.0002384185791015625,3.832
19990111091000.knt,AIC0109901110910.UD,1999-01-11, 09:10:00,36.053,136.747,9,4.3,AIC010,34.976,137.4236,525,1999-01-11, 09:10:16,100Hz,119,U-D,0.0002384185791015625,1.419,134.504960455424,0,2.0,9.352320436195106,0.0,0.0,0.0,0.0,0.0,0.0,0.0,0.0,0.0,0.0,0.0,0.0,0.0,0.0,0.0,E-W,0.0002384185791015625,3.032,N-S,0.0002384185791015625,2.078
19990111091000.knt,FKI0039901110910.UD,1999-01-11, 09:10:00,36.053,136.747,9,4.3,FKI003,36.0444,136.2279,9,1999-01-11, 09:10:55,100Hz,119,U-D,0.0002384185791015625,1.343,46.67838807408651,774,20.0,14.696853383763617,1.3787416253554405,1.3671324373893767,1.3590600290388974,0.8162530381893832,0.5388945055808947,0.00494768628857638,0.00494768628857638,0.00494768628857638,0.0032218717316215544,0.0027630984318436857,0.6968305028125107,0.6968305028125107,0.6968305028125107,0.6968305028125107,0.6968305028125107,E-W,0.0002384185791015625,3.44,N-S,0.0002384185791015625,1.631
19990111091000.knt,FKI0049901110910.UD,1999-01-11, 09:10:00,36.053,136.747,9,4.3,FKI004,35.9789,136.4865,175,1999-01-11, 09:10:45,100Hz,119,U-D,0.0002384185791015625,4.441,24.83605580153002,1393,1393.0,28.55282724465452,0.9622745358208229,1.184147951008194,0.6961240300709436,0.54771249477634,0.5134481252827497,0.01708641378962685,0.01708641378962685,0.0062809278351825485,0.005728651196656501,0.005728651196656501,4.430945085083962,4.430945085083962,4.430945085083962,4.430945085083962,4.430945085083962,E-W,0.0002384185791015625,11.07,N-S,0.0002384185791015625,12.435
19990111091000.knt,FKI0119901110910.UD,1999-01-11, 09:10:00,36.053,136.747,9,4.3,FKI011,35.9053,136.6706,432,1999-01-11, 09:10:44,100Hz,119,U-D,0.0002384185791015625,9.706,17.804264198686607,1377,1387.0,31.16034015317568,1.536861091830328,1.3805428601296978,1.150119809418594,0.9017928482432078,0.6687726421637012,0.022930366875918356,0.022930366875918356,0.022930366875918356,0.004682688775132365,0.0035675994234931514,9.76457588667989,9.76457588667989,9.76457588667989,5.330514857431362,5.239689925887917,E-W,0.0002384185791015625,40.869,N-S,0.0002384185791015625,20.304
19990111091000.knt,GIF0029901110910.UD,1999-01-11, 09:10:00,36.053,136.747,9,4.3,GIF002,36.2734,137.0253,570,1999-01-11, 09:10:51,100Hz,119,U-D,0.0002384185791015625,3.222,34.99695357483841,1002,1010.0,24.769317148323857,3.296540613283122,5.894770051455565,6.717044512043809,7.058253702855156,6.577711682231505,0.009886321088712144,0.009886321088712144,0.009886321088712144,0.009886321088712144,0.009886321088712144,3.2269713261505593,1.1141650964928704,1.1141650964928704,1.1141650964928704,0.914945795975848,E-W,0.0002384185791015625,10.615,N-S,0.0002384185791015625,7.988
19990111091000.knt,GIF0039901110910.UD,1999-01-11, 09:10:00,36.053,136.747,9,4.3,GIF003,36.3322,137.3014,405,1999-01-11, 09:10:02,100Hz,119,U-D,0.0002384185791015625,1.367,58.642720865737566,0,-100.0,,0.0,0.0,0.0,0.0,0.0,0.0,0.0,0.0,0.0,0.0,0.0,0.0,0.0,0.0,0.0,E-W,0.0002384185791015625,3.249,N-S,0.0002384185791015625,4.201
19990111091000.knt,GIF0059901110910.UD,1999-01-11, 09:10:00,36.053,136.747,9,4.3,GIF005,36.1536,137.2514,562,1999-01-11, 09:10:55,100Hz,119,U-D,0.0002384185791015625,1.435,46.67578490337243,810,270.0,11.040212855687228,1.6184781617256,1.6796886581380615,1.8790288154874566,0.7967761203842475,0.693321163331149,0.002919180336357117,0.002919180336357117,0.002919180336357117,0.0015421791183490034,0.0008858108624963974,1.0373002606551305,1.0373002606551305,0.8707121208379649,0.6363834237590776,0.5090657117434684,E-W,0.0002384185791015625,4.133,N-S,0.0002384185791015625,3.231
19990111091000.knt,GIF0069901110910.UD,1999-01-11, 09:10:00,36.053,136.747,9,4.3,GIF006,36.0333,136.9528,792,1999-01-11, 09:10:46,100Hz,119,U-D,0.0002384185791015625,5.467,18.632551687947103,1207,1226.0,25.539821170163005,1.233567300135435,1.2777816501653063,0.9696158225024211,1.0910862359263398,0.7223790255683646,0.02943833816201283,0.02943833816201283,0.019410694970686353,0.0061776936925728885,0.003501682629972978,5.487886182084625,5.487886182084625,5.189560012170125,2.535590986682261,1.4135010140586846,E-W,0.0002384185791015625,8.529,N-S,0.0002384185791015625,7.872
19990111091000.knt,GIF0079901110910.UD,1999-01-11, 09:10:00,36.053,136.747,9,4.3,GIF007,36.0378,137.4861,995,1999-01-11, 09:10:00,100Hz,119,U-D,0.0002384185791015625,4.213,66.47142361823835,647,676.0,21.298082548541597,3.6875814057878986,3.6620620983137524,4.475934511931232,5.345241517997517,6.552438560904346,0.003803739148419558,0.003803739148419558,0.003803739148419558,0.003803739148419558,0.0034896443669258617,1.2592076041415141,1.2592076041415141,0.9476867425682844,0.7955059571540243,0.4784147712204409,E-W,0.0002384185791015625,6.755,N-S,0.0002384185791015625,6.487
19990111091000.knt,GIF0089901110910.UD,1999-01-11, 09:10:00,36.053,136.747,9,4.3,GIF008,35.9515,137.26,522,1999-01-11, 09:10:55,100Hz,119,U-D,0.0002384185791015625,2.241,47.50747172023319,813,822.0000000000001,22.688952463634365,6.247979394881296,6.361294942495456,5.992041992070798,3.795744188779583,4.09360052497856,0.00881308578442969,0.00881308578442969,0.00881308578442969,0.005021391183694019,0.0028569611008441823,0.6435614775702958,0.6435614775702958,0.5590524386584088,0.4681772458839505,0.33646254485569443,E-W,0.0002384185791015625,2.558,N-S,0.0002384185791015625,2.535
19990111091000.knt,GIF0099901110910.UD,1999-01-11, 09:10:00,36.053,136.747,9,4.3,GIF009,35.9219,136.8311,450,1999-01-11, 09:10:43,100Hz,119,U-D,0.0002384185791015625,15.454,16.42447009686046,1462,1468.0,30.539057912247543,1.0782134287998486,0.6395153399297488,0.6424882296844863,0.993341835973959,0.3739094575299497,0.0311917220935751,0.024236355539164235,0.024236355539164235,0.009831170450361991,0.0031317848615999466,15.60107533048339,15.60107533048339,15.60107533048339,5.708040966771474,5.708040966771474,E-W,0.0002384185791015625,41.139,N-S,0.0002384185791015625,64.389
19990111091000.knt,GIF0109901110910.UD,1999-01-11, 09:10:00,36.053,136.747,9,4.3,GIF010,35.8029,137.245,362,1999-01-11, 09:10:57,100Hz,119,U-D,0.0002384185791015625,1.507,52.763861528423064,700,723.0,23.226295335769915,3.7240674739092308,4.17348510738149,4.853083934417273,6.34951673770972,8.968861558854035,0.0033922216438269192,0.0033922216438269192,0.0033922216438269192,0.0033922216438269192,0.002261416424190081,0.39803782053114034,0.39803782053114034,0.32824588981857783,0.29805715751440076,0.29805715751440076,E-W,0.0002384185791015625,4.967,N-S,0.0002384185791015625,3.787
19990111091000.knt,GIF0119901110910.UD,1999-01-11, 09:10:00,36.053,136.747,9,4.3,GIF011,35.7593,136.9808,245,1999-01-11, 09:10:52,100Hz,119,U-D,0.0002384185791015625,2.088,38.85807081989966,944,957.0,20.23355210753612,3.7748653529397225,3.517044590256325,3.225971449225022,2.7298483286076527,0.9101895215407353,0.006175205376709334,0.005815376196225167,0.005113788261330554,0.005113788261330554,0.0023976055108658706,2.090222053032245,2.090222053032245,2.090222053032245,2.090222053032245,2.090222053032245,E-W,0.0002384185791015625,4.011,N-S,0.0002384185791015625,4.403
19990111091000.knt,GIF0129901110910.UD,1999-01-11, 09:10:00,36.053,136.747,9,4.3,GIF012,35.6365,136.4882,221,1999-01-11, 09:10:57,100Hz,119,U-D,0.0002384185791015625,1.506,51.85565349555014,648,660.0,23.99924812994356,4.197860995647221,4.406215129317712,4.761107539598655,3.559935940336783,2.8699187223225264,0.002929286003046069,0.002929286003046069,0.002929286003046069,0.002635750459493734,0.0013980388368777154,0.6086351470196396,0.6086351470196396,0.5506225084405394,0.5506225084405394,0.5199384143074651,E-W,0.0002384185791015625,2.525,N-S,0.0002384185791015625,3.299
19990111091000.knt,GIF0259901110910.UD,1999-01-11, 09:10:00,36.053,136.747,9,4.3,GIF025,35.7234,136.7847,351,1999-01-11, 09:10:52,100Hz,119,U-D,0.0002384185791015625,1.932,36.80687043205055,911,910.0,28.33466723917825,2.051082147408971,2.1894709729517583,2.422021164090055,2.72808910651351,2.5784972188884527,0.004242412215938658,0.004242412215938658,0.004242412215938658,0.004242412215938658,0.004242412215938658,1.342022895504258,1.142162414341144,1.1298002570941077,1.1298002570941077,1.1298002570941077,E-W,0.0002384185791015625,4.176,N-S,0.0002384185791015625,3.134
19990111091000.knt,GIF0269901110910.UD,1999-01-11, 09:10:00,36.053,136.747,9,4.3,GIF026,35.5912,136.7414,145,1999-01-11, 09:10:56,100Hz,119,U-D,0.0002384185791015625,1.168,51.35229927949685,757,751.0,20.475050762824843,12.222951970442448,12.060482687838151,11.26898283807857,10.689272672553939,9.620352631309842,0.00807035023884186,0.0074315655549912615,0.0074315655549912615,0.006700252887065878,0.005445632565591491,0.49274882515867297,0.49274882515867297,0.49274882515867297,0.4279355472789655,0.35433282527983734,E-W,0.0002384185791015625,4.313,N-S,0.0002384185791015625,5.407
