earthquake name,records name,earthquake date,earthquake time,lat,long,depth,mag,stn_code,stn_lat,stn_long,stn_height,rcd_date,rcd_time,frequency,rcd_duration,direction,scale_factor,max_pga,epi_dist,pick_index_manually,pick_index_kalkan,snr_db_kalkan,tc_5sec,tc_4sec,tc_3sec,tc_2sec,tc_1sec,Pd_5sec,Pd_4sec,Pd_3sec,Pd_2sec,Pd_1sec,Pga_5sec,Pga_4sec,Pga_3sec,Pga_2sec,Pga_1sec,Channel,Scale_factor,PGA_ew,Channel.1,Scale_factor.1,PGA_ns
19970111145000.knt,MYZ0189701111450.UD,1997-01-11, 14:50:00,31.571,131.915,26,5.0,MYZ018,31.3985,131.3052,12.0,1997-01-11, 14:51:43,100Hz,59,U-D,0.0002384185791015625,4.115,60.922326238136854,439,370.0,27.923756335707584,5.4293289634644,4.188739669242949,3.134388503051623,3.279624148701591,4.966397254596307,0.05926951146124892,0.04982201345602012,0.04560744143236412,0.04560744143236412,0.04560744143236412,2.703845688174239,2.703845688174239,2.703845688174239,1.8503860086593034,1.389136675254837,E-W,0.0002384185791015625,8.427,N-S,0.0002384185791015625,10.804
19970111145000.knt,MYZ0209701111450.UD,1997-01-11, 14:50:00,31.571,131.915,26,5.0,MYZ020,32.455,131.147,612.0,1997-01-11, 14:51:44,100Hz,59,U-D,0.0002384185791015625,1.02,122.08719645850957,1244,318.0,24.247338686717224,1.1505181334139918,1.13443055780663,1.138022871011862,1.1502741050237872,1.7447636716664237,0.005068204269195963,0.005068204269195963,0.005068204269195963,0.005068204269195963,0.005068204269195963,1.0155208828125004,1.0155208828125004,1.0155208828125004,1.0155208828125004,0.7159870003820298,E-W,0.0002384185791015625,3.984,N-S,0.0002384185791015625,2.789
19970111145000.knt,OIT0139701111450.UD,1997-01-11, 14:50:00,31.571,131.915,26,5.0,OIT013,33.0647,131.6328,117.0,1997-01-11, 14:51:11,100Hz,59,U-D,0.0002384185791015625,2.041,168.19525930211697,0,-100.0,,0.0,0.0,0.0,0.0,0.0,0.0,0.0,0.0,0.0,0.0,0.0,0.0,0.0,0.0,0.0,E-W,0.0002384185791015625,4.88,N-S,0.0002384185791015625,5.124
19970114155300.knt,KNG0019701141553.UD,1997-01-14, 15:53:00,35.62,139.547,30,3.6,KNG001,35.5291,139.7062,2.0,1997-01-14, 15:54:56,100Hz,59,U-D,0.0002384185791015625,3.94,17.591876246447196,931,413.0,15.967639997079196,7.711492191135225,7.246393319613093,7.854963556563326,10.16465516246837,11.901407090905161,0.0305918622502925,0.0305918622502925,0.0305918622502925,0.0305918622502925,0.0305918622502925,3.7585219844092412,3.7585219844092412,3.7585219844092412,3.7585219844092412,3.7585219844092412,E-W,0.0002384185791015625,7.062,N-S,0.0002384185791015625,6.053
19970114155300.knt,SIT0099701141553.UD,1997-01-14, 15:53:00,35.62,139.547,30,3.6,SIT009,35.9032,139.4837,22.0,1997-01-14, 15:54:59,100Hz,59,U-D,0.0002384185791015625,2.883,32.00417243544238,792,714.0,16.68377099657464,2.179825229795333,2.3381764577394524,2.1222847644352236,1.760844082700379,1.3296009503368489,0.004231975111247621,0.004231975111247621,0.004231975111247621,0.004018841777837338,0.0021985874243931123,2.0106289827093655,2.0106289827093655,2.0106289827093655,2.0106289827093655,1.6946529983802152,E-W,0.0002384185791015625,5.517,N-S,0.0002384185791015625,4.273
19970114155300.knt,SIT0109701141553.UD,1997-01-14, 15:53:00,35.62,139.547,30,3.6,SIT010,35.9065,139.6481,13.0,1997-01-14, 15:54:59,100Hz,59,U-D,0.0002384185791015625,1.309,33.1376171429221,831,831.0,20.51421146881073,6.118863476007524,6.581992588944517,6.397794560870179,5.633223405524061,4.438464533676584,0.005422595356982892,0.005422595356982892,0.005422595356982892,0.005422595356982892,0.005072520217520466,1.2966390226133264,1.2966390226133264,1.2966390226133264,1.2966390226133264,1.2966390226133264,E-W,0.0002384185791015625,2.183,N-S,0.0002384185791015625,1.569
19970114155300.knt,TKY0029701141553.UD,1997-01-14, 15:53:00,35.62,139.547,30,3.6,TKY002,35.7304,139.1454,302.0,1997-01-14, 15:54:58,100Hz,59,U-D,0.0002384185791015625,2.755,38.2963865153157,866,871.0000000000001,26.325509462812754,3.4799534100688096,3.6000783859204666,3.0198292700530422,2.3367721546057947,3.03867486087966,0.0032366582129951076,0.0032366582129951076,0.00322848526132077,0.002824384238798682,0.002824384238798682,1.267071055521412,1.267071055521412,1.267071055521412,1.267071055521412,1.267071055521412,E-W,0.0002384185791015625,6.741,N-S,0.0002384185791015625,5.588
19970114155300.knt,TKY0049701141553.UD,1997-01-14, 15:53:00,35.62,139.547,30,3.6,TKY004,35.6282,139.4034,81.0,1997-01-14, 15:54:54,100Hz,59,U-D,0.0002384185791015625,7.345,13.011336170516755,1078,1078.0,23.90771989831976,1.1026549338193083,1.6702425592173742,2.076837861586346,2.0624916265868776,1.8633953735187425,0.011314777088588948,0.011314777088588948,0.011314777088588948,0.011314777088588948,0.011314777088588948,7.260194597928844,6.111481808675541,6.084238023955313,6.084238023955313,6.084238023955313,E-W,0.0002384185791015625,29.655,N-S,0.0002384185791015625,18.555
19970114155300.knt,TKY0069701141553.UD,1997-01-14, 15:53:00,35.62,139.547,30,3.6,TKY006,35.699,139.5029,71.0,1997-01-14, 15:54:55,100Hz,59,U-D,0.0002384185791015625,3.061,9.645712648229866,978,976.0,24.349703828983916,0.5408113417120609,0.6132487820920413,0.7492821817532698,0.8818998882987138,1.0506356290441468,0.0031400036254950877,0.0031400036254950877,0.0031400036254950877,0.0031400036254950877,0.0031400036254950877,2.624161726423696,2.4825704785356093,1.919332994194002,1.919332994194002,1.919332994194002,E-W,0.0002384185791015625,5.659,N-S,0.0002384185791015625,6.023
19970114155300.knt,TKY0079701141553.UD,1997-01-14, 15:53:00,35.62,139.547,30,3.6,TKY007,35.7107,139.6859,34.0,1997-01-14, 15:54:57,100Hz,59,U-D,0.0002384185791015625,2.947,16.098712464991845,837,38.0,19.71493662483733,1.1322381772840473,1.1741632960652446,1.3657002283723718,1.4494397049536218,1.2613621639649761,0.0040464931554113435,0.0040464931554113435,0.0040464931554113435,0.0040464931554113435,0.0040464931554113435,2.9490018353552485,2.9490018353552485,2.7012485853152497,2.7012485853152497,2.7012485853152497,E-W,0.0002384185791015625,5.461,N-S,0.0002384185791015625,4.923
19970114155300.knt,YMN0029701141553.UD,1997-01-14, 15:53:00,35.62,139.547,30,3.6,YMN002,35.6132,138.947,368.0,1997-01-14, 15:54:04,100Hz,59,U-D,0.0002384185791015625,0.845,54.24153954998973,0,10.0,14.628650125229456,0.0,0.0,0.0,0.0,0.0,0.0,0.0,0.0,0.0,0.0,0.0,0.0,0.0,0.0,0.0,E-W,0.0002384185791015625,2.39,N-S,0.0002384185791015625,1.823
19970114204700.knt,FKS0049701142047.UD,1997-01-14, 20:47:00,37.47,141.264,50,4.0,FKS004,37.6799,140.7346,488.0,1997-01-14, 20:48:15,100Hz,59,U-D,0.0002384185791015625,4.767,52.16734634912631,698,703.0,27.53287439752573,5.114806520194068,4.634735334433582,4.150366918444708,3.7654592898283537,3.2514964188943085,0.008261529632276325,0.008252998005406886,0.007598979555323359,0.007400038132278431,0.007400038132278431,3.8283324145382336,3.8283324145382336,3.8283324145382336,3.8283324145382336,3.8283324145382336,E-W,0.0002384185791015625,12.299,N-S,0.0002384185791015625,16.934
19970114204700.knt,FKS0069701142047.UD,1997-01-14, 20:47:00,37.47,141.264,50,4.0,FKS006,37.5031,140.7588,472.0,1997-01-14, 20:48:13,100Hz,59,U-D,0.0002384185791015625,13.082,44.72682509069707,810,813.0000000000001,29.433588510993335,8.632973213657987,9.305749972947506,8.308870704881688,7.033584938900916,7.333130048283202,0.01329999838939409,0.01329999838939409,0.01329999838939409,0.012647206814234903,0.009683349916050053,2.0293179002731727,2.0293179002731727,2.0293179002731727,1.7444208897479812,1.3276795647280863,E-W,0.0002384185791015625,27.268,N-S,0.0002384185791015625,31.388
19970114204700.knt,FKS0079701142047.UD,1997-01-14, 20:47:00,37.47,141.264,50,4.0,FKS007,37.4061,140.9632,70.0,1997-01-14, 20:48:05,100Hz,59,U-D,0.0002384185791015625,6.978,27.49169281788235,1467,1468.0,33.13146422632018,4.259985889019548,3.063592216193779,1.547988456468615,1.0037911012665384,0.9440758433081329,0.011424957836554325,0.010803629170788913,0.006269236419388593,0.003348153720351212,0.003348153720351212,6.99391256730693,6.99391256730693,6.99391256730693,6.99391256730693,6.99391256730693,E-W,0.0002384185791015625,17.713,N-S,0.0002384185791015625,17.947
19970114204700.knt,FKS0089701142047.UD,1997-01-14, 20:47:00,37.47,141.264,50,4.0,FKS008,37.4363,140.5668,430.0,1997-01-14, 20:48:11,100Hz,59,U-D,0.0002384185791015625,7.054,61.65720310667886,1183,1202.0,24.09681562503296,5.468496988416979,4.895098563040141,3.8882930230037576,2.8800655267167845,0.8172170191108896,0.007916412519555516,0.007916412519555516,0.007637912029923704,0.005458619511408606,0.0018854271511891377,3.27953539526439,3.27953539526439,3.27953539526439,3.27953539526439,3.27953539526439,E-W,0.0002384185791015625,27.288,N-S,0.0002384185791015625,35.888
19970114204700.knt,FKS0099701142047.UD,1997-01-14, 20:47:00,37.47,141.264,50,4.0,FKS009,37.2778,140.6349,440.0,1997-01-14, 20:48:16,100Hz,59,U-D,0.0002384185791015625,4.257,59.557264755452984,661,668.0,30.443493256715904,2.721430749948221,2.866753021678009,3.309442788708488,4.27946098477468,3.1013729997730546,0.00228451503220432,0.00228451503220432,0.00228451503220432,0.00228451503220432,0.002214475011013815,1.6360920147380256,1.6360920147380256,1.6360920147380256,0.8045045051422175,0.8045045051422175,E-W,0.0002384185791015625,8.846,N-S,0.0002384185791015625,11.088
19970114204700.knt,FKS0109701142047.UD,1997-01-14, 20:47:00,37.47,141.264,50,4.0,FKS010,37.2342,141.0016,50.0,1997-01-14, 20:48:13,100Hz,59,U-D,0.0002384185791015625,2.406,35.006136474149464,764,764.0,29.239210013231364,2.9212955926087623,3.084921255359947,3.610069232020212,4.068770858906401,3.6391555647070866,0.004881371612242759,0.004881371612242759,0.004881371612242759,0.004881371612242759,0.004879027338096253,2.4187934112169684,2.4187934112169684,2.4187934112169684,2.4187934112169684,2.4187934112169684,E-W,0.0002384185791015625,6.327,N-S,0.0002384185791015625,5.926
19970114204700.knt,FKS0119701142047.UD,1997-01-14, 20:47:00,37.47,141.264,50,4.0,FKS011,37.0911,140.9035,165.0,1997-01-14, 20:48:15,100Hz,59,U-D,0.0002384185791015625,5.33,52.84307844203151,711,715.0,27.661386565153812,3.5992125035114846,3.6326770899303926,3.3237414960446774,2.4985749415656784,1.206505666478967,0.00540512253422797,0.00540512253422797,0.00540512253422797,0.0047408659998190135,0.003272012835867428,2.489781068002981,2.489781068002981,2.489781068002981,2.489781068002981,2.489781068002981,E-W,0.0002384185791015625,7.169,N-S,0.0002384185791015625,9.444
19970114204700.knt,FKS0169701142047.UD,1997-01-14, 20:47:00,37.47,141.264,50,4.0,FKS016,37.1228,140.1914,375.0,1997-01-14, 20:48:26,100Hz,59,U-D,0.0002384185791015625,2.84,102.43197163001014,8,163.0,14.25325980252715,5.002334204474523,5.716549972402206,4.99958174716956,3.365866920181909,1.391920685788444,0.0019113237331416315,0.0019113237331416315,0.0015041254446022782,0.001055762405791584,0.0001981095340408121,0.3977001779389849,0.3977001779389849,0.2790593474717749,0.1590370550633297,0.08890057476922576,E-W,0.0002384185791015625,4.264,N-S,0.0002384185791015625,4.412
19970114204700.knt,FKS0179701142047.UD,1997-01-14, 20:47:00,37.47,141.264,50,4.0,FKS017,37.2842,140.3689,263.0,1997-01-14, 20:48:22,100Hz,59,U-D,0.0002384185791015625,1.963,81.74613091306364,359,57.99999999999999,19.124045684381816,3.3966595052042763,2.7173483462821584,1.8880836745108445,2.414616973778582,3.3532653198040623,0.003181978644998858,0.002962878020901031,0.0020328279968646204,0.0017943338444356496,0.0017943338444356496,1.089168826750008,1.089168826750008,1.089168826750008,0.675685929219047,0.6493785293922205,E-W,0.0002384185791015625,2.513,N-S,0.0002384185791015625,2.618
19970114204700.knt,FKS0199701142047.UD,1997-01-14, 20:47:00,37.47,141.264,50,4.0,FKS019,37.603,140.4368,235.0,1997-01-14, 20:48:19,100Hz,59,U-D,0.0002384185791015625,3.901,74.42124727300795,550,560.0,30.25196315686193,4.166084872158931,3.844280732679146,3.0483402132189434,1.949508347007515,0.5780353668311388,0.005836229753707804,0.005836229753707804,0.0058125624221204205,0.0048257369313244374,0.002280295770989801,3.9012007997144726,3.9012007997144726,3.9012007997144726,3.9012007997144726,3.9012007997144726,E-W,0.0002384185791015625,5.9,N-S,0.0002384185791015625,5.874
19970114204700.knt,FKS0319701142047.UD,1997-01-14, 20:47:00,37.47,141.264,50,4.0,FKS031,37.3364,140.8132,399.0,1997-01-14, 20:48:13,100Hz,59,U-D,0.0002384185791015625,4.316,42.50047695334435,787,792.0,29.86198316864369,15.637184105136825,17.334790514032903,17.68034035649758,19.607487316549225,17.388024471946068,0.02010660055235781,0.02010660055235781,0.02010660055235781,0.02010660055235781,0.02010660055235781,4.321914550204668,4.321914550204668,4.321914550204668,3.0480864131233347,3.0480864131233347,E-W,0.0002384185791015625,5.651,N-S,0.0002384185791015625,7.316
19970114204700.knt,IBR0029701142047.UD,1997-01-14, 20:47:00,37.47,141.264,50,4.0,IBR002,36.7061,140.7068,9.0,1997-01-14, 20:48:26,100Hz,59,U-D,0.0002384185791015625,1.506,98.2739603052178,13,91.0,17.764225965505915,4.481577136946219,4.97529328198016,5.357911942349001,4.5475301987389765,2.6923455887000296,0.0018047708742595283,0.0018047708742595283,0.0018047708742595283,0.0017956331352568507,0.0008107951185409554,0.3052861445960905,0.3052861445960905,0.3052861445960905,0.17418998059579247,0.13582389779271395,E-W,0.0002384185791015625,3.053,N-S,0.0002384185791015625,2.7
19970114204700.knt,IBR0039701142047.UD,1997-01-14, 20:47:00,37.47,141.264,50,4.0,IBR003,36.5915,140.6453,58.0,1997-01-14, 20:48:27,100Hz,59,U-D,0.0002384185791015625,6.269,112.06448209024488,153,162.0,26.534137239866805,5.053125066051168,5.752991136010069,5.999875214078765,6.097772208309406,5.660077954858539,0.004697955344449448,0.004697955344449448,0.004697955344449448,0.004697955344449448,0.004609784341823459,1.2866357600214982,1.2866357600214982,1.2866357600214982,1.2866357600214982,0.941681729871995,E-W,0.0002384185791015625,16.848,N-S,0.0002384185791015625,13.026
19970114204700.knt,IBR0049701142047.UD,1997-01-14, 20:47:00,37.47,141.264,50,4.0,IBR004,36.5273,140.4094,51.0,1997-01-14, 20:48:34,100Hz,59,U-D,0.0002384185791015625,3.498,129.41166939926282,0,4.0,7.4790623972136006,0.0,0.0,0.0,0.0,0.0,0.0,0.0,0.0,0.0,0.0,0.0,0.0,0.0,0.0,0.0,E-W,0.0002384185791015625,7.574,N-S,0.0002384185791015625,11.79
19970114204700.knt,IBR0059701142047.UD,1997-01-14, 20:47:00,37.47,141.264,50,4.0,IBR005,36.3851,140.2372,63.0,1997-01-14, 20:48:36,100Hz,59,U-D,0.0002384185791015625,2.064,151.26974282496533,0,13.0,13.152397581531424,0.0,0.0,0.0,0.0,0.0,0.0,0.0,0.0,0.0,0.0,0.0,0.0,0.0,0.0,0.0,E-W,0.0002384185791015625,2.748,N-S,0.0002384185791015625,3.768
19970118003700.knt,KGS0289701180037.UD,1997-01-18, 00:37:00,28.804,129.898,37,4.9,KGS028,30.4208,130.5769,4.0,1997-01-18, 00:37:00,100Hz,59,U-D,0.0002384185791015625,0.869,191.38337172796506,0,-100.0,,0.0,0.0,0.0,0.0,0.0,0.0,0.0,0.0,0.0,0.0,0.0,0.0,0.0,0.0,0.0,E-W,0.0002384185791015625,2.814,N-S,0.0002384185791015625,3.607
19970118003700.knt,KGS0309701180037.UD,1997-01-18, 00:37:00,28.804,129.898,37,4.9,KGS030,28.451,129.6784,4.0,1997-01-18, 00:37:19,100Hz,59,U-D,0.0002384185791015625,9.897,44.72235855139866,1199,1191.0,42.72279366254014,0.8520998087205152,0.7663875035796166,0.6476668230864913,0.7576281964090104,1.0600683766468764,0.012387902376559937,0.011523579620972274,0.010902655778792564,0.010184699211677951,0.010184699211677951,5.870197931479389,5.870197931479389,5.870197931479389,3.5667986211686724,1.818416143262868,E-W,0.0002384185791015625,23.39,N-S,0.0002384185791015625,25.341
19970118003700.knt,KGS0319701180037.UD,1997-01-18, 00:37:00,28.804,129.898,37,4.9,KGS031,28.3571,129.3937,2.0,1997-01-18, 00:37:21,100Hz,59,U-D,0.0002384185791015625,12.678,69.95852869890254,1395,1386.0,44.85085846785865,1.4125964870531953,1.5719246315258064,1.8481582844349354,2.41474776806142,2.5879123500586005,0.014340656238633252,0.014340656238633252,0.014340656238633252,0.014340656238633252,0.014340656238633252,4.536066853671451,4.536066853671451,4.536066853671451,2.483007679522292,1.9443358990766184,E-W,0.0002384185791015625,23.949,N-S,0.0002384185791015625,17.409
19970118003700.knt,KGS0329701180037.UD,1997-01-18, 00:37:00,28.804,129.898,37,4.9,KGS032,28.1388,129.3206,2.0,1997-01-18, 00:37:35,100Hz,59,U-D,0.0002384185791015625,2.175,93.03958073348493,314,329.0,29.50812479876731,2.376423259700816,2.7075517532030675,3.6262026134505376,6.465516829942786,8.154508930411684,0.01014814517830815,0.01014814517830815,0.01014814517830815,0.01014814517830815,0.01014814517830815,1.425552496288136,1.425552496288136,1.041752883084242,0.38514360818493787,0.2782974906997428,E-W,0.0002384185791015625,6.82,N-S,0.0002384185791015625,5.744
19970118003700.knt,KGS0339701180037.UD,1997-01-18, 00:37:00,28.804,129.898,37,4.9,KGS033,27.6882,128.9427,135.0,1997-01-18, 00:37:55,100Hz,59,U-D,0.0002384185791015625,2.298,155.40116042153906,0,1.0,-3.134604126287608,0.0,0.0,0.0,0.0,0.0,0.0,0.0,0.0,0.0,0.0,0.0,0.0,0.0,0.0,0.0,E-W,0.0002384185791015625,5.228,N-S,0.0002384185791015625,6.549
19970118005300.knt,KGS0189701180053.UD,1997-01-18, 00:53:00,28.821,129.915,36,6.0,KGS018,31.3757,130.5449,51.0,1997-01-18, 00:54:34,100Hz,59,U-D,0.0002384185791015625,1.069,290.4589983242532,0,-100.0,,0.0,0.0,0.0,0.0,0.0,0.0,0.0,0.0,0.0,0.0,0.0,0.0,0.0,0.0,0.0,E-W,0.0002384185791015625,2.42,N-S,0.0002384185791015625,2.965
19970118005300.knt,KGS0239701180053.UD,1997-01-18, 00:53:00,28.821,129.915,36,6.0,KGS023,31.199,130.849,179.0,1997-01-18, 00:54:30,100Hz,59,U-D,0.0002384185791015625,1.123,279.29251897558504,0,-100.0,,0.0,0.0,0.0,0.0,0.0,0.0,0.0,0.0,0.0,0.0,0.0,0.0,0.0,0.0,0.0,E-W,0.0002384185791015625,3.428,N-S,0.0002384185791015625,3.564
19970118005300.knt,KGS0289701180053.UD,1997-01-18, 00:53:00,28.821,129.915,36,6.0,KGS028,30.4208,130.5769,4.0,1997-01-18, 00:54:46,100Hz,65,U-D,0.0002384185791015625,2.916,189.04449694187815,1206,1269.0,34.67904177264171,2.1570845658492117,1.7265409925400725,1.904239373877917,1.8548533113648589,4.401051936793564,0.007552466148011422,0.004965950241806967,0.004965950241806967,0.003892504205126984,0.0014262331502973421,1.5777957343363016,1.3989120212822712,1.2085685835500357,0.6835417338659364,0.2567762677825409,E-W,0.0002384185791015625,7.054,N-S,0.0002384185791015625,8.095
19970118005300.knt,KGS0299701180053.UD,1997-01-18, 00:53:00,28.821,129.915,36,6.0,KGS029,30.2363,130.5553,60.0,1997-01-18, 00:54:04,100Hz,59,U-D,0.0002384185791015625,1.619,169.12734835831372,0,-100.0,,0.0,0.0,0.0,0.0,0.0,0.0,0.0,0.0,0.0,0.0,0.0,0.0,0.0,0.0,0.0,E-W,0.0002384185791015625,3.209,N-S,0.0002384185791015625,3.877
19970118005300.knt,KGS0309701180053.UD,1997-01-18, 00:53:00,28.821,129.915,36,6.0,KGS030,28.451,129.6784,4.0,1997-01-18, 00:54:26,100Hz,72,U-D,0.0002384185791015625,21.626,47.17892089246069,1201,1228.0,41.055531614230595,1.304750009480774,1.5971400544947487,1.6698339128186972,1.3372292465636346,1.7202467999568796,0.03569726726898733,0.03569726726898733,0.03569726726898733,0.02103267446673472,0.008477678901220531,9.948895430019126,6.877575242390733,5.777666225132131,4.572808344605948,1.1161794295545322,E-W,0.0002384185791015625,51.234,N-S,0.0002384185791015625,51.519
19970118005300.knt,KGS0319701180053.UD,1997-01-18, 00:53:00,28.821,129.915,36,6.0,KGS031,28.3571,129.3937,2.0,1997-01-18, 00:54:28,100Hz,113,U-D,0.0002384185791015625,22.457,72.46692140956907,1373,1431.0,35.86058508784242,0.9073899619373293,1.162634384382008,1.449820824072666,1.6553069413419204,2.7419450395796785,0.02054102963785501,0.02054102963785501,0.02054102963785501,0.018582124569189475,0.011084992435552764,10.45000395520488,9.908855517910641,7.287219487206765,6.283569671116135,2.0208153418554264,E-W,0.0002384185791015625,63.429,N-S,0.0002384185791015625,42.04
