earthquake name,records name,earthquake date,earthquake time,lat,long,depth,mag,stn_code,stn_lat,stn_long,stn_height,rcd_date,rcd_time,frequency,rcd_duration,direction,scale_factor,max_pga,epi_dist,pick_index_manually,pick_index_kalkan,snr_db_kalkan,tc_5sec,tc_4sec,tc_3sec,tc_2sec,tc_1sec,Pd_5sec,Pd_4sec,Pd_3sec,Pd_2sec,Pd_1sec,Pga_5sec,Pga_4sec,Pga_3sec,Pga_2sec,Pga_1sec,Channel,Scale_factor,PGA_ew,Channel.1,Scale_factor.1,PGA_ns
19960602204500.knt,FKS0259606022045.UD,1996-06-02, 20:45:00,37.053,139.347,12,4.3,FKS025,37.3077,139.9,415,1996-06-02, 20:46:45,100Hz,59,U-D,0.0002384185791015625,4.099,56.58884780140409,1285,1315.0,26.523407188452474,0.43197991839387817,0.4172300121517417,0.42903683198950554,0.4656097282842747,0.5312144815633434,0.0011497931964894097,0.0011497931964894097,0.0011497931964894097,0.0011497931964894097,0.001040787235382792,1.1043167316332672,1.1043167316332672,1.1043167316332672,1.1043167316332672,0.9352063639278633,E-W,0.0002384185791015625,8.932,N-S,0.0002384185791015625,6.675
19960602204500.knt,FKS0269606022045.UD,1996-06-02, 20:45:00,37.053,139.347,12,4.3,FKS026,37.266,139.5386,492,1996-06-02, 20:46:43,100Hz,59,U-D,0.0002384185791015625,9.8,29.141830493220425,0,-100.0,,0.0,0.0,0.0,0.0,0.0,0.0,0.0,0.0,0.0,0.0,0.0,0.0,0.0,0.0,0.0,E-W,0.0002384185791015625,11.962,N-S,0.0002384185791015625,15.516
19960602204500.knt,FKS0299606022045.UD,1996-06-02, 20:45:00,37.053,139.347,12,4.3,FKS029,37.0609,139.4135,850,1996-06-02, 20:46:35,100Hz,299,U-D,0.0002384185791015625,129.952,5.966078830012328,1461,1475.0,15.494789174005671,0.4520461530746083,0.45097356195893784,0.4453449907676085,0.440632226231782,0.3470488524215986,0.07499579287105637,0.07499579287105637,0.07499579287105637,0.07499579287105637,0.018565056121427368,129.78360344060997,129.78360344060997,129.78360344060997,129.78360344060997,66.94285071133207,E-W,0.0002384185791015625,350.082,N-S,0.0002384185791015625,305.932
19960602204500.knt,FKS0309606022045.UD,1996-06-02, 20:45:00,37.053,139.347,12,4.3,FKS030,37.453,139.5133,360,1996-06-02, 20:46:43,100Hz,59,U-D,0.0002384185791015625,2.91,46.8501031646588,1368,1362.0,24.624549282608147,1.9260111183342492,1.9032531400362807,1.348435779528082,0.7046742021578154,0.5925444742269673,0.004621352520355714,0.004621352520355714,0.004137722973137101,0.003049823248967675,0.003049823248967675,1.9473752357053313,1.9473752357053313,1.9473752357053313,1.9473752357053313,1.432672365392616,E-W,0.0002384185791015625,5.182,N-S,0.0002384185791015625,8.676
19960602204500.knt,GNM0019606022045.UD,1996-06-02, 20:45:00,37.053,139.347,12,4.3,GNM001,36.7722,139.2248,810,1996-06-02, 20:46:40,100Hz,59,U-D,0.0002384185791015625,9.601,33.05967821410547,1387,1397.0,33.919234447044595,2.098532520921632,2.3643980118104544,1.9930529846396394,1.2420632612218452,0.4576000541949296,0.011219935941814045,0.010879259860984671,0.009649682174389319,0.007714270801061605,0.003291002530168021,8.567925051545132,6.272680296961168,6.272680296961168,6.272680296961168,6.272680296961168,E-W,0.0002384185791015625,12.301,N-S,0.0002384185791015625,16.885
19960602204500.knt,GNM0039606022045.UD,1996-06-02, 20:45:00,37.053,139.347,12,4.3,GNM003,36.6578,139.0784,462,1996-06-02, 20:46:50,100Hz,59,U-D,0.0002384185791015625,2.191,50.02208002516524,0,-100.0,,0.0,0.0,0.0,0.0,0.0,0.0,0.0,0.0,0.0,0.0,0.0,0.0,0.0,0.0,0.0,E-W,0.0002384185791015625,3.512,N-S,0.0002384185791015625,3.347
19960602204500.knt,GNM0049606022045.UD,1996-06-02, 20:45:00,37.053,139.347,12,4.3,GNM004,36.6172,138.5918,1222,1996-06-02, 20:46:59,100Hz,59,U-D,0.0002384185791015625,1.32,82.85751591925566,391,405.0,20.04173948258055,2.5905914702732606,2.665513244595451,2.809924136131053,1.5981443503656263,0.4869211147237329,0.0029196523836604684,0.0029196523836604684,0.0029196523836604684,0.002052415506239438,0.0005814890011750463,0.6983650246946221,0.6983650246946221,0.6983650246946221,0.6983650246946221,0.6983650246946221,E-W,0.0002384185791015625,4.093,N-S,0.0002384185791015625,4.155
19960602204500.knt,GNM0059606022045.UD,1996-06-02, 20:45:00,37.053,139.347,12,4.3,GNM005,36.5133,138.5177,900,1996-06-02, 20:46:03,100Hz,59,U-D,0.0002384185791015625,1.12,95.16209651981427,220,220.00000000000003,20.59327334528902,6.780772714215015,6.273095096587632,6.66639955756601,7.701694093108379,10.551212972312399,0.008163778992504181,0.008163778992504181,0.008163778992504181,0.008163778992504181,0.008163778992504181,0.5137987405516438,0.5137987405516438,0.5137987405516438,0.5137987405516438,0.5029212709483941,E-W,0.0002384185791015625,3.038,N-S,0.0002384185791015625,3.12
19960602204500.knt,GNM0099606022045.UD,1996-06-02, 20:45:00,37.053,139.347,12,4.3,GNM009,36.4106,139.3251,114,1996-06-02, 20:46:55,100Hz,59,U-D,0.0002384185791015625,1.988,71.45827661244229,555,558.0,18.264515910193417,6.865487876234621,5.561507454235488,4.03819385213326,2.4355818193147365,1.6204313870218188,0.006636294338386713,0.006274048845803462,0.0055906200027016845,0.0038392276133968994,0.0035076985498414303,1.9916969105990432,1.9916969105990432,1.9916969105990432,1.9916969105990432,1.9916969105990432,E-W,0.0002384185791015625,3.477,N-S,0.0002384185791015625,3.681
19960602204500.knt,IBR0049606022045.UD,1996-06-02, 20:45:00,37.053,139.347,12,4.3,IBR004,36.5273,140.4094,51,1996-06-02, 20:46:06,100Hz,59,U-D,0.0002384185791015625,2.032,111.20665644373976,70,99.0,18.326139628714404,5.954025835229934,5.699611189414609,4.810299155704909,3.802806210877928,2.3773535562430186,0.00809363998534237,0.00809363998534237,0.00809363998534237,0.008080118036121414,0.005787402950812433,1.6975914130908647,1.6975914130908647,1.6975914130908647,1.6975914130908647,1.6975914130908647,E-W,0.0002384185791015625,5.026,N-S,0.0002384185791015625,6.738
19960602204500.knt,IBR0149606022045.UD,1996-06-02, 20:45:00,37.053,139.347,12,4.3,IBR014,36.0729,140.1947,11,1996-06-02, 20:46:14,100Hz,59,U-D,0.0002384185791015625,0.78,132.69771165475814,0,-100.0,,0.0,0.0,0.0,0.0,0.0,0.0,0.0,0.0,0.0,0.0,0.0,0.0,0.0,0.0,0.0,E-W,0.0002384185791015625,2.46,N-S,0.0002384185791015625,1.697
19960602204500.knt,NIG0019606022045.UD,1996-06-02, 20:45:00,37.053,139.347,12,4.3,NIG001,38.2584,138.4337,6,1996-06-02, 20:46:21,100Hz,59,U-D,0.0002384185791015625,0.641,156.29677586806093,0,5.0,11.194697748868592,0.0,0.0,0.0,0.0,0.0,0.0,0.0,0.0,0.0,0.0,0.0,0.0,0.0,0.0,0.0,E-W,0.0002384185791015625,2.202,N-S,0.0002384185791015625,1.523
19960602204500.knt,NIG0029606022045.UD,1996-06-02, 20:45:00,37.053,139.347,12,4.3,NIG002,38.0745,138.4398,1,1996-06-02, 20:46:17,100Hz,59,U-D,0.0002384185791015625,0.928,138.9067628178462,0,1.0,5.860646049066247,0.0,0.0,0.0,0.0,0.0,0.0,0.0,0.0,0.0,0.0,0.0,0.0,0.0,0.0,0.0,E-W,0.0002384185791015625,2.96,N-S,0.0002384185791015625,2.079
19960602204500.knt,NIG0049606022045.UD,1996-06-02, 20:45:00,37.053,139.347,12,4.3,NIG004,37.8205,138.2795,40,1996-06-02, 20:46:11,100Hz,59,U-D,0.0002384185791015625,1.595,127.14600146094128,0,-100.0,,0.0,0.0,0.0,0.0,0.0,0.0,0.0,0.0,0.0,0.0,0.0,0.0,0.0,0.0,0.0,E-W,0.0002384185791015625,8.74,N-S,0.0002384185791015625,6.561
19960602204500.knt,NIG0109606022045.UD,1996-06-02, 20:45:00,37.053,139.347,12,4.3,NIG010,37.9211,139.0231,6,1996-06-02, 20:46:07,100Hz,59,U-D,0.0002384185791015625,1.53,100.66974012628593,0,-100.0,,0.0,0.0,0.0,0.0,0.0,0.0,0.0,0.0,0.0,0.0,0.0,0.0,0.0,0.0,0.0,E-W,0.0002384185791015625,4.904,N-S,0.0002384185791015625,2.769
19960602204500.knt,NIG0119606022045.UD,1996-06-02, 20:45:00,37.053,139.347,12,4.3,NIG011,37.8013,139.1442,7,1996-06-02, 20:46:01,100Hz,59,U-D,0.0002384185791015625,0.74,85.11233412651335,300,296.0,28.666293067353994,2.6835629605044957,2.2725659108130567,2.575833180466216,3.881569766888929,6.0699231038661745,0.0025832924176135783,0.0025832924176135783,0.0025832924176135783,0.0025832924176135783,0.0025832924176135783,0.1951301338852096,0.1951301338852096,0.1951301338852096,0.1601917671532335,0.1601917671532335,E-W,0.0002384185791015625,2.624,N-S,0.0002384185791015625,1.895
19960602204500.knt,NIG0199606022045.UD,1996-06-02, 20:45:00,37.053,139.347,12,4.3,NIG019,37.3057,138.7898,52,1996-06-02, 20:46:53,100Hz,59,U-D,0.0002384185791015625,1.862,56.80151534610161,617,617.0,30.709806943800736,1.2851326958046918,1.1634311731203535,1.131186623243669,0.937864029180452,0.7695881618741678,0.006252884586963235,0.006252884586963235,0.006252884586963235,0.006252884586963235,0.006252884586963235,1.8496617220040164,1.8496617220040164,1.8496617220040164,1.8496617220040164,1.8496617220040164,E-W,0.0002384185791015625,3.319,N-S,0.0002384185791015625,5.049
19960602204500.knt,NIG0219606022045.UD,1996-06-02, 20:45:00,37.053,139.347,12,4.3,NIG021,37.1281,138.7468,147,1996-06-02, 20:46:52,100Hz,59,U-D,0.0002384185791015625,1.575,53.88762101519488,677,670.0,25.44721292178177,3.8728374566252706,4.043406739648489,4.325577211596421,4.99277406339869,4.377324025875582,0.0070560730471931656,0.0070560730471931656,0.0070560730471931656,0.0070560730471931656,0.0070560730471931656,1.5773879918376323,1.5773879918376323,1.5773879918376323,1.5773879918376323,1.5773879918376323,E-W,0.0002384185791015625,3.664,N-S,0.0002384185791015625,2.331
19960602204500.knt,NIG0229606022045.UD,1996-06-02, 20:45:00,37.053,139.347,12,4.3,NIG022,37.0364,138.8462,182,1996-06-02, 20:46:48,100Hz,59,U-D,0.0002384185791015625,3.235,44.48525235303216,824,830.0000000000001,29.351881108434675,9.41588827500701,9.744947346469363,10.123647903259696,7.535687709977855,4.931146579140802,0.02183513695474026,0.02183513695474026,0.02183513695474026,0.019702495041034194,0.013885642920173726,2.4272130445349527,1.8756343071256327,1.478374976083682,1.478374976083682,1.3010787929639458,E-W,0.0002384185791015625,5.704,N-S,0.0002384185791015625,7.411
19960602204500.knt,NIG0239606022045.UD,1996-06-02, 20:45:00,37.053,139.347,12,4.3,NIG023,37.0147,138.6529,241,1996-06-02, 20:46:54,100Hz,59,U-D,0.0002384185791015625,0.887,61.758428999435615,570,581.0,24.550028692978167,1.1953664753909066,1.1260844942365007,1.5653641529368054,1.330125951397234,0.7884418154722475,0.0017494221532705038,0.0017494221532705038,0.0017494221532705038,0.0016186065232795409,0.001545490547536731,0.8058258698337172,0.8058258698337172,0.30632145023085544,0.30632145023085544,0.30632145023085544,E-W,0.0002384185791015625,4.544,N-S,0.0002384185791015625,4.563
19960602204500.knt,NIG0249606022045.UD,1996-06-02, 20:45:00,37.053,139.347,12,4.3,NIG024,37.1268,138.444,80,1996-06-02, 20:46:01,100Hz,59,U-D,0.0002384185791015625,1.042,80.51426635599067,219,251.00000000000003,15.487927051590395,1.781602598512114,1.7122242886043724,1.7558619331107141,1.8350165684643005,1.5691566491260913,0.0049139970277826414,0.0049139970277826414,0.0049139970277826414,0.0049139970277826414,0.0049139970277826414,1.0450663038406929,1.0450663038406929,1.0450663038406929,1.0450663038406929,1.0450663038406929,E-W,0.0002384185791015625,3.152,N-S,0.0002384185791015625,1.945
19960602204500.knt,NIG0269606022045.UD,1996-06-02, 20:45:00,37.053,139.347,12,4.3,NIG026,37.0228,138.2507,70,1996-06-02, 20:46:05,100Hz,59,U-D,0.0002384185791015625,0.877,97.36489889405384,0,-100.0,,0.0,0.0,0.0,0.0,0.0,0.0,0.0,0.0,0.0,0.0,0.0,0.0,0.0,0.0,0.0,E-W,0.0002384185791015625,2.301,N-S,0.0002384185791015625,3.934
19960602204500.knt,NIG0279606022045.UD,1996-06-02, 20:45:00,37.053,139.347,12,4.3,NIG027,37.0235,137.8624,106,1996-06-02, 20:46:14,100Hz,59,U-D,0.0002384185791015625,0.484,131.81186856929347,0,-100.0,,0.0,0.0,0.0,0.0,0.0,0.0,0.0,0.0,0.0,0.0,0.0,0.0,0.0,0.0,0.0,E-W,0.0002384185791015625,1.321,N-S,0.0002384185791015625,2.297
19960602204500.knt,TCG0039606022045.UD,1996-06-02, 20:45:00,37.053,139.347,12,4.3,TCG003,36.8144,139.7153,398,1996-06-02, 20:46:41,100Hz,59,U-D,0.0002384185791015625,1.523,42.13645004610412,1433,1434.0,22.03149932653803,1.3863644061312848,1.3988079041774875,1.4294121102032937,1.4712743952230543,1.389118152791985,0.003116066144035968,0.003116066144035968,0.003116066144035968,0.003116066144035968,0.003116066144035968,1.5136500171756069,1.5136500171756069,1.5136500171756069,1.5136500171756069,1.5136500171756069,E-W,0.0002384185791015625,4.923,N-S,0.0002384185791015625,4.859
19960602204500.knt,TCG0049606022045.UD,1996-06-02, 20:45:00,37.053,139.347,12,4.3,TCG004,36.8061,139.4204,1490,1996-06-02, 20:46:39,100Hz,59,U-D,0.0002384185791015625,23.004,28.21860135604261,1404,1431.0,24.7581732541267,0.3463071925923269,0.2227134078828172,0.44821849901311234,0.4639753690050479,0.3365415083523912,0.015701096277643174,0.005278959345933306,0.0036949674245358357,0.0036949674245358357,0.0025265773525832095,23.009969121980507,23.009969121980507,7.974476762483924,7.974476762483924,7.974476762483924,E-W,0.0002384185791015625,18.292,N-S,0.0002384185791015625,22.788
19960602204500.knt,TCG0059606022045.UD,1996-06-02, 20:45:00,37.053,139.347,12,4.3,TCG005,36.8061,139.9264,197,1996-06-02, 20:46:46,100Hz,59,U-D,0.0002384185791015625,2.924,58.3612600282077,1252,1275.0,23.522361649369255,2.366348132686619,2.1161884150286108,1.5337251049452967,1.0096590291311596,0.6934986292913597,0.006913567440782295,0.006913567440782295,0.004850398704416296,0.0043699273693918,0.004317976469350629,2.9250308566406003,2.9250308566406003,2.9250308566406003,2.9250308566406003,2.9250308566406003,E-W,0.0002384185791015625,3.878,N-S,0.0002384185791015625,5.141
19960602204500.knt,TCG0089606022045.UD,1996-06-02, 20:45:00,37.053,139.347,12,4.3,TCG008,36.56,139.7675,153,1996-06-02, 20:46:46,100Hz,59,U-D,0.0002384185791015625,3.047,66.38250209716846,1349,1371.0,23.601702341166593,0.6065633631685536,0.48367402929464304,0.48692086696104997,0.4734791010737339,0.4704726269940578,0.0028845514293333024,0.0028845514293333024,0.0028845514293333024,0.0028845514293333024,0.0028845514293333024,3.0509583180611393,3.0509583180611393,3.0509583180611393,3.0509583180611393,3.0509583180611393,E-W,0.0002384185791015625,1.616,N-S,0.0002384185791015625,1.934
19960602204500.knt,TCG0099606022045.UD,1996-06-02, 20:45:00,37.053,139.347,12,4.3,TCG009,36.7258,139.7155,361,1996-06-02, 20:46:42,100Hz,59,U-D,0.0002384185791015625,6.312,48.966407822872725,1457,1471.0,29.26429368914,0.3345448266670437,0.33132470800185165,0.31098513922646814,0.27105281538480375,0.29805962718195833,0.005710839802334789,0.005710839802334789,0.004525310474348845,0.004525310474348845,0.004525310474348845,4.983742667537445,4.983742667537445,4.448079353606301,4.448079353606301,4.448079353606301,E-W,0.0002384185791015625,22.16,N-S,0.0002384185791015625,8.263
19960602204500.knt,TCG0139606022045.UD,1996-06-02, 20:45:00,37.053,139.347,12,4.3,TCG013,36.4368,140.0225,67,1996-06-02, 20:46:50,100Hz,59,U-D,0.0002384185791015625,3.874,91.19888221723978,1372,1390.0,22.69178246741038,0.4578310361340302,0.4541619018177478,0.4447606254055191,0.40973959569279134,0.3912660114335608,0.0015387557401031783,0.0015387557401031783,0.0015387557401031783,0.0015387557401031783,0.0015387557401031783,3.849017980884755,3.849017980884755,3.849017980884755,3.849017980884755,3.849017980884755,E-W,0.0002384185791015625,1.608,N-S,0.0002384185791015625,1.882
19960602204500.knt,TCG0149606022045.UD,1996-06-02, 20:45:00,37.053,139.347,12,4.3,TCG014,36.545,140.1742,130,1996-06-02, 20:46:01,100Hz,59,U-D,0.0002384185791015625,2.55,92.81895532342041,287,286.0,28.70477373140591,3.4002993892896862,2.62090514653236,2.3194872130922275,2.712488254863182,3.5370750253253878,0.006709683508916477,0.0057521368443966365,0.0057521368443966365,0.0057521368443966365,0.0057521368443966365,1.4831032639078479,1.4831032639078479,1.4831032639078479,1.4831032639078479,1.4831032639078479,E-W,0.0002384185791015625,2.535,N-S,0.0002384185791015625,4.202
19960603021800.knt,CHB0019606030218.UD,1996-06-03, 02:18:00,36.353,140.647,61,3.7,CHB001,35.9595,139.8733,13,1996-06-03, 02:18:38,100Hz,59,U-D,0.0002384185791015625,3.027,82.09459779003448,0,-100.0,,0.0,0.0,0.0,0.0,0.0,0.0,0.0,0.0,0.0,0.0,0.0,0.0,0.0,0.0,0.0,E-W,0.0002384185791015625,5.526,N-S,0.0002384185791015625,6.35
19960603021800.knt,CHB0029606030218.UD,1996-06-03, 02:18:00,36.353,140.647,61,3.7,CHB002,35.7868,139.9031,14,1996-06-03, 02:18:40,100Hz,59,U-D,0.0002384185791015625,2.396,91.83700331785144,183,178.0,25.132938057882605,3.7534909236140264,3.8167283637389526,3.79745074105825,3.264737096268674,2.0638360334305057,0.004338777198220956,0.004338777198220956,0.004338777198220956,0.004338777198220956,0.002669125012949814,0.9428051886808638,0.9428051886808638,0.9428051886808638,0.9428051886808638,0.9428051886808638,E-W,0.0002384185791015625,4.861,N-S,0.0002384185791015625,6.5
19960603021800.knt,CHB0079606030218.UD,1996-06-03, 02:18:00,36.353,140.647,61,3.7,CHB007,35.7234,140.2267,24,1996-06-03, 02:18:38,100Hz,59,U-D,0.0002384185791015625,1.292,79.55693793427479,227,223.0,21.92003419064337,11.15114647129538,12.186730900072071,16.063379057292785,23.985067029082508,29.4267149534873,0.018945609623221216,0.018945609623221216,0.018945609623221216,0.018945609623221216,0.018945609623221216,0.6355117201060617,0.5367521726165828,0.5367521726165828,0.5367521726165828,0.47734667669186087,E-W,0.0002384185791015625,2.572,N-S,0.0002384185791015625,3.269
19960603021800.knt,FKS0049606030218.UD,1996-06-03, 02:18:00,36.353,140.647,61,3.7,FKS004,37.6799,140.7346,488,1996-06-03, 02:18:52,100Hz,59,U-D,0.0002384185791015625,1.704,147.7493719358916,0,3.0,-0.11303633509278828,0.0,0.0,0.0,0.0,0.0,0.0,0.0,0.0,0.0,0.0,0.0,0.0,0.0,0.0,0.0,E-W,0.0002384185791015625,3.681,N-S,0.0002384185791015625,5.545
19960603021800.knt,FKS0069606030218.UD,1996-06-03, 02:18:00,36.353,140.647,61,3.7,FKS006,37.5031,140.7588,472,1996-06-03, 02:18:48,100Hz,59,U-D,0.0002384185791015625,1.967,128.27078802763046,0,-100.0,,0.0,0.0,0.0,0.0,0.0,0.0,0.0,0.0,0.0,0.0,0.0,0.0,0.0,0.0,0.0,E-W,0.0002384185791015625,5.661,N-S,0.0002384185791015625,5.563
19960603021800.knt,FKS0089606030218.UD,1996-06-03, 02:18:00,36.353,140.647,61,3.7,FKS008,37.4363,140.5668,430,1996-06-03, 02:18:46,100Hz,59,U-D,0.0002384185791015625,1.796,120.66839409428485,0,2.0,4.896730699829713,0.0,0.0,0.0,0.0,0.0,0.0,0.0,0.0,0.0,0.0,0.0,0.0,0.0,0.0,0.0,E-W,0.0002384185791015625,6.474,N-S,0.0002384185791015625,5.05
19960603021800.knt,FKS0099606030218.UD,1996-06-03, 02:18:00,36.353,140.647,61,3.7,FKS009,37.2778,140.6349,440,1996-06-03, 02:18:42,100Hz,59,U-D,0.0002384185791015625,3.005,102.83870894781505,119,129.0,23.647967488268314,7.401072434777633,8.261791881092249,9.475682656312756,8.78515167873392,6.266506979980157,0.004936906335947558,0.004936906335947558,0.004936906335947558,0.004877139565120546,0.0038344013989167133,0.9259141535119675,0.9259141535119675,0.9259141535119675,0.9259141535119675,0.9259141535119675,E-W,0.0002384185791015625,4.386,N-S,0.0002384185791015625,6.543
19960603021800.knt,FKS0119606030218.UD,1996-06-03, 02:18:00,36.353,140.647,61,3.7,FKS011,37.0911,140.9035,165,1996-06-03, 02:18:38,100Hz,59,U-D,0.0002384185791015625,2.367,85.19737009527955,263,269.0,19.395882860006274,12.718615174053813,14.071055484762008,18.547818381454505,28.8413178115078,40.47798770286536,0.037922615656337845,0.037922615656337845,0.037922615656337845,0.037922615656337845,0.037922615656337845,1.7595513074427418,1.7595513074427418,1.7595513074427418,1.7595513074427418,1.7595513074427418,E-W,0.0002384185791015625,2.735,N-S,0.0002384185791015625,2.773
19960603021800.knt,GNM0019606030218.UD,1996-06-03, 02:18:00,36.353,140.647,61,3.7,GNM001,36.7722,139.2248,810,1996-06-03, 02:18:49,100Hz,59,U-D,0.0002384185791015625,2.017,135.3012009672957,0,-100.0,,0.0,0.0,0.0,0.0,0.0,0.0,0.0,0.0,0.0,0.0,0.0,0.0,0.0,0.0,0.0,E-W,0.0002384185791015625,4.099,N-S,0.0002384185791015625,3.743
19960603021800.knt,GNM0099606030218.UD,1996-06-03, 02:18:00,36.353,140.647,61,3.7,GNM009,36.4106,139.3251,114,1996-06-03, 02:18:44,100Hz,59,U-D,0.0002384185791015625,2.137,118.51015541259883,0,-100.0,,0.0,0.0,0.0,0.0,0.0,0.0,0.0,0.0,0.0,0.0,0.0,0.0,0.0,0.0,0.0,E-W,0.0002384185791015625,4.801,N-S,0.0002384185791015625,7.356
