earthquake name,records name,earthquake date,earthquake time,lat,long,depth,mag,stn_code,stn_lat,stn_long,stn_height,rcd_date,rcd_time,frequency,rcd_duration,direction,scale_factor,max_pga,epi_dist,pick_index_manually,pick_index_kalkan,snr_db_kalkan,tc_5sec,tc_4sec,tc_3sec,tc_2sec,tc_1sec,Pd_5sec,Pd_4sec,Pd_3sec,Pd_2sec,Pd_1sec,Pga_5sec,Pga_4sec,Pga_3sec,Pga_2sec,Pga_1sec,Channel,Scale_factor,PGA_ew,Channel.1,Scale_factor.1,PGA_ns
19990122070200.knt,MYG0109901220702.UD,1999-01-22, 07:02:00,38.603,143.163,0,5.5,MYG010,38.4282,141.2809,2,1999-01-22, 07:03:59,100Hz,165,U-D,0.0002384185791015625,3.531,164.8952544570212,0,1.0,5.6340698430346166,0.0,0.0,0.0,0.0,0.0,0.0,0.0,0.0,0.0,0.0,0.0,0.0,0.0,0.0,0.0,E-W,0.0002384185791015625,6.379,N-S,0.0002384185791015625,7.438
19990122070200.knt,MYG0119901220702.UD,1999-01-22, 07:02:00,38.603,143.163,0,5.5,MYG011,38.2972,141.5043,30,1999-01-22, 07:03:40,100Hz,182,U-D,0.0002384185791015625,2.544,148.38944851775477,1228,1305.0,25.400809440896758,0.9518299649789919,1.0587303800434746,1.1672379822881347,1.5974755947235315,2.4399035431588048,0.0024207240760557172,0.0024207240760557172,0.0024207240760557172,0.0024207240760557172,0.0024207240760557172,1.3674794215728474,1.3674794215728474,1.3674794215728474,1.193258850982994,0.37357311193847476,E-W,0.0002384185791015625,8.145,N-S,0.0002384185791015625,8.336
19990122070200.knt,MYG0129901220702.UD,1999-01-22, 07:02:00,38.603,143.163,0,5.5,MYG012,38.3233,141.0272,2,1999-01-22, 07:03:07,100Hz,89,U-D,0.0002384185791015625,3.442,188.53501666348498,0,-100.0,,0.0,0.0,0.0,0.0,0.0,0.0,0.0,0.0,0.0,0.0,0.0,0.0,0.0,0.0,0.0,E-W,0.0002384185791015625,2.598,N-S,0.0002384185791015625,2.827
19990122070200.knt,MYG0139901220702.UD,1999-01-22, 07:02:00,38.603,143.163,0,5.5,MYG013,38.2663,140.9293,5,1999-01-22, 07:03:11,100Hz,119,U-D,0.0002384185791015625,1.018,198.12146715508646,0,1.0,-4.035001484499951,0.0,0.0,0.0,0.0,0.0,0.0,0.0,0.0,0.0,0.0,0.0,0.0,0.0,0.0,0.0,E-W,0.0002384185791015625,2.684,N-S,0.0002384185791015625,3.232
19990122070200.knt,MYG0159901220702.UD,1999-01-22, 07:02:00,38.603,143.163,0,5.5,MYG015,38.1049,140.8699,3,1999-01-22, 07:03:12,100Hz,119,U-D,0.0002384185791015625,1.335,207.47662095276564,0,-100.0,,0.0,0.0,0.0,0.0,0.0,0.0,0.0,0.0,0.0,0.0,0.0,0.0,0.0,0.0,0.0,E-W,0.0002384185791015625,4.056,N-S,0.0002384185791015625,4.205
19990124093700.knt,EHM0119901240937.UD,1999-01-24, 09:37:00,30.587,131.248,49,6.2,EHM011,33.4496,132.4336,10,1999-01-24, 09:38:30,100Hz,119,U-D,0.0002384185791015625,0.666,337.35392673783605,0,-100.0,,0.0,0.0,0.0,0.0,0.0,0.0,0.0,0.0,0.0,0.0,0.0,0.0,0.0,0.0,0.0,E-W,0.0002384185791015625,2.181,N-S,0.0002384185791015625,1.958
19990124093700.knt,EHM0149901240937.UD,1999-01-24, 09:37:00,30.587,131.248,49,6.2,EHM014,32.9453,132.5047,1,1999-01-24, 09:38:18,100Hz,119,U-D,0.0002384185791015625,1.293,287.88122951113075,0,1.0,-0.0902299634731134,0.0,0.0,0.0,0.0,0.0,0.0,0.0,0.0,0.0,0.0,0.0,0.0,0.0,0.0,0.0,E-W,0.0002384185791015625,3.541,N-S,0.0002384185791015625,3.199
19990124093700.knt,HRS0129901240937.UD,1999-01-24, 09:37:00,30.587,131.248,49,6.2,HRS012,34.4276,132.7422,215,1999-01-24, 09:38:56,100Hz,119,U-D,0.0002384185791015625,0.564,449.4352316111708,0,7.000000000000001,5.317223036868506,0.0,0.0,0.0,0.0,0.0,0.0,0.0,0.0,0.0,0.0,0.0,0.0,0.0,0.0,0.0,E-W,0.0002384185791015625,2.219,N-S,0.0002384185791015625,2.388
19990124093700.knt,KGS0039901240937.UD,1999-01-24, 09:37:00,30.587,131.248,49,6.2,KGS003,32.0559,130.5874,176,1999-01-24, 09:38:43,100Hz,119,U-D,0.0002384185791015625,1.418,174.9720054671083,0,-100.0,,0.0,0.0,0.0,0.0,0.0,0.0,0.0,0.0,0.0,0.0,0.0,0.0,0.0,0.0,0.0,E-W,0.0002384185791015625,3.053,N-S,0.0002384185791015625,3.166
19990124093700.knt,KGS0049901240937.UD,1999-01-24, 09:37:00,30.587,131.248,49,6.2,KGS004,32.0145,130.1927,3,1999-01-24, 09:38:51,100Hz,119,U-D,0.0002384185791015625,2.233,187.74268268633747,0,-100.0,,0.0,0.0,0.0,0.0,0.0,0.0,0.0,0.0,0.0,0.0,0.0,0.0,0.0,0.0,0.0,E-W,0.0002384185791015625,2.62,N-S,0.0002384185791015625,3.579
19990124093700.knt,KGS0059901240937.UD,1999-01-24, 09:37:00,30.587,131.248,49,6.2,KGS005,31.9006,130.4513,42,1999-01-24, 09:38:54,100Hz,119,U-D,0.0002384185791015625,1.512,164.53353662537643,0,-100.0,,0.0,0.0,0.0,0.0,0.0,0.0,0.0,0.0,0.0,0.0,0.0,0.0,0.0,0.0,0.0,E-W,0.0002384185791015625,4.529,N-S,0.0002384185791015625,5.301
19990124093700.knt,KGS0069901240937.UD,1999-01-24, 09:37:00,30.587,131.248,49,6.2,KGS006,31.906,130.7021,188,1999-01-24, 09:38:40,100Hz,119,U-D,0.0002384185791015625,3.161,155.57604736843723,544,605.0,26.837836946026847,4.372004258194495,3.3253144851450926,2.238261140155672,2.4993021689670347,2.53909778366805,0.029326400564973716,0.021207228869880374,0.011127333438413852,0.011127333438413852,0.011002459675055021,1.5083798617727922,1.4367723307313833,0.7192417195192169,0.7192417195192169,0.2547771548618594,E-W,0.0002384185791015625,6.267,N-S,0.0002384185791015625,5.234
19990124093700.knt,KGS0079901240937.UD,1999-01-24, 09:37:00,30.587,131.248,49,6.2,KGS007,31.8143,130.3032,4,1999-01-24, 09:38:47,100Hz,119,U-D,0.0002384185791015625,3.706,163.39614267605353,0,1.0,-4.927204644579012,0.0,0.0,0.0,0.0,0.0,0.0,0.0,0.0,0.0,0.0,0.0,0.0,0.0,0.0,0.0,E-W,0.0002384185791015625,7.887,N-S,0.0002384185791015625,9.231
19990124093700.knt,KGS0089901240937.UD,1999-01-24, 09:37:00,30.587,131.248,49,6.2,KGS008,31.7621,130.5699,15,1999-01-24, 09:38:38,100Hz,119,U-D,0.0002384185791015625,5.018,145.7222672842651,654,634.0,25.535859843930815,2.8198329744960953,3.315309392472934,2.3461209197861312,2.768534356050402,3.5201476452430653,0.03469506246868758,0.03469506246868758,0.02614584687325863,0.02614584687325863,0.02614584687325863,1.4485359093729764,1.2598612195621162,1.2598612195621162,0.987625118432621,0.46717572959845177,E-W,0.0002384185791015625,8.62,N-S,0.0002384185791015625,5.262
19990124093700.knt,KGS0099901240937.UD,1999-01-24, 09:37:00,30.587,131.248,49,6.2,KGS009,31.7368,130.7613,4,1999-01-24, 09:38:33,100Hz,130,U-D,0.0002384185791015625,3.927,135.97996634692672,1046,1097.0,29.1391675783786,2.586177313284812,2.9451818255904696,2.056442013360576,2.4556243907999153,3.768654695219316,0.03220556813714171,0.03220556813714171,0.021953429434209075,0.021953429434209075,0.021953429434209075,2.933809824037361,2.2549119160717166,2.1570899403734534,2.1570899403734534,0.7548356739383816,E-W,0.0002384185791015625,9.962,N-S,0.0002384185791015625,11.861
19990124093700.knt,KGS0109901240937.UD,1999-01-24, 09:37:00,30.587,131.248,49,6.2,KGS010,31.7123,130.2735,16,1999-01-24, 09:38:34,100Hz,119,U-D,0.0002384185791015625,7.364,155.74427140475754,1147,980.0000000000001,25.975837766280797,2.6221717750276414,2.704040177625348,1.717182640570751,2.053818492570892,3.153254309600425,0.06430503781075725,0.06430503781075725,0.0382538004026834,0.0382538004026834,0.0382538004026834,2.9833116907213446,2.9833116907213446,2.9833116907213446,1.827802093127395,1.7970486235555894,E-W,0.0002384185791015625,11.516,N-S,0.0002384185791015625,8.044
19990124093700.knt,KGS0119901240937.UD,1999-01-24, 09:37:00,30.587,131.248,49,6.2,KGS011,31.5896,130.349,18,1999-01-24, 09:38:32,100Hz,119,U-D,0.0002384185791015625,5.431,140.55871983283572,1148,1189.0,23.549567143568495,2.485084485350985,2.622261236567433,1.8229526354284988,2.133636232914009,3.3730502268878992,0.052756086409188004,0.052756086409188004,0.03559251901180593,0.03559251901180593,0.03559251901180593,5.476769146210636,5.476769146210636,3.393218179390692,2.4685907028541774,1.6089160450431068,E-W,0.0002384185791015625,18.449,N-S,0.0002384185791015625,14.138
19990124093700.knt,KGS0129901240937.UD,1999-01-24, 09:37:00,30.587,131.248,49,6.2,KGS012,31.6057,130.574,4,1999-01-24, 09:38:50,100Hz,119,U-D,0.0002384185791015625,5.282,130.18965088763719,0,-100.0,,0.0,0.0,0.0,0.0,0.0,0.0,0.0,0.0,0.0,0.0,0.0,0.0,0.0,0.0,0.0,E-W,0.0002384185791015625,10.049,N-S,0.0002384185791015625,8.827
19990124093700.knt,KGS0139901240937.UD,1999-01-24, 09:37:00,30.587,131.248,49,6.2,KGS013,31.5973,130.9938,118,1999-01-24, 09:38:28,100Hz,119,U-D,0.0002384185791015625,6.509,114.91814402527397,1300,1318.0,24.83258163380532,1.7819746738859388,1.8101443836385516,1.518504799882892,1.8419982695431376,2.303068059337895,0.03750662365731723,0.03750662365731723,0.03027975926178622,0.03027975926178622,0.03027975926178622,6.442016100631022,6.06625423364988,2.866651106886809,2.866651106886809,2.242559229247592,E-W,0.0002384185791015625,15.201,N-S,0.0002384185791015625,13.235
19990124093700.knt,KGS0149901240937.UD,1999-01-24, 09:37:00,30.587,131.248,49,6.2,KGS014,31.496,130.6999,3,1999-01-24, 09:38:27,100Hz,119,U-D,0.0002384185791015625,6.941,113.76731821873649,1310,1331.0,34.97095490165829,1.9901169834521875,1.9798474957878391,1.8206252754500096,2.003162357235347,2.5194369818332265,0.06844415301627797,0.06844415301627797,0.044858656335092485,0.044858656335092485,0.043625348256879026,4.451076734355724,4.335730748723819,4.294592650364323,2.642803428457511,0.44007702609007016,E-W,0.0002384185791015625,17.356,N-S,0.0002384185791015625,13.959
19990124093700.knt,KGS0159901240937.UD,1999-01-24, 09:37:00,30.587,131.248,49,6.2,KGS015,31.4304,131.011,34,1999-01-24, 09:38:25,100Hz,119,U-D,0.0002384185791015625,45.913,96.46336673229922,1306,1418.0,19.51609944348904,0.6296614336230494,0.6054325650639298,0.5548343478458743,0.6051839126357778,1.9304109939926364,0.07514973483808174,0.07514973483808174,0.05807366635073548,0.056849877218250675,0.037708470154044174,46.097251833453086,40.74277856265083,27.570247375010513,25.599689891320807,3.4862040922685784,E-W,0.0002384185791015625,77.398,N-S,0.0002384185791015625,102.273
19990124093700.knt,KGS0169901240937.UD,1999-01-24, 09:37:00,30.587,131.248,49,6.2,KGS016,31.4162,130.3225,11,1999-01-24, 09:38:28,100Hz,119,U-D,0.0002384185791015625,9.744,127.60135639272714,1351,1397.0,27.03757409343861,1.5540747208325958,1.6710037160787388,1.3482994054861341,1.9633060060904297,2.279401092747146,0.0565354355038194,0.0565354355038194,0.045269091540172945,0.045269091540172945,0.045269091540172945,9.735340383552584,9.735340383552584,5.491890343907374,4.42922138057548,1.2293669236370517,E-W,0.0002384185791015625,16.312,N-S,0.0002384185791015625,15.434
19990124093700.knt,KGS0179901240937.UD,1999-01-24, 09:37:00,30.587,131.248,49,6.2,KGS017,31.3954,130.8702,64,1999-01-24, 09:38:25,100Hz,119,U-D,0.0002384185791015625,32.691,96.83521225401203,1274,1351.0,35.47896406008273,1.846265665822402,1.4562193984375247,0.9870733793171812,0.879865835081238,1.04290861273411,0.21200167163912767,0.20798149521007095,0.10654817562070752,0.0725557951305153,0.04186627816367404,32.806069123542414,32.806069123542414,32.806069123542414,17.567128644402892,2.2928410930088523,E-W,0.0002384185791015625,47.045,N-S,0.0002384185791015625,61.962
19990124093700.knt,KGS0189901240937.UD,1999-01-24, 09:37:00,30.587,131.248,49,6.2,KGS018,31.3757,130.5449,51,1999-01-24, 09:38:26,100Hz,119,U-D,0.0002384185791015625,17.584,110.37982356943408,1363,1451.0,27.474906702509543,1.2818494360227972,1.3217672478780191,1.0234384195736779,1.955840848537322,2.655887199241179,0.0843536692090267,0.0843536692090267,0.05327349804597517,0.05327349804597517,0.05327349804597517,17.548793918270444,17.548793918270444,17.548793918270444,6.068991130111806,1.7455980037211563,E-W,0.0002384185791015625,29.352,N-S,0.0002384185791015625,23.429
19990124093700.knt,KGS0199901240937.UD,1999-01-24, 09:37:00,30.587,131.248,49,6.2,KGS019,31.2776,130.3008,10,1999-01-24, 09:38:27,100Hz,119,U-D,0.0002384185791015625,9.796,118.56942011465051,1324,1360.0,34.01500886657975,2.5549688474666357,2.629195033732475,1.9713392120040194,2.3887718198839782,2.4760215568834356,0.056854889105423176,0.056854889105423176,0.04705221612912964,0.04705221612912964,0.04705221612912964,9.749818422604942,9.749818422604942,9.53319990329485,9.53319990329485,1.8950885344926456,E-W,0.0002384185791015625,15.249,N-S,0.0002384185791015625,19.449
19990124093700.knt,KGS0209901240937.UD,1999-01-24, 09:37:00,30.587,131.248,49,6.2,KGS020,31.2396,130.4915,21,1999-01-24, 09:38:25,100Hz,120,U-D,0.0002384185791015625,20.54,102.34303337347778,1371,1461.0,23.98388034965174,1.9280732628852024,2.0600245739529113,1.9131825787328969,1.7663035831588625,2.3831464259324395,0.1628428466489618,0.1628428466489618,0.09657840449893165,0.09657840449893165,0.0814411104880922,20.706227680693093,20.706227680693093,14.660160582277088,14.660160582277088,1.2489755874506752,E-W,0.0002384185791015625,20.746,N-S,0.0002384185791015625,18.416
19990124093700.knt,KGS0219901240937.UD,1999-01-24, 09:37:00,30.587,131.248,49,6.2,KGS021,31.2535,130.6324,8,1999-01-24, 09:38:27,100Hz,119,U-D,0.0002384185791015625,8.228,94.55612406384581,0,-100.0,,0.0,0.0,0.0,0.0,0.0,0.0,0.0,0.0,0.0,0.0,0.0,0.0,0.0,0.0,0.0,E-W,0.0002384185791015625,21.292,N-S,0.0002384185791015625,18.355
19990124093700.knt,KGS0229901240937.UD,1999-01-24, 09:37:00,30.587,131.248,49,6.2,KGS022,31.2804,131.0504,12,1999-01-24, 09:38:18,100Hz,119,U-D,0.0002384185791015625,19.005,79.37254078758495,1336,1399.0,33.28307050973141,1.2065416323042146,1.3472211461516477,1.4909065828143881,1.5903713115961375,2.3354660341102047,0.027194217838379452,0.027194217838379452,0.027194217838379452,0.026188330875886068,0.023925190612454916,18.935518803383562,18.935518803383562,9.941880163673666,9.941880163673666,2.959237431398726,E-W,0.0002384185791015625,25.154,N-S,0.0002384185791015625,28.941
19990124093700.knt,KGS0239901240937.UD,1999-01-24, 09:37:00,30.587,131.248,49,6.2,KGS023,31.199,130.849,179,1999-01-24, 09:38:21,100Hz,119,U-D,0.0002384185791015625,76.913,77.97725933325064,1416,1470.0,31.412619738688385,1.0104979680622166,0.9554387672367475,0.6869435791963073,0.49665273567044554,1.43323936346155,0.2367018897662973,0.2367018897662973,0.2367018897662973,0.09676241783248615,0.051332075776029065,76.96385529219351,75.33514836513916,75.33514836513916,44.84889152611048,7.807834924973286,E-W,0.0002384185791015625,64.623,N-S,0.0002384185791015625,80.27
19990124093700.knt,KGS0249901240937.UD,1999-01-24, 09:37:00,30.587,131.248,49,6.2,KGS024,31.0888,130.6982,75,1999-01-24, 09:38:22,100Hz,119,U-D,0.0002384185791015625,30.441,76.60755608233251,1325,1384.0,25.0525223638439,1.350795019488159,1.3398515643080315,1.0101386060238036,1.074656667826728,1.9097498515944318,0.12056240217408903,0.12056240217408903,0.08125927110943994,0.08125927110943994,0.06831623836995816,30.80281154941889,30.80281154941889,28.607732682693992,18.95008081216903,14.22615788839576,E-W,0.0002384185791015625,55.509,N-S,0.0002384185791015625,55.863
19990124093700.knt,KGS0269901240937.UD,1999-01-24, 09:37:00,30.587,131.248,49,6.2,KGS026,30.5202,130.9543,115,1999-01-24, 09:38:16,100Hz,119,U-D,0.0002384185791015625,134.985,29.087875136690567,1336,1413.0,28.885841190763507,1.439711928379692,1.322183510395098,1.0857542557172497,1.064667554604929,1.281392117147633,0.3589075486740723,0.3589075486740723,0.3589075486740723,0.3361635815052047,0.17794785844194638,135.51822298280138,135.51822298280138,135.51822298280138,83.10048672971627,36.63331713999228,E-W,0.0002384185791015625,121.646,N-S,0.0002384185791015625,125.878
19990124093700.knt,KGS0279901240937.UD,1999-01-24, 09:37:00,30.587,131.248,49,6.2,KGS027,30.3488,130.8829,15,1999-01-24, 09:38:18,100Hz,119,U-D,0.0002384185791015625,77.136,43.88541926996114,1318,1404.0,25.62088981285429,1.9895966357923556,1.7677996825934836,1.4131708224761115,1.3959756813859652,1.8519834284264338,0.20054722674005906,0.20054722674005906,0.20054722674005906,0.20054722674005906,0.08572433296035988,77.44212732915017,77.44212732915017,77.44212732915017,77.44212732915017,9.435722034323296,E-W,0.0002384185791015625,58.289,N-S,0.0002384185791015625,91.844
19990124093700.knt,KGS0289901240937.UD,1999-01-24, 09:37:00,30.587,131.248,49,6.2,KGS028,30.4208,130.5769,4,1999-01-24, 09:38:20,100Hz,119,U-D,0.0002384185791015625,61.069,66.89785519289052,1397,1454.0,32.592345660568995,0.7934277834539373,0.78469121447922,1.0973102513575368,0.8781375425091327,0.6462471996811245,0.07498121025092044,0.07498121025092044,0.07498121025092044,0.04959108111133146,0.01250611176497418,60.929324810972346,56.97974708227764,37.664895844555254,17.488567949574545,6.312650873448663,E-W,0.0002384185791015625,156.975,N-S,0.0002384185791015625,183.92
19990124093700.knt,KGS0299901240937.UD,1999-01-24, 09:37:00,30.587,131.248,49,6.2,KGS029,30.2363,130.5553,60,1999-01-24, 09:38:21,100Hz,119,U-D,0.0002384185791015625,25.542,77.02720908474711,1419,1484.0,30.196938458085945,0.8138350109163291,0.7532395873197556,0.8049472357879387,0.65751588686906,0.372716442633523,0.04540312106391779,0.04540312106391779,0.04540312106391779,0.026517804271397886,0.00619984567485169,25.65967751279923,25.65967751279923,25.65967751279923,14.933753238220595,3.5271817784621198,E-W,0.0002384185791015625,38.795,N-S,0.0002384185791015625,34.789
19990124093700.knt,KGS0319901240937.UD,1999-01-24, 09:37:00,30.587,131.248,49,6.2,KGS031,28.3571,129.3937,2,1999-01-24, 09:38:57,100Hz,119,U-D,0.0002384185791015625,3.823,306.0965717559817,737,771.0,30.535966436117704,5.32674316418629,5.434816427027067,5.459599925382371,4.111777276153272,2.8223965068082366,0.020093758025754492,0.020093758025754492,0.018234695605512895,0.015989028865020693,0.007980781838780973,1.2306017234980808,1.2306017234980808,1.2306017234980808,1.2306017234980808,0.5704704389975884,E-W,0.0002384185791015625,5.271,N-S,0.0002384185791015625,5.523
19990124093700.knt,KMM0049901240937.UD,1999-01-24, 09:37:00,30.587,131.248,49,6.2,KMM004,32.932,131.1214,556,1999-01-24, 09:38:19,100Hz,119,U-D,0.0002384185791015625,1.051,261.02659465759524,0,-100.0,,0.0,0.0,0.0,0.0,0.0,0.0,0.0,0.0,0.0,0.0,0.0,0.0,0.0,0.0,0.0,E-W,0.0002384185791015625,2.35,N-S,0.0002384185791015625,1.49
19990124093700.knt,KMM0069901240937.UD,1999-01-24, 09:37:00,30.587,131.248,49,6.2,KMM006,32.7875,130.7696,28,1999-01-24, 09:38:13,100Hz,119,U-D,0.0002384185791015625,1.232,248.83510842719127,0,-100.0,,0.0,0.0,0.0,0.0,0.0,0.0,0.0,0.0,0.0,0.0,0.0,0.0,0.0,0.0,0.0,E-W,0.0002384185791015625,2.251,N-S,0.0002384185791015625,3.001
19990124093700.knt,KMM0079901240937.UD,1999-01-24, 09:37:00,30.587,131.248,49,6.2,KMM007,32.8267,131.1226,548,1999-01-24, 09:38:15,100Hz,119,U-D,0.0002384185791015625,2.568,249.32556857491366,0,-100.0,,0.0,0.0,0.0,0.0,0.0,0.0,0.0,0.0,0.0,0.0,0.0,0.0,0.0,0.0,0.0,E-W,0.0002384185791015625,6.759,N-S,0.0002384185791015625,5.659
19990124093700.knt,KMM0089901240937.UD,1999-01-24, 09:37:00,30.587,131.248,49,6.2,KMM008,32.6878,130.6582,4,1999-01-24, 09:38:12,100Hz,119,U-D,0.0002384185791015625,1.625,240.177204292968,0,2.0,2.5192245585261155,0.0,0.0,0.0,0.0,0.0,0.0,0.0,0.0,0.0,0.0,0.0,0.0,0.0,0.0,0.0,E-W,0.0002384185791015625,4.081,N-S,0.0002384185791015625,3.859
19990124093700.knt,KMM0099901240937.UD,1999-01-24, 09:37:00,30.587,131.248,49,6.2,KMM009,32.6856,130.9892,463,1999-01-24, 09:38:09,100Hz,119,U-D,0.0002384185791015625,1.688,234.6360629179956,0,-100.0,,0.0,0.0,0.0,0.0,0.0,0.0,0.0,0.0,0.0,0.0,0.0,0.0,0.0,0.0,0.0,E-W,0.0002384185791015625,4.169,N-S,0.0002384185791015625,3.433
19990124093700.knt,KMM0119901240937.UD,1999-01-24, 09:37:00,30.587,131.248,49,6.2,KMM011,32.6167,130.8652,142,1999-01-24, 09:38:06,100Hz,119,U-D,0.0002384185791015625,1.317,228.58487943308484,0,-100.0,,0.0,0.0,0.0,0.0,0.0,0.0,0.0,0.0,0.0,0.0,0.0,0.0,0.0,0.0,0.0,E-W,0.0002384185791015625,5.339,N-S,0.0002384185791015625,4.293
19990124093700.knt,KMM0149901240937.UD,1999-01-24, 09:37:00,30.587,131.248,49,6.2,KMM014,32.3987,130.8244,265,1999-01-24, 09:38:42,100Hz,119,U-D,0.0002384185791015625,2.965,205.41598871299522,1001,1026.0,28.84158264110315,5.4276708506641596,5.1219507707187,5.105854436231726,7.629086756345682,24.056638691494324,0.024849052066180672,0.022329918660065815,0.02106992395048935,0.02106992395048935,0.02106992395048935,2.6877465709342667,1.9928832933706984,1.7788545554291775,1.7788545554291775,0.4413014144599024,E-W,0.0002384185791015625,5.011,N-S,0.0002384185791015625,4.537
