earthquake name,records name,earthquake date,earthquake time,lat,long,depth,mag,stn_code,stn_lat,stn_long,stn_height,rcd_date,rcd_time,frequency,rcd_duration,direction,scale_factor,max_pga,epi_dist,pick_index_manually,pick_index_kalkan,snr_db_kalkan,tc_5sec,tc_4sec,tc_3sec,tc_2sec,tc_1sec,Pd_5sec,Pd_4sec,Pd_3sec,Pd_2sec,Pd_1sec,Pga_5sec,Pga_4sec,Pga_3sec,Pga_2sec,Pga_1sec,Channel,Scale_factor,PGA_ew,Channel.1,Scale_factor.1,PGA_ns
20020121085500.knt,HKD0770201210855.UD,2002-01-21, 08:55:00,42.535,144.776,47,4.7,HKD077,42.9845,144.3824,3,2002-01-21, 08:56:02,100Hz,119,U-D,0.0002384185791015625,9.654,59.42016432618717,644,642.0,25.176170293506118,7.700822943159403,7.1640189328013495,6.102895728472214,5.100976713831545,2.9597643240214984,0.036401063892338936,0.036401063892338936,0.036401063892338936,0.034528706408961156,0.026135542697930007,3.4248757820439533,3.4248757820439533,3.4248757820439533,3.4248757820439533,3.4248757820439533,E-W,0.0002384185791015625,22.775,N-S,0.0002384185791015625,15.688
20020121085500.knt,HKD0780201210855.UD,2002-01-21, 08:55:00,42.535,144.776,47,4.7,HKD078,43.1486,144.4976,21,2002-01-21, 08:56:06,100Hz,119,U-D,0.0002384185791015625,4.308,71.9056855572426,400,418.0,22.197512097643155,1.747249866859908,1.5335555406627697,1.613302568525241,1.7961208041781058,2.003814463684775,0.006850961823630717,0.006850961823630717,0.006850961823630717,0.006850961823630717,0.006850961823630717,1.3223523508768962,1.3223523508768962,1.1737855713819059,1.1737855713819059,0.9629703300984637,E-W,0.0002384185791015625,4.416,N-S,0.0002384185791015625,3.525
20020121085500.knt,HKD0800201210855.UD,2002-01-21, 08:55:00,42.535,144.776,47,4.7,HKD080,43.5077,144.4485,140,2002-01-21, 08:56:14,100Hz,119,U-D,0.0002384185791015625,1.743,111.3876498305494,82,102.0,17.75169152112879,7.5227864180320125,8.121728134762591,8.199912988054427,7.596387490421603,5.012678077957063,0.01251099642752318,0.01251099642752318,0.01251099642752318,0.01251099642752318,0.01003714518375989,0.9032553594752828,0.9032553594752828,0.9032553594752828,0.70197481084325,0.47974007404874647,E-W,0.0002384185791015625,3.337,N-S,0.0002384185791015625,3.845
20020121085500.knt,HKD0830201210855.UD,2002-01-21, 08:55:00,42.535,144.776,47,4.7,HKD083,43.233,144.3248,38,2002-01-21, 08:56:18,100Hz,119,U-D,0.0002384185791015625,1.393,85.87972805281065,0,1.0,2.422854765253423,0.0,0.0,0.0,0.0,0.0,0.0,0.0,0.0,0.0,0.0,0.0,0.0,0.0,0.0,0.0,E-W,0.0002384185791015625,2.384,N-S,0.0002384185791015625,1.914
20020121085500.knt,HKD0840201210855.UD,2002-01-21, 08:55:00,42.535,144.776,47,4.7,HKD084,43.1141,144.123,30,2002-01-21, 08:56:09,100Hz,120,U-D,0.0002384185791015625,1.307,83.56118186754267,256,162.0,18.18202808450073,3.2958773807676756,3.4003753091788687,3.6397881660108635,3.7745637031534907,3.148914362282326,0.0075376074609850964,0.0075376074609850964,0.0075376074609850964,0.0075376074609850964,0.0075376074609850964,0.6235977539403142,0.6235977539403142,0.6235977539403142,0.6235977539403142,0.6235977539403142,E-W,0.0002384185791015625,3.247,N-S,0.0002384185791015625,2.392
20020121085500.knt,HKD0850201210855.UD,2002-01-21, 08:55:00,42.535,144.776,47,4.7,HKD085,42.9581,144.0697,5,2002-01-21, 08:56:06,100Hz,119,U-D,0.0002384185791015625,1.731,74.4289963493741,441,444.00000000000006,23.133176245368855,1.8813084923791623,1.5540221365200233,1.3661467621712042,1.369257202060325,1.3176596689588618,0.012797480198944592,0.012797480198944592,0.012797480198944592,0.012797480198944592,0.012797480198944592,1.6903973789146371,1.6903973789146371,1.6903973789146371,1.6903973789146371,1.6903973789146371,E-W,0.0002384185791015625,2.498,N-S,0.0002384185791015625,6.844
20020121085500.knt,HKD0970201210855.UD,2002-01-21, 08:55:00,42.535,144.776,47,4.7,HKD097,42.6181,143.4209,33,2002-01-21, 08:56:21,100Hz,119,U-D,0.0002384185791015625,0.698,111.33990223030483,0,1.0,-5.104428239667946,0.0,0.0,0.0,0.0,0.0,0.0,0.0,0.0,0.0,0.0,0.0,0.0,0.0,0.0,0.0,E-W,0.0002384185791015625,2.286,N-S,0.0002384185791015625,2.79
20020123120900.knt,AOM0040201231209.UD,2002-01-23, 12:09:00,41.235,142.234,57,4.4,AOM004,41.4087,141.4486,30,2002-01-23, 12:09:20,100Hz,119,U-D,0.0002384185791015625,5.055,68.3722860194419,1412,1407.0,30.714584126837977,1.4383770454271183,1.398873825321538,1.2075741068666037,0.8050326113550259,0.35697975146153726,0.0036547179587486174,0.0036547179587486174,0.0036547179587486174,0.003331699857575616,0.0029713897686087037,5.078593588861999,5.078593588861999,5.078593588861999,5.078593588861999,5.078593588861999,E-W,0.0002384185791015625,11.36,N-S,0.0002384185791015625,9.099
20020123120900.knt,AOM0050201231209.UD,2002-01-23, 12:09:00,41.235,142.234,57,4.4,AOM005,41.2948,141.1972,10,2002-01-23, 12:09:35,100Hz,119,U-D,0.0002384185791015625,1.83,86.91172485494567,0,1.0,11.75892887098376,0.0,0.0,0.0,0.0,0.0,0.0,0.0,0.0,0.0,0.0,0.0,0.0,0.0,0.0,0.0,E-W,0.0002384185791015625,5.29,N-S,0.0002384185791015625,4.747
20020123120900.knt,AOM0090201231209.UD,2002-01-23, 12:09:00,41.235,142.234,57,4.4,AOM009,40.9665,141.3733,10,2002-01-23, 12:09:32,100Hz,119,U-D,0.0002384185791015625,2.126,78.05442655457593,331,301.0,17.109957551027822,3.9507478218169894,3.9191244769073257,4.092663253768006,4.4653467772186755,4.84735190143971,0.012579102161922526,0.012579102161922526,0.012579102161922526,0.012579102161922526,0.012579102161922526,2.028993501226797,2.028993501226797,2.028993501226797,2.028993501226797,2.028993501226797,E-W,0.0002384185791015625,2.707,N-S,0.0002384185791015625,3.533
20020123120900.knt,AOM0110201231209.UD,2002-01-23, 12:09:00,41.235,142.234,57,4.4,AOM011,40.6803,141.3669,41,2002-01-23, 12:09:36,100Hz,120,U-D,0.0002384185791015625,4.729,95.42563332264014,167,170.0,16.86025496522962,2.145323744702444,2.37100740173816,2.9093164199574755,2.9088648461938758,2.8194874112268145,0.01038143839198124,0.01038143839198124,0.01038143839198124,0.01038143839198124,0.01038143839198124,2.6729477375350377,2.6729477375350377,2.6729477375350377,2.6729477375350377,1.8079933540243933,E-W,0.0002384185791015625,7.931,N-S,0.0002384185791015625,8.834
20020123120900.knt,AOM0120201231209.UD,2002-01-23, 12:09:00,41.235,142.234,57,4.4,AOM012,40.5138,141.4805,15,2002-01-23, 12:09:34,100Hz,119,U-D,0.0002384185791015625,5.206,102.19868636405751,0,-100.0,,0.0,0.0,0.0,0.0,0.0,0.0,0.0,0.0,0.0,0.0,0.0,0.0,0.0,0.0,0.0,E-W,0.0002384185791015625,13.352,N-S,0.0002384185791015625,10.685
20020123120900.knt,AOM0130201231209.UD,2002-01-23, 12:09:00,41.235,142.234,57,4.4,AOM013,40.4124,141.28,30,2002-01-23, 12:09:41,100Hz,119,U-D,0.0002384185791015625,1.496,121.69615054161534,0,-100.0,,0.0,0.0,0.0,0.0,0.0,0.0,0.0,0.0,0.0,0.0,0.0,0.0,0.0,0.0,0.0,E-W,0.0002384185791015625,3.473,N-S,0.0002384185791015625,6.462
20020123120900.knt,AOM0220201231209.UD,2002-01-23, 12:09:00,41.235,142.234,57,4.4,AOM022,40.9924,140.9155,3,2002-01-23, 12:09:40,100Hz,119,U-D,0.0002384185791015625,1.171,113.70230189171211,0,-100.0,,0.0,0.0,0.0,0.0,0.0,0.0,0.0,0.0,0.0,0.0,0.0,0.0,0.0,0.0,0.0,E-W,0.0002384185791015625,4.138,N-S,0.0002384185791015625,3.288
20020123120900.knt,HKD1560201231209.UD,2002-01-23, 12:09:00,41.235,142.234,57,4.4,HKD156,41.8995,140.6958,82,2002-01-23, 12:09:48,100Hz,119,U-D,0.0002384185791015625,0.413,147.76476212010465,0,2.0,-6.8913756676454305,0.0,0.0,0.0,0.0,0.0,0.0,0.0,0.0,0.0,0.0,0.0,0.0,0.0,0.0,0.0,E-W,0.0002384185791015625,2.407,N-S,0.0002384185791015625,2.573
20020123120900.knt,HKD1580201231209.UD,2002-01-23, 12:09:00,41.235,142.234,57,4.4,HKD158,41.8345,141.1411,6,2002-01-23, 12:09:38,100Hz,119,U-D,0.0002384185791015625,3.825,112.77650177909571,0,-100.0,,0.0,0.0,0.0,0.0,0.0,0.0,0.0,0.0,0.0,0.0,0.0,0.0,0.0,0.0,0.0,E-W,0.0002384185791015625,3.851,N-S,0.0002384185791015625,4.217
20020123120900.knt,HKD1590201231209.UD,2002-01-23, 12:09:00,41.235,142.234,57,4.4,HKD159,41.7162,141.0025,35,2002-01-23, 12:09:39,100Hz,119,U-D,0.0002384185791015625,2.333,115.71073109039472,1,69.0,11.836710991217007,4.597134357156417,4.597471376369754,4.042320085932737,3.8802393323383204,2.525458536731191,0.0077867836197601775,0.0077867836197601775,0.0077867836197601775,0.006446706160714681,0.0027411747620480534,1.0908521454450855,1.0908521454450855,1.0908521454450855,0.8597339301764952,0.31720098497806076,E-W,0.0002384185791015625,8.797,N-S,0.0002384185791015625,4.599
20020123120900.knt,IWT0010201231209.UD,2002-01-23, 12:09:00,41.235,142.234,57,4.4,IWT001,40.4099,141.7191,15,2002-01-23, 12:09:36,100Hz,119,U-D,0.0002384185791015625,3.245,101.46220040557345,130,143.0,18.5386352177297,9.223306556696425,10.302919391056854,10.848613013125249,9.974821305490718,8.131510868726902,0.01235588428712544,0.01235588428712544,0.01235588428712544,0.01235588428712544,0.010525796788653051,1.3310687283599059,1.3310687283599059,1.3310687283599059,1.3310687283599059,0.7353035282229164,E-W,0.0002384185791015625,3.653,N-S,0.0002384185791015625,4.319
20020123120900.knt,IWT0210201231209.UD,2002-01-23, 12:09:00,41.235,142.234,57,4.4,IWT021,39.9203,141.082,282,2002-01-23, 12:09:57,100Hz,119,U-D,0.0002384185791015625,0.444,175.5998252721764,0,-100.0,,0.0,0.0,0.0,0.0,0.0,0.0,0.0,0.0,0.0,0.0,0.0,0.0,0.0,0.0,0.0,E-W,0.0002384185791015625,1.381,N-S,0.0002384185791015625,2.358
20020123120900.knt,IWT0240201231209.UD,2002-01-23, 12:09:00,41.235,142.234,57,4.4,IWT024,40.2632,141.2901,94,2002-01-23, 12:09:44,100Hz,119,U-D,0.0002384185791015625,1.279,134.15857474003315,0,1.0,14.438934652389634,0.0,0.0,0.0,0.0,0.0,0.0,0.0,0.0,0.0,0.0,0.0,0.0,0.0,0.0,0.0,E-W,0.0002384185791015625,4.434,N-S,0.0002384185791015625,4.239
20020124160800.knt,EHM0040201241608.UD,2002-01-24, 16:08:00,35.363,133.32,9,4.5,EHM004,34.0624,132.9982,3,2002-01-24, 16:09:19,100Hz,119,U-D,0.0002384185791015625,0.756,147.58070428594723,0,-100.0,,0.0,0.0,0.0,0.0,0.0,0.0,0.0,0.0,0.0,0.0,0.0,0.0,0.0,0.0,0.0,E-W,0.0002384185791015625,2.28,N-S,0.0002384185791015625,1.471
20020124160800.knt,HRS0010201241608.UD,2002-01-24, 16:08:00,35.363,133.32,9,4.5,HRS001,35.0337,132.9018,566,2002-01-24, 16:09:45,100Hz,119,U-D,0.0002384185791015625,3.422,52.7703581931075,1377,1376.0,34.68709607965765,1.4246015255246913,0.8981459869458779,0.4408326355074155,0.4233830866603226,0.48040790516590925,0.005017605400892496,0.003891746830415159,0.0022045876965219318,0.0022045876965219318,0.0022045876965219318,3.021908474199363,3.021908474199363,3.021908474199363,2.4334954902114276,2.4334954902114276,E-W,0.0002384185791015625,9.005,N-S,0.0002384185791015625,10.341
20020124160800.knt,HRS0030201241608.UD,2002-01-24, 16:08:00,35.363,133.32,9,4.5,HRS003,34.8143,132.8418,156,2002-01-24, 16:09:58,100Hz,119,U-D,0.0002384185791015625,1.534,74.93739682164707,0,-100.0,,0.0,0.0,0.0,0.0,0.0,0.0,0.0,0.0,0.0,0.0,0.0,0.0,0.0,0.0,0.0,E-W,0.0002384185791015625,4.489,N-S,0.0002384185791015625,4.591
20020124160800.knt,HRS0040201241608.UD,2002-01-24, 16:08:00,35.363,133.32,9,4.5,HRS004,34.7262,132.2772,586,2002-01-24, 16:09:09,100Hz,119,U-D,0.0002384185791015625,1.055,118.43022341516999,1,37.0,8.982786351343607,2.212398660560683,2.3101510390452877,2.3098248099365155,1.6549201607493773,0.8346464330796441,0.0028007097681135443,0.0028007097681135443,0.0028007097681135443,0.0028007097681135443,0.0008983211244497127,0.35848519436405385,0.35848519436405385,0.35848519436405385,0.35848519436405385,0.33631141426250194,E-W,0.0002384185791015625,3.735,N-S,0.0002384185791015625,3.096
20020124160800.knt,HRS0050201241608.UD,2002-01-24, 16:08:00,35.363,133.32,9,4.5,HRS005,34.777,133.2807,480,2002-01-24, 16:09:47,100Hz,119,U-D,0.0002384185791015625,9.192,65.2583094759322,1392,1413.0,29.131675200607347,0.5048022283617838,0.40903479191339565,0.4163576025509956,0.36420601495585214,0.3437713493805432,0.002295491750348563,0.002295491750348563,0.002295491750348563,0.002295491750348563,0.002295491750348563,2.8768742585487064,2.8768742585487064,2.8768742585487064,2.8768742585487064,2.8768742585487064,E-W,0.0002384185791015625,22.361,N-S,0.0002384185791015625,19.124
20020124160800.knt,HRS0060201241608.UD,2002-01-24, 16:08:00,35.363,133.32,9,4.5,HRS006,34.6659,132.4077,371,2002-01-24, 16:09:08,100Hz,119,U-D,0.0002384185791015625,2.333,113.62609468203537,1,60.0,12.474535807223832,1.445836724770587,1.2318140128126664,0.9094822404786497,0.779084521244539,0.6233660432457627,0.0016057103839769839,0.0016057103839769839,0.001595454002398207,0.001595454002398207,0.0012391894234855317,0.6068762747653239,0.6068762747653239,0.6068762747653239,0.6068762747653239,0.266970280920014,E-W,0.0002384185791015625,2.948,N-S,0.0002384185791015625,3.524
20020124160800.knt,HRS0090201241608.UD,2002-01-24, 16:08:00,35.363,133.32,9,4.5,HRS009,34.4926,132.2794,219,2002-01-24, 16:09:14,100Hz,119,U-D,0.0002384185791015625,1.54,135.52280214265576,0,-100.0,,0.0,0.0,0.0,0.0,0.0,0.0,0.0,0.0,0.0,0.0,0.0,0.0,0.0,0.0,0.0,E-W,0.0002384185791015625,3.532,N-S,0.0002384185791015625,7.001
20020124160800.knt,HRS0100201241608.UD,2002-01-24, 16:08:00,35.363,133.32,9,4.5,HRS010,34.5887,133.0501,346,2002-01-24, 16:09:58,100Hz,120,U-D,0.0002384185791015625,5.077,89.5411173027717,707,723.0,13.742562208969533,4.064745831558694,3.819079669690492,3.1401898301494455,2.260722204589911,1.3619153056562698,0.0058526994398769945,0.0058526994398769945,0.0058526994398769945,0.005104811506728881,0.002722617764188174,1.0755169463646548,1.0755169463646548,1.0755169463646548,1.0755169463646548,1.0755169463646548,E-W,0.0002384185791015625,4.485,N-S,0.0002384185791015625,2.301
20020124160800.knt,HRS0110201241608.UD,2002-01-24, 16:08:00,35.363,133.32,9,4.5,HRS011,34.5676,133.2362,28,2002-01-24, 16:09:02,100Hz,119,U-D,0.0002384185791015625,0.713,88.77347069003531,272,267.0,16.88165045221021,2.8626958014515718,3.0034291514055096,2.9893519682834477,2.400230824929992,1.5285389715557778,0.0026104746080692805,0.0026104746080692805,0.0026104746080692805,0.0024785043485325542,0.0011187457972049455,0.7071784617357415,0.7071784617357415,0.7071784617357415,0.7071784617357415,0.7071784617357415,E-W,0.0002384185791015625,2.555,N-S,0.0002384185791015625,1.982
20020124160800.knt,HRS0120201241608.UD,2002-01-24, 16:08:00,35.363,133.32,9,4.5,HRS012,34.4276,132.7422,215,2002-01-24, 16:09:56,100Hz,119,U-D,0.0002384185791015625,0.695,116.59846038881228,0,19.0,13.780476379507698,0.0,0.0,0.0,0.0,0.0,0.0,0.0,0.0,0.0,0.0,0.0,0.0,0.0,0.0,0.0,E-W,0.0002384185791015625,3.7,N-S,0.0002384185791015625,2.804
20020124160800.knt,HRS0140201241608.UD,2002-01-24, 16:08:00,35.363,133.32,9,4.5,HRS014,34.2869,132.2766,3,2002-01-24, 16:09:19,100Hz,119,U-D,0.0002384185791015625,1.137,152.9312871139737,0,-100.0,,0.0,0.0,0.0,0.0,0.0,0.0,0.0,0.0,0.0,0.0,0.0,0.0,0.0,0.0,0.0,E-W,0.0002384185791015625,3.139,N-S,0.0002384185791015625,3.069
20020124160800.knt,HRS0180201241608.UD,2002-01-24, 16:08:00,35.363,133.32,9,4.5,HRS018,34.3413,132.9068,2,2002-01-24, 16:09:15,100Hz,119,U-D,0.0002384185791015625,1.352,119.70077075795552,0,-100.0,,0.0,0.0,0.0,0.0,0.0,0.0,0.0,0.0,0.0,0.0,0.0,0.0,0.0,0.0,0.0,E-W,0.0002384185791015625,2.144,N-S,0.0002384185791015625,2.325
20020124160800.knt,HRS0190201241608.UD,2002-01-24, 16:08:00,35.363,133.32,9,4.5,HRS019,34.2485,132.5647,3,2002-01-24, 16:09:18,100Hz,119,U-D,0.0002384185791015625,1.036,141.81998443703117,0,-100.0,,0.0,0.0,0.0,0.0,0.0,0.0,0.0,0.0,0.0,0.0,0.0,0.0,0.0,0.0,0.0,E-W,0.0002384185791015625,3.066,N-S,0.0002384185791015625,2.438
20020124160800.knt,HRS0210201241608.UD,2002-01-24, 16:08:00,35.363,133.32,9,4.5,HRS021,34.9529,133.1171,325,2002-01-24, 16:09:44,100Hz,120,U-D,0.0002384185791015625,11.314,49.19032473652756,1446,1471.0,28.45265877801563,1.7096471110953304,1.6450277875432624,1.4362041474144462,0.9118999650840383,0.3955595284625123,0.010705927523830686,0.010705927523830686,0.01066536500955298,0.008461095138443429,0.004924803682774615,11.317252976907092,11.317252976907092,11.317252976907092,11.317252976907092,11.317252976907092,E-W,0.0002384185791015625,14.158,N-S,0.0002384185791015625,8.492
20020124160800.knt,HYG0160201241608.UD,2002-01-24, 16:08:00,35.363,133.32,9,4.5,HYG016,34.7551,134.39,5,2002-01-24, 16:09:13,100Hz,119,U-D,0.0002384185791015625,1.094,118.54899136962527,0,-100.0,,0.0,0.0,0.0,0.0,0.0,0.0,0.0,0.0,0.0,0.0,0.0,0.0,0.0,0.0,0.0,E-W,0.0002384185791015625,2.772,N-S,0.0002384185791015625,1.73
20020124160800.knt,KGW0020201241608.UD,2002-01-24, 16:08:00,35.363,133.32,9,4.5,KGW002,34.4727,134.3139,4,2002-01-24, 16:09:14,100Hz,119,U-D,0.0002384185791015625,1.763,134.20885329377535,0,-100.0,,0.0,0.0,0.0,0.0,0.0,0.0,0.0,0.0,0.0,0.0,0.0,0.0,0.0,0.0,0.0,E-W,0.0002384185791015625,3.578,N-S,0.0002384185791015625,3.38
20020124160800.knt,KGW0050201241608.UD,2002-01-24, 16:08:00,35.363,133.32,9,4.5,KGW005,34.1138,133.6354,2,2002-01-24, 16:09:17,100Hz,119,U-D,0.0002384185791015625,1.26,141.86269249582438,0,-100.0,,0.0,0.0,0.0,0.0,0.0,0.0,0.0,0.0,0.0,0.0,0.0,0.0,0.0,0.0,0.0,E-W,0.0002384185791015625,2.388,N-S,0.0002384185791015625,2.712
20020124160800.knt,KGW0060201241608.UD,2002-01-24, 16:08:00,35.363,133.32,9,4.5,KGW006,34.2496,134.1856,70,2002-01-24, 16:09:19,100Hz,119,U-D,0.0002384185791015625,0.9,146.8765900749965,0,-100.0,,0.0,0.0,0.0,0.0,0.0,0.0,0.0,0.0,0.0,0.0,0.0,0.0,0.0,0.0,0.0,E-W,0.0002384185791015625,2.395,N-S,0.0002384185791015625,1.782
20020124160800.knt,KGW0070201241608.UD,2002-01-24, 16:08:00,35.363,133.32,9,4.5,KGW007,34.2271,134.4009,2,2002-01-24, 16:09:22,100Hz,119,U-D,0.0002384185791015625,0.653,160.29400251108856,0,3.0,-4.040958394994708,0.0,0.0,0.0,0.0,0.0,0.0,0.0,0.0,0.0,0.0,0.0,0.0,0.0,0.0,0.0,E-W,0.0002384185791015625,1.8,N-S,0.0002384185791015625,2.683
20020124160800.knt,OKY0010201241608.UD,2002-01-24, 16:08:00,35.363,133.32,9,4.5,OKY001,35.1945,133.7314,334,2002-01-24, 16:09:43,100Hz,120,U-D,0.0002384185791015625,11.036,41.78106928171724,1402,1417.0,14.440575772322086,0.8837813974778229,0.6934589073511195,0.6870901638724222,0.5567034910696438,0.2715625814347833,0.004060206863957701,0.0033429094707279794,0.0033429094707279794,0.0033429094707279794,0.0025729421038948367,11.021229076029194,11.021229076029194,11.021229076029194,11.021229076029194,11.021229076029194,E-W,0.0002384185791015625,15.018,N-S,0.0002384185791015625,10.594
20020124160800.knt,OKY0030201241608.UD,2002-01-24, 16:08:00,35.363,133.32,9,4.5,OKY003,35.1737,134.3386,323,2002-01-24, 16:09:07,100Hz,119,U-D,0.0002384185791015625,0.638,94.83933438422596,0,-100.0,,0.0,0.0,0.0,0.0,0.0,0.0,0.0,0.0,0.0,0.0,0.0,0.0,0.0,0.0,0.0,E-W,0.0002384185791015625,2.384,N-S,0.0002384185791015625,3.153
20020124160800.knt,OKY0040201241608.UD,2002-01-24, 16:08:00,35.363,133.32,9,4.5,OKY004,34.9579,133.5018,168,2002-01-24, 16:09:50,100Hz,119,U-D,0.0002384185791015625,5.637,47.98114908059832,791,804.0000000000001,29.281315987767663,6.346766809209148,5.795067049123023,4.914403637006917,3.8306435235845995,3.0420732720084724,0.008379170005769874,0.008379170005769874,0.008379170005769874,0.008119367824066932,0.005009674385411718,1.7458332928590963,1.7458332928590963,1.7458332928590963,1.7458332928590963,1.7458332928590963,E-W,0.0002384185791015625,19.11,N-S,0.0002384185791015625,17.105
20020124160800.knt,OKY0050201241608.UD,2002-01-24, 16:08:00,35.363,133.32,9,4.5,OKY005,35.0098,133.7317,134,2002-01-24, 16:09:51,100Hz,119,U-D,0.0002384185791015625,5.571,54.24267314523696,800,800.0,28.36827861813216,8.643252158971281,8.550232341636768,8.156840015270964,7.252765525558028,6.053142159718091,0.01728693365475843,0.01728693365475843,0.01728693365475843,0.01728693365475843,0.015513904261753402,2.7900243299686562,2.7900243299686562,2.7900243299686562,2.7900243299686562,2.7900243299686562,E-W,0.0002384185791015625,8.193,N-S,0.0002384185791015625,13.95
20020124160800.knt,OKY0070201241608.UD,2002-01-24, 16:08:00,35.363,133.32,9,4.5,OKY007,34.7807,133.6121,60,2002-01-24, 16:09:56,100Hz,119,U-D,0.0002384185791015625,1.889,69.99308935358316,0,-100.0,,0.0,0.0,0.0,0.0,0.0,0.0,0.0,0.0,0.0,0.0,0.0,0.0,0.0,0.0,0.0,E-W,0.0002384185791015625,3.349,N-S,0.0002384185791015625,4.115
