earthquake name,records name,earthquake date,earthquake time,lat,long,depth,mag,stn_code,stn_lat,stn_long,stn_height,rcd_date,rcd_time,frequency,rcd_duration,direction,scale_factor,max_pga,epi_dist,pick_index_manually,pick_index_kalkan,snr_db_kalkan,tc_5sec,tc_4sec,tc_3sec,tc_2sec,tc_1sec,Pd_5sec,Pd_4sec,Pd_3sec,Pd_2sec,Pd_1sec,Pga_5sec,Pga_4sec,Pga_3sec,Pga_2sec,Pga_1sec,Channel,Scale_factor,PGA_ew,Channel.1,Scale_factor.1,PGA_ns
19980105030700.knt,KGS0079801050307.UD,1998-01-05, 03:07:00,31.853,130.281,6,3.3,KGS007,31.8143,130.3032,4,1998-01-05, 03:07:45,100Hz,119,U-D,0.0002384185791015625,9.174,4.787090280821169,1386,1386.0,6.807350237753301,0.5271282183836729,0.5274366054061951,0.48300677019562616,0.3779102268391179,0.4428850627194782,0.011379650864602894,0.011379650864602894,0.011379650864602894,0.004576906234844425,0.002772246066991134,9.16251903296472,9.16251903296472,9.16251903296472,9.16251903296472,6.287198248067868,E-W,0.0002384185791015625,14.307,N-S,0.0002384185791015625,14.287
19980105030700.knt,KGS0109801050307.UD,1998-01-05, 03:07:00,31.853,130.281,6,3.3,KGS010,31.7123,130.2735,16,1998-01-05, 03:07:49,100Hz,119,U-D,0.0002384185791015625,2.101,15.661179001280036,1138,1138.0,20.18933270166766,0.47672671029202257,0.5282541141832741,0.47451204668905644,0.588620129541163,0.43552314553826477,0.004116705962940804,0.004116705962940804,0.0012169263390631624,0.0012088716177229078,0.0009229621974721193,2.0971448302220472,2.0971448302220472,2.0971448302220472,2.0971448302220472,2.0971448302220472,E-W,0.0002384185791015625,3.201,N-S,0.0002384185791015625,2.845
19980105195900.knt,KMM0199801051959.UD,1998-01-05, 19:59:00,32.27,129.748,10,3.7,KMM019,32.4589,130.1938,3,1998-01-05, 19:59:44,100Hz,119,U-D,0.0002384185791015625,1.375,46.84359564812825,752,242.0,18.284822168603238,1.8012595534183538,1.7477110160594171,1.5863733187558873,1.3740346104358143,0.8998539978078692,0.002085294308774822,0.002085294308774822,0.002085294308774822,0.002085294308774822,0.002085294308774822,1.3812315928716132,1.3812315928716132,1.3812315928716132,1.3812315928716132,1.3812315928716132,E-W,0.0002384185791015625,4.31,N-S,0.0002384185791015625,0.896
19980105195900.knt,KMM0209801051959.UD,1998-01-05, 19:59:00,32.27,129.748,10,3.7,KMM020,32.3636,130.1807,10,1998-01-05, 19:59:36,100Hz,119,U-D,0.0002384185791015625,2.969,41.97227300810967,1467,1462.0,17.544151545228974,0.9101578736947944,0.82818710815596,0.6081765080796124,0.3589550892267578,0.25305775751643206,0.002561470983894165,0.002561470983894165,0.002561470983894165,0.002561470983894165,0.002561470983894165,2.964328463694829,2.964328463694829,2.964328463694829,2.964328463694829,2.964328463694829,E-W,0.0002384185791015625,2.618,N-S,0.0002384185791015625,1.827
19980105195900.knt,KMM0219801051959.UD,1998-01-05, 19:59:00,32.27,129.748,10,3.7,KMM021,32.3792,129.9977,2,1998-01-05, 19:59:37,100Hz,119,U-D,0.0002384185791015625,3.505,26.418454393241436,1072,1069.0,30.512468200940713,1.078300598071792,1.335596491986736,0.9806704058210824,0.6112939930507653,0.5279144543425528,0.005472439160461134,0.005472439160461134,0.0049700244777773125,0.003318674055145479,0.0031351996533440416,3.5240548373194374,2.8299462631765584,2.8299462631765584,2.8299462631765584,2.8299462631765584,E-W,0.0002384185791015625,5.008,N-S,0.0002384185791015625,4.192
19980105195900.knt,KMM0229801051959.UD,1998-01-05, 19:59:00,32.27,129.748,10,3.7,KMM022,32.1945,130.0265,4,1998-01-05, 19:59:34,100Hz,119,U-D,0.0002384185791015625,22.399,27.507816976987787,1422,1436.0,32.696534630877906,0.2752949782926029,0.5334656661296444,1.1342877841993653,0.8562302375250362,0.5405251879169745,0.015396348846181589,0.015396348846181589,0.003520270897668109,0.0031485232856294345,0.0028896617880684356,22.39272366803823,10.942842065970762,5.11550403054849,5.11550403054849,5.11550403054849,E-W,0.0002384185791015625,19.384,N-S,0.0002384185791015625,25.82
19980105195900.knt,NGS0109801051959.UD,1998-01-05, 19:59:00,32.27,129.748,10,3.7,NGS010,32.7353,129.8763,77,1998-01-05, 19:59:46,100Hz,119,U-D,0.0002384185791015625,2.556,53.11953279597142,594,623.0,20.93082965019368,0.5868596305455994,0.6434648414304166,0.7663349179146829,0.9220313577980739,0.6495313224677127,0.0007195316910255603,0.0007195316910255603,0.0007195316910255603,0.0007195316910255603,0.0004112715066685775,0.8970051304902945,0.8970051304902945,0.8970051304902945,0.8970051304902945,0.3793291100600409,E-W,0.0002384185791015625,3.629,N-S,0.0002384185791015625,3.924
19980108111100.knt,KGS0309801081111.UD,1998-01-08, 11:11:00,28.087,130.348,32,4.2,KGS030,28.451,129.6784,4,1998-01-08, 11:12:12,100Hz,119,U-D,0.0002384185791015625,0.869,77.06100252851154,215,215.0,18.962879833366074,1.9173154540792048,1.9714564491421678,1.9725190416018645,1.9638829812837577,2.74546125708077,0.003059691649126842,0.003059691649126842,0.003059691649126842,0.003059691649126842,0.003059691649126842,0.460103296277072,0.460103296277072,0.460103296277072,0.460103296277072,0.3703619053646767,E-W,0.0002384185791015625,2.697,N-S,0.0002384185791015625,3.419
19980108123500.knt,KGS0309801081235.UD,1998-01-08, 12:35:00,28.137,130.315,39,4.1,KGS030,28.451,129.6784,4,1998-01-08, 12:35:42,100Hz,119,U-D,0.0002384185791015625,1.218,71.4424420323144,158,157.0,21.618630205443218,3.4863332773131153,3.7396012798401506,4.471979217878544,4.0602393103666286,4.0788302409584976,0.01396432253274801,0.01396432253274801,0.01396432253274801,0.01396432253274801,0.01396432253274801,1.1118384404015673,1.1118384404015673,1.1118384404015673,1.1118384404015673,1.0191272352176708,E-W,0.0002384185791015625,3.158,N-S,0.0002384185791015625,2.901
19980108123500.knt,KGS0319801081235.UD,1998-01-08, 12:35:00,28.137,130.315,39,4.1,KGS031,28.3571,129.3937,2,1998-01-08, 12:35:34,100Hz,119,U-D,0.0002384185791015625,2.84,93.50382116346569,1278,1273.0,25.917403661142263,2.489837224299204,2.6081303751238245,2.7536923246216953,2.56248052915497,2.032769560312663,0.008588226819117728,0.008588226819117728,0.008588226819117728,0.008588226819117728,0.008588226819117728,1.4989467058984576,1.4989467058984576,1.4989467058984576,1.4989467058984576,1.4989467058984576,E-W,0.0002384185791015625,4.514,N-S,0.0002384185791015625,4.828
19980108234600.knt,NIG0019801082346.UD,1998-01-08, 23:46:00,37.87,137.664,30,4.2,NIG001,38.2584,138.4337,6,1998-01-08, 23:47:01,100Hz,119,U-D,0.0002384185791015625,1.452,80.03602704510584,357,366.0,21.475769734548003,5.947171037916421,5.153602001085903,5.006682182153888,5.834171874704223,6.032603265138534,0.006165757944579129,0.006165757944579129,0.006165757944579129,0.006165757944579129,0.006165757944579129,0.8040390568580797,0.8040390568580797,0.8040390568580797,0.8040390568580797,0.8040390568580797,E-W,0.0002384185791015625,5.684,N-S,0.0002384185791015625,3.26
19980108234600.knt,NIG0029801082346.UD,1998-01-08, 23:46:00,37.87,137.664,30,4.2,NIG002,38.0745,138.4398,1,1998-01-08, 23:47:59,100Hz,119,U-D,0.0002384185791015625,1.523,71.70433362389997,429,453.0,20.194502581501123,2.0408176402069373,1.8612413501450036,2.1034211527393154,2.3760811269375717,2.4909503623174567,0.0017047201867133193,0.0017047201867133193,0.0017047201867133193,0.0017047201867133193,0.0017047201867133193,0.3455291945851655,0.3359856241939993,0.3359856241939993,0.3359856241939993,0.3040530743436474,E-W,0.0002384185791015625,6.269,N-S,0.0002384185791015625,5.834
19980108234600.knt,NIG0039801082346.UD,1998-01-08, 23:46:00,37.87,137.664,30,4.2,NIG003,37.9976,138.3226,4,1998-01-08, 23:47:57,100Hz,119,U-D,0.0002384185791015625,4.82,59.477409378023296,444,456.00000000000006,24.354656121474882,5.022240096568116,4.679200239925296,4.0703373859111895,3.8874153881442393,5.040241182388676,0.010891516394075438,0.010891516394075438,0.010891516394075438,0.010891516394075438,0.010891516394075438,1.3506892201133516,1.0923817764485004,1.0923817764485004,1.0404030093321508,1.0404030093321508,E-W,0.0002384185791015625,8.6,N-S,0.0002384185791015625,17.454
19980108234600.knt,NIG0049801082346.UD,1998-01-08, 23:46:00,37.87,137.664,30,4.2,NIG004,37.8205,138.2795,40,1998-01-08, 23:47:54,100Hz,119,U-D,0.0002384185791015625,3.281,54.32489515653012,646,639.0,29.179555285484582,1.1106881410216338,1.103248812717685,0.9244607979916423,0.6781027792354468,0.49513105804355323,0.004185057607021114,0.004185057607021114,0.004185057607021114,0.004185057607021114,0.004185057607021114,3.2808399523897287,3.2808399523897287,3.2808399523897287,3.2808399523897287,3.2808399523897287,E-W,0.0002384185791015625,7.008,N-S,0.0002384185791015625,10.552
19980108234600.knt,NIG0169801082346.UD,1998-01-08, 23:46:00,37.87,137.664,30,4.2,NIG016,37.6421,138.7676,32,1998-01-08, 23:47:06,100Hz,119,U-D,0.0002384185791015625,0.653,100.27549444710397,122,118.0,15.542375688519648,1.1214497078813865,0.8072594993583568,0.7940678295551269,0.7569577942735038,0.507650244544354,0.0010812247918457704,0.0007993765707047968,0.0007993765707047968,0.0007993765707047968,0.0007993765707047968,0.3755921174167395,0.3755921174167395,0.3755921174167395,0.3755921174167395,0.3755921174167395,E-W,0.0002384185791015625,2.356,N-S,0.0002384185791015625,1.464
19980110140200.knt,KGS0029801101402.UD,1998-01-10, 14:02:00,31.836,130.281,6,4.1,KGS002,32.0909,130.3532,12,1998-01-10, 14:02:49,100Hz,120,U-D,0.0002384185791015625,5.3,29.150462853668383,0,-100.0,,0.0,0.0,0.0,0.0,0.0,0.0,0.0,0.0,0.0,0.0,0.0,0.0,0.0,0.0,0.0,E-W,0.0002384185791015625,16.04,N-S,0.0002384185791015625,17.394
19980110140200.knt,KGS0039801101402.UD,1998-01-10, 14:02:00,31.836,130.281,6,4.1,KGS003,32.0559,130.5874,176,1998-01-10, 14:02:52,100Hz,120,U-D,0.0002384185791015625,6.386,37.86398371228847,59,75.0,14.575417768325394,6.486095664896601,6.786859018284049,6.121816513843847,4.544591795286119,2.6642094306167783,0.0262144847461166,0.0262144847461166,0.0262144847461166,0.024594515012044252,0.015267481888677591,6.416159782216769,6.416159782216769,6.416159782216769,6.416159782216769,5.14597117695716,E-W,0.0002384185791015625,10.323,N-S,0.0002384185791015625,12.232
19980110140200.knt,KGS0049801101402.UD,1998-01-10, 14:02:00,31.836,130.281,6,4.1,KGS004,32.0145,130.1927,3,1998-01-10, 14:02:48,100Hz,120,U-D,0.0002384185791015625,5.154,21.526713880743824,178,192.0,13.117846449020075,9.199389738234657,11.816218748366525,13.494705761233732,14.28487860566508,11.46921554297783,0.10115681038119667,0.10115681038119667,0.10115681038119667,0.10115681038119667,0.10115681038119667,5.179177531053878,5.179177531053878,5.179177531053878,5.179177531053878,5.179177531053878,E-W,0.0002384185791015625,4.914,N-S,0.0002384185791015625,7.296
19980110140200.knt,KGS0059801101402.UD,1998-01-10, 14:02:00,31.836,130.281,6,4.1,KGS005,31.9006,130.4513,42,1998-01-10, 14:02:46,100Hz,120,U-D,0.0002384185791015625,12.094,17.613390670173345,0,-100.0,,0.0,0.0,0.0,0.0,0.0,0.0,0.0,0.0,0.0,0.0,0.0,0.0,0.0,0.0,0.0,E-W,0.0002384185791015625,20.647,N-S,0.0002384185791015625,24.701
19980110140200.knt,KGS0069801101402.UD,1998-01-10, 14:02:00,31.836,130.281,6,4.1,KGS006,31.906,130.7021,188,1998-01-10, 14:02:53,100Hz,120,U-D,0.0002384185791015625,6.044,40.51952588902726,0,-100.0,,0.0,0.0,0.0,0.0,0.0,0.0,0.0,0.0,0.0,0.0,0.0,0.0,0.0,0.0,0.0,E-W,0.0002384185791015625,10.855,N-S,0.0002384185791015625,5.977
19980110140200.knt,KGS0079801101402.UD,1998-01-10, 14:02:00,31.836,130.281,6,4.1,KGS007,31.8143,130.3032,4,1998-01-10, 14:02:42,100Hz,120,U-D,0.0002384185791015625,28.247,3.197087499932048,512,523.0,14.665649469213658,6.405710180070411,5.308808928235936,4.5819156866243675,3.0536316305911337,3.5865452005099545,0.3343587847135098,0.3343587847135098,0.25830729607874214,0.19479286973373358,0.19479286973373358,28.314894410535786,28.314894410535786,28.314894410535786,28.314894410535786,9.423283253649917,E-W,0.0002384185791015625,78.479,N-S,0.0002384185791015625,65.488
19980110140200.knt,KGS0089801101402.UD,1998-01-10, 14:02:00,31.836,130.281,6,4.1,KGS008,31.7621,130.5699,15,1998-01-10, 14:02:50,100Hz,120,U-D,0.0002384185791015625,6.166,28.512196404013515,105,105.0,17.01951575689183,10.104213152309725,12.018323361430182,13.86211441165955,11.556634362010225,7.516836787518446,0.0654656535480378,0.0654656535480378,0.0654656535480378,0.06356630907799386,0.05130680927313803,6.159738947021363,6.159738947021363,4.9265638720692495,4.9265638720692495,4.567784736759946,E-W,0.0002384185791015625,12.063,N-S,0.0002384185791015625,13.091
19980110140200.knt,KGS0099801101402.UD,1998-01-10, 14:02:00,31.836,130.281,6,4.1,KGS009,31.7368,130.7613,4,1998-01-10, 14:02:47,100Hz,120,U-D,0.0002384185791015625,2.126,46.71767017492561,722,722.0,15.44163885501333,4.371611447982276,4.363505265725675,4.029188454277451,3.656703108604579,2.9211715812484935,0.003633441329714951,0.003633441329714951,0.003145574248119737,0.0028679405254833975,0.0024553980855105194,0.5422038399754323,0.5422038399754323,0.5422038399754323,0.5102512053158206,0.5102512053158206,E-W,0.0002384185791015625,4.898,N-S,0.0002384185791015625,4.938
19980110140200.knt,KGS0109801101402.UD,1998-01-10, 14:02:00,31.836,130.281,6,4.1,KGS010,31.7123,130.2735,16,1998-01-10, 14:02:43,100Hz,120,U-D,0.0002384185791015625,44.823,13.773071986398206,0,-100.0,,0.0,0.0,0.0,0.0,0.0,0.0,0.0,0.0,0.0,0.0,0.0,0.0,0.0,0.0,0.0,E-W,0.0002384185791015625,68.089,N-S,0.0002384185791015625,38.37
19980110140200.knt,KGS0119801101402.UD,1998-01-10, 14:02:00,31.836,130.281,6,4.1,KGS011,31.5896,130.349,18,1998-01-10, 14:02:45,100Hz,120,U-D,0.0002384185791015625,12.342,28.143355549711803,0,-100.0,,0.0,0.0,0.0,0.0,0.0,0.0,0.0,0.0,0.0,0.0,0.0,0.0,0.0,0.0,0.0,E-W,0.0002384185791015625,37.658,N-S,0.0002384185791015625,56.293
19980110140200.knt,KGS0149801101402.UD,1998-01-10, 14:02:00,31.836,130.281,6,4.1,KGS014,31.496,130.6999,3,1998-01-10, 14:02:48,100Hz,120,U-D,0.0002384185791015625,1.19,54.78158746022757,0,-100.0,,0.0,0.0,0.0,0.0,0.0,0.0,0.0,0.0,0.0,0.0,0.0,0.0,0.0,0.0,0.0,E-W,0.0002384185791015625,1.958,N-S,0.0002384185791015625,2.49
19980110140200.knt,KGS0169801101402.UD,1998-01-10, 14:02:00,31.836,130.281,6,4.1,KGS016,31.4162,130.3225,11,1998-01-10, 14:02:54,100Hz,120,U-D,0.0002384185791015625,5.465,46.844710238267446,0,-100.0,,0.0,0.0,0.0,0.0,0.0,0.0,0.0,0.0,0.0,0.0,0.0,0.0,0.0,0.0,0.0,E-W,0.0002384185791015625,10.12,N-S,0.0002384185791015625,11.027
19980110140200.knt,KGS0189801101402.UD,1998-01-10, 14:02:00,31.836,130.281,6,4.1,KGS018,31.3757,130.5449,51,1998-01-10, 14:02:50,100Hz,120,U-D,0.0002384185791015625,14.111,56.958620005778585,0,-100.0,,0.0,0.0,0.0,0.0,0.0,0.0,0.0,0.0,0.0,0.0,0.0,0.0,0.0,0.0,0.0,E-W,0.0002384185791015625,13.169,N-S,0.0002384185791015625,13.877
19980110140200.knt,KGS0199801101402.UD,1998-01-10, 14:02:00,31.836,130.281,6,4.1,KGS019,31.2776,130.3008,10,1998-01-10, 14:02:58,100Hz,120,U-D,0.0002384185791015625,6.453,62.11958292805291,0,-100.0,,0.0,0.0,0.0,0.0,0.0,0.0,0.0,0.0,0.0,0.0,0.0,0.0,0.0,0.0,0.0,E-W,0.0002384185791015625,23.285,N-S,0.0002384185791015625,15.454
19980110140200.knt,KGS0209801101402.UD,1998-01-10, 14:02:00,31.836,130.281,6,4.1,KGS020,31.2396,130.4915,21,1998-01-10, 14:02:54,100Hz,120,U-D,0.0002384185791015625,5.606,69.25218039041381,392,406.00000000000006,25.390401811527546,1.8607792198843809,1.6666817905789186,1.486950174714027,1.6886126277044282,2.7872641648547885,0.017154210633123886,0.017154210633123886,0.017154210633123886,0.017154210633123886,0.017154210633123886,5.587477853639701,5.587477853639701,5.587477853639701,5.587477853639701,3.5216800044054235,E-W,0.0002384185791015625,9.797,N-S,0.0002384185791015625,8.087
19980110140200.knt,KGS0219801101402.UD,1998-01-10, 14:02:00,31.836,130.281,6,4.1,KGS021,31.2535,130.6324,8,1998-01-10, 14:02:55,100Hz,120,U-D,0.0002384185791015625,4.174,72.82965166505667,382,225.0,17.046044300838155,4.032413086489893,3.530291107790819,3.4698907567609703,4.186350901820814,6.8017967623014,0.025697307421601926,0.025697307421601926,0.025697307421601926,0.025697307421601926,0.025697307421601926,3.8855773730262855,3.8855773730262855,3.8855773730262855,3.8855773730262855,1.7654543799596494,E-W,0.0002384185791015625,8.431,N-S,0.0002384185791015625,10.225
19980110140200.knt,KGS0369801101402.UD,1998-01-10, 14:02:00,31.836,130.281,6,4.1,KGS036,31.836,129.8678,6,1998-01-10, 14:02:53,100Hz,120,U-D,0.0002384185791015625,12.299,39.033708136391446,2,24.0,10.806500303973019,12.470222105300058,12.68139574313687,10.294242678630845,6.154865803530928,2.6137153894619383,0.07007850985319697,0.07007850985319697,0.06992693602505211,0.05765812276192472,0.024648369616888245,2.2653219509840317,2.2653219509840317,2.2653219509840317,2.2653219509840317,2.2653219509840317,E-W,0.0002384185791015625,9.863,N-S,0.0002384185791015625,10.399
19980110140200.knt,KGS0379801101402.UD,1998-01-10, 14:02:00,31.836,130.281,6,4.1,KGS037,31.639,129.7078,13,1998-01-10, 14:02:44,100Hz,120,U-D,0.0002384185791015625,3.927,58.46487075399539,1209,1231.0,23.83698381615445,0.8686695185038396,0.8855304712242712,0.7464440853034348,0.5129194260275555,0.2642221952291567,0.002731954072466541,0.002731954072466541,0.0026182483947452873,0.0019583940668390616,0.0005313868376131426,3.88119852071695,3.88119852071695,3.88119852071695,3.489894508477915,1.3349242144459141,E-W,0.0002384185791015625,6.081,N-S,0.0002384185791015625,5.617
19980110140200.knt,KMM0149801101402.UD,1998-01-10, 14:02:00,31.836,130.281,6,4.1,KMM014,32.3987,130.8244,265,1998-01-10, 14:02:46,100Hz,120,U-D,0.0002384185791015625,2.765,80.83241640736483,1361,1409.0,18.32270718817545,3.4049804903250265,3.495023891909914,2.672904539916639,1.1725799694605044,0.48323293437431414,0.012580583762397393,0.012580583762397393,0.012151743028999998,0.008181353017395476,0.0007926963958431497,2.780237597284286,2.780237597284286,2.780237597284286,2.780237597284286,1.6101220282677988,E-W,0.0002384185791015625,3.094,N-S,0.0002384185791015625,2.798
19980110140200.knt,KMM0159801101402.UD,1998-01-10, 14:02:00,31.836,130.281,6,4.1,KMM015,32.2161,130.4046,5,1998-01-10, 14:02:54,100Hz,120,U-D,0.0002384185791015625,3.636,43.841925507031476,0,-100.0,,0.0,0.0,0.0,0.0,0.0,0.0,0.0,0.0,0.0,0.0,0.0,0.0,0.0,0.0,0.0,E-W,0.0002384185791015625,5.126,N-S,0.0002384185791015625,6.002
19980110140200.knt,KMM0189801101402.UD,1998-01-10, 14:02:00,31.836,130.281,6,4.1,KMM018,32.3942,130.3885,2,1998-01-10, 14:02:51,100Hz,120,U-D,0.0002384185791015625,0.91,62.8892886679061,0,-100.0,,0.0,0.0,0.0,0.0,0.0,0.0,0.0,0.0,0.0,0.0,0.0,0.0,0.0,0.0,0.0,E-W,0.0002384185791015625,4.447,N-S,0.0002384185791015625,4.814
19980110140200.knt,KMM0209801101402.UD,1998-01-10, 14:02:00,31.836,130.281,6,4.1,KMM020,32.3636,130.1807,10,1998-01-10, 14:02:50,100Hz,120,U-D,0.0002384185791015625,0.741,59.4223187842381,585,593.0,15.18081499668201,1.615911028543248,1.1890837937921241,0.9699962359682802,1.0284230515047266,1.1010938265224097,0.001916464773588105,0.0015251325747716266,0.0014316881593333158,0.0014187160349733508,0.0014187160349733508,0.7318392828475084,0.7318392828475084,0.7318392828475084,0.7318392828475084,0.7318392828475084,E-W,0.0002384185791015625,3.246,N-S,0.0002384185791015625,3.091
19980110140200.knt,MYZ0159801101402.UD,1998-01-10, 14:02:00,31.836,130.281,6,4.1,MYZ015,31.7185,131.0621,159,1998-01-10, 14:02:55,100Hz,120,U-D,0.0002384185791015625,2.582,74.98194419135685,402,406.00000000000006,15.265529593226663,2.913203449980516,2.436160839686855,2.1718072334694334,2.236868947956524,2.2128402024746006,0.006601423762272047,0.006601423762272047,0.006601423762272047,0.006601423762272047,0.006601423762272047,2.5853448844511187,2.5853448844511187,2.5853448844511187,2.5853448844511187,2.5853448844511187,E-W,0.0002384185791015625,4.776,N-S,0.0002384185791015625,6.494
