earthquake name,records name,earthquake date,earthquake time,lat,long,depth,mag,stn_code,stn_lat,stn_long,stn_height,rcd_date,rcd_time,frequency,rcd_duration,direction,scale_factor,max_pga,epi_dist,pick_index_manually,pick_index_kalkan,snr_db_kalkan,tc_5sec,tc_4sec,tc_3sec,tc_2sec,tc_1sec,Pd_5sec,Pd_4sec,Pd_3sec,Pd_2sec,Pd_1sec,Pga_5sec,Pga_4sec,Pga_3sec,Pga_2sec,Pga_1sec,Channel,Scale_factor,PGA_ew,Channel.1,Scale_factor.1,PGA_ns
20020104120800.knt,MIE0160201041208.UD,2002-01-04, 12:08:00,33.943,135.629,11,3.6,MIE016,33.8764,135.9188,63,2002-01-04, 12:08:03,100Hz,119,U-D,0.0002384185791015625,7.101,27.749909574111292,1080,1103.0,24.83890830495428,0.8042108849631174,0.8627662826456685,3.2149212206489977,3.5108360957145934,3.585197425441216,0.0036880998360609898,0.0036880998360609898,0.002785451034076279,0.002785451034076279,0.002785451034076279,7.0870466255060425,7.0870466255060425,1.6055767072750486,1.6055767072750486,1.6055767072750486,E-W,0.0002384185791015625,18.717,N-S,0.0002384185791015625,17.732
20020104120800.knt,MIE0170201041208.UD,2002-01-04, 12:08:00,33.943,135.629,11,3.6,MIE017,34.3624,136.3348,118,2002-01-04, 12:08:18,100Hz,119,U-D,0.0002384185791015625,2.384,79.95539445040076,0,1.0,2.4612375161086533,0.0,0.0,0.0,0.0,0.0,0.0,0.0,0.0,0.0,0.0,0.0,0.0,0.0,0.0,0.0,E-W,0.0002384185791015625,3.438,N-S,0.0002384185791015625,4.437
20020104120800.knt,NAR0080201041208.UD,2002-01-04, 12:08:00,33.943,135.629,11,3.6,NAR008,34.1352,136.0046,330,2002-01-04, 12:08:06,100Hz,119,U-D,0.0002384185791015625,4.301,40.675582715798136,1006,1011.0,16.65408630327731,6.577725003142508,12.282022638117283,10.89102909481926,8.693484815440344,8.149878144446152,0.006287688099488324,0.006287688099488324,0.006185312906048593,0.0049140476525324096,0.003379272963646968,3.2396763019649906,0.8877360882704441,0.8877360882704441,0.8746674122717821,0.8746674122717821,E-W,0.0002384185791015625,2.778,N-S,0.0002384185791015625,3.987
20020104120800.knt,NAR0090201041208.UD,2002-01-04, 12:08:00,33.943,135.629,11,3.6,NAR009,33.938,135.7552,200,2002-01-04, 12:08:57,100Hz,119,U-D,0.0002384185791015625,25.177,11.655128286365139,1440,1449.0,12.936852433310243,2.045914529823952,1.9195861476774607,1.4250317088620301,0.8348980251665118,0.1795038958412564,0.017397460222264932,0.017397460222264932,0.017218184121953046,0.014584641566043555,0.004657905094386761,25.147483271077117,25.147483271077117,25.147483271077117,25.147483271077117,25.147483271077117,E-W,0.0002384185791015625,22.06,N-S,0.0002384185791015625,28.229
20020104120800.knt,WKY0040201041208.UD,2002-01-04, 12:08:00,33.943,135.629,11,3.6,WKY004,34.0838,135.4313,238,2002-01-04, 12:08:59,100Hz,119,U-D,0.0002384185791015625,7.733,24.02417075306967,1427,1425.0,30.544715892280866,1.1219213152988412,0.651963198993515,0.6347702898960615,0.4148002448939904,0.31923592176296484,0.003357921533592883,0.001636369660667725,0.0015706412577520333,0.0015706412577520333,0.0015706412577520333,7.691867658459116,7.691867658459116,7.691867658459116,7.691867658459116,7.691867658459116,E-W,0.0002384185791015625,6.607,N-S,0.0002384185791015625,5.008
20020104120800.knt,WKY0050201041208.UD,2002-01-04, 12:08:00,33.943,135.629,11,3.6,WKY005,33.8938,135.4883,316,2002-01-04, 12:08:58,100Hz,119,U-D,0.0002384185791015625,9.831,14.088425561435105,1374,1377.0,27.653679812356987,1.7897999922547723,1.3326081948368083,0.3879552199935404,0.3579507071549208,0.1608628332601176,0.006466667296490654,0.006466667296490654,0.002533223437384889,0.0010384292614738302,0.0007097728917309818,9.844184200079244,9.844184200079244,9.844184200079244,3.7715184641891875,3.7715184641891875,E-W,0.0002384185791015625,11.502,N-S,0.0002384185791015625,18.019
20020104120800.knt,WKY0070201041208.UD,2002-01-04, 12:08:00,33.943,135.629,11,3.6,WKY007,33.8375,135.7735,59,2002-01-04, 12:08:58,100Hz,119,U-D,0.0002384185791015625,12.316,17.76279619140189,1423,1430.0,30.221154500474547,0.4890172818611946,0.351983497958574,0.21452712632276624,0.3757767238357186,0.2705283561447816,0.005042234515424288,0.005042234515424288,0.005042234515424288,0.0012919672212234614,0.0012919672212234614,12.315322986212918,12.315322986212918,12.315322986212918,7.916920888818634,7.916920888818634,E-W,0.0002384185791015625,22.273,N-S,0.0002384185791015625,19.273
20020104131900.knt,MIE0070201041319.UD,2002-01-04, 13:19:00,33.945,135.632,12,3.9,MIE007,34.651,136.3404,82,2002-01-04, 13:19:27,100Hz,120,U-D,0.0002384185791015625,3.128,101.96695925940726,173,220.00000000000003,12.534228944280056,8.418018199021194,7.307437119275799,4.858923201746168,6.110550178615672,11.089556564055796,0.013508904405448505,0.013508904405448505,0.00937574988706453,0.007128877433760043,0.007128877433760043,0.5462620050680052,0.5462620050680052,0.5462620050680052,0.5462620050680052,0.5462620050680052,E-W,0.0002384185791015625,4.712,N-S,0.0002384185791015625,5.927
20020104131900.knt,MIE0080201041319.UD,2002-01-04, 13:19:00,33.945,135.632,12,3.9,MIE008,34.6285,136.1073,221,2002-01-04, 13:19:24,100Hz,119,U-D,0.0002384185791015625,2.438,87.65277816555134,304,317.0,17.171175024490744,6.943640173177367,5.120887923136462,3.690202182911733,2.773854058464741,3.5743678226088833,0.004053941788970719,0.002844500659313194,0.002061698393980248,0.00192846979726617,0.00192846979726617,0.3353814175112638,0.3353814175112638,0.3353814175112638,0.3353814175112638,0.3353814175112638,E-W,0.0002384185791015625,3.597,N-S,0.0002384185791015625,2.754
20020104131900.knt,MIE0110201041319.UD,2002-01-04, 13:19:00,33.945,135.632,12,3.9,MIE011,34.4283,136.3329,143,2002-01-04, 13:19:22,100Hz,119,U-D,0.0002384185791015625,3.463,83.93060672564721,405,404.0,16.944670842396114,2.316615165650362,2.257499251794204,2.3688823546913116,2.12127544295862,1.23068621871274,0.000920769608774495,0.000920769608774495,0.000920769608774495,0.000920769608774495,0.0008128160891299794,1.1478446997839873,1.1478446997839873,1.1478446997839873,1.1478446997839873,1.1478446997839873,E-W,0.0002384185791015625,3.801,N-S,0.0002384185791015625,5.435
20020104131900.knt,MIE0140201041319.UD,2002-01-04, 13:19:00,33.945,135.632,12,3.9,MIE014,34.0638,136.1687,85,2002-01-04, 13:19:12,100Hz,119,U-D,0.0002384185791015625,2.787,51.20618566443904,859,858.0,26.384503291920485,5.6616861709052735,6.252094848740217,4.913217163974941,3.1412442594045964,1.8932862196505076,0.006103758405482683,0.006103758405482683,0.005826130504611473,0.004577784206359566,0.002621346446869121,2.807276517102026,2.807276517102026,2.807276517102026,2.807276517102026,2.807276517102026,E-W,0.0002384185791015625,6.27,N-S,0.0002384185791015625,5.713
20020104131900.knt,MIE0150201041319.UD,2002-01-04, 13:19:00,33.945,135.632,12,3.9,MIE015,33.8783,136.0822,6,2002-01-04, 13:19:10,100Hz,119,U-D,0.0002384185791015625,3.055,42.20149730969585,915,913.0000000000001,12.54508382961684,23.143446019612043,25.365511946431518,29.09735152797197,38.25581632849324,47.50573424450372,0.04531750897630006,0.04531750897630006,0.04531750897630006,0.04531750897630006,0.04531750897630006,1.624368248415295,1.624368248415295,1.624368248415295,1.5316623896886457,1.5316623896886457,E-W,0.0002384185791015625,11.669,N-S,0.0002384185791015625,10.676
20020104131900.knt,MIE0160201041319.UD,2002-01-04, 13:19:00,33.945,135.632,12,3.9,MIE016,33.8764,135.9188,63,2002-01-04, 13:19:06,100Hz,185,U-D,0.0002384185791015625,10.506,27.543660555460757,1096,1117.0,19.99585366978646,0.7216909167318207,0.7917725528797184,2.5100546270436093,2.7417896603407783,4.601696880150661,0.006377993878566361,0.006377993878566361,0.003975287785724943,0.003975287785724943,0.003975287785724943,10.50637854130447,10.50637854130447,1.8446083290432873,1.8446083290432873,1.3544728450670915,E-W,0.0002384185791015625,23.835,N-S,0.0002384185791015625,20.216
20020104131900.knt,MIE0170201041319.UD,2002-01-04, 13:19:00,33.945,135.632,12,3.9,MIE017,34.3624,136.3348,118,2002-01-04, 13:19:20,100Hz,119,U-D,0.0002384185791015625,2.844,79.60083228602011,510,519.0,23.765384844001225,5.23553173522063,4.548986182310217,4.311908239006508,4.539001965419397,5.003621389788224,0.0021311095833280898,0.0021311095833280898,0.0021311095833280898,0.0021311095833280898,0.0021311095833280898,0.8605955116925715,0.8605955116925715,0.8605955116925715,0.8605955116925715,0.8605955116925715,E-W,0.0002384185791015625,7.345,N-S,0.0002384185791015625,13.68
20020104131900.knt,NAR0060201041319.UD,2002-01-04, 13:19:00,33.945,135.632,12,3.9,NAR006,34.3383,135.9541,330,2002-01-04, 13:19:15,100Hz,119,U-D,0.0002384185791015625,5.506,52.83253949282774,595,661.0,16.238297479192344,4.429365485983795,4.132549757001242,3.219241619245482,1.6277365949384668,1.8398233801137134,0.004060910931411872,0.004060910931411872,0.004060910931411872,0.002987863768750537,0.0015432064121406797,1.6231897323043192,1.6231897323043192,1.6231897323043192,1.6231897323043192,0.5171543695232933,E-W,0.0002384185791015625,4.524,N-S,0.0002384185791015625,5.083
20020104131900.knt,NAR0070201041319.UD,2002-01-04, 13:19:00,33.945,135.632,12,3.9,NAR007,34.2213,135.7369,760,2002-01-04, 13:19:07,100Hz,119,U-D,0.0002384185791015625,1.97,32.206230214427656,1071,1077.0,23.131123977450013,0.71272341642752,0.8802186014387672,0.7523805044971209,0.7247373897721511,0.8655732498240174,0.001653667526048302,0.0014045516407848986,0.0006463855161839749,0.00047680211349324705,0.00047680211349324705,1.9704554672292895,1.102706456561732,0.8070816627119987,0.6100279059624912,0.6030472429096917,E-W,0.0002384185791015625,4.259,N-S,0.0002384185791015625,3.203
20020104131900.knt,NAR0080201041319.UD,2002-01-04, 13:19:00,33.945,135.632,12,3.9,NAR008,34.1352,136.0046,330,2002-01-04, 13:19:09,100Hz,119,U-D,0.0002384185791015625,4.797,40.32321950361138,986,999.0,19.41548355771289,1.7291228414956727,1.8597619473566687,1.4832128524333539,1.210492285036998,1.3538179879752597,0.0034682468671765206,0.0018968227112225098,0.0016023039111213897,0.0008444438454331351,0.0008444438454331351,2.9498730405848317,1.2328829451828307,1.1689301947768336,1.1161362574586708,1.1137804196273553,E-W,0.0002384185791015625,3.797,N-S,0.0002384185791015625,5.822
20020104131900.knt,OSK0090201041319.UD,2002-01-04, 13:19:00,33.945,135.632,12,3.9,OSK009,34.4366,135.5816,209,2002-01-04, 13:19:14,100Hz,119,U-D,0.0002384185791015625,0.966,54.859630684538914,747,752.0,11.846466612251504,5.597927366661262,4.966032516282446,4.094173135932025,6.383297033301682,6.846135056077452,0.0030948405684674187,0.003021035948954462,0.0021406051363080402,0.0021406051363080402,0.0019313853586242309,0.3028209116592745,0.3028209116592745,0.23963014776003386,0.23963014776003386,0.21353037760106172,E-W,0.0002384185791015625,1.9,N-S,0.0002384185791015625,3.172
20020104131900.knt,WKY0020201041319.UD,2002-01-04, 13:19:00,33.945,135.632,12,3.9,WKY002,34.2755,135.4305,59,2002-01-04, 13:19:10,100Hz,119,U-D,0.0002384185791015625,0.988,41.16670203913071,924,915.0,17.379751188652108,2.875271046571196,3.3021326899548384,3.8729000989140365,4.512241236413642,4.816365406841193,0.0032720288462887923,0.0032720288462887923,0.0032720288462887923,0.0032720288462887923,0.0032720288462887923,0.5777599021391833,0.5777599021391833,0.5777599021391833,0.5777599021391833,0.5777599021391833,E-W,0.0002384185791015625,3.393,N-S,0.0002384185791015625,1.563
20020104131900.knt,WKY0040201041319.UD,2002-01-04, 13:19:00,33.945,135.632,12,3.9,WKY004,34.0838,135.4313,238,2002-01-04, 13:19:02,100Hz,119,U-D,0.0002384185791015625,8.626,24.091331064812476,1448,1445.0,34.13342364623982,1.0348794098063672,0.6653456233367169,0.6855659901239985,0.616013116163804,0.3248033362710492,0.0036377360263772024,0.002906168331710702,0.002026016030326371,0.002026016030326371,0.002026016030326371,8.638532900785922,8.638532900785922,8.638532900785922,8.638532900785922,8.638532900785922,E-W,0.0002384185791015625,10.261,N-S,0.0002384185791015625,8.314
20020104131900.knt,WKY0070201041319.UD,2002-01-04, 13:19:00,33.945,135.632,12,3.9,WKY007,33.8375,135.7735,59,2002-01-04, 13:19:01,100Hz,188,U-D,0.0002384185791015625,15.421,17.70508373928575,1441,1444.0,23.02038997308886,0.466378373711969,0.36938569529046605,0.3514383949596791,0.18832861703193068,0.11269951691901796,0.007755044707460716,0.007755044707460716,0.007755044707460716,0.0014716179684365243,0.0014716179684365243,15.503471261522094,15.503471261522094,15.503471261522094,8.10464243389164,8.10464243389164,E-W,0.0002384185791015625,24.358,N-S,0.0002384185791015625,37.664
20020104131900.knt,WKY0130201041319.UD,2002-01-04, 13:19:00,33.945,135.632,12,3.9,WKY013,34.216,135.586,823,2002-01-04, 13:19:07,100Hz,119,U-D,0.0002384185791015625,1.356,30.43016713001684,1046,1046.0,18.63915445597868,0.8871698652909809,1.1281247563273156,1.9601809833135084,1.5535315166776211,1.250475757750923,0.0018612862008978086,0.0018612862008978086,0.0014449241042876408,0.0014449241042876408,0.0014449241042876408,1.35509838993985,1.35509838993985,1.35509838993985,1.35509838993985,1.35509838993985,E-W,0.0002384185791015625,3.946,N-S,0.0002384185791015625,4.353
20020104140000.knt,SZO0130201041400.UD,2002-01-04, 14:00:00,34.99,138.294,16,3.7,SZO013,35.041,138.476,11,2002-01-04, 14:00:20,100Hz,119,U-D,0.0002384185791015625,5.391,17.517738704237043,1039,107.0,17.079478682040858,0.5752623626983807,1.1763831822115771,1.245288047394428,1.134663589357824,1.1766414239321945,0.006029364896632789,0.002723222593949796,0.0024161336219143312,0.0024161336219143312,0.0024161336219143312,2.98939226618655,1.4730582651458097,1.4730582651458097,1.4730582651458097,0.9682523585427587,E-W,0.0002384185791015625,11.292,N-S,0.0002384185791015625,11.108
20020104140000.knt,SZO0150201041400.UD,2002-01-04, 14:00:00,34.99,138.294,16,3.7,SZO015,35.2435,138.3407,452,2002-01-04, 14:00:22,100Hz,119,U-D,0.0002384185791015625,3.561,28.5061514315379,953,952.9999999999999,25.81571800757238,9.567456054957933,13.628407295777725,13.575147594527019,11.562799020500524,9.1135565239368,0.01625018392249805,0.01625018392249805,0.01625018392249805,0.015628648379995686,0.01295221991597564,1.3129721607267668,1.3129721607267668,1.3129721607267668,1.3129721607267668,1.2136811891956516,E-W,0.0002384185791015625,7.436,N-S,0.0002384185791015625,3.402
20020104140000.knt,SZO0210201041400.UD,2002-01-04, 14:00:00,34.99,138.294,16,3.7,SZO021,35.0969,138.1332,441,2002-01-04, 14:00:19,100Hz,119,U-D,0.0002384185791015625,2.067,18.85704297968251,0,-100.0,,0.0,0.0,0.0,0.0,0.0,0.0,0.0,0.0,0.0,0.0,0.0,0.0,0.0,0.0,0.0,E-W,0.0002384185791015625,13.365,N-S,0.0002384185791015625,11.224
20020104140000.knt,SZO0230201041400.UD,2002-01-04, 14:00:00,34.99,138.294,16,3.7,SZO023,34.8738,137.8164,46,2002-01-04, 14:00:25,100Hz,119,U-D,0.0002384185791015625,2.79,45.41536934034119,6,70.0,16.670907829286424,10.497872367233748,11.591086267442442,9.600024737935147,6.457254587285835,2.9072858744492365,0.00534442918518074,0.00534442918518074,0.00534442918518074,0.004601564401627682,0.001983765070985359,0.3002127841504667,0.3002127841504667,0.3002127841504667,0.12411989985434613,0.11866049319337564,E-W,0.0002384185791015625,2.951,N-S,0.0002384185791015625,2.093
20020104140000.knt,SZO0260201041400.UD,2002-01-04, 14:00:00,34.99,138.294,16,3.7,SZO026,34.9816,137.8975,133,2002-01-04, 14:00:23,100Hz,119,U-D,0.0002384185791015625,1.561,36.133737838129136,927,935.0,17.332109316241425,5.962407951616961,6.104045251276687,5.890872350291429,5.299884272414443,4.264682780692385,0.007476883874663699,0.007476883874663699,0.007476883874663699,0.007476883874663699,0.007476883874663699,1.5627124070024385,1.5627124070024385,1.5627124070024385,1.5627124070024385,1.5627124070024385,E-W,0.0002384185791015625,7.215,N-S,0.0002384185791015625,8.828
20020104140000.knt,YMN0070201041400.UD,2002-01-04, 14:00:00,34.99,138.294,16,3.7,YMN007,35.2791,138.4649,123,2002-01-04, 14:00:26,100Hz,119,U-D,0.0002384185791015625,0.805,35.70591157746648,697,438.0,15.248387234592062,4.585376924816709,4.400918774431077,3.872899840321057,2.7875349390798854,2.1962776327468334,0.004994042453293422,0.004994042453293422,0.004994042453293422,0.003668564935797234,0.002611644265033008,0.6578284295146676,0.6578284295146676,0.6578284295146676,0.6578284295146676,0.5151035438336111,E-W,0.0002384185791015625,2.166,N-S,0.0002384185791015625,2.452
20020104163400.knt,MIE0070201041634.UD,2002-01-04, 16:34:00,33.956,135.637,12,4.0,MIE007,34.651,136.3404,82,2002-01-04, 16:34:25,100Hz,119,U-D,0.0002384185791015625,2.763,100.73037256906689,196,249.00000000000003,14.957983021515455,4.976089133604259,4.956282863452271,6.183860525287627,4.489787656905576,2.6363406796865525,0.005007775240420725,0.005007775240420725,0.005007775240420725,0.004417229536232032,0.0015369350275452802,0.4826989058433771,0.4826989058433771,0.4826989058433771,0.4826989058433771,0.27533616916013504,E-W,0.0002384185791015625,3.915,N-S,0.0002384185791015625,5.832
20020104163400.knt,MIE0080201041634.UD,2002-01-04, 16:34:00,33.956,135.637,12,4.0,MIE008,34.6285,136.1073,221,2002-01-04, 16:34:22,100Hz,119,U-D,0.0002384185791015625,1.566,86.36223213263375,306,331.0,13.430606014561668,5.745375551922552,6.033521096159022,7.114084323333233,7.97479635514287,5.787878666528113,0.0024941160031334633,0.0024941160031334633,0.0024941160031334633,0.0024941160031334633,0.0023579897813488107,0.4563898534277895,0.4563898534277895,0.4563898534277895,0.4563898534277895,0.4563898534277895,E-W,0.0002384185791015625,2.299,N-S,0.0002384185791015625,2.787
20020104163400.knt,MIE0110201041634.UD,2002-01-04, 16:34:00,33.956,135.637,12,4.0,MIE011,34.4283,136.3329,143,2002-01-04, 16:34:20,100Hz,119,U-D,0.0002384185791015625,2.998,82.79346899365865,428,295.0,11.08000580215821,6.363479595818329,5.1936321446042815,4.160686010471644,2.6943978405853257,1.8718374904768749,0.0035630492721563617,0.0028014354482591157,0.002489256463936533,0.0023002692661264436,0.0017554432005494293,0.5279224650700932,0.5279224650700932,0.5279224650700932,0.5279224650700932,0.5279224650700932,E-W,0.0002384185791015625,4.348,N-S,0.0002384185791015625,8.127
20020104163400.knt,MIE0140201041634.UD,2002-01-04, 16:34:00,33.956,135.637,12,4.0,MIE014,34.0638,136.1687,85,2002-01-04, 16:34:10,100Hz,119,U-D,0.0002384185791015625,4.194,50.45346218787256,886,891.0,24.16803450130856,10.806878527539018,11.3668732730201,13.490466616946945,16.016069334750934,15.764192129946943,0.018222559565439885,0.018222559565439885,0.018222559565439885,0.018222559565439885,0.018222559565439885,4.193418274044158,4.193418274044158,4.193418274044158,4.193418274044158,4.193418274044158,E-W,0.0002384185791015625,6.763,N-S,0.0002384185791015625,7.786
20020104163400.knt,MIE0150201041634.UD,2002-01-04, 16:34:00,33.956,135.637,12,4.0,MIE015,33.8783,136.0822,6,2002-01-04, 16:34:08,100Hz,119,U-D,0.0002384185791015625,3.096,41.979318530312874,942,950.0,18.20596725729385,20.340684355726662,23.52154095871797,27.324727701797723,33.64044219889649,32.92101657337331,0.039962867777610586,0.039962867777610586,0.039962867777610586,0.039962867777610586,0.039962867777610586,1.7936601754891393,1.7936601754891393,1.7936601754891393,1.7813640243581084,1.7813640243581084,E-W,0.0002384185791015625,14.16,N-S,0.0002384185791015625,11.855
20020104163400.knt,MIE0160201041634.UD,2002-01-04, 16:34:00,33.956,135.637,12,4.0,MIE016,33.8764,135.9188,63,2002-01-04, 16:34:04,100Hz,119,U-D,0.0002384185791015625,7.72,27.468373749506217,0,-100.0,,0.0,0.0,0.0,0.0,0.0,0.0,0.0,0.0,0.0,0.0,0.0,0.0,0.0,0.0,0.0,E-W,0.0002384185791015625,16.714,N-S,0.0002384185791015625,18.575
20020104163400.knt,MIE0170201041634.UD,2002-01-04, 16:34:00,33.956,135.637,12,4.0,MIE017,34.3624,136.3348,118,2002-01-04, 16:34:18,100Hz,119,U-D,0.0002384185791015625,2.497,78.5138190367717,548,548.0,24.973222268918505,7.031274850567031,7.5521542660817635,7.638109025436505,5.9421528624629225,2.795293534110036,0.0028213530725084875,0.0028213530725084875,0.0028213530725084875,0.002777763454118831,0.001814513708898231,0.5021145530550172,0.5021145530550172,0.5021145530550172,0.5021145530550172,0.5021145530550172,E-W,0.0002384185791015625,8.262,N-S,0.0002384185791015625,9.122
