earthquake name,records name,earthquake date,earthquake time,lat,long,depth,mag,stn_code,stn_lat,stn_long,stn_height,rcd_date,rcd_time,frequency,rcd_duration,direction,scale_factor,max_pga,epi_dist,pick_index_manually,pick_index_kalkan,snr_db_kalkan,tc_5sec,tc_4sec,tc_3sec,tc_2sec,tc_1sec,Pd_5sec,Pd_4sec,Pd_3sec,Pd_2sec,Pd_1sec,Pga_5sec,Pga_4sec,Pga_3sec,Pga_2sec,Pga_1sec,Channel,Scale_factor,PGA_ew,Channel.1,Scale_factor.1,PGA_ns
19960511144600.knt,HYG0129605111446.UD,1996-05-11, 14:46:00,34.52,134.964,10,4.0,HYG012,34.9959,134.552,85,1996-05-11, 14:47:10,100Hz,59,U-D,0.0002384185791015625,0.888,64.93743521207651,0,-100.0,,0.0,0.0,0.0,0.0,0.0,0.0,0.0,0.0,0.0,0.0,0.0,0.0,0.0,0.0,0.0,E-W,0.0002384185791015625,2.299,N-S,0.0002384185791015625,1.967
19960511144600.knt,HYG0179605111446.UD,1996-05-11, 14:46:00,34.52,134.964,10,4.0,HYG017,34.8593,134.5445,24,1996-05-11, 14:47:05,100Hz,59,U-D,0.0002384185791015625,1.83,53.80064467303331,822,821.0000000000001,23.71837493498759,3.0231738864454933,2.8791439694435215,2.3650947181745,2.4073186407599243,2.272842202868879,0.0027596577048920527,0.0027596577048920527,0.0027596577048920527,0.0027596577048920527,0.0027596577048920527,1.6632673854633016,1.6632673854633016,1.6632673854633016,1.6632673854633016,1.6632673854633016,E-W,0.0002384185791015625,2.134,N-S,0.0002384185791015625,3.546
19960511144600.knt,HYG0189605111446.UD,1996-05-11, 14:46:00,34.52,134.964,10,4.0,HYG018,34.8143,134.687,9,1996-05-11, 14:47:02,100Hz,59,U-D,0.0002384185791015625,2.382,41.38424786251686,919,921.0000000000001,22.673657409860333,2.2697375115280427,2.3376995303473884,2.2309068900659312,1.8920980417276776,1.5470614592622942,0.0033604596213714986,0.0033604596213714986,0.0033604596213714986,0.0033604596213714986,0.0033604596213714986,2.376544724241791,2.376544724241791,2.376544724241791,2.376544724241791,2.376544724241791,E-W,0.0002384185791015625,4.838,N-S,0.0002384185791015625,3.075
19960511144600.knt,HYG0199605111446.UD,1996-05-11, 14:46:00,34.52,134.964,10,4.0,HYG019,34.832,134.8236,45,1996-05-11, 14:47:01,100Hz,59,U-D,0.0002384185791015625,8.688,36.99224839069642,937,543.0,17.85169170719051,0.6094355124326528,2.7359627954550447,3.6485778117471477,4.376553868157477,4.8608748979524625,0.00479844885672318,0.0034104135680088315,0.0034104135680088315,0.0034104135680088315,0.0034104135680088315,8.645374149972236,1.5026978371151818,1.2974272054156155,1.2974272054156155,1.2974272054156155,E-W,0.0002384185791015625,17.563,N-S,0.0002384185791015625,8.398
19960511144600.knt,HYG0209605111446.UD,1996-05-11, 14:46:00,34.52,134.964,10,4.0,HYG020,34.7976,134.9899,75,1996-05-11, 14:47:59,100Hz,59,U-D,0.0002384185791015625,1.254,30.958477574424577,1051,1049.0,26.645880726100096,0.8094813473355549,1.2977324096593457,1.6956146944381154,1.7861146145019253,2.1361806242658488,0.002228324976643404,0.0021003384794967494,0.0021003384794967494,0.0021003384794967494,0.0021003384794967494,1.241076002246158,1.127514896785113,1.127514896785113,1.127514896785113,1.127514896785113,E-W,0.0002384185791015625,1.406,N-S,0.0002384185791015625,3.16
19960511144600.knt,HYG0219605111446.UD,1996-05-11, 14:46:00,34.52,134.964,10,4.0,HYG021,34.6898,135.1583,90,1996-05-11, 14:47:58,100Hz,59,U-D,0.0002384185791015625,2.538,25.936868988188042,1083,801.0,16.250210695420122,3.875284444964426,3.9450730105404728,4.327597108390082,4.42037015667397,6.044527251365254,0.015378706676652894,0.015378706676652894,0.009184044538882219,0.007890702916040262,0.007890702916040262,2.5216653419297654,2.5216653419297654,1.324435032329624,1.324435032329624,1.324435032329624,E-W,0.0002384185791015625,8.936,N-S,0.0002384185791015625,4.256
19960511144600.knt,HYG0239605111446.UD,1996-05-11, 14:46:00,34.52,134.964,10,4.0,HYG023,34.6444,134.9999,2,1996-05-11, 14:47:52,100Hz,59,U-D,0.0002384185791015625,25.764,14.21772749110695,1486,1486.0,26.439233580252754,0.4683178538334146,0.47940303211898033,0.5275541860349015,0.5203493927089491,0.3223787303115136,0.011109973143486995,0.011109973143486995,0.011109973143486995,0.009722459943896639,0.009722459943896639,25.753611669230356,25.753611669230356,25.753611669230356,25.753611669230356,25.753611669230356,E-W,0.0002384185791015625,19.073,N-S,0.0002384185791015625,20.425
19960511144600.knt,HYG0249605111446.UD,1996-05-11, 14:46:00,34.52,134.964,10,4.0,HYG024,34.5321,134.9902,6,1996-05-11, 14:47:51,100Hz,59,U-D,0.0002384185791015625,54.425,2.751569234519682,1481,1481.0,39.333404895825545,0.3390664461371652,0.3344121994621592,0.31702872744809596,0.24836107792363457,0.18091098705488567,0.03489943846253056,0.03489943846253056,0.03489943846253056,0.02994602009534595,0.019257679283533696,54.4663161595863,54.4663161595863,54.4663161595863,54.4663161595863,54.4663161595863,E-W,0.0002384185791015625,59.816,N-S,0.0002384185791015625,65.493
19960511144600.knt,HYG0259605111446.UD,1996-05-11, 14:46:00,34.52,134.964,10,4.0,HYG025,34.3405,134.9014,10,1996-05-11, 14:47:57,100Hz,59,U-D,0.0002384185791015625,3.506,20.768835660892655,1117,1117.0,31.18241582604524,0.868051891328857,0.9374452302141729,2.5799891388573264,4.1710431499890745,4.358181243933079,0.002743881058157074,0.002412938908316685,0.002412938908316685,0.002412938908316685,0.002412938908316685,3.514763363148605,3.514763363148605,1.4461008163938425,1.0339757974212698,1.0339757974212698,E-W,0.0002384185791015625,4.727,N-S,0.0002384185791015625,5.89
19960511144600.knt,HYG0269605111446.UD,1996-05-11, 14:46:00,34.52,134.964,10,4.0,HYG026,34.4149,134.7925,70,1996-05-11, 14:47:55,100Hz,59,U-D,0.0002384185791015625,4.492,19.589856437858913,1280,1286.0,29.630265882374545,0.8510908142950033,0.9262523927465808,1.3690905139544278,0.9986137451035068,0.5210174228536548,0.0034256128596759083,0.0034256128596759083,0.0034256128596759083,0.0024937049258590576,0.0014600803464128325,4.491185538768765,4.491185538768765,2.3441136133775635,2.3441136133775635,2.3441136133775635,E-W,0.0002384185791015625,11.536,N-S,0.0002384185791015625,9.299
19960511144600.knt,KGW0019605111446.UD,1996-05-11, 14:46:00,34.52,134.964,10,4.0,KGW001,34.5466,134.2814,2,1996-05-11, 14:47:00,100Hz,59,U-D,0.0002384185791015625,3.409,62.597344387674326,1466,1474.0,17.936932107579473,3.4277566582583328,3.4628066920387446,3.320425710190859,2.697025337011551,1.7207307354159398,0.003500677190416775,0.003500677190416775,0.003500677190416775,0.003500677190416775,0.0030285273823044906,3.418190279087087,3.418190279087087,3.418190279087087,3.418190279087087,3.418190279087087,E-W,0.0002384185791015625,3.679,N-S,0.0002384185791015625,1.979
19960511144600.knt,KGW0029605111446.UD,1996-05-11, 14:46:00,34.52,134.964,10,4.0,KGW002,34.4727,134.3139,4,1996-05-11, 14:47:00,100Hz,59,U-D,0.0002384185791015625,3.411,59.808496901546434,1431,1432.0,15.054987004612965,0.5668358815629087,0.5567816014745038,0.4843639137719565,0.3690555910490812,0.3387948391315247,0.001171780879162909,0.001171780879162909,0.001171780879162909,0.001171780879162909,0.001171780879162909,3.412789988124847,3.412789988124847,3.412789988124847,3.412789988124847,3.412789988124847,E-W,0.0002384185791015625,5.468,N-S,0.0002384185791015625,6.216
19960511144600.knt,MIE0079605111446.UD,1996-05-11, 14:46:00,34.52,134.964,10,4.0,MIE007,34.651,136.3404,82,1996-05-11, 14:47:24,100Hz,59,U-D,0.0002384185791015625,1.161,126.84009497112115,0,-100.0,,0.0,0.0,0.0,0.0,0.0,0.0,0.0,0.0,0.0,0.0,0.0,0.0,0.0,0.0,0.0,E-W,0.0002384185791015625,1.479,N-S,0.0002384185791015625,2.569
19960511144600.knt,OSK0089605111446.UD,1996-05-11, 14:46:00,34.52,134.964,10,4.0,OSK008,34.4438,135.3874,10,1996-05-11, 14:47:02,100Hz,59,U-D,0.0002384185791015625,1.01,39.72239143385608,0,1.0,10.701979886246601,0.0,0.0,0.0,0.0,0.0,0.0,0.0,0.0,0.0,0.0,0.0,0.0,0.0,0.0,0.0,E-W,0.0002384185791015625,3.41,N-S,0.0002384185791015625,3.943
19960511144600.knt,TKS0019605111446.UD,1996-05-11, 14:46:00,34.52,134.964,10,4.0,TKS001,34.203,134.6098,2,1996-05-11, 14:47:06,100Hz,299,U-D,0.0002384185791015625,1.215,47.95326400598736,670,537.0,13.69334780250945,4.194891275846973,4.476649797806816,4.319469164905607,4.1877985664353625,3.8404217041649544,0.003907101972804739,0.003907101972804739,0.003907101972804739,0.003907101972804739,0.003907101972804739,1.178720318214138,1.178720318214138,1.178720318214138,1.178720318214138,1.178720318214138,E-W,0.0002384185791015625,2.731,N-S,0.0002384185791015625,1.787
19960523183600.knt,AKT0069605231836.UD,1996-05-23, 18:36:00,38.653,142.313,39,5.0,AKT006,40.2152,140.7873,120,1996-05-23, 18:37:29,100Hz,59,U-D,0.0002384185791015625,0.825,217.57758127144234,0,1.0,-8.35400854611049,0.0,0.0,0.0,0.0,0.0,0.0,0.0,0.0,0.0,0.0,0.0,0.0,0.0,0.0,0.0,E-W,0.0002384185791015625,2.491,N-S,0.0002384185791015625,2.629
19960523183600.knt,AKT0129605231836.UD,1996-05-23, 18:36:00,38.653,142.313,39,5.0,AKT012,39.6991,140.7181,206,1996-05-23, 18:37:18,100Hz,299,U-D,0.0002384185791015625,1.845,180.0806832241092,0,-100.0,,0.0,0.0,0.0,0.0,0.0,0.0,0.0,0.0,0.0,0.0,0.0,0.0,0.0,0.0,0.0,E-W,0.0002384185791015625,2.886,N-S,0.0002384185791015625,3.678
19960523183600.knt,AKT0169605231836.UD,1996-05-23, 18:36:00,38.653,142.313,39,5.0,AKT016,39.4544,140.476,25,1996-05-23, 18:37:19,100Hz,299,U-D,0.0002384185791015625,1.449,181.93442081991523,0,2.0,-8.329421284575293,0.0,0.0,0.0,0.0,0.0,0.0,0.0,0.0,0.0,0.0,0.0,0.0,0.0,0.0,0.0,E-W,0.0002384185791015625,4.508,N-S,0.0002384185791015625,3.508
19960523183600.knt,AKT0179605231836.UD,1996-05-23, 18:36:00,38.653,142.313,39,5.0,AKT017,39.2975,140.5629,77,1996-05-23, 18:37:17,100Hz,59,U-D,0.0002384185791015625,0.836,167.39862197153428,0,-100.0,,0.0,0.0,0.0,0.0,0.0,0.0,0.0,0.0,0.0,0.0,0.0,0.0,0.0,0.0,0.0,E-W,0.0002384185791015625,2.194,N-S,0.0002384185791015625,2.352
19960523183600.knt,AKT0199605231836.UD,1996-05-23, 18:36:00,38.653,142.313,39,5.0,AKT019,39.0384,140.451,170,1996-05-23, 18:37:16,100Hz,59,U-D,0.0002384185791015625,1.027,166.8482028575027,0,-100.0,,0.0,0.0,0.0,0.0,0.0,0.0,0.0,0.0,0.0,0.0,0.0,0.0,0.0,0.0,0.0,E-W,0.0002384185791015625,2.741,N-S,0.0002384185791015625,2.373
19960523183600.knt,AKT0229605231836.UD,1996-05-23, 18:36:00,38.653,142.313,39,5.0,AKT022,39.7739,140.6667,270,1996-05-23, 18:37:22,100Hz,299,U-D,0.0002384185791015625,0.88,188.81004013045458,0,-100.0,,0.0,0.0,0.0,0.0,0.0,0.0,0.0,0.0,0.0,0.0,0.0,0.0,0.0,0.0,0.0,E-W,0.0002384185791015625,2.841,N-S,0.0002384185791015625,2.265
19960523183600.knt,AKT0239605231836.UD,1996-05-23, 18:36:00,38.653,142.313,39,5.0,AKT023,39.1462,140.717,280,1996-05-23, 18:37:10,100Hz,59,U-D,0.0002384185791015625,6.147,148.6002401999537,0,1.0,43.81295662705341,0.0,0.0,0.0,0.0,0.0,0.0,0.0,0.0,0.0,0.0,0.0,0.0,0.0,0.0,0.0,E-W,0.0002384185791015625,9.611,N-S,0.0002384185791015625,8.59
19960523183600.knt,AOM0079605231836.UD,1996-05-23, 18:36:00,38.653,142.313,39,5.0,AOM007,41.2256,141.3958,10,1996-05-23, 18:37:54,100Hz,59,U-D,0.0002384185791015625,0.782,296.54991221354754,0,-100.0,,0.0,0.0,0.0,0.0,0.0,0.0,0.0,0.0,0.0,0.0,0.0,0.0,0.0,0.0,0.0,E-W,0.0002384185791015625,2.682,N-S,0.0002384185791015625,1.609
19960523183600.knt,AOM0129605231836.UD,1996-05-23, 18:36:00,38.653,142.313,39,5.0,AOM012,40.5138,141.4805,15,1996-05-23, 18:37:27,100Hz,59,U-D,0.0002384185791015625,2.768,218.86262019533288,0,-100.0,,0.0,0.0,0.0,0.0,0.0,0.0,0.0,0.0,0.0,0.0,0.0,0.0,0.0,0.0,0.0,E-W,0.0002384185791015625,7.284,N-S,0.0002384185791015625,6.728
19960523183600.knt,FKS0019605231836.UD,1996-05-23, 18:36:00,38.653,142.313,39,5.0,FKS001,37.7949,140.9196,9,1996-05-23, 18:37:12,100Hz,299,U-D,0.0002384185791015625,5.891,154.65745231151902,0,-100.0,,0.0,0.0,0.0,0.0,0.0,0.0,0.0,0.0,0.0,0.0,0.0,0.0,0.0,0.0,0.0,E-W,0.0002384185791015625,8.842,N-S,0.0002384185791015625,9.013
19960523183600.knt,FKS0029605231836.UD,1996-05-23, 18:36:00,38.653,142.313,39,5.0,FKS002,37.8449,140.6013,42,1996-05-23, 18:37:16,100Hz,59,U-D,0.0002384185791015625,1.923,174.39841191512298,0,-100.0,,0.0,0.0,0.0,0.0,0.0,0.0,0.0,0.0,0.0,0.0,0.0,0.0,0.0,0.0,0.0,E-W,0.0002384185791015625,4.645,N-S,0.0002384185791015625,4.157
19960523183600.knt,FKS0049605231836.UD,1996-05-23, 18:36:00,38.653,142.313,39,5.0,FKS004,37.6799,140.7346,488,1996-05-23, 18:37:16,100Hz,59,U-D,0.0002384185791015625,2.745,175.34921828456754,0,1.0,1.6163010050011348,0.0,0.0,0.0,0.0,0.0,0.0,0.0,0.0,0.0,0.0,0.0,0.0,0.0,0.0,0.0,E-W,0.0002384185791015625,6.694,N-S,0.0002384185791015625,6.404
19960523183600.knt,FKS0069605231836.UD,1996-05-23, 18:36:00,38.653,142.313,39,5.0,FKS006,37.5031,140.7588,472,1996-05-23, 18:37:19,100Hz,59,U-D,0.0002384185791015625,3.866,186.6900572761427,0,1.0,12.446409178750162,0.0,0.0,0.0,0.0,0.0,0.0,0.0,0.0,0.0,0.0,0.0,0.0,0.0,0.0,0.0,E-W,0.0002384185791015625,8.716,N-S,0.0002384185791015625,10.384
19960523183600.knt,FKS0089605231836.UD,1996-05-23, 18:36:00,38.653,142.313,39,5.0,FKS008,37.4363,140.5668,430,1996-05-23, 18:37:24,100Hz,59,U-D,0.0002384185791015625,2.084,204.16426167172358,0,1.0,7.089723754578951,0.0,0.0,0.0,0.0,0.0,0.0,0.0,0.0,0.0,0.0,0.0,0.0,0.0,0.0,0.0,E-W,0.0002384185791015625,5.404,N-S,0.0002384185791015625,6.981
19960523183600.knt,FKS0109605231836.UD,1996-05-23, 18:36:00,38.653,142.313,39,5.0,FKS010,37.2342,141.0016,50,1996-05-23, 18:37:21,100Hz,299,U-D,0.0002384185791015625,1.63,195.2214852994605,0,-100.0,,0.0,0.0,0.0,0.0,0.0,0.0,0.0,0.0,0.0,0.0,0.0,0.0,0.0,0.0,0.0,E-W,0.0002384185791015625,3.57,N-S,0.0002384185791015625,4.354
19960523183600.knt,FKS0119605231836.UD,1996-05-23, 18:36:00,38.653,142.313,39,5.0,FKS011,37.0911,140.9035,165,1996-05-23, 18:37:29,100Hz,59,U-D,0.0002384185791015625,1.162,213.22918850111404,0,-100.0,,0.0,0.0,0.0,0.0,0.0,0.0,0.0,0.0,0.0,0.0,0.0,0.0,0.0,0.0,0.0,E-W,0.0002384185791015625,2.044,N-S,0.0002384185791015625,3.081
19960523183600.knt,FKS0139605231836.UD,1996-05-23, 18:36:00,38.653,142.313,39,5.0,FKS013,37.09,140.5563,320,1996-05-23, 18:37:38,100Hz,59,U-D,0.0002384185791015625,1.161,232.3301019053797,0,1.0,4.471465148675016,0.0,0.0,0.0,0.0,0.0,0.0,0.0,0.0,0.0,0.0,0.0,0.0,0.0,0.0,0.0,E-W,0.0002384185791015625,1.909,N-S,0.0002384185791015625,2.318
19960523183600.knt,FKS0179605231836.UD,1996-05-23, 18:36:00,38.653,142.313,39,5.0,FKS017,37.2842,140.3689,263,1996-05-23, 18:37:38,100Hz,59,U-D,0.0002384185791015625,1.27,228.48214619422185,0,-100.0,,0.0,0.0,0.0,0.0,0.0,0.0,0.0,0.0,0.0,0.0,0.0,0.0,0.0,0.0,0.0,E-W,0.0002384185791015625,3.008,N-S,0.0002384185791015625,2.931
19960523183600.knt,FKS0199605231836.UD,1996-05-23, 18:36:00,38.653,142.313,39,5.0,FKS019,37.603,140.4368,235,1996-05-23, 18:37:22,100Hz,59,U-D,0.0002384185791015625,2.159,201.39726745363413,0,-100.0,,0.0,0.0,0.0,0.0,0.0,0.0,0.0,0.0,0.0,0.0,0.0,0.0,0.0,0.0,0.0,E-W,0.0002384185791015625,4.559,N-S,0.0002384185791015625,3.212
19960523183600.knt,FKS0239605231836.UD,1996-05-23, 18:36:00,38.653,142.313,39,5.0,FKS023,37.4774,139.9294,219,1996-05-23, 18:37:45,100Hz,59,U-D,0.0002384185791015625,0.648,246.22173432984832,0,-100.0,,0.0,0.0,0.0,0.0,0.0,0.0,0.0,0.0,0.0,0.0,0.0,0.0,0.0,0.0,0.0,E-W,0.0002384185791015625,2.112,N-S,0.0002384185791015625,1.68
19960523183600.knt,IBR0019605231836.UD,1996-05-23, 18:36:00,38.653,142.313,39,5.0,IBR001,36.7761,140.3569,105,1996-05-23, 18:37:40,100Hz,59,U-D,0.0002384185791015625,1.313,270.4698922790076,0,1.0,0.7368198895447003,0.0,0.0,0.0,0.0,0.0,0.0,0.0,0.0,0.0,0.0,0.0,0.0,0.0,0.0,0.0,E-W,0.0002384185791015625,2.545,N-S,0.0002384185791015625,2.349
19960523183600.knt,IBR0039605231836.UD,1996-05-23, 18:36:00,38.653,142.313,39,5.0,IBR003,36.5915,140.6453,58,1996-05-23, 18:37:40,100Hz,59,U-D,0.0002384185791015625,1.861,272.23474472970526,0,-100.0,,0.0,0.0,0.0,0.0,0.0,0.0,0.0,0.0,0.0,0.0,0.0,0.0,0.0,0.0,0.0,E-W,0.0002384185791015625,2.979,N-S,0.0002384185791015625,3.563
19960523183600.knt,IWT0019605231836.UD,1996-05-23, 18:36:00,38.653,142.313,39,5.0,IWT001,40.4099,141.7191,15,1996-05-23, 18:37:23,100Hz,59,U-D,0.0002384185791015625,3.883,201.88743177390063,0,-100.0,,0.0,0.0,0.0,0.0,0.0,0.0,0.0,0.0,0.0,0.0,0.0,0.0,0.0,0.0,0.0,E-W,0.0002384185791015625,6.621,N-S,0.0002384185791015625,4.649
19960523183600.knt,IWT0039605231836.UD,1996-05-23, 18:36:00,38.653,142.313,39,5.0,IWT003,40.0083,141.8861,9,1996-05-23, 18:37:58,100Hz,59,U-D,0.0002384185791015625,4.764,155.11033389155577,1046,1114.0,30.062271795295707,0.3997757443047985,0.3777976638385828,0.4919685112771622,0.9238722312059726,2.2151030368778017,0.0016747611547332413,0.001530046044818305,0.001530046044818305,0.001530046044818305,0.001530046044818305,3.512872714002865,3.4580572348567222,3.0872811498680135,1.6148402648282418,1.092257496653124,E-W,0.0002384185791015625,6.289,N-S,0.0002384185791015625,7.104
19960523183600.knt,IWT0049605231836.UD,1996-05-23, 18:36:00,38.653,142.313,39,5.0,IWT004,39.7369,141.9697,8,1996-05-23, 18:37:04,100Hz,299,U-D,0.0002384185791015625,8.216,124.10167978159855,64,26.0,11.813811457499394,5.801654473526859,5.8050576222260375,5.626605297444193,4.638223406130508,2.905818326279775,0.01611263312659967,0.01611263312659967,0.01611263312659967,0.01477597672752604,0.009568379934167794,3.2085576509909135,3.2085576509909135,3.2085576509909135,3.2085576509909135,2.1780210933193427,E-W,0.0002384185791015625,9.953,N-S,0.0002384185791015625,12.654
19960523183600.knt,IWT0059605231836.UD,1996-05-23, 18:36:00,38.653,142.313,39,5.0,IWT005,39.6472,141.9464,4,1996-05-23, 18:37:02,100Hz,299,U-D,0.0002384185791015625,13.964,114.98070921425982,118,164.0,12.467937715883375,4.189299755111183,5.008074257414311,5.369002609134944,6.528248592900697,6.209548746789068,0.016045636689170643,0.016045636689170643,0.016045636689170643,0.01593896090266658,0.013495831955613906,2.9005687857885154,2.9005687857885154,2.9005687857885154,2.3864959090405193,1.4520155566732402,E-W,0.0002384185791015625,10.915,N-S,0.0002384185791015625,15.207
19960523183600.knt,IWT0069605231836.UD,1996-05-23, 18:36:00,38.653,142.313,39,5.0,IWT006,39.4806,141.9652,4,1996-05-23, 18:37:57,100Hz,299,U-D,0.0002384185791015625,12.692,96.79946826978218,2,462.0,2.8333226949379844,13.519935649754979,14.054992023059706,11.233613686450441,6.6912106706133185,2.8928753965896026,1.109531718954002,1.109531718954002,1.109531718954002,0.9137718435867025,0.3920184180057809,1.3042255011175077,1.2288216763981892,1.2288216763981892,1.2288216763981892,1.2288216763981892,E-W,0.0002384185791015625,19.756,N-S,0.0002384185791015625,20.659
19960523183600.knt,IWT0079605231836.UD,1996-05-23, 18:36:00,38.653,142.313,39,5.0,IWT007,39.2701,141.8561,11,1996-05-23, 18:37:44,100Hz,79,U-D,0.0002384185791015625,77.451,79.17718453396844,1441,1455.0,33.38364657645605,1.4039308151147485,1.5163879564587484,1.377044859526459,0.8790691324624906,0.230880663953571,0.019745657088572573,0.019745657088572573,0.019745657088572573,0.01682352270715827,0.006016615225641396,26.296064901136358,26.296064901136358,26.296064901136358,20.11874253679686,20.11874253679686,E-W,0.0002384185791015625,187.534,N-S,0.0002384185791015625,214.639
19960523183600.knt,IWT0089605231836.UD,1996-05-23, 18:36:00,38.653,142.313,39,5.0,IWT008,39.0815,141.7083,50,1996-05-23, 18:37:43,100Hz,59,U-D,0.0002384185791015625,16.667,70.7885135399485,1432,1437.0,40.374525733396815,0.6214053267962298,0.627224988137324,0.5548873048209132,0.5475471703737064,0.4432370622042897,0.008275335761843612,0.008275335761843612,0.008275335761843612,0.008275335761843612,0.008275335761843612,7.384992774228535,7.384992774228535,7.384992774228535,7.384992774228535,7.384992774228535,E-W,0.0002384185791015625,23.249,N-S,0.0002384185791015625,36.877
19960523183600.knt,IWT0099605231836.UD,1996-05-23, 18:36:00,38.653,142.313,39,5.0,IWT009,39.0187,141.4031,150,1996-05-23, 18:37:45,100Hz,77,U-D,0.0002384185791015625,19.334,88.68253278358311,1480,1490.0,37.47022680271674,0.876917369576557,0.93917464657672,0.9823360717809373,0.9715031648357302,1.1144956944629927,0.007479829102437572,0.007479829102437572,0.007479829102437572,0.007479829102437572,0.007479829102437572,9.427755136412536,9.427755136412536,9.427755136412536,9.427755136412536,9.427755136412536,E-W,0.0002384185791015625,48.561,N-S,0.0002384185791015625,96.767
