earthquake name,records name,earthquake date,earthquake time,lat,long,depth,mag,stn_code,stn_lat,stn_long,stn_height,rcd_date,rcd_time,frequency,rcd_duration,direction,scale_factor,max_pga,epi_dist,pick_index_manually,pick_index_kalkan,snr_db_kalkan,tc_5sec,tc_4sec,tc_3sec,tc_2sec,tc_1sec,Pd_5sec,Pd_4sec,Pd_3sec,Pd_2sec,Pd_1sec,Pga_5sec,Pga_4sec,Pga_3sec,Pga_2sec,Pga_1sec,Channel,Scale_factor,PGA_ew,Channel.1,Scale_factor.1,PGA_ns
19970118005300.knt,KGS0329701180053.UD,1997-01-18, 00:53:00,28.821,129.915,36,6.0,KGS032,28.1388,129.3206,2.0,1997-01-18, 00:54:34,100Hz,59,U-D,0.0002384185791015625,6.535,95.54765922443259,1128,1206.0,31.955848443259285,1.823014999568675,2.6899633185038474,2.387932498378517,2.4749970747634813,2.116202052215118,0.02458161666588911,0.02458161666588911,0.02251988574842873,0.007373274992154582,0.004001583413268621,3.555854003347685,2.7205958738483633,2.322788250457702,1.1176494409996287,0.3993651434422432,E-W,0.0002384185791015625,18.014,N-S,0.0002384185791015625,16.348
19970118005300.knt,KGS0339701180053.UD,1997-01-18, 00:53:00,28.821,129.915,36,6.0,KGS033,27.6882,128.9427,135.0,1997-01-18, 00:54:47,100Hz,59,U-D,0.0002384185791015625,5.252,157.9085113306571,770,865.0,31.416207950970872,2.084271249801672,2.2276528898574366,2.827002091076399,1.2689473803894291,1.8428118084166984,0.017271800089180164,0.017271800089180164,0.017271800089180164,0.01305731463926987,0.001818178922323691,2.2293485517558933,2.2293485517558933,1.2956215681566188,0.8543410626244596,0.37932738116737713,E-W,0.0002384185791015625,17.048,N-S,0.0002384185791015625,15.874
19970118005300.knt,MYZ0139701180053.UD,1997-01-18, 00:53:00,28.821,129.915,36,6.0,MYZ013,31.9087,131.4187,5.0,1997-01-18, 00:54:51,100Hz,59,U-D,0.0002384185791015625,0.673,372.4010886062128,0,1.0,19.60745814393606,0.0,0.0,0.0,0.0,0.0,0.0,0.0,0.0,0.0,0.0,0.0,0.0,0.0,0.0,0.0,E-W,0.0002384185791015625,2.199,N-S,0.0002384185791015625,2.62
19970120180900.knt,TKY0089701201809.UD,1997-01-20, 18:09:00,34.52,139.247,8,3.8,TKY008,34.7852,139.3909,67.0,1997-01-20, 18:09:20,100Hz,59,U-D,0.0002384185791015625,4.149,32.29316650954332,952,968.0,26.86582035399401,1.641255166266854,1.7802233319908711,1.9600662436304086,2.1522605072923873,1.2750732326378413,0.005876672452683324,0.005876672452683324,0.005876672452683324,0.005876672452683324,0.0037005568795744096,2.647367143923342,1.091058048124637,1.091058048124637,1.091058048124637,0.9281312433259541,E-W,0.0002384185791015625,9.167,N-S,0.0002384185791015625,8.581
19970120180900.knt,TKY0099701201809.UD,1997-01-20, 18:09:00,34.52,139.247,8,3.8,TKY009,34.6874,139.4412,60.0,1997-01-20, 18:09:15,100Hz,59,U-D,0.0002384185791015625,5.498,25.737107505125564,1370,1367.0,19.72501062623115,1.9333957058047477,1.4091595733541868,1.4525590838236,1.503494065373904,0.717169973739919,0.015526151357397064,0.012623981185510075,0.012623981185510075,0.012623981185510075,0.009415586683574952,5.446846846582776,5.446846846582776,5.446846846582776,5.446846846582776,5.446846846582776,E-W,0.0002384185791015625,4.133,N-S,0.0002384185791015625,5.186
19970120180900.knt,TKY0109701201809.UD,1997-01-20, 18:09:00,34.52,139.247,8,3.8,TKY010,34.3775,139.2557,13.0,1997-01-20, 18:09:13,100Hz,59,U-D,0.0002384185791015625,11.701,15.865345968203473,1444,1450.0,26.514757276672206,0.5147704942256005,0.5556448914503692,0.5403186066964407,0.46175102464107853,0.49610112217349756,0.018744830222126297,0.018744830222126297,0.018744830222126297,0.008356194988722325,0.008356194988722325,9.382534159975993,9.382534159975993,8.695466360725755,6.822254272011317,6.076333123932928,E-W,0.0002384185791015625,22.138,N-S,0.0002384185791015625,24.017
19970120180900.knt,TKY0119701201809.UD,1997-01-20, 18:09:00,34.52,139.247,8,3.8,TKY011,34.1228,139.5315,42.0,1997-01-20, 18:09:26,100Hz,59,U-D,0.0002384185791015625,0.708,51.315688428891775,749,638.0,17.079284384388732,1.4805538015635182,1.611531813380032,1.6457106432802622,1.7818404506524816,2.0955775316851515,0.0022177443573354093,0.0022177443573354093,0.0022177443573354093,0.002139055240827293,0.002139055240827293,0.31605772109711805,0.31605772109711805,0.31605772109711805,0.2977846953871524,0.24284219048188646,E-W,0.0002384185791015625,2.086,N-S,0.0002384185791015625,2.591
19970120193000.knt,TKY0089701201930.UD,1997-01-20, 19:30:00,34.52,139.247,6,3.9,TKY008,34.7852,139.3909,67.0,1997-01-20, 19:30:11,100Hz,59,U-D,0.0002384185791015625,2.898,32.29316650954332,916,948.0,23.434838046846803,2.4594850460266198,2.746894927592331,2.077068186974669,2.2546074812338723,0.7529141595415719,0.007638996353615222,0.007638996353615222,0.004781760529953389,0.004781760529953389,0.0026502814723483254,1.0671795061924023,1.0028987811475785,1.0028987811475785,0.9565210650903034,0.8060413671975045,E-W,0.0002384185791015625,4.501,N-S,0.0002384185791015625,7.844
19970120193000.knt,TKY0099701201930.UD,1997-01-20, 19:30:00,34.52,139.247,6,3.9,TKY009,34.6874,139.4412,60.0,1997-01-20, 19:30:09,100Hz,59,U-D,0.0002384185791015625,2.831,25.737107505125564,1031,1027.0,19.174189790391182,1.4014779338204728,1.4417482580203478,1.4241144219991602,2.145152219022812,1.117615485414617,0.012343612017665552,0.008939651239128595,0.008939651239128595,0.008939651239128595,0.0052330965886637675,1.6291164847098933,1.6291164847098933,1.6291164847098933,1.6291164847098933,1.42740484317452,E-W,0.0002384185791015625,3.982,N-S,0.0002384185791015625,4.739
19970120193000.knt,TKY0109701201930.UD,1997-01-20, 19:30:00,34.52,139.247,6,3.9,TKY010,34.3775,139.2557,13.0,1997-01-20, 19:30:04,100Hz,59,U-D,0.0002384185791015625,16.508,15.865345968203473,1366,1361.0,32.08177342148245,0.5415724497334105,0.6637000033143113,0.6737089480831029,0.41200735203728045,0.4461090208793815,0.05031973021399336,0.03203768875096761,0.02866306922306118,0.010954050335225916,0.010954050335225916,13.2587583488705,12.333715445859486,11.469119432948952,11.469119432948952,11.469119432948952,E-W,0.0002384185791015625,24.173,N-S,0.0002384185791015625,31.582
19970123144400.knt,AKT0239701231444.UD,1997-01-23, 14:44:00,38.886,141.014,10,3.8,AKT023,39.1462,140.717,280.0,1997-01-23, 14:44:39,100Hz,59,U-D,0.0002384185791015625,1.04,38.671833175476266,983,983.0,25.352356523153787,1.0268346155594008,1.3632713196737878,1.2938260016701268,0.8676120200223955,0.5489039807542114,0.0010491550310824753,0.0010491550310824753,0.0010491550310824753,0.0008476095187232066,0.000768078084867551,0.6129864733676484,0.4177584693644695,0.4177584693644695,0.4177584693644695,0.4177584693644695,E-W,0.0002384185791015625,1.439,N-S,0.0002384185791015625,2.24
19970123144400.knt,IWT0099701231444.UD,1997-01-23, 14:44:00,38.886,141.014,10,3.8,IWT009,39.0187,141.4031,150.0,1997-01-23, 14:44:39,100Hz,59,U-D,0.0002384185791015625,1.549,36.73984762876817,973,982.0,25.589067326653762,1.4953772943416086,1.5323849799465459,1.6465838689388954,1.6706376222388148,2.0007654411226046,0.0014737034936204627,0.0012436951188624112,0.0012436951188624112,0.0012436951188624112,0.0012436951188624112,0.9164879528151432,0.8305981014130053,0.8305981014130053,0.8305981014130053,0.8305981014130053,E-W,0.0002384185791015625,4.103,N-S,0.0002384185791015625,6.233
19970123144400.knt,IWT0109701231444.UD,1997-01-23, 14:44:00,38.886,141.014,10,3.8,IWT010,38.9334,141.1173,37.0,1997-01-23, 14:44:32,100Hz,59,U-D,0.0002384185791015625,4.683,10.376309493816812,1273,1273.0,16.512178838008968,1.089222115276925,0.956535408665568,0.8637391661548512,0.6296056126113648,0.7877278545299707,0.009666518606146177,0.009666518606146177,0.007489409187843948,0.0034264324662076134,0.0023289574008192176,4.686951779420577,4.686951779420577,4.686951779420577,4.478237480955211,4.478237480955211,E-W,0.0002384185791015625,8.263,N-S,0.0002384185791015625,12.166
19970123144400.knt,MYG0029701231444.UD,1997-01-23, 14:44:00,38.886,141.014,10,3.8,MYG002,38.7262,141.5109,79.0,1997-01-23, 14:44:43,100Hz,59,U-D,0.0002384185791015625,1.703,46.57921147698194,751,765.0,28.786381444788177,5.457286012692107,5.822606094103578,5.406022379170235,4.922455493382461,3.6188231310425096,0.0041949777138358705,0.0041949777138358705,0.004090251795505392,0.004090251795505392,0.0034831415382382764,1.7062534998613812,1.7062534998613812,1.7062534998613812,1.7062534998613812,1.7062534998613812,E-W,0.0002384185791015625,4.247,N-S,0.0002384185791015625,5.396
19970123144400.knt,MYG0039701231444.UD,1997-01-23, 14:44:00,38.886,141.014,10,3.8,MYG003,38.7348,141.3106,28.0,1997-01-23, 14:44:39,100Hz,59,U-D,0.0002384185791015625,1.505,30.710095509865994,882,882.0,30.770043867976206,2.018818533784263,1.6818635362109073,0.9622921461979189,0.689810151246289,0.6700838486608851,0.003521165739794154,0.002656870302185908,0.0015490896651298742,0.0009544666935308245,0.0009349358626353201,1.5071955780545059,1.5071955780545059,1.5071955780545059,1.5071955780545059,1.5071955780545059,E-W,0.0002384185791015625,3.466,N-S,0.0002384185791015625,3.033
19970123144400.knt,MYG0049701231444.UD,1997-01-23, 14:44:00,38.886,141.014,10,3.8,MYG004,38.7292,141.0217,40.0,1997-01-23, 14:44:32,100Hz,59,U-D,0.0002384185791015625,4.01,17.44812564417727,1403,1398.0,30.5262540991924,0.6071086065335752,0.6414962830884049,0.4789715578181281,0.3359064407968972,0.22780074186560142,0.005077625270302953,0.004998578003384481,0.003633959574303327,0.0022087635678894216,0.00107975638206632,4.036357428708623,2.6101140292514255,2.3210123981630364,2.3210123981630364,2.3210123981630364,E-W,0.0002384185791015625,13.726,N-S,0.0002384185791015625,16.899
19970123144400.knt,MYG0059701231444.UD,1997-01-23, 14:44:00,38.886,141.014,10,3.8,MYG005,38.7992,140.6507,300.0,1997-01-23, 14:44:41,100Hz,59,U-D,0.0002384185791015625,2.844,32.91121854079185,722,752.0,22.622644192880266,9.067901105055816,15.365536572584523,17.321798542539845,17.817627850821268,14.028354783453977,0.013245270757238563,0.013245270757238563,0.013245270757238563,0.013245270757238563,0.01254145679229845,2.574134386462209,0.8508787686442514,0.7827898595724324,0.4163968926504156,0.3745635373864081,E-W,0.0002384185791015625,6.584,N-S,0.0002384185791015625,5.074
19970123144400.knt,YMT0029701231444.UD,1997-01-23, 14:44:00,38.886,141.014,10,3.8,YMT002,38.7679,140.2957,100.0,1997-01-23, 14:44:47,100Hz,59,U-D,0.0002384185791015625,0.68,63.5936740929005,0,-100.0,,0.0,0.0,0.0,0.0,0.0,0.0,0.0,0.0,0.0,0.0,0.0,0.0,0.0,0.0,0.0,E-W,0.0002384185791015625,4.746,N-S,0.0002384185791015625,3.404
19970123144400.knt,YMT0059701231444.UD,1997-01-23, 14:44:00,38.886,141.014,10,3.8,YMT005,38.607,140.1621,350.0,1997-01-23, 14:44:51,100Hz,59,U-D,0.0002384185791015625,1.756,80.12858669152183,163,163.0,16.207283540499983,3.3239402842124135,3.3303375202912866,3.6541102930554143,2.3237082487981255,2.3263612550318613,0.0011605507353033824,0.001124293642831561,0.0008424199141566179,0.0005595788350236638,0.0005373697088526787,0.3053456747877413,0.3053456747877413,0.21004561705584224,0.21004561705584224,0.21004561705584224,E-W,0.0002384185791015625,3.27,N-S,0.0002384185791015625,3.168
19970127002600.knt,CHB0019701270026.UD,1997-01-27, 00:26:00,35.753,140.08,77,4.2,CHB001,35.9595,139.8733,13.0,1997-01-27, 00:27:53,100Hz,59,U-D,0.0002384185791015625,8.579,29.56778022448366,1437,1441.0,24.611164172582782,0.4885387708054574,0.47346529598437403,0.5218098043678775,0.3969504302049002,0.3276099523062162,0.0052959535032935144,0.0052959535032935144,0.0052959535032935144,0.004546363334950312,0.004048846771729206,8.593924863308688,8.593924863308688,8.593924863308688,8.593924863308688,8.593924863308688,E-W,0.0002384185791015625,14.677,N-S,0.0002384185791015625,18.436
19970127002600.knt,CHB0029701270026.UD,1997-01-27, 00:26:00,35.753,140.08,77,4.2,CHB002,35.7868,139.9031,14.0,1997-01-27, 00:27:53,100Hz,59,U-D,0.0002384185791015625,4.021,16.396533140290188,1403,1415.0,31.59597102375196,0.8707046276717813,0.7910623013998885,0.725606282421676,0.748881415523312,0.5240197764907043,0.005373380109412199,0.004258602882991139,0.004258602882991139,0.004012165565649893,0.0037788541757093467,4.0258591104769215,3.7018210076107696,3.7018210076107696,3.7018210076107696,3.7018210076107696,E-W,0.0002384185791015625,11.26,N-S,0.0002384185791015625,15.413
19970127002600.knt,CHB0039701270026.UD,1997-01-27, 00:26:00,35.753,140.08,77,4.2,CHB003,35.7943,140.0564,28.0,1997-01-27, 00:27:53,100Hz,59,U-D,0.0002384185791015625,6.794,5.061891695705673,1335,1345.0,29.22356004015253,0.3822346104488187,0.4067920815689544,0.38062592831843906,0.3816593123833446,0.46654757386586043,0.005118623557509405,0.005118623557509405,0.005118623557509405,0.005118623557509405,0.005118623557509405,6.784026330329475,6.590645632452996,6.590645632452996,6.590645632452996,6.190750297590243,E-W,0.0002384185791015625,12.405,N-S,0.0002384185791015625,11.009
19970127002600.knt,CHB0089701270026.UD,1997-01-27, 00:26:00,35.753,140.08,77,4.2,CHB008,35.6537,139.9023,4.0,1997-01-27, 00:27:02,100Hz,59,U-D,0.0002384185791015625,4.193,19.47762571527396,516,533.0,22.783434003906606,3.4075501037744647,2.545247973614885,1.9638667095882496,1.3839920419101306,1.001240500803659,0.01377348172031723,0.011575114627089083,0.007730914217883149,0.006487506466382893,0.005227220634633645,2.648473378628349,2.648473378628349,2.648473378628349,2.648473378628349,2.648473378628349,E-W,0.0002384185791015625,7.986,N-S,0.0002384185791015625,7.994
19970127002600.knt,CHB0099701270026.UD,1997-01-27, 00:26:00,35.753,140.08,77,4.2,CHB009,35.6082,140.1022,4.0,1997-01-27, 00:27:02,100Hz,59,U-D,0.0002384185791015625,2.725,16.225399573376976,500,498.00000000000006,21.74914998784687,1.8614430341407848,1.800065054966528,1.5355180695847688,1.4532773460965567,1.5847574243874376,0.010087195834276539,0.010087195834276539,0.010087195834276539,0.010087195834276539,0.010087195834276539,2.659830945354571,2.659830945354571,2.659830945354571,2.078264380702138,2.078264380702138,E-W,0.0002384185791015625,6.862,N-S,0.0002384185791015625,6.458
19970127002600.knt,CHB0109701270026.UD,1997-01-27, 00:26:00,35.753,140.08,77,4.2,CHB010,35.7077,140.568,8.0,1997-01-27, 00:27:11,100Hz,59,U-D,0.0002384185791015625,1.311,44.33642911778195,0,-100.0,,0.0,0.0,0.0,0.0,0.0,0.0,0.0,0.0,0.0,0.0,0.0,0.0,0.0,0.0,0.0,E-W,0.0002384185791015625,2.15,N-S,0.0002384185791015625,2.419
19970127002600.knt,CHB0129701270026.UD,1997-01-27, 00:26:00,35.753,140.08,77,4.2,CHB012,35.5727,140.3333,62.0,1997-01-27, 00:27:54,100Hz,59,U-D,0.0002384185791015625,2.713,30.42359009962279,1368,1382.0,32.34650513503077,1.0446679151793665,0.8703846503466873,0.8618108665397478,0.7644536098090101,0.37165177786948966,0.008149996910999324,0.008149996910999324,0.008149996910999324,0.008149996910999324,0.0039451973371849615,2.7068044736951125,2.7068044736951125,2.7068044736951125,2.7068044736951125,2.6971042295151033,E-W,0.0002384185791015625,3.934,N-S,0.0002384185791015625,4.196
19970127002600.knt,CHB0149701270026.UD,1997-01-27, 00:26:00,35.753,140.08,77,4.2,CHB014,35.4769,140.0489,7.0,1997-01-27, 00:27:04,100Hz,59,U-D,0.0002384185791015625,5.213,30.829366873315603,379,382.0,23.136294786741715,0.9409420714699764,0.818056285864926,1.030998928848215,1.1681880020829025,1.2668105419399713,0.0033804757467539477,0.0033804757467539477,0.0033804757467539477,0.0033804757467539477,0.0033804757467539477,1.3862227301486019,1.3862227301486019,1.3862227301486019,1.3862227301486019,1.3862227301486019,E-W,0.0002384185791015625,8.855,N-S,0.0002384185791015625,8.063
19970127002600.knt,CHB0159701270026.UD,1997-01-27, 00:26:00,35.753,140.08,77,4.2,CHB015,35.3738,139.9159,2.0,1997-01-27, 00:27:05,100Hz,59,U-D,0.0002384185791015625,4.696,44.701504603036774,377,381.0,32.97538877212124,2.9940796494383477,2.889505476159721,3.0556751289869593,3.480711861317516,3.902111912251707,0.01077139373733024,0.01077139373733024,0.01077139373733024,0.01077139373733024,0.01077139373733024,2.8256387239122547,2.8256387239122547,2.8256387239122547,2.8256387239122547,1.6060177085218952,E-W,0.0002384185791015625,6.633,N-S,0.0002384185791015625,10.699
19970127002600.knt,CHB0179701270026.UD,1997-01-27, 00:26:00,35.753,140.08,77,4.2,CHB017,35.2988,140.0755,31.0,1997-01-27, 00:27:05,100Hz,59,U-D,0.0002384185791015625,3.201,50.50637745051807,418,431.00000000000006,30.30570515587418,5.132002832533356,4.600398797957334,3.789026580644556,4.203270107386126,5.487582678310433,0.017452203957233802,0.017452203957233802,0.017452203957233802,0.017452203957233802,0.017452203957233802,1.9592054296413544,1.7037336193578863,1.7037336193578863,1.7037336193578863,1.7037336193578863,E-W,0.0002384185791015625,7.46,N-S,0.0002384185791015625,7.311
19970127002600.knt,CHB0189701270026.UD,1997-01-27, 00:26:00,35.753,140.08,77,4.2,CHB018,35.1577,140.3222,56.0,1997-01-27, 00:27:10,100Hz,59,U-D,0.0002384185791015625,1.186,69.73472338613716,6,32.0,13.699672549377306,12.519817157413964,12.678683744650826,10.402083748597597,6.405218084824427,2.990508025147192,0.02397333798456151,0.02397333798456151,0.02397333798456151,0.018737393815614577,0.008387071362730541,0.6452525613813768,0.6452525613813768,0.6452525613813768,0.6452525613813768,0.6452525613813768,E-W,0.0002384185791015625,2.306,N-S,0.0002384185791015625,1.749
19970127002600.knt,CHB0219701270026.UD,1997-01-27, 00:26:00,35.753,140.08,77,4.2,CHB021,34.9083,139.8979,6.0,1997-01-27, 00:27:12,100Hz,59,U-D,0.0002384185791015625,1.046,95.36790593839395,83,109.00000000000001,15.68562344499378,5.329530662616938,4.859587726273644,3.767689393832848,2.0357590833851034,1.1726751377357316,0.004820245246925342,0.004820245246925342,0.0046206899766354755,0.0032375928371585028,0.0013956869231747215,1.0506720198735733,1.0506720198735733,1.0506720198735733,1.0506720198735733,1.0506720198735733,E-W,0.0002384185791015625,3.089,N-S,0.0002384185791015625,4.087
19970127002600.knt,CHB0229701270026.UD,1997-01-27, 00:26:00,35.753,140.08,77,4.2,CHB022,35.3083,139.8598,7.0,1997-01-27, 00:27:06,100Hz,59,U-D,0.0002384185791015625,6.042,53.31216840548923,344,405.0,19.457946088057774,7.717835167884197,7.946356979309723,9.109610304978782,12.33374310400911,17.015887668562158,0.01792490035120472,0.01792490035120472,0.01792490035120472,0.01792490035120472,0.01792490035120472,1.0361646996921916,0.8944463354363746,0.6946775163821055,0.6946775163821055,0.5563583941811668,E-W,0.0002384185791015625,10.627,N-S,0.0002384185791015625,9.782
19970127002600.knt,GNM0019701270026.UD,1997-01-27, 00:26:00,35.753,140.08,77,4.2,GNM001,36.7722,139.2248,810.0,1997-01-27, 00:27:21,100Hz,59,U-D,0.0002384185791015625,2.616,136.82968540322386,0,1.0,-9.852408969283829,0.0,0.0,0.0,0.0,0.0,0.0,0.0,0.0,0.0,0.0,0.0,0.0,0.0,0.0,0.0,E-W,0.0002384185791015625,3.068,N-S,0.0002384185791015625,3.141
19970127002600.knt,GNM0039701270026.UD,1997-01-27, 00:26:00,35.753,140.08,77,4.2,GNM003,36.6578,139.0784,462.0,1997-01-27, 00:27:19,100Hz,59,U-D,0.0002384185791015625,1.395,134.89929634590186,0,1.0,1.1631615222607314,0.0,0.0,0.0,0.0,0.0,0.0,0.0,0.0,0.0,0.0,0.0,0.0,0.0,0.0,0.0,E-W,0.0002384185791015625,3.507,N-S,0.0002384185791015625,3.911
19970127002600.knt,GNM0099701270026.UD,1997-01-27, 00:26:00,35.753,140.08,77,4.2,GNM009,36.4106,139.3251,114.0,1997-01-27, 00:27:12,100Hz,59,U-D,0.0002384185791015625,2.933,99.74368036207778,126,126.0,22.70838633547449,8.018249327060666,9.816647391440897,10.643977676646122,9.67316232345815,7.8955056002124,0.014514848222498876,0.014514848222498876,0.014514848222498876,0.014372827777440698,0.011770154748725113,2.100655466408143,2.100655466408143,1.702441003807363,1.702441003807363,1.1048206658774666,E-W,0.0002384185791015625,7.432,N-S,0.0002384185791015625,6.319
19970127002600.knt,IBR0029701270026.UD,1997-01-27, 00:26:00,35.753,140.08,77,4.2,IBR002,36.7061,140.7068,9.0,1997-01-27, 00:27:21,100Hz,59,U-D,0.0002384185791015625,0.997,119.96827561195677,0,1.0,0.5727089697994886,0.0,0.0,0.0,0.0,0.0,0.0,0.0,0.0,0.0,0.0,0.0,0.0,0.0,0.0,0.0,E-W,0.0002384185791015625,1.935,N-S,0.0002384185791015625,2.333
