earthquake name,records name,earthquake date,earthquake time,lat,long,depth,mag,stn_code,stn_lat,stn_long,stn_height,rcd_date,rcd_time,frequency,rcd_duration,direction,scale_factor,max_pga,epi_dist,pick_index_manually,pick_index_kalkan,snr_db_kalkan,tc_5sec,tc_4sec,tc_3sec,tc_2sec,tc_1sec,Pd_5sec,Pd_4sec,Pd_3sec,Pd_2sec,Pd_1sec,Pga_5sec,Pga_4sec,Pga_3sec,Pga_2sec,Pga_1sec,Channel,Scale_factor,PGA_ew,Channel.1,Scale_factor.1,PGA_ns
19970107180200.knt,HKD1259701071802.UD,1997-01-07, 18:02:00,42.27,142.979,65,4.6,HKD125,42.7608,142.1346,70.0,1997-01-07, 18:03:30,100Hz,59,U-D,0.0002384185791015625,0.715,88.13622828643553,0,2.0,-1.384847049224875,0.0,0.0,0.0,0.0,0.0,0.0,0.0,0.0,0.0,0.0,0.0,0.0,0.0,0.0,0.0,E-W,0.0002384185791015625,2.669,N-S,0.0002384185791015625,1.697
19970107180200.knt,HKD1279701071802.UD,1997-01-07, 18:02:00,42.27,142.979,65,4.6,HKD127,42.8741,141.8204,63.0,1997-01-07, 18:03:33,100Hz,59,U-D,0.0002384185791015625,0.897,116.24491025250988,0,1.0,-5.53660770166046,0.0,0.0,0.0,0.0,0.0,0.0,0.0,0.0,0.0,0.0,0.0,0.0,0.0,0.0,0.0,E-W,0.0002384185791015625,2.55,N-S,0.0002384185791015625,2.324
19970107180200.knt,HKD1589701071802.UD,1997-01-07, 18:02:00,42.27,142.979,65,4.6,HKD158,41.8345,141.1411,6.0,1997-01-07, 18:03:39,100Hz,59,U-D,0.0002384185791015625,1.608,159.28354969975678,0,-100.0,,0.0,0.0,0.0,0.0,0.0,0.0,0.0,0.0,0.0,0.0,0.0,0.0,0.0,0.0,0.0,E-W,0.0002384185791015625,3.049,N-S,0.0002384185791015625,2.584
19970107180200.knt,HKD1599701071802.UD,1997-01-07, 18:02:00,42.27,142.979,65,4.6,HKD159,41.7162,141.0025,35.0,1997-01-07, 18:03:43,100Hz,59,U-D,0.0002384185791015625,1.139,174.56038033500295,0,1.0,1.336261859257932,0.0,0.0,0.0,0.0,0.0,0.0,0.0,0.0,0.0,0.0,0.0,0.0,0.0,0.0,0.0,E-W,0.0002384185791015625,3.135,N-S,0.0002384185791015625,3.802
19970107180200.knt,HKD1859701071802.UD,1997-01-07, 18:02:00,42.27,142.979,65,4.6,HKD185,42.7755,141.4021,252.0,1997-01-07, 18:03:42,100Hz,59,U-D,0.0002384185791015625,2.033,140.92152717572202,0,5.0,0.9876232920489602,0.0,0.0,0.0,0.0,0.0,0.0,0.0,0.0,0.0,0.0,0.0,0.0,0.0,0.0,0.0,E-W,0.0002384185791015625,1.962,N-S,0.0002384185791015625,2.434
19970108223600.knt,FKI0089701082236.UD,1997-01-08, 22:36:00,35.153,135.514,13,4.0,FKI008,35.5479,135.9084,13.0,1997-01-08, 22:36:46,100Hz,59,U-D,0.0002384185791015625,1.652,56.63581852505101,810,850.0,17.485997002767984,3.1011357757560387,3.7189725181453905,4.6175405150773114,4.420842257587962,5.1974869532529615,0.0011906338207254685,0.0011906338207254685,0.001076742480345801,0.0009188668492185553,0.0009188668492185553,0.5635172354691094,0.5635172354691094,0.43410181681594245,0.43410181681594245,0.3441510493768027,E-W,0.0002384185791015625,4.601,N-S,0.0002384185791015625,5.23
19970108223600.knt,FKI0109701082236.UD,1997-01-08, 22:36:00,35.153,135.514,13,4.0,FKI010,35.4904,135.551,2.0,1997-01-08, 22:36:41,100Hz,59,U-D,0.0002384185791015625,2.423,37.66704605515524,1017,1018.0,28.871034899756737,1.8840392564640847,2.4750064413187425,2.8065835988025944,3.327371332069995,3.191045221837879,0.0030774164085615226,0.0030774164085615226,0.0030774164085615226,0.0030774164085615226,0.0030774164085615226,2.4112330788691216,2.3194705098095603,2.3194705098095603,2.3194705098095603,2.3194705098095603,E-W,0.0002384185791015625,7.817,N-S,0.0002384185791015625,5.907
19970108223600.knt,HYG0039701082236.UD,1997-01-08, 22:36:00,35.153,135.514,13,4.0,HYG003,35.4615,134.8758,10.0,1997-01-08, 22:36:50,100Hz,59,U-D,0.0002384185791015625,2.328,67.30877600707764,585,583.0,13.673371689879055,12.141199738082868,10.10307737495005,7.521998871786035,4.513331926167681,1.5929233855788705,0.017114564544575325,0.016935732917925227,0.016033813298332956,0.012393110041592607,0.005212110607228653,2.334725602609913,2.334725602609913,2.334725602609913,2.334725602609913,2.334725602609913,E-W,0.0002384185791015625,4.498,N-S,0.0002384185791015625,2.61
19970108223600.knt,HYG0089701082236.UD,1997-01-08, 22:36:00,35.153,135.514,13,4.0,HYG008,35.1482,134.788,300.0,1997-01-08, 22:36:41,100Hz,59,U-D,0.0002384185791015625,4.387,66.00818665621959,1468,1474.0,25.323254497601507,0.8523713265393066,0.8394343792452632,0.71785931024947,0.28687694101331956,0.23108600537587334,0.0023412171089628765,0.0023412171089628765,0.0023412171089628765,0.001378367336221649,0.001378367336221649,4.392395333588384,4.392395333588384,4.392395333588384,4.392395333588384,4.392395333588384,E-W,0.0002384185791015625,4.143,N-S,0.0002384185791015625,3.681
19970108223600.knt,HYG0099701082236.UD,1997-01-08, 22:36:00,35.153,135.514,13,4.0,HYG009,35.169,135.1041,85.0,1997-01-08, 22:36:37,100Hz,59,U-D,0.0002384185791015625,4.549,37.30478101125229,1406,1404.0,29.023967293353742,1.8482054641647134,2.076317345125308,1.9522004982203733,1.5227921717960513,0.9228318179319829,0.003999058586654312,0.003999058586654312,0.003999058586654312,0.0038666586514614423,0.003278129973728448,4.5461449136533005,4.5461449136533005,4.5461449136533005,4.5461449136533005,4.5461449136533005,E-W,0.0002384185791015625,6.46,N-S,0.0002384185791015625,6.692
19970108223600.knt,HYG0139701082236.UD,1997-01-08, 22:36:00,35.153,135.514,13,4.0,HYG013,34.989,134.7634,85.0,1997-01-08, 22:36:42,100Hz,59,U-D,0.0002384185791015625,5.33,70.70148630129644,1443,1446.0,25.084119120057164,0.7812716185442001,0.7638792418704443,0.5543980292369385,0.3932089909731878,0.38688413890317613,0.001383366494103082,0.001383366494103082,0.0012427898701502338,0.0011426215351953302,0.0011426215351953302,5.328226169180574,5.328226169180574,5.328226169180574,5.328226169180574,5.328226169180574,E-W,0.0002384185791015625,3.117,N-S,0.0002384185791015625,2.743
19970108223600.knt,HYG0149701082236.UD,1997-01-08, 22:36:00,35.153,135.514,13,4.0,HYG014,35.0023,134.9999,75.0,1997-01-08, 22:36:45,100Hz,59,U-D,0.0002384185791015625,1.972,49.693092790663904,801,798.0,22.504153778235327,6.7303676574287765,6.590360516885424,5.545892171601179,3.7897671066879064,1.8839705319982214,0.006218447131585717,0.006218447131585717,0.006218447131585717,0.005429939520161942,0.003361053280970358,1.9800516555108583,1.9800516555108583,1.9800516555108583,1.9800516555108583,1.9800516555108583,E-W,0.0002384185791015625,5.639,N-S,0.0002384185791015625,4.746
19970108223600.knt,HYG0159701082236.UD,1997-01-08, 22:36:00,35.153,135.514,13,4.0,HYG015,34.9515,135.2713,195.0,1997-01-08, 22:36:36,100Hz,59,U-D,0.0002384185791015625,5.33,31.465676482070688,1416,1415.0,38.460332468338144,2.464429637745348,4.162101494727022,3.5126016149191925,1.8074189692418228,0.34362870868935763,0.012836825958694216,0.012836825958694216,0.012836825958694216,0.010166381595750305,0.002868653525364114,5.271717046781006,4.120270117700535,4.120270117700535,4.120270117700535,4.120270117700535,E-W,0.0002384185791015625,15.614,N-S,0.0002384185791015625,19.782
19970108223600.knt,HYG0189701082236.UD,1997-01-08, 22:36:00,35.153,135.514,13,4.0,HYG018,34.8143,134.687,9.0,1997-01-08, 22:36:44,100Hz,59,U-D,0.0002384185791015625,2.614,84.23104824009975,1462,1462.0,21.2501630272001,0.3493996084302536,0.34596049973091564,0.3391028801973572,0.29967319413316373,0.27145491370957514,0.002024265268842038,0.002024265268842038,0.002024265268842038,0.002024265268842038,0.002024265268842038,2.6129222345826686,2.6129222345826686,2.6129222345826686,2.6129222345826686,2.6129222345826686,E-W,0.0002384185791015625,4.031,N-S,0.0002384185791015625,3.164
19970108223600.knt,HYG0209701082236.UD,1997-01-08, 22:36:00,35.153,135.514,13,4.0,HYG020,34.7976,134.9899,75.0,1997-01-08, 22:36:41,100Hz,59,U-D,0.0002384185791015625,2.591,61.98377875930407,1421,1415.0,28.586629747621203,0.8754764441195958,0.6982948311669938,0.4416785872118373,0.35850761026225153,0.3565900108749181,0.0017932556796797247,0.0017932556796797247,0.0017932556796797247,0.0017932556796797247,0.0017932556796797247,2.584786364514528,2.584786364514528,2.584786364514528,2.584786364514528,2.584786364514528,E-W,0.0002384185791015625,3.185,N-S,0.0002384185791015625,2.125
19970108223600.knt,HYG0219701082236.UD,1997-01-08, 22:36:00,35.153,135.514,13,4.0,HYG021,34.6898,135.1583,90.0,1997-01-08, 22:36:48,100Hz,59,U-D,0.0002384185791015625,2.194,60.86476456923557,685,463.99999999999994,15.46240524842167,5.372736611515701,5.595870575045337,2.347782764904134,1.7620649369340937,2.040996226369555,0.008703188882272046,0.008703188882272046,0.004789660953749111,0.0018158178434357554,0.0018158178434357554,0.34561176138650074,0.34561176138650074,0.34561176138650074,0.34561176138650074,0.3086379059409788,E-W,0.0002384185791015625,7.855,N-S,0.0002384185791015625,3.82
19970108223600.knt,HYG0249701082236.UD,1997-01-08, 22:36:00,35.153,135.514,13,4.0,HYG024,34.5321,134.9902,6.0,1997-01-08, 22:36:56,100Hz,59,U-D,0.0002384185791015625,0.887,83.9740654908139,0,-100.0,,0.0,0.0,0.0,0.0,0.0,0.0,0.0,0.0,0.0,0.0,0.0,0.0,0.0,0.0,0.0,E-W,0.0002384185791015625,1.618,N-S,0.0002384185791015625,3.451
19970108223600.knt,KYT0069701082236.UD,1997-01-08, 22:36:00,35.153,135.514,13,4.0,KYT006,35.2759,135.1827,72.0,1997-01-08, 22:36:36,100Hz,59,U-D,0.0002384185791015625,4.941,33.05456320165108,1451,1454.0,31.084878084949192,3.0093670720081307,3.7567454481774627,3.051518293689599,1.821762662109877,0.5059871118271059,0.01069856375608556,0.01069856375608556,0.010384542333154357,0.008560389222195366,0.003520681669166854,4.9533469415274105,4.48685437995783,4.48685437995783,4.48685437995783,4.48685437995783,E-W,0.0002384185791015625,5.631,N-S,0.0002384185791015625,7.775
19970108223600.knt,KYT0079701082236.UD,1997-01-08, 22:36:00,35.153,135.514,13,4.0,KYT007,35.3057,135.713,402.0,1997-01-08, 22:36:38,100Hz,59,U-D,0.0002384185791015625,8.384,24.79939471054932,1100,1112.0,25.48887085917565,2.1576459970872373,1.9274100721147038,4.374845406158095,3.3208020118142567,0.9672874675342978,0.01743909754456771,0.01743909754456771,0.009685576947403601,0.006176693989107642,0.0019227563289790453,8.369394636529568,8.369394636529568,2.62649689851866,1.1448355317369427,0.8188020047912783,E-W,0.0002384185791015625,15.839,N-S,0.0002384185791015625,14.925
19970108223600.knt,KYT0089701082236.UD,1997-01-08, 22:36:00,35.153,135.514,13,4.0,KYT008,35.2612,135.3966,100.0,1997-01-08, 22:36:36,100Hz,59,U-D,0.0002384185791015625,34.351,16.078620023995157,1187,1198.0,22.159754142864262,1.960100877896316,0.9073948384349146,0.24926294255234294,0.8167833435306958,1.0849737346470172,0.03977999742641592,0.026406180800466122,0.011662626387582857,0.0019269341146412678,0.0019269341146412678,34.24266468407597,34.24266468407597,34.24266468407597,6.154508334966438,3.5174036107615367,E-W,0.0002384185791015625,138.249,N-S,0.0002384185791015625,115.095
19970108223600.knt,KYT0099701082236.UD,1997-01-08, 22:36:00,35.153,135.514,13,4.0,KYT009,35.1637,135.5016,156.0,1997-01-08, 22:36:32,100Hz,59,U-D,0.0002384185791015625,52.592,1.6390026020338329,1449,1451.0,31.245947313813332,0.45587299120128305,0.4279371820866545,0.37480300948556977,0.2660482883110636,0.16127937447064986,0.014716849413949063,0.014716849413949063,0.014716849413949063,0.014716849413949063,0.014716849413949063,52.48423202219989,52.48423202219989,52.48423202219989,52.48423202219989,52.48423202219989,E-W,0.0002384185791015625,70.891,N-S,0.0002384185791015625,48.604
19970108223600.knt,KYT0109701082236.UD,1997-01-08, 22:36:00,35.153,135.514,13,4.0,KYT010,35.2098,135.7738,402.0,1997-01-08, 22:36:34,100Hz,59,U-D,0.0002384185791015625,4.486,24.441568307696773,1473,1475.0,36.676587917248746,1.1079414284221367,1.0533238844281934,1.0685427382537362,0.5795575312232593,0.37198920473408253,0.008671912506216316,0.008671912506216316,0.00395059567695823,0.0027559678605459867,0.002288949509030207,4.475539724037186,4.475539724037186,3.585539128221665,3.585539128221665,3.585539128221665,E-W,0.0002384185791015625,21.148,N-S,0.0002384185791015625,18.59
19970108223600.knt,KYT0119701082236.UD,1997-01-08, 22:36:00,35.153,135.514,13,4.0,KYT011,35.017,135.5638,101.0,1997-01-08, 22:36:36,100Hz,59,U-D,0.0002384185791015625,5.957,15.786809654902989,1170,1178.0,32.277871106306144,1.9238542471329578,1.2890978227657124,0.9276318932256771,1.8150428802825067,2.955488124100589,0.013182657276026095,0.009829416950425848,0.005839852145777661,0.002596877862538294,0.002596877862538294,5.954634119005866,5.954634119005866,5.954634119005866,2.8375264269000535,1.394461391420835,E-W,0.0002384185791015625,7.629,N-S,0.0002384185791015625,6.581
19970108223600.knt,KYT0129701082236.UD,1997-01-08, 22:36:00,35.153,135.514,13,4.0,KYT012,34.9962,135.8188,89.0,1997-01-08, 22:36:36,100Hz,59,U-D,0.0002384185791015625,3.99,32.76219412268058,1406,1406.0,35.709801890455914,0.34751687509571416,0.33768725447459286,0.3937763119892203,0.4147884690417124,0.4320348738364373,0.002190793745787623,0.0020534302192626312,0.0020534302192626312,0.0020534302192626312,0.0020534302192626312,3.6887248242505013,3.6887248242505013,3.6887248242505013,3.6887248242505013,3.6887248242505013,E-W,0.0002384185791015625,10.577,N-S,0.0002384185791015625,12.5
19970108223600.knt,MIE0029701082236.UD,1997-01-08, 22:36:00,35.153,135.514,13,4.0,MIE002,35.0279,136.5073,79.0,1997-01-08, 22:36:47,100Hz,59,U-D,0.0002384185791015625,4.014,91.4390219037858,1306,1314.0,24.159338440884284,0.39061475987069133,0.3314619862225123,0.23182912936662664,0.1827306719895868,0.1900296925747706,0.002250828647044445,0.002250828647044445,0.002250828647044445,0.002250828647044445,0.002250828647044445,4.004115033720557,4.004115033720557,4.004115033720557,4.004115033720557,4.004115033720557,E-W,0.0002384185791015625,5.05,N-S,0.0002384185791015625,0.981
19970108223600.knt,MIE0049701082236.UD,1997-01-08, 22:36:00,35.153,135.514,13,4.0,MIE004,34.8569,136.4493,79.0,1997-01-08, 22:36:57,100Hz,59,U-D,0.0002384185791015625,1.592,91.32799853205992,285,295.0,21.423915587964014,2.745066519167362,2.7208376501770313,2.398334351185214,1.9547458864143008,1.6794791910716151,0.004109575517782044,0.004109575517782044,0.004109575517782044,0.003534465692275413,0.003242038363849205,1.5880795302307265,1.5880795302307265,1.5880795302307265,1.5880795302307265,1.5880795302307265,E-W,0.0002384185791015625,2.874,N-S,0.0002384185791015625,2.282
19970108223600.knt,OSK0019701082236.UD,1997-01-08, 22:36:00,35.153,135.514,13,4.0,OSK001,34.9659,135.4069,208.0,1997-01-08, 22:36:37,100Hz,59,U-D,0.0002384185791015625,5.014,22.975133534211928,1179,1179.0,37.601073613954135,1.090553612461197,1.0314485009077246,1.553849226930321,1.21010340936603,0.4408763303872011,0.012085535837228583,0.006487155552083455,0.003938777861758295,0.003517312579436901,0.0015859422914967507,5.035813878357655,4.924897944888638,2.349931030656643,2.1683762755098526,2.1683762755098526,E-W,0.0002384185791015625,12.976,N-S,0.0002384185791015625,13.22
19970108223600.knt,SIG0029701082236.UD,1997-01-08, 22:36:00,35.153,135.514,13,4.0,SIG002,35.4215,136.0243,95.0,1997-01-08, 22:36:47,100Hz,59,U-D,0.0002384185791015625,3.319,55.10571537542338,698,698.0,31.10151578300123,4.031598440467003,3.1115975211395717,1.735717209395341,0.3641911577277816,0.24824680807052618,0.007113789526584711,0.006811211899696381,0.005037733977507762,0.0016185632609819354,0.0008567598261137499,1.4542547095100524,1.4542547095100524,1.4542547095100524,1.4542547095100524,1.4542547095100524,E-W,0.0002384185791015625,4.025,N-S,0.0002384185791015625,5.053
19970108223600.knt,SIG0049701082236.UD,1997-01-08, 22:36:00,35.153,135.514,13,4.0,SIG004,35.3476,135.9184,187.0,1997-01-08, 22:36:43,100Hz,59,U-D,0.0002384185791015625,4.252,42.62304749515516,860,869.0,27.92697289572649,1.6060992706120876,1.5304325283378886,1.2670427417065302,0.9356263322951031,0.7862620130054199,0.0030260458785226476,0.0030260458785226476,0.0026167023373821893,0.002197874108638642,0.002197874108638642,3.9164316520242526,3.9164316520242526,3.9164316520242526,3.9164316520242526,3.9164316520242526,E-W,0.0002384185791015625,7.335,N-S,0.0002384185791015625,8.591
19970108223600.knt,SIG0059701082236.UD,1997-01-08, 22:36:00,35.153,135.514,13,4.0,SIG005,35.2493,136.2421,93.0,1997-01-08, 22:36:50,100Hz,59,U-D,0.0002384185791015625,1.836,67.01679442244202,567,576.0,20.410504418595448,2.465466562341556,2.0528271916628413,1.3882563373699055,0.5936049312778943,0.38064985467439444,0.003122830450561843,0.003122830450561843,0.0026244388555091928,0.0013677360560738997,0.00097716755729777,1.8292854122879374,1.8292854122879374,1.8292854122879374,1.8292854122879374,1.667089810426465,E-W,0.0002384185791015625,2.46,N-S,0.0002384185791015625,1.774
19970108223600.knt,SIG0069701082236.UD,1997-01-08, 22:36:00,35.153,135.514,13,4.0,SIG006,35.2001,135.921,106.0,1997-01-08, 22:36:37,100Hz,59,U-D,0.0002384185791015625,11.871,37.360536897682394,1397,1413.0,18.21360789212058,0.5471848404425207,0.4105109242869678,0.21122529880107116,0.19155845604677496,0.1551376593125505,0.003647338141329578,0.003647338141329578,0.003468755268744065,0.003468755268744065,0.003468755268744065,11.843768573655119,11.843768573655119,11.843768573655119,11.843768573655119,11.843768573655119,E-W,0.0002384185791015625,5.454,N-S,0.0002384185791015625,4.253
19970108223600.knt,SIG0089701082236.UD,1997-01-08, 22:36:00,35.153,135.514,13,4.0,SIG008,35.0701,136.2946,218.0,1997-01-08, 22:36:42,100Hz,59,U-D,0.0002384185791015625,3.302,71.59998494333371,1453,1461.0,25.111845910247105,12.388551612110245,10.886293656689006,7.445691740932158,3.7510415970120787,0.8139081276199254,0.040588391180560804,0.040588391180560804,0.037620413379506126,0.02436661535443653,0.005508078232785505,3.342273259336625,3.342273259336625,3.342273259336625,3.342273259336625,3.342273259336625,E-W,0.0002384185791015625,2.922,N-S,0.0002384185791015625,3.124
19970108223600.knt,SIG0099701082236.UD,1997-01-08, 22:36:00,35.153,135.514,13,4.0,SIG009,35.0051,136.0854,136.0,1997-01-08, 22:36:39,100Hz,59,U-D,0.0002384185791015625,5.519,54.53466960289514,1466,1474.0,23.06465666427448,2.7651621746942077,2.7793377794628804,2.4591335650536097,1.5328369005552804,0.44828094672879654,0.007332525563649773,0.007332525563649773,0.007332525563649773,0.006560117659115489,0.002664689267631633,5.52908837173985,5.52908837173985,5.52908837173985,5.52908837173985,5.52908837173985,E-W,0.0002384185791015625,3.809,N-S,0.0002384185791015625,4.73
19970108223600.knt,SIG0119701082236.UD,1997-01-08, 22:36:00,35.153,135.514,13,4.0,SIG011,34.8779,136.0587,283.0,1997-01-08, 22:36:40,100Hz,59,U-D,0.0002384185791015625,3.209,58.278319711379744,1426,1435.0,26.470540665915028,0.7879415473408877,0.7498996339069423,0.5571829859586518,0.3965384408241412,0.328096990769673,0.002149368675694501,0.002149368675694501,0.0020868078289041792,0.0020868078289041792,0.0020868078289041792,3.2284444712642935,3.2284444712642935,3.2284444712642935,3.2284444712642935,3.2284444712642935,E-W,0.0002384185791015625,5.948,N-S,0.0002384185791015625,5.332
19970111042000.knt,AOM0079701110420.UD,1997-01-11, 04:20:00,43.103,145.879,83,5.1,AOM007,41.2256,141.3958,10.0,1997-01-11, 04:21:40,100Hz,59,U-D,0.0002384185791015625,1.088,424.31231831824476,0,-100.0,,0.0,0.0,0.0,0.0,0.0,0.0,0.0,0.0,0.0,0.0,0.0,0.0,0.0,0.0,0.0,E-W,0.0002384185791015625,3.72,N-S,0.0002384185791015625,3.144
19970111042000.knt,AOM0129701110420.UD,1997-01-11, 04:20:00,43.103,145.879,83,5.1,AOM012,40.5138,141.4805,15.0,1997-01-11, 04:21:47,100Hz,59,U-D,0.0002384185791015625,0.987,464.42031195067966,0,2.0,10.28257504531118,0.0,0.0,0.0,0.0,0.0,0.0,0.0,0.0,0.0,0.0,0.0,0.0,0.0,0.0,0.0,E-W,0.0002384185791015625,2.054,N-S,0.0002384185791015625,2.587
19970111042000.knt,HKD0559701110420.UD,1997-01-11, 04:20:00,43.103,145.879,83,5.1,HKD055,43.8244,144.1087,23.0,1997-01-11, 04:21:45,100Hz,59,U-D,0.0002384185791015625,1.22,163.84746821126654,0,-100.0,,0.0,0.0,0.0,0.0,0.0,0.0,0.0,0.0,0.0,0.0,0.0,0.0,0.0,0.0,0.0,E-W,0.0002384185791015625,2.625,N-S,0.0002384185791015625,2.317
