earthquake name,records name,earthquake date,earthquake time,lat,long,depth,mag,stn_code,stn_lat,stn_long,stn_height,rcd_date,rcd_time,frequency,rcd_duration,direction,scale_factor,max_pga,epi_dist,pick_index_manually,pick_index_kalkan,snr_db_kalkan,tc_5sec,tc_4sec,tc_3sec,tc_2sec,tc_1sec,Pd_5sec,Pd_4sec,Pd_3sec,Pd_2sec,Pd_1sec,Pga_5sec,Pga_4sec,Pga_3sec,Pga_2sec,Pga_1sec,Channel,Scale_factor,PGA_ew,Channel.1,Scale_factor.1,PGA_ns
19980114021700.knt,KNG0129801140217.UD,1998-01-14, 02:17:00,35.586,140.23,76,4.9,KNG012,35.3794,139.2048,138,1998-01-14, 02:17:27,100Hz,119,U-D,0.0002384185791015625,2.842,95.6266483470767,1385,1377.0,27.121929169323785,1.40554287513182,1.1901166407732884,0.7328921540642438,0.6309356753884068,0.7300189032397427,0.005032174818760515,0.005032174818760515,0.003679771909000181,0.0024959789885793376,0.002163609844787088,2.1890444658178634,2.1890444658178634,2.1890444658178634,2.0862317546472706,1.4238833317554327,E-W,0.0002384185791015625,6.166,N-S,0.0002384185791015625,7.378
19980114021700.knt,KNG0139801140217.UD,1998-01-14, 02:17:00,35.586,140.23,76,4.9,KNG013,35.2641,139.152,11,1998-01-14, 02:17:42,100Hz,119,U-D,0.0002384185791015625,8.835,104.02844343261434,0,-100.0,,0.0,0.0,0.0,0.0,0.0,0.0,0.0,0.0,0.0,0.0,0.0,0.0,0.0,0.0,0.0,E-W,0.0002384185791015625,9.373,N-S,0.0002384185791015625,8.924
19980114021700.knt,MYG0119801140217.UD,1998-01-14, 02:17:00,35.586,140.23,76,4.9,MYG011,38.2972,141.5043,30,1998-01-14, 02:17:30,100Hz,119,U-D,0.0002384185791015625,0.668,322.0312272973494,0,-100.0,,0.0,0.0,0.0,0.0,0.0,0.0,0.0,0.0,0.0,0.0,0.0,0.0,0.0,0.0,0.0,E-W,0.0002384185791015625,1.926,N-S,0.0002384185791015625,2.955
19980114021700.knt,NGN0169801140217.UD,1998-01-14, 02:17:00,35.586,140.23,76,4.9,NGN016,35.9151,138.2421,970,1998-01-14, 02:17:01,100Hz,119,U-D,0.0002384185791015625,1.288,183.0833970591581,0,-100.0,,0.0,0.0,0.0,0.0,0.0,0.0,0.0,0.0,0.0,0.0,0.0,0.0,0.0,0.0,0.0,E-W,0.0002384185791015625,3.509,N-S,0.0002384185791015625,3.928
19980114021700.knt,NIG0229801140217.UD,1998-01-14, 02:17:00,35.586,140.23,76,4.9,NIG022,37.0364,138.8462,182,1998-01-14, 02:17:06,100Hz,119,U-D,0.0002384185791015625,0.498,203.42521391305837,0,-100.0,,0.0,0.0,0.0,0.0,0.0,0.0,0.0,0.0,0.0,0.0,0.0,0.0,0.0,0.0,0.0,E-W,0.0002384185791015625,1.638,N-S,0.0002384185791015625,1.968
19980114021700.knt,SIT0019801140217.UD,1998-01-14, 02:17:00,35.586,140.23,76,4.9,SIT001,36.2428,139.1937,46,1998-01-14, 02:17:56,100Hz,119,U-D,0.0002384185791015625,0.988,118.50339176343633,0,-100.0,,0.0,0.0,0.0,0.0,0.0,0.0,0.0,0.0,0.0,0.0,0.0,0.0,0.0,0.0,0.0,E-W,0.0002384185791015625,1.977,N-S,0.0002384185791015625,1.676
19980114021700.knt,SIT0039801140217.UD,1998-01-14, 02:17:00,35.586,140.23,76,4.9,SIT003,36.072,139.6968,9,1998-01-14, 02:17:25,100Hz,119,U-D,0.0002384185791015625,6.213,72.32604614744884,1381,1380.0,38.25204122757282,0.5086533322855863,0.49799925258303235,0.4301818791090289,0.43161152079005577,0.4325549115941897,0.011302123227653008,0.011302123227653008,0.011302123227653008,0.011302123227653008,0.011302123227653008,6.129683484960425,6.129683484960425,6.129683484960425,6.129683484960425,6.129683484960425,E-W,0.0002384185791015625,13.599,N-S,0.0002384185791015625,8.371
19980114021700.knt,SIT0069801140217.UD,1998-01-14, 02:17:00,35.586,140.23,76,4.9,SIT006,35.9954,139.0709,207,1998-01-14, 02:17:44,100Hz,119,U-D,0.0002384185791015625,1.24,114.02718511392192,0,-100.0,,0.0,0.0,0.0,0.0,0.0,0.0,0.0,0.0,0.0,0.0,0.0,0.0,0.0,0.0,0.0,E-W,0.0002384185791015625,4.202,N-S,0.0002384185791015625,3.777
19980114021700.knt,SIT0079801140217.UD,1998-01-14, 02:17:00,35.586,140.23,76,4.9,SIT007,36.054,139.3912,25,1998-01-14, 02:17:39,100Hz,119,U-D,0.0002384185791015625,1.816,91.80265959241102,159,146.0,30.01306916262124,2.206762504838385,2.30320778572502,2.113646603774309,1.8411828415505425,1.248456004565643,0.010823698281043254,0.010823698281043254,0.010823698281043254,0.010823698281043254,0.010823698281043254,1.4725349498218734,1.4725349498218734,1.4725349498218734,1.4725349498218734,1.4725349498218734,E-W,0.0002384185791015625,5.06,N-S,0.0002384185791015625,3.598
19980114021700.knt,SIT0099801140217.UD,1998-01-14, 02:17:00,35.586,140.23,76,4.9,SIT009,35.9032,139.4837,22,1998-01-14, 02:17:26,100Hz,119,U-D,0.0002384185791015625,2.787,76.02894753847517,1312,1338.0,25.041046417688907,0.8779376426422763,0.8587274581442764,0.7253959138755625,0.45628857022169195,0.6061196261891676,0.004093980554620788,0.004093980554620788,0.003871676349113462,0.002677980086249271,0.002677980086249271,2.7974051805147298,2.7974051805147298,2.7974051805147298,2.7974051805147298,2.7974051805147298,E-W,0.0002384185791015625,6.608,N-S,0.0002384185791015625,5.455
19980114021700.knt,SIT0109801140217.UD,1998-01-14, 02:17:00,35.586,140.23,76,4.9,SIT010,35.9065,139.6481,13,1998-01-14, 02:17:31,100Hz,119,U-D,0.0002384185791015625,4.264,63.46530844664613,728,727.0,35.762229351993035,1.1002576483126385,1.0287801742027176,0.8292692222901158,0.8267733748960496,0.766523902530516,0.00969545498139788,0.008393237471112692,0.008393237471112692,0.008393237471112692,0.008393237471112692,2.125381465483383,2.125381465483383,2.125381465483383,2.125381465483383,1.6245497484484202,E-W,0.0002384185791015625,13.186,N-S,0.0002384185791015625,13.727
19980114021700.knt,SIT0119801140217.UD,1998-01-14, 02:17:00,35.586,140.23,76,4.9,SIT011,35.8098,139.7212,2,1998-01-14, 02:17:34,100Hz,119,U-D,0.0002384185791015625,3.945,52.25202136779889,345,345.0,25.139531279834372,2.9390676869148353,2.8251076870823093,3.031471780230675,3.2646418073733323,3.0936521589188026,0.03698273840222361,0.03698273840222361,0.03698273840222361,0.03698273840222361,0.03698273840222361,2.512996417535858,2.512996417535858,2.512996417535858,2.512996417535858,2.512996417535858,E-W,0.0002384185791015625,14.362,N-S,0.0002384185791015625,13.938
19980114021700.knt,SIT0129801140217.UD,1998-01-14, 02:17:00,35.586,140.23,76,4.9,SIT012,35.8401,139.3215,86,1998-01-14, 02:17:26,100Hz,119,U-D,0.0002384185791015625,2.689,86.75332909029031,1404,1404.0,25.004973567927564,0.7708892399098148,0.7702505513535323,0.7388972184617192,0.5507444795117721,0.5728378075450898,0.005172088609657364,0.005172088609657364,0.005172088609657364,0.005172088609657364,0.004846738480482921,2.694898164358086,2.694898164358086,2.694898164358086,2.694898164358086,2.2677850478820947,E-W,0.0002384185791015625,5.171,N-S,0.0002384185791015625,3.866
19980114021700.knt,SIT0139801140217.UD,1998-01-14, 02:17:00,35.586,140.23,76,4.9,SIT013,35.7965,139.4659,76,1998-01-14, 02:17:37,100Hz,119,U-D,0.0002384185791015625,3.221,72.86688612109133,207,206.99999999999997,30.97627245363539,0.9405495710759941,0.8511613886946819,0.8683100626605986,0.9584712499700794,0.8811019523336372,0.009075547391146774,0.009075547391146774,0.009075547391146774,0.009075547391146774,0.009075547391146774,3.201971375668103,3.201971375668103,3.201971375668103,3.201971375668103,3.201971375668103,E-W,0.0002384185791015625,9.474,N-S,0.0002384185791015625,8.372
19980114021700.knt,SZO0019801140217.UD,1998-01-14, 02:17:00,35.586,140.23,76,4.9,SZO001,35.1424,139.0795,76,1998-01-14, 02:17:41,100Hz,119,U-D,0.0002384185791015625,2.496,115.39752618067104,132,151.0,16.727532677576516,11.697332428457667,13.761180249607921,15.291828012126922,13.815369209245906,9.594579020192464,0.04804034810828054,0.04804034810828054,0.04804034810828054,0.04804034810828054,0.042567498806213605,2.1288872415324995,2.1288872415324995,2.089941798652461,2.018984534363232,1.9701008936421964,E-W,0.0002384185791015625,13.816,N-S,0.0002384185791015625,8.686
19980114021700.knt,SZO0029801140217.UD,1998-01-14, 02:17:00,35.586,140.23,76,4.9,SZO002,34.9652,139.1031,44,1998-01-14, 02:17:47,100Hz,119,U-D,0.0002384185791015625,3.268,123.40788300662894,0,1.0,-5.9023833359050935,0.0,0.0,0.0,0.0,0.0,0.0,0.0,0.0,0.0,0.0,0.0,0.0,0.0,0.0,0.0,E-W,0.0002384185791015625,13.868,N-S,0.0002384185791015625,7.386
19980114021700.knt,SZO0039801140217.UD,1998-01-14, 02:17:00,35.586,140.23,76,4.9,SZO003,34.8158,139.0546,149,1998-01-14, 02:17:45,100Hz,119,U-D,0.0002384185791015625,7.08,136.89395671768295,0,-100.0,,0.0,0.0,0.0,0.0,0.0,0.0,0.0,0.0,0.0,0.0,0.0,0.0,0.0,0.0,0.0,E-W,0.0002384185791015625,23.961,N-S,0.0002384185791015625,22.893
19980114021700.knt,SZO0089801140217.UD,1998-01-14, 02:17:00,35.586,140.23,76,4.9,SZO008,35.096,138.8657,5,1998-01-14, 02:17:47,100Hz,119,U-D,0.0002384185791015625,1.485,135.21002549608465,0,-100.0,,0.0,0.0,0.0,0.0,0.0,0.0,0.0,0.0,0.0,0.0,0.0,0.0,0.0,0.0,0.0,E-W,0.0002384185791015625,3.373,N-S,0.0002384185791015625,4.384
19980114021700.knt,SZO0109801140217.UD,1998-01-14, 02:17:00,35.586,140.23,76,4.9,SZO010,35.3091,138.9349,460,1998-01-14, 02:17:44,100Hz,119,U-D,0.0002384185791015625,1.738,121.28816491128083,0,-100.0,,0.0,0.0,0.0,0.0,0.0,0.0,0.0,0.0,0.0,0.0,0.0,0.0,0.0,0.0,0.0,E-W,0.0002384185791015625,4.131,N-S,0.0002384185791015625,3.347
19980114021700.knt,SZO0119801140217.UD,1998-01-14, 02:17:00,35.586,140.23,76,4.9,SZO011,35.2216,138.6221,121,1998-01-14, 02:17:50,100Hz,119,U-D,0.0002384185791015625,1.795,151.25619388653982,0,-100.0,,0.0,0.0,0.0,0.0,0.0,0.0,0.0,0.0,0.0,0.0,0.0,0.0,0.0,0.0,0.0,E-W,0.0002384185791015625,6.054,N-S,0.0002384185791015625,7.119
19980114021700.knt,SZO0129801140217.UD,1998-01-14, 02:17:00,35.586,140.23,76,4.9,SZO012,35.1271,138.6213,10,1998-01-14, 02:17:52,100Hz,119,U-D,0.0002384185791015625,1.055,154.55209005434372,0,-100.0,,0.0,0.0,0.0,0.0,0.0,0.0,0.0,0.0,0.0,0.0,0.0,0.0,0.0,0.0,0.0,E-W,0.0002384185791015625,3.651,N-S,0.0002384185791015625,3.684
19980114021700.knt,SZO0149801140217.UD,1998-01-14, 02:17:00,35.586,140.23,76,4.9,SZO014,34.9649,138.3735,18,1998-01-14, 02:17:02,100Hz,119,U-D,0.0002384185791015625,0.292,182.12706480688328,0,-100.0,,0.0,0.0,0.0,0.0,0.0,0.0,0.0,0.0,0.0,0.0,0.0,0.0,0.0,0.0,0.0,E-W,0.0002384185791015625,1.149,N-S,0.0002384185791015625,2.049
19980114021700.knt,TCG0039801140217.UD,1998-01-14, 02:17:00,35.586,140.23,76,4.9,TCG003,36.8144,139.7153,398,1998-01-14, 02:17:49,100Hz,119,U-D,0.0002384185791015625,0.491,144.18759871400616,0,-100.0,,0.0,0.0,0.0,0.0,0.0,0.0,0.0,0.0,0.0,0.0,0.0,0.0,0.0,0.0,0.0,E-W,0.0002384185791015625,3.404,N-S,0.0002384185791015625,3.609
19980114021700.knt,TCG0049801140217.UD,1998-01-14, 02:17:00,35.586,140.23,76,4.9,TCG004,36.8061,139.4204,1490,1998-01-14, 02:17:51,100Hz,119,U-D,0.0002384185791015625,1.85,153.89406517606716,0,-100.0,,0.0,0.0,0.0,0.0,0.0,0.0,0.0,0.0,0.0,0.0,0.0,0.0,0.0,0.0,0.0,E-W,0.0002384185791015625,2.933,N-S,0.0002384185791015625,2.622
19980114021700.knt,TCG0059801140217.UD,1998-01-14, 02:17:00,35.586,140.23,76,4.9,TCG005,36.8061,139.9264,197,1998-01-14, 02:17:49,100Hz,119,U-D,0.0002384185791015625,1.13,138.37697083837776,0,-100.0,,0.0,0.0,0.0,0.0,0.0,0.0,0.0,0.0,0.0,0.0,0.0,0.0,0.0,0.0,0.0,E-W,0.0002384185791015625,4.224,N-S,0.0002384185791015625,3.042
19980114021700.knt,TCG0069801140217.UD,1998-01-14, 02:17:00,35.586,140.23,76,4.9,TCG006,36.7639,140.1297,122,1998-01-14, 02:17:54,100Hz,119,U-D,0.0002384185791015625,1.234,131.28551847680657,0,1.0,-1.4357511916678236,0.0,0.0,0.0,0.0,0.0,0.0,0.0,0.0,0.0,0.0,0.0,0.0,0.0,0.0,0.0,E-W,0.0002384185791015625,1.824,N-S,0.0002384185791015625,2.388
19980114021700.knt,TCG0079801140217.UD,1998-01-14, 02:17:00,35.586,140.23,76,4.9,TCG007,36.5692,139.8861,138,1998-01-14, 02:17:45,100Hz,119,U-D,0.0002384185791015625,1.062,113.61116737503303,0,-100.0,,0.0,0.0,0.0,0.0,0.0,0.0,0.0,0.0,0.0,0.0,0.0,0.0,0.0,0.0,0.0,E-W,0.0002384185791015625,2.825,N-S,0.0002384185791015625,2.75
19980114021700.knt,TCG0089801140217.UD,1998-01-14, 02:17:00,35.586,140.23,76,4.9,TCG008,36.56,139.7675,153,1998-01-14, 02:17:46,100Hz,119,U-D,0.0002384185791015625,3.449,116.00627115834845,0,-100.0,,0.0,0.0,0.0,0.0,0.0,0.0,0.0,0.0,0.0,0.0,0.0,0.0,0.0,0.0,0.0,E-W,0.0002384185791015625,9.666,N-S,0.0002384185791015625,6.795
19980114021700.knt,TCG0099801140217.UD,1998-01-14, 02:17:00,35.586,140.23,76,4.9,TCG009,36.7258,139.7155,361,1998-01-14, 02:17:48,100Hz,119,U-D,0.0002384185791015625,3.738,134.8945393988974,0,1.0,-3.095538129722649,0.0,0.0,0.0,0.0,0.0,0.0,0.0,0.0,0.0,0.0,0.0,0.0,0.0,0.0,0.0,E-W,0.0002384185791015625,13.526,N-S,0.0002384185791015625,10.733
19980114021700.knt,TCG0109801140217.UD,1998-01-14, 02:17:00,35.586,140.23,76,4.9,TCG010,36.6347,139.4376,640,1998-01-14, 02:17:48,100Hz,119,U-D,0.0002384185791015625,1.537,136.61840084626917,0,-100.0,,0.0,0.0,0.0,0.0,0.0,0.0,0.0,0.0,0.0,0.0,0.0,0.0,0.0,0.0,0.0,E-W,0.0002384185791015625,4.093,N-S,0.0002384185791015625,4.057
19980114021700.knt,TCG0119801140217.UD,1998-01-14, 02:17:00,35.586,140.23,76,4.9,TCG011,36.3867,139.6145,93,1998-01-14, 02:17:43,100Hz,119,U-D,0.0002384185791015625,1.33,104.85093376465507,0,-100.0,,0.0,0.0,0.0,0.0,0.0,0.0,0.0,0.0,0.0,0.0,0.0,0.0,0.0,0.0,0.0,E-W,0.0002384185791015625,2.925,N-S,0.0002384185791015625,3.311
19980114021700.knt,TCG0129801140217.UD,1998-01-14, 02:17:00,35.586,140.23,76,4.9,TCG012,36.2859,139.8047,33,1998-01-14, 02:17:37,100Hz,119,U-D,0.0002384185791015625,1.929,86.73459566568935,248,249.00000000000003,24.082878383950423,6.0677663645494135,6.714147557978533,7.886258622503878,8.457663699870432,8.214361767259813,0.022738870644477754,0.022738870644477754,0.022738870644477754,0.022738870644477754,0.022738870644477754,1.4525561380066703,1.3887177325065811,1.3887177325065811,1.3887177325065811,1.2443181781173953,E-W,0.0002384185791015625,5.066,N-S,0.0002384185791015625,4.524
19980114021700.knt,TCG0139801140217.UD,1998-01-14, 02:17:00,35.586,140.23,76,4.9,TCG013,36.4368,140.0225,67,1998-01-14, 02:17:38,100Hz,119,U-D,0.0002384185791015625,2.648,96.4279829557339,255,255.00000000000003,33.68363948986432,1.6567824464830918,1.641840547147079,1.9038195740925206,2.2527098482932724,2.4674042449622515,0.011658608387008997,0.011658608387008997,0.011658608387008997,0.011658608387008997,0.011658608387008997,2.0450675068500126,2.0450675068500126,1.8780105063573396,1.8607759769473362,1.645740260916449,E-W,0.0002384185791015625,5.566,N-S,0.0002384185791015625,4.473
19980114021700.knt,TKY0019801140217.UD,1998-01-14, 02:17:00,35.586,140.23,76,4.9,TKY001,35.8029,139.0956,380,1998-01-14, 02:17:42,100Hz,119,U-D,0.0002384185791015625,1.791,105.24304223767308,0,13.0,4.4840270712076595,0.0,0.0,0.0,0.0,0.0,0.0,0.0,0.0,0.0,0.0,0.0,0.0,0.0,0.0,0.0,E-W,0.0002384185791015625,2.759,N-S,0.0002384185791015625,3.003
19980114021700.knt,TKY0029801140217.UD,1998-01-14, 02:17:00,35.586,140.23,76,4.9,TKY002,35.7304,139.1454,302,1998-01-14, 02:17:40,100Hz,119,U-D,0.0002384185791015625,1.741,99.29646120873367,114,97.0,29.21823763894908,1.2334118924864796,1.245604169501822,1.381780295052267,1.4287362747794212,1.045616224034669,0.0035400093482968803,0.0035400093482968803,0.0035400093482968803,0.0035400093482968803,0.003139536315817681,0.9742002860788765,0.9742002860788765,0.9742002860788765,0.9742002860788765,0.9742002860788765,E-W,0.0002384185791015625,3.918,N-S,0.0002384185791015625,3.297
19980114021700.knt,TKY0039801140217.UD,1998-01-14, 02:17:00,35.586,140.23,76,4.9,TKY003,35.7968,139.2912,181,1998-01-14, 02:17:38,100Hz,119,U-D,0.0002384185791015625,3.604,87.9625177146834,216,144.0,22.839454941912194,5.370369830756231,5.758799320311584,6.190115916037542,6.554431085925728,7.698384082862811,0.04466892950310001,0.04466892950310001,0.04466892950310001,0.04466892950310001,0.04458390271038089,3.6129731039001336,3.6129731039001336,3.0486946964417068,3.0486946964417068,2.1684490784189756,E-W,0.0002384185791015625,10.983,N-S,0.0002384185791015625,16.133
19980114021700.knt,TKY0049801140217.UD,1998-01-14, 02:17:00,35.586,140.23,76,4.9,TKY004,35.6282,139.4034,81,1998-01-14, 02:17:25,100Hz,119,U-D,0.0002384185791015625,9.676,74.87544728970487,1419,1418.0,41.007463329330214,0.41010040228753875,0.4169390881370754,0.3844259242321747,0.3798661648790136,0.46619093340485046,0.009488126584838242,0.009488126584838242,0.009488126584838242,0.009488126584838242,0.009488126584838242,9.686393995904066,9.686393995904066,9.686393995904066,9.686393995904066,8.233787561140085,E-W,0.0002384185791015625,13.691,N-S,0.0002384185791015625,14.919
19980114021700.knt,TKY0059801140217.UD,1998-01-14, 02:17:00,35.586,140.23,76,4.9,TKY005,35.5782,139.4156,109,1998-01-14, 02:17:25,100Hz,119,U-D,0.0002384185791015625,4.131,73.65344836847119,1410,1409.0,33.859176756746116,0.5008057971455113,0.5212751857544513,0.4945026925150229,0.5292416794308574,0.6679740323607626,0.006155579770837205,0.006155579770837205,0.006155579770837205,0.006155579770837205,0.006155579770837205,3.846425535545467,3.846425535545467,3.846425535545467,3.846425535545467,3.71990890057193,E-W,0.0002384185791015625,9.977,N-S,0.0002384185791015625,14.317
19980114021700.knt,TKY0069801140217.UD,1998-01-14, 02:17:00,35.586,140.23,76,4.9,TKY006,35.699,139.5029,71,1998-01-14, 02:17:24,100Hz,119,U-D,0.0002384185791015625,3.247,66.89461419798698,1443,1443.0,34.539973755708864,1.2905838598868808,1.3821988930564197,1.2641547136188986,1.047302256765159,0.7025442661969348,0.006379654507432945,0.006379654507432945,0.006379654507432945,0.005333193512770816,0.004476957262493925,2.969997293527084,2.969997293527084,2.969997293527084,2.969997293527084,2.969997293527084,E-W,0.0002384185791015625,7.511,N-S,0.0002384185791015625,7.113
19980114021700.knt,TKY0079801140217.UD,1998-01-14, 02:17:00,35.586,140.23,76,4.9,TKY007,35.7107,139.6859,34,1998-01-14, 02:17:23,100Hz,119,U-D,0.0002384185791015625,17.611,51.081668997407995,1421,1438.0,22.429267031176437,0.5034213931507078,0.4376810416837594,0.39686935615131735,0.3441033986460544,0.2871137757940747,0.01311352746302538,0.01311352746302538,0.01311352746302538,0.01311352746302538,0.01311352746302538,17.648817481120968,17.648817481120968,17.648817481120968,17.648817481120968,17.648817481120968,E-W,0.0002384185791015625,19.696,N-S,0.0002384185791015625,17.099
19980114021700.knt,TKY0089801140217.UD,1998-01-14, 02:17:00,35.586,140.23,76,4.9,TKY008,34.7852,139.3909,67,1998-01-14, 02:17:29,100Hz,119,U-D,0.0002384185791015625,5.732,117.23361415932042,1328,1383.0,25.977826838176004,0.6629069924841448,0.5398095722591957,0.41433183376800065,0.48100388967016827,0.8634520361512584,0.007156532821467198,0.0063404203535621486,0.0063404203535621486,0.004348875819216406,0.003201828722332552,5.161360098776411,5.161360098776411,5.161360098776411,2.2975072793099756,1.0655536840855748,E-W,0.0002384185791015625,10.368,N-S,0.0002384185791015625,15.544
19980114021700.knt,TKY0099801140217.UD,1998-01-14, 02:17:00,35.586,140.23,76,4.9,TKY009,34.6874,139.4412,60,1998-01-14, 02:17:29,100Hz,119,U-D,0.0002384185791015625,3.518,122.99830309773053,1425,1436.0,21.85604727781753,3.8545020676017256,3.651040223953911,3.082675707355659,2.321794552489464,1.6607547740988582,0.02025756202071852,0.02025756202071852,0.02020916315349706,0.01616750468789113,0.013194409197273587,3.543131156067745,3.543131156067745,3.543131156067745,3.543131156067745,3.543131156067745,E-W,0.0002384185791015625,4.388,N-S,0.0002384185791015625,4.949
19980114021700.knt,TKY0119801140217.UD,1998-01-14, 02:17:00,35.586,140.23,76,4.9,TKY011,34.1228,139.5315,42,1998-01-14, 02:17:57,100Hz,119,U-D,0.0002384185791015625,0.936,174.73745481958784,0,-100.0,,0.0,0.0,0.0,0.0,0.0,0.0,0.0,0.0,0.0,0.0,0.0,0.0,0.0,0.0,0.0,E-W,0.0002384185791015625,2.319,N-S,0.0002384185791015625,2.522
19980114021700.knt,TKY0129801140217.UD,1998-01-14, 02:17:00,35.586,140.23,76,4.9,TKY012,33.1161,139.789,74,1998-01-14, 02:17:21,100Hz,119,U-D,0.0002384185791015625,0.648,277.6071349858341,0,1.0,-4.338349507214071,0.0,0.0,0.0,0.0,0.0,0.0,0.0,0.0,0.0,0.0,0.0,0.0,0.0,0.0,0.0,E-W,0.0002384185791015625,1.448,N-S,0.0002384185791015625,2.161
