earthquake name,records name,earthquake date,earthquake time,lat,long,depth,mag,stn_code,stn_lat,stn_long,stn_height,rcd_date,rcd_time,frequency,rcd_duration,direction,scale_factor,max_pga,epi_dist,pick_index_manually,pick_index_kalkan,snr_db_kalkan,tc_5sec,tc_4sec,tc_3sec,tc_2sec,tc_1sec,Pd_5sec,Pd_4sec,Pd_3sec,Pd_2sec,Pd_1sec,Pga_5sec,Pga_4sec,Pga_3sec,Pga_2sec,Pga_1sec,Channel,Scale_factor,PGA_ew,Channel.1,Scale_factor.1,PGA_ns
20020118164600.knt,KNG2040201181646.UD,2002-01-18, 16:46:00,34.746,139.622,20,4.0,KNG204,34.8931,139.5711,-933,2002-01-18, 16:46:16,200Hz,180,U-D,5.9604644775390625e-05,18.809,17.00392800346822,2101,2101.0,43.581912157734266,0.9229200116633167,0.933098623820394,1.2126700133753212,0.9360680928919884,0.6851767744091352,0.0382531232200028,0.0382531232200028,0.021484636950996693,0.013908220339231158,0.013908220339231158,6.783105596481572,6.783105596481572,5.836177739364283,5.836177739364283,5.836177739364283,E-W,5.9604644775390625e-05,77.036,N-S,5.9604644775390625e-05,54.524
20020118164600.knt,KNG2050201181646.UD,2002-01-18, 16:46:00,34.746,139.622,20,4.0,KNG205,34.9413,139.4213,-1486,2002-01-18, 16:46:16,200Hz,180,U-D,5.9604644775390625e-05,3.596,28.408903945894405,2437,2437.0,33.00147169919282,0.9043968012172399,0.8350035400397604,0.805259301328399,0.8035223633734757,0.8122483649009894,0.03495278569795496,0.03495278569795496,0.03495278569795496,0.03495278569795496,0.03495278569795496,3.6306009086081024,3.6306009086081024,3.6306009086081024,3.6306009086081024,3.6306009086081024,E-W,5.9604644775390625e-05,16.656,N-S,5.9604644775390625e-05,14.101
20020118164600.knt,KNG2060201181646.UD,2002-01-18, 16:46:00,34.746,139.622,20,4.0,KNG206,35.0966,139.3778,-1130,2002-01-18, 16:46:16,200Hz,180,U-D,5.9604644775390625e-05,1.379,44.89463153170867,2997,2994.0,27.833566749920994,3.0951945938275585,2.9509947222407606,3.0397705120831593,2.1661800193316965,0.9080485400567341,0.017426190782242112,0.017184307417485598,0.017172866563279113,0.012896495854602317,0.011401089847729225,1.120741853870165,1.120741853870165,1.120741853870165,1.120741853870165,1.120741853870165,E-W,5.9604644775390625e-05,7.593,N-S,5.9604644775390625e-05,6.932
20020118164600.knt,SZO0010201181646.UD,2002-01-18, 16:46:00,34.746,139.622,20,4.0,SZO001,35.1424,139.0795,76,2002-01-18, 16:46:27,100Hz,119,U-D,0.0002384185791015625,1.966,66.24103353356247,646,657.0,19.752097726724458,16.48215121138021,15.431067405683217,12.939479602898134,9.278289186279977,5.582058102780993,0.020577849272399383,0.020577849272399383,0.020395451334385303,0.01843709285160272,0.012910276754487526,1.5814868058846536,1.5814868058846536,1.5814868058846536,1.5814868058846536,1.5814868058846536,E-W,0.0002384185791015625,13.539,N-S,0.0002384185791015625,5.387
20020118164600.knt,SZO0030201181646.UD,2002-01-18, 16:46:00,34.746,139.622,20,4.0,SZO003,34.8158,139.0546,149,2002-01-18, 16:46:25,100Hz,119,U-D,0.0002384185791015625,13.836,52.397885730733776,702,711.0,24.000722369313813,10.25868373333514,10.00711613783181,8.918480642009444,7.000912354096436,4.610891831622152,0.03873121216691071,0.03873121216691071,0.03873121216691071,0.03770481684577052,0.03151228945165471,3.9678874352766456,3.9678874352766456,3.9678874352766456,3.9678874352766456,2.7622975855782896,E-W,0.0002384185791015625,26.743,N-S,0.0002384185791015625,46.508
20020118164600.knt,SZO0050201181646.UD,2002-01-18, 16:46:00,34.746,139.622,20,4.0,SZO005,34.7549,138.7841,8,2002-01-18, 16:46:31,100Hz,119,U-D,0.0002384185791015625,0.892,76.55879097382984,0,1.0,8.219988049517253,0.0,0.0,0.0,0.0,0.0,0.0,0.0,0.0,0.0,0.0,0.0,0.0,0.0,0.0,0.0,E-W,0.0002384185791015625,2.358,N-S,0.0002384185791015625,3.339
20020118164600.knt,SZO0070201181646.UD,2002-01-18, 16:46:00,34.746,139.622,20,4.0,SZO007,34.9771,138.9466,49,2002-01-18, 16:46:28,100Hz,119,U-D,0.0002384185791015625,2.103,66.76617242349926,585,582.0,12.681092496168326,14.510841437871948,12.45572911723239,9.489897877327879,5.929790657369438,2.393845625991065,0.03083257787926123,0.03083257787926123,0.030081570978806392,0.02468384599838837,0.013103953065799794,0.9742593956235427,0.9742593956235427,0.9742593956235427,0.9742593956235427,0.9186598204436741,E-W,0.0002384185791015625,13.663,N-S,0.0002384185791015625,4.806
20020118164600.knt,SZO0270201181646.UD,2002-01-18, 16:46:00,34.746,139.622,20,4.0,SZO027,34.7903,138.8008,71,2002-01-18, 16:46:30,100Hz,119,U-D,0.0002384185791015625,1.825,75.17213573903278,524,538.0,15.118781687057481,10.422304216569499,11.820217008599057,14.968761000253181,12.023896370994114,7.353811492809419,0.02694889036204872,0.02694889036204872,0.02694889036204872,0.02689036823064282,0.019404575878640043,0.33160519267658073,0.33160519267658073,0.33160519267658073,0.33160519267658073,0.33160519267658073,E-W,0.0002384185791015625,3.56,N-S,0.0002384185791015625,4.437
20020118164600.knt,TKY0080201181646.UD,2002-01-18, 16:46:00,34.746,139.622,20,4.0,TKY008,34.7852,139.3909,67,2002-01-18, 16:46:13,100Hz,119,U-D,0.0002384185791015625,29.752,21.555303157547502,1460,1458.0,37.478784467507346,0.3989016137326237,0.36507087546878364,0.3696248398787111,0.24738770251582315,0.2176487929827313,0.030645526352233846,0.019911981147599334,0.011780767170996074,0.011780767170996074,0.011780767170996074,29.77003037554728,29.77003037554728,18.842158073897682,18.842158073897682,18.842158073897682,E-W,0.0002384185791015625,69.331,N-S,0.0002384185791015625,79.075
20020118164600.knt,TKY0090201181646.UD,2002-01-18, 16:46:00,34.746,139.622,20,4.0,TKY009,34.6874,139.4412,60,2002-01-18, 16:46:13,100Hz,119,U-D,0.0002384185791015625,22.077,17.763354667373058,1464,1470.0,31.46437036038202,0.6227859486280135,0.788226005451295,1.8245573910492021,1.592089893461326,1.8833735320957525,0.017750941322784566,0.017750941322784566,0.017750941322784566,0.017750941322784566,0.017750941322784566,22.099685231754474,22.099685231754474,11.074249688057105,11.074249688057105,11.074249688057105,E-W,0.0002384185791015625,46.219,N-S,0.0002384185791015625,53.084
20020118164600.knt,TKY0100201181646.UD,2002-01-18, 16:46:00,34.746,139.622,20,4.0,TKY010,34.3775,139.2557,13,2002-01-18, 16:46:28,100Hz,119,U-D,0.0002384185791015625,2.774,52.953343985311164,493,488.0,19.905257689509387,1.5474406219645036,1.3850468473376274,1.3446237555586906,1.3162448740832549,1.3584994708473181,0.005715036271927094,0.005715036271927094,0.005715036271927094,0.005715036271927094,0.005715036271927094,1.238615795726186,1.238615795726186,1.238615795726186,0.9900744446903967,0.9900744446903967,E-W,0.0002384185791015625,2.711,N-S,0.0002384185791015625,3.466
20020118164600.knt,YMN0020201181646.UD,2002-01-18, 16:46:00,34.746,139.622,20,4.0,YMN002,35.6132,138.947,368,2002-01-18, 16:46:40,100Hz,119,U-D,0.0002384185791015625,1.044,114.28791577638414,0,1.0,8.75022711813793,0.0,0.0,0.0,0.0,0.0,0.0,0.0,0.0,0.0,0.0,0.0,0.0,0.0,0.0,0.0,E-W,0.0002384185791015625,2.669,N-S,0.0002384185791015625,2.716
20020119180600.knt,HKD0590201191806.UD,2002-01-19, 18:06:00,43.715,147.358,32,5.6,HKD059,43.8565,144.4629,31,2002-01-19, 18:07:54,100Hz,119,U-D,0.0002384185791015625,3.291,232.92473895342295,1295,1338.0,18.66312506529931,1.5473703236861196,1.5467120016984648,1.5247518108785745,1.4868905614494623,1.3904834545620595,0.014749244699274399,0.014749244699274399,0.014749244699274399,0.014749244699274399,0.014749244699274399,3.284634858144914,3.284634858144914,3.284634858144914,3.284634858144914,2.166139728444224,E-W,0.0002384185791015625,1.773,N-S,0.0002384185791015625,1.91
20020119180600.knt,HKD0610201191806.UD,2002-01-19, 18:06:00,43.715,147.358,32,5.6,HKD061,44.0699,144.9973,64,2002-01-19, 18:07:49,100Hz,119,U-D,0.0002384185791015625,1.342,193.23215237647224,1269,1295.0,11.697967425601332,2.8175264165948866,2.0432430866706337,1.4583774648893928,1.226970081806586,1.2088094042774977,0.020828539649958386,0.017845407668410494,0.015082162984753327,0.012957394953570369,0.012957394953570369,1.354718995213676,1.354718995213676,1.354718995213676,1.2071983316491175,1.2071983316491175,E-W,0.0002384185791015625,3.166,N-S,0.0002384185791015625,4.848
20020119180600.knt,HKD0630201191806.UD,2002-01-19, 18:06:00,43.715,147.358,32,5.6,HKD063,44.106,145.2478,4,2002-01-19, 18:07:05,100Hz,119,U-D,0.0002384185791015625,3.414,174.53875532729072,0,-100.0,,0.0,0.0,0.0,0.0,0.0,0.0,0.0,0.0,0.0,0.0,0.0,0.0,0.0,0.0,0.0,E-W,0.0002384185791015625,8.697,N-S,0.0002384185791015625,12.097
20020119180600.knt,HKD0640201191806.UD,2002-01-19, 18:06:00,43.715,147.358,32,5.6,HKD064,44.0202,145.1886,17,2002-01-19, 18:07:48,100Hz,119,U-D,0.0002384185791015625,3.735,177.1850101620025,1105,1145.0,31.131582654317587,1.0401468099098075,0.9844088936366334,1.005741341580955,1.0704380092001584,3.0831482711314284,0.017176837522700234,0.017176837522700234,0.017176837522700234,0.017176837522700234,0.008653829953092773,2.3566900578067713,2.3566900578067713,2.208604876965194,1.765353599818645,0.8077215354723205,E-W,0.0002384185791015625,3.642,N-S,0.0002384185791015625,6.23
20020119180600.knt,HKD0650201191806.UD,2002-01-19, 18:06:00,43.715,147.358,32,5.6,HKD065,43.7938,145.0565,10,2002-01-19, 18:07:47,100Hz,119,U-D,0.0002384185791015625,2.927,185.0518326627346,1331,1355.0,28.29812950579543,1.3264375644270208,1.1764040334623773,1.004748044351939,0.9279155571687976,0.8902979191363151,0.015278025006291131,0.015278025006291131,0.015278025006291131,0.008995900099877394,0.008995900099877394,2.9464295679826384,2.9464295679826384,2.9464295679826384,2.9464295679826384,2.4556671925947002,E-W,0.0002384185791015625,3.512,N-S,0.0002384185791015625,3.703
20020119180600.knt,HKD0660201191806.UD,2002-01-19, 18:06:00,43.715,147.358,32,5.6,HKD066,43.6619,145.1307,2,2002-01-19, 18:07:46,100Hz,120,U-D,0.0002384185791015625,11.77,179.17966265254236,1364,1434.0,25.21725574888498,0.8091455098122888,0.7341797646616492,0.6090925636432899,0.5367326365599682,1.3510020508430285,0.010916620742880457,0.009711855110499462,0.009711855110499462,0.009711855110499462,0.007995731167539146,11.789792962934794,11.789792962934794,11.789792962934794,11.789792962934794,2.0119073455494862,E-W,0.0002384185791015625,9.331,N-S,0.0002384185791015625,17.592
20020119180600.knt,HKD0670201191806.UD,2002-01-19, 18:06:00,43.715,147.358,32,5.6,HKD067,43.555,144.9726,30,2002-01-19, 18:07:10,100Hz,119,U-D,0.0002384185791015625,5.532,192.78658561500865,0,-100.0,,0.0,0.0,0.0,0.0,0.0,0.0,0.0,0.0,0.0,0.0,0.0,0.0,0.0,0.0,0.0,E-W,0.0002384185791015625,10.156,N-S,0.0002384185791015625,11.097
20020119180600.knt,HKD0680201191806.UD,2002-01-19, 18:06:00,43.715,147.358,32,5.6,HKD068,43.4108,144.7704,105,2002-01-19, 18:07:15,100Hz,119,U-D,0.0002384185791015625,4.592,211.20981928408395,0,-100.0,,0.0,0.0,0.0,0.0,0.0,0.0,0.0,0.0,0.0,0.0,0.0,0.0,0.0,0.0,0.0,E-W,0.0002384185791015625,8.125,N-S,0.0002384185791015625,8.063
20020119180600.knt,HKD0700201191806.UD,2002-01-19, 18:06:00,43.715,147.358,32,5.6,HKD070,43.3852,145.284,6,2002-01-19, 18:07:46,100Hz,129,U-D,0.0002384185791015625,4.785,171.1163267501694,1282,1321.0,28.077081047597154,0.5965133454425667,0.5909808367332684,0.6156971834241266,0.6462357644472866,0.8105824659211037,0.006927476151535686,0.006927476151535686,0.006927476151535686,0.006927476151535686,0.005628263713066736,3.099565992373849,3.099565992373849,3.099565992373849,3.033535231723463,1.9741124818798808,E-W,0.0002384185791015625,19.299,N-S,0.0002384185791015625,16.753
20020119180600.knt,HKD0710201191806.UD,2002-01-19, 18:06:00,43.715,147.358,32,5.6,HKD071,43.2326,145.2604,38,2002-01-19, 18:07:05,100Hz,119,U-D,0.0002384185791015625,4.9,177.55172820817944,0,-100.0,,0.0,0.0,0.0,0.0,0.0,0.0,0.0,0.0,0.0,0.0,0.0,0.0,0.0,0.0,0.0,E-W,0.0002384185791015625,12.805,N-S,0.0002384185791015625,17.699
20020119180600.knt,HKD0720201191806.UD,2002-01-19, 18:06:00,43.715,147.358,32,5.6,HKD072,43.1948,145.5209,46,2002-01-19, 18:07:45,100Hz,119,U-D,0.0002384185791015625,7.837,159.16523990678334,1216,1270.0,33.205938042799076,1.819511122524038,1.8497965503194551,1.5282285452669058,1.4781288184545134,1.72063127863372,0.010752611409301664,0.010752611409301664,0.010752611409301664,0.004213956705733101,0.002857416813994287,3.8863084382305906,3.8863084382305906,3.8863084382305906,2.2182382675182577,0.9178951540632989,E-W,0.0002384185791015625,22.573,N-S,0.0002384185791015625,29.099
20020119180600.knt,HKD0730201191806.UD,2002-01-19, 18:06:00,43.715,147.358,32,5.6,HKD073,43.3327,145.6003,36,2002-01-19, 18:07:42,100Hz,119,U-D,0.0002384185791015625,5.652,147.9514035428221,1337,1378.0,29.56138946526023,0.5115115616628763,0.5076275146949375,0.48736749118727135,0.44468568714271217,0.6340274494659867,0.0026425398252299627,0.0026425398252299627,0.0026425398252299627,0.0026425398252299627,0.0026425398252299627,3.1504899089905156,3.1504899089905156,3.1504899089905156,3.1504899089905156,1.6957104764939053,E-W,0.0002384185791015625,15.169,N-S,0.0002384185791015625,15.161
20020119180600.knt,HKD0760201191806.UD,2002-01-19, 18:06:00,43.715,147.358,32,5.6,HKD076,43.0509,144.8498,2,2002-01-19, 18:07:16,100Hz,119,U-D,0.0002384185791015625,3.489,215.71909521379942,0,-100.0,,0.0,0.0,0.0,0.0,0.0,0.0,0.0,0.0,0.0,0.0,0.0,0.0,0.0,0.0,0.0,E-W,0.0002384185791015625,3.654,N-S,0.0002384185791015625,3.069
20020119180600.knt,HKD0770201191806.UD,2002-01-19, 18:06:00,43.715,147.358,32,5.6,HKD077,42.9845,144.3824,3,2002-01-19, 18:07:25,100Hz,119,U-D,0.0002384185791015625,3.779,253.92595701992437,0,-100.0,,0.0,0.0,0.0,0.0,0.0,0.0,0.0,0.0,0.0,0.0,0.0,0.0,0.0,0.0,0.0,E-W,0.0002384185791015625,8.114,N-S,0.0002384185791015625,6.693
20020119180600.knt,HKD0780201191806.UD,2002-01-19, 18:06:00,43.715,147.358,32,5.6,HKD078,43.1486,144.4976,21,2002-01-19, 18:07:54,100Hz,119,U-D,0.0002384185791015625,6.695,239.3928472597285,1327,1368.0,31.822512752873948,0.5165911695618057,0.5759441604372453,0.5890502316544146,0.5899995759301521,0.7277185274994369,0.008648334353154603,0.008648334353154603,0.008648334353154603,0.008648334353154603,0.006011036467808629,4.199260687434875,4.199260687434875,4.199260687434875,3.152547641019245,1.3696101317848643,E-W,0.0002384185791015625,10.622,N-S,0.0002384185791015625,8.775
20020119180600.knt,HKD0790201191806.UD,2002-01-19, 18:06:00,43.715,147.358,32,5.6,HKD079,43.3033,144.5996,32,2002-01-19, 18:07:54,100Hz,119,U-D,0.0002384185791015625,2.784,227.1030724862149,1219,1249.0,30.88773930557902,0.9557682114582974,1.0249432463806374,1.0536957949988475,1.046722103879113,0.8654428192905957,0.007628946198275034,0.007628946198275034,0.007628946198275034,0.007628946198275034,0.006496409594607978,2.7875360434056726,2.7875360434056726,2.633491751179744,2.633491751179744,1.6239135254533503,E-W,0.0002384185791015625,4.866,N-S,0.0002384185791015625,4.512
20020119180600.knt,HKD0800201191806.UD,2002-01-19, 18:06:00,43.715,147.358,32,5.6,HKD080,43.5077,144.4485,140,2002-01-19, 18:07:19,100Hz,119,U-D,0.0002384185791015625,2.958,235.36010592986918,0,-100.0,,0.0,0.0,0.0,0.0,0.0,0.0,0.0,0.0,0.0,0.0,0.0,0.0,0.0,0.0,0.0,E-W,0.0002384185791015625,4.882,N-S,0.0002384185791015625,4.743
20020119180600.knt,HKD0810201191806.UD,2002-01-19, 18:06:00,43.715,147.358,32,5.6,HKD081,43.6427,144.3901,130,2002-01-19, 18:07:21,100Hz,119,U-D,0.0002384185791015625,1.902,238.79703478544917,0,1.0,12.778500641857418,0.0,0.0,0.0,0.0,0.0,0.0,0.0,0.0,0.0,0.0,0.0,0.0,0.0,0.0,0.0,E-W,0.0002384185791015625,3.282,N-S,0.0002384185791015625,4.842
20020119180600.knt,HKD0830201191806.UD,2002-01-19, 18:06:00,43.715,147.358,32,5.6,HKD083,43.233,144.3248,38,2002-01-19, 18:07:23,100Hz,119,U-D,0.0002384185791015625,2.478,250.5406085938147,0,-100.0,,0.0,0.0,0.0,0.0,0.0,0.0,0.0,0.0,0.0,0.0,0.0,0.0,0.0,0.0,0.0,E-W,0.0002384185791015625,4.974,N-S,0.0002384185791015625,3.85
20020119180600.knt,HKD0840201191806.UD,2002-01-19, 18:06:00,43.715,147.358,32,5.6,HKD084,43.1141,144.123,30,2002-01-19, 18:07:27,100Hz,119,U-D,0.0002384185791015625,2.0,269.68500991315426,0,3.0,12.80407944521391,0.0,0.0,0.0,0.0,0.0,0.0,0.0,0.0,0.0,0.0,0.0,0.0,0.0,0.0,0.0,E-W,0.0002384185791015625,5.179,N-S,0.0002384185791015625,5.664
20020119180600.knt,HKD0850201191806.UD,2002-01-19, 18:06:00,43.715,147.358,32,5.6,HKD085,42.9581,144.0697,5,2002-01-19, 18:07:29,100Hz,119,U-D,0.0002384185791015625,2.844,278.9211791200117,0,2.0,3.1502413878981166,0.0,0.0,0.0,0.0,0.0,0.0,0.0,0.0,0.0,0.0,0.0,0.0,0.0,0.0,0.0,E-W,0.0002384185791015625,6.124,N-S,0.0002384185791015625,5.828
20020120052100.knt,TKY0080201200521.UD,2002-01-20, 05:21:00,34.715,139.409,0,2.6,TKY008,34.7852,139.3909,67,2002-01-20, 05:21:54,100Hz,119,U-D,0.0002384185791015625,3.624,7.979125199525382,1260,1279.0,21.05174031919009,1.5696170075144862,1.5446951696602307,1.0233373181965686,0.44097205894216907,0.2778058219489655,0.01821058000353797,0.013256663437140387,0.006809278748107412,0.00317663398103995,0.0012418241030250265,3.632829886872324,3.3107555927675074,1.8725430031194892,1.8725430031194892,1.5680931828743745,E-W,0.0002384185791015625,6.361,N-S,0.0002384185791015625,5.793
20020120052100.knt,TKY0090201200521.UD,2002-01-20, 05:21:00,34.715,139.409,0,2.6,TKY009,34.6874,139.4412,60,2002-01-20, 05:21:53,100Hz,119,U-D,0.0002384185791015625,4.515,4.252477490943358,1264,1273.0,22.947852240069654,1.5396148291280387,1.620256646964757,1.6784022663079121,3.2178711057379568,5.008250677490576,0.022260324255050683,0.022260324255050683,0.016134491714235696,0.016134491714235696,0.016134491714235696,4.516659989642789,4.516659989642789,4.516659989642789,3.0372266891699167,2.0418141617389423,E-W,0.0002384185791015625,7.648,N-S,0.0002384185791015625,9.601
20020121085500.knt,HKD0660201210855.UD,2002-01-21, 08:55:00,42.535,144.776,47,4.7,HKD066,43.6619,145.1307,2,2002-01-21, 08:56:20,100Hz,119,U-D,0.0002384185791015625,2.09,128.57202255950318,0,1.0,11.155231127009113,0.0,0.0,0.0,0.0,0.0,0.0,0.0,0.0,0.0,0.0,0.0,0.0,0.0,0.0,0.0,E-W,0.0002384185791015625,5.454,N-S,0.0002384185791015625,6.996
20020121085500.knt,HKD0680201210855.UD,2002-01-21, 08:55:00,42.535,144.776,47,4.7,HKD068,43.4108,144.7704,105,2002-01-21, 08:56:14,100Hz,119,U-D,0.0002384185791015625,2.575,97.38558244580166,0,-100.0,,0.0,0.0,0.0,0.0,0.0,0.0,0.0,0.0,0.0,0.0,0.0,0.0,0.0,0.0,0.0,E-W,0.0002384185791015625,7.493,N-S,0.0002384185791015625,9.152
20020121085500.knt,HKD0700201210855.UD,2002-01-21, 08:55:00,42.535,144.776,47,4.7,HKD070,43.3852,145.284,6,2002-01-21, 08:56:14,100Hz,119,U-D,0.0002384185791015625,1.057,103.180418283775,63,63.0,25.08402238633588,2.933694552898119,2.6821201380052986,2.8511196477540675,2.0621415722410408,1.161720860877677,0.0021128070279501617,0.0021128070279501617,0.0019234370312449839,0.0015691065830056871,0.0003583596825051956,0.6094347784311803,0.6094347784311803,0.5377507467057042,0.255091703375361,0.13764356125567972,E-W,0.0002384185791015625,3.426,N-S,0.0002384185791015625,3.202
20020121085500.knt,HKD0720201210855.UD,2002-01-21, 08:55:00,42.535,144.776,47,4.7,HKD072,43.1948,145.5209,46,2002-01-21, 08:56:13,100Hz,119,U-D,0.0002384185791015625,1.157,95.22716564776468,89,106.0,17.604133077666603,7.285243597490498,7.873068320528723,5.575803941887146,2.7183463422333247,1.7265545220676117,0.007074830726275515,0.007074830726275515,0.006212553873470606,0.0037985831291452834,0.0008958810011035516,0.4441771991682393,0.4441771991682393,0.35782283649281754,0.2516605076293694,0.15056639220637627,E-W,0.0002384185791015625,3.275,N-S,0.0002384185791015625,4.115
20020121085500.knt,HKD0760201210855.UD,2002-01-21, 08:55:00,42.535,144.776,47,4.7,HKD076,43.0509,144.8498,2,2002-01-21, 08:56:02,100Hz,119,U-D,0.0002384185791015625,1.713,57.680652020558895,1,32.0,14.45007176294925,4.319080431013979,4.836453833546839,7.0003766712158715,5.58841927007349,2.5231060319687733,0.0028382299927332067,0.0028382299927332067,0.0028382299927332067,0.002663714694268752,0.0013694419547099503,0.1598751119131528,0.1598751119131528,0.10761125287894137,0.10761125287894137,0.0940241828199412,E-W,0.0002384185791015625,3.563,N-S,0.0002384185791015625,2.919
