earthquake name,records name,earthquake date,earthquake time,lat,long,depth,mag,stn_code,stn_lat,stn_long,stn_height,rcd_date,rcd_time,frequency,rcd_duration,direction,scale_factor,max_pga,epi_dist,pick_index_manually,pick_index_kalkan,snr_db_kalkan,tc_5sec,tc_4sec,tc_3sec,tc_2sec,tc_1sec,Pd_5sec,Pd_4sec,Pd_3sec,Pd_2sec,Pd_1sec,Pga_5sec,Pga_4sec,Pga_3sec,Pga_2sec,Pga_1sec,Channel,Scale_factor,PGA_ew,Channel.1,Scale_factor.1,PGA_ns
20020110004100.knt,CHB0020201100041.UD,2002-01-10, 00:41:00,34.233,139.725,117,4.8,CHB002,35.7868,139.9031,14,2002-01-10, 00:41:55,100Hz,119,U-D,0.0002384185791015625,1.724,173.5342894494772,0,-100.0,,0.0,0.0,0.0,0.0,0.0,0.0,0.0,0.0,0.0,0.0,0.0,0.0,0.0,0.0,0.0,E-W,0.0002384185791015625,2.948,N-S,0.0002384185791015625,4.183
20020110004100.knt,CHB0080201100041.UD,2002-01-10, 00:41:00,34.233,139.725,117,4.8,CHB008,35.6537,139.9023,4,2002-01-10, 00:41:53,100Hz,119,U-D,0.0002384185791015625,1.956,158.79898522891966,0,-100.0,,0.0,0.0,0.0,0.0,0.0,0.0,0.0,0.0,0.0,0.0,0.0,0.0,0.0,0.0,0.0,E-W,0.0002384185791015625,2.915,N-S,0.0002384185791015625,3.02
20020110004100.knt,CHB0120201100041.UD,2002-01-10, 00:41:00,34.233,139.725,117,4.8,CHB012,35.5727,140.3333,62,2002-01-10, 00:41:55,100Hz,119,U-D,0.0002384185791015625,1.431,158.96012882713723,0,-100.0,,0.0,0.0,0.0,0.0,0.0,0.0,0.0,0.0,0.0,0.0,0.0,0.0,0.0,0.0,0.0,E-W,0.0002384185791015625,2.311,N-S,0.0002384185791015625,2.42
20020110004100.knt,CHB0140201100041.UD,2002-01-10, 00:41:00,34.233,139.725,117,4.8,CHB014,35.4769,140.0489,7,2002-01-10, 00:41:50,100Hz,119,U-D,0.0002384185791015625,2.639,141.4374185361817,0,2.0,5.26220162226325,0.0,0.0,0.0,0.0,0.0,0.0,0.0,0.0,0.0,0.0,0.0,0.0,0.0,0.0,0.0,E-W,0.0002384185791015625,4.146,N-S,0.0002384185791015625,3.381
20020110004100.knt,CHB0170201100041.UD,2002-01-10, 00:41:00,34.233,139.725,117,4.8,CHB017,35.2988,140.0755,31,2002-01-10, 00:41:48,100Hz,119,U-D,0.0002384185791015625,2.084,122.75982502320294,0,1.0,-4.528736462538692,0.0,0.0,0.0,0.0,0.0,0.0,0.0,0.0,0.0,0.0,0.0,0.0,0.0,0.0,0.0,E-W,0.0002384185791015625,3.198,N-S,0.0002384185791015625,3.73
20020110004100.knt,CHB0180201100041.UD,2002-01-10, 00:41:00,34.233,139.725,117,4.8,CHB018,35.1577,140.3222,56,2002-01-10, 00:41:44,100Hz,119,U-D,0.0002384185791015625,1.52,116.41792435559096,0,-100.0,,0.0,0.0,0.0,0.0,0.0,0.0,0.0,0.0,0.0,0.0,0.0,0.0,0.0,0.0,0.0,E-W,0.0002384185791015625,3.08,N-S,0.0002384185791015625,3.143
20020110004100.knt,CHB0190201100041.UD,2002-01-10, 00:41:00,34.233,139.725,117,4.8,CHB019,35.1105,139.8351,4,2002-01-10, 00:41:43,100Hz,119,U-D,0.0002384185791015625,2.175,98.09163492870668,0,-100.0,,0.0,0.0,0.0,0.0,0.0,0.0,0.0,0.0,0.0,0.0,0.0,0.0,0.0,0.0,0.0,E-W,0.0002384185791015625,3.517,N-S,0.0002384185791015625,3.501
20020110004100.knt,CHB0200201100041.UD,2002-01-10, 00:41:00,34.233,139.725,117,4.8,CHB020,35.1155,140.1022,13,2002-01-10, 00:41:43,100Hz,119,U-D,0.0002384185791015625,1.737,104.01518735598145,0,-100.0,,0.0,0.0,0.0,0.0,0.0,0.0,0.0,0.0,0.0,0.0,0.0,0.0,0.0,0.0,0.0,E-W,0.0002384185791015625,3.018,N-S,0.0002384185791015625,4.157
20020110004100.knt,CHB0210201100041.UD,2002-01-10, 00:41:00,34.233,139.725,117,4.8,CHB021,34.9083,139.8979,6,2002-01-10, 00:41:38,100Hz,119,U-D,0.0002384185791015625,1.416,76.74052351080113,0,1.0,3.4542136415616795,0.0,0.0,0.0,0.0,0.0,0.0,0.0,0.0,0.0,0.0,0.0,0.0,0.0,0.0,0.0,E-W,0.0002384185791015625,3.015,N-S,0.0002384185791015625,5.242
20020110004100.knt,CHB0220201100041.UD,2002-01-10, 00:41:00,34.233,139.725,117,4.8,CHB022,35.3083,139.8598,7,2002-01-10, 00:41:45,100Hz,119,U-D,0.0002384185791015625,2.568,120.20014234642332,0,-100.0,,0.0,0.0,0.0,0.0,0.0,0.0,0.0,0.0,0.0,0.0,0.0,0.0,0.0,0.0,0.0,E-W,0.0002384185791015625,5.483,N-S,0.0002384185791015625,5.014
20020110004100.knt,CHB0250201100041.UD,2002-01-10, 00:41:00,34.233,139.725,117,4.8,CHB025,34.9707,139.9459,-9999,2002-01-10, 00:41:39,200Hz,180,U-D,0.0002384185791015625,2.118,84.48335171569012,0,-100.0,,0.0,0.0,0.0,0.0,0.0,0.0,0.0,0.0,0.0,0.0,0.0,0.0,0.0,0.0,0.0,E-W,0.0002384185791015625,3.526,N-S,0.0002384185791015625,3.538
20020110004100.knt,CHB0270201100041.UD,2002-01-10, 00:41:00,34.233,139.725,117,4.8,CHB027,35.181,140.2655,-9999,2002-01-10, 00:41:44,200Hz,180,U-D,0.0002384185791015625,1.243,116.41651109400964,0,-100.0,,0.0,0.0,0.0,0.0,0.0,0.0,0.0,0.0,0.0,0.0,0.0,0.0,0.0,0.0,0.0,E-W,0.0002384185791015625,2.246,N-S,0.0002384185791015625,2.331
20020110004100.knt,CHB0300201100041.UD,2002-01-10, 00:41:00,34.233,139.725,117,4.8,CHB030,35.3766,139.9151,-9999,2002-01-10, 00:41:47,100Hz,119,U-D,0.0002384185791015625,1.409,128.34146605675488,0,-100.0,,0.0,0.0,0.0,0.0,0.0,0.0,0.0,0.0,0.0,0.0,0.0,0.0,0.0,0.0,0.0,E-W,0.0002384185791015625,2.693,N-S,0.0002384185791015625,2.748
20020110004100.knt,FKS0050201100041.UD,2002-01-10, 00:41:00,34.233,139.725,117,4.8,FKS005,37.6385,140.9849,16,2002-01-10, 00:41:39,100Hz,119,U-D,0.0002384185791015625,0.666,395.2858664008222,0,-100.0,,0.0,0.0,0.0,0.0,0.0,0.0,0.0,0.0,0.0,0.0,0.0,0.0,0.0,0.0,0.0,E-W,0.0002384185791015625,2.756,N-S,0.0002384185791015625,1.91
20020110004100.knt,FKS0060201100041.UD,2002-01-10, 00:41:00,34.233,139.725,117,4.8,FKS006,37.5031,140.7588,472,2002-01-10, 00:41:33,100Hz,119,U-D,0.0002384185791015625,3.23,375.35326348408483,0,6.0,7.785777548128209,0.0,0.0,0.0,0.0,0.0,0.0,0.0,0.0,0.0,0.0,0.0,0.0,0.0,0.0,0.0,E-W,0.0002384185791015625,6.451,N-S,0.0002384185791015625,5.135
20020110004100.knt,FKS0090201100041.UD,2002-01-10, 00:41:00,34.233,139.725,117,4.8,FKS009,37.2778,140.6349,440,2002-01-10, 00:41:27,100Hz,119,U-D,0.0002384185791015625,1.307,348.37410104300506,0,-100.0,,0.0,0.0,0.0,0.0,0.0,0.0,0.0,0.0,0.0,0.0,0.0,0.0,0.0,0.0,0.0,E-W,0.0002384185791015625,2.863,N-S,0.0002384185791015625,3.583
20020110004100.knt,FKS0100201100041.UD,2002-01-10, 00:41:00,34.233,139.725,117,4.8,FKS010,37.2342,141.0016,50,2002-01-10, 00:41:31,100Hz,119,U-D,0.0002384185791015625,1.107,353.04016889382814,0,12.0,6.841791862119614,0.0,0.0,0.0,0.0,0.0,0.0,0.0,0.0,0.0,0.0,0.0,0.0,0.0,0.0,0.0,E-W,0.0002384185791015625,2.211,N-S,0.0002384185791015625,3.166
20020110004100.knt,FKS0130201100041.UD,2002-01-10, 00:41:00,34.233,139.725,117,4.8,FKS013,37.09,140.5563,320,2002-01-10, 00:41:24,100Hz,119,U-D,0.0002384185791015625,1.274,326.4359128009881,0,1.0,13.381162313298704,0.0,0.0,0.0,0.0,0.0,0.0,0.0,0.0,0.0,0.0,0.0,0.0,0.0,0.0,0.0,E-W,0.0002384185791015625,2.266,N-S,0.0002384185791015625,2.898
20020110004100.knt,FKS0160201100041.UD,2002-01-10, 00:41:00,34.233,139.725,117,4.8,FKS016,37.1228,140.1914,375,2002-01-10, 00:41:27,100Hz,119,U-D,0.0002384185791015625,1.017,324.07935840357396,0,-100.0,,0.0,0.0,0.0,0.0,0.0,0.0,0.0,0.0,0.0,0.0,0.0,0.0,0.0,0.0,0.0,E-W,0.0002384185791015625,2.912,N-S,0.0002384185791015625,2.185
20020110004100.knt,GNM0010201100041.UD,2002-01-10, 00:41:00,34.233,139.725,117,4.8,GNM001,36.7722,139.2248,810,2002-01-10, 00:41:18,100Hz,119,U-D,0.0002384185791015625,1.451,285.9523111622142,0,1.0,5.941644842634193,0.0,0.0,0.0,0.0,0.0,0.0,0.0,0.0,0.0,0.0,0.0,0.0,0.0,0.0,0.0,E-W,0.0002384185791015625,2.953,N-S,0.0002384185791015625,2.532
20020110004100.knt,IBR0020201100041.UD,2002-01-10, 00:41:00,34.233,139.725,117,4.8,IBR002,36.7061,140.7068,9,2002-01-10, 00:41:15,100Hz,119,U-D,0.0002384185791015625,1.476,289.0069397105273,2,24.0,6.2691233969851226,13.63163872624912,14.199354674728319,11.242359011321268,6.700213121547318,2.9135497730795654,0.055361061373538425,0.055361061373538425,0.05529165088699278,0.045622228876043606,0.019856206880736076,0.2062527212940566,0.2062527212940566,0.2062527212940566,0.2062527212940566,0.16643072653590266,E-W,0.0002384185791015625,3.394,N-S,0.0002384185791015625,3.461
20020110004100.knt,IBR0030201100041.UD,2002-01-10, 00:41:00,34.233,139.725,117,4.8,IBR003,36.5915,140.6453,58,2002-01-10, 00:41:12,100Hz,119,U-D,0.0002384185791015625,2.585,275.19094199215243,0,3.0,5.637136414267613,0.0,0.0,0.0,0.0,0.0,0.0,0.0,0.0,0.0,0.0,0.0,0.0,0.0,0.0,0.0,E-W,0.0002384185791015625,4.862,N-S,0.0002384185791015625,4.505
20020110004100.knt,IBR0040201100041.UD,2002-01-10, 00:41:00,34.233,139.725,117,4.8,IBR004,36.5273,140.4094,51,2002-01-10, 00:41:10,100Hz,119,U-D,0.0002384185791015625,2.059,262.5491583840905,0,1.0,-0.7879208652769398,0.0,0.0,0.0,0.0,0.0,0.0,0.0,0.0,0.0,0.0,0.0,0.0,0.0,0.0,0.0,E-W,0.0002384185791015625,6.037,N-S,0.0002384185791015625,6.31
20020110004100.knt,IBR0050201100041.UD,2002-01-10, 00:41:00,34.233,139.725,117,4.8,IBR005,36.3851,140.2372,63,2002-01-10, 00:41:06,100Hz,120,U-D,0.0002384185791015625,2.148,243.7728824138312,0,-100.0,,0.0,0.0,0.0,0.0,0.0,0.0,0.0,0.0,0.0,0.0,0.0,0.0,0.0,0.0,0.0,E-W,0.0002384185791015625,4.821,N-S,0.0002384185791015625,3.763
20020110004100.knt,IBR0070201100041.UD,2002-01-10, 00:41:00,34.233,139.725,117,4.8,IBR007,36.3523,140.5955,24,2002-01-10, 00:41:08,100Hz,119,U-D,0.0002384185791015625,1.357,248.5427469194879,0,-100.0,,0.0,0.0,0.0,0.0,0.0,0.0,0.0,0.0,0.0,0.0,0.0,0.0,0.0,0.0,0.0,E-W,0.0002384185791015625,2.155,N-S,0.0002384185791015625,2.565
20020110004100.knt,IBR0120201100041.UD,2002-01-10, 00:41:00,34.233,139.725,117,4.8,IBR012,36.1901,140.2869,24,2002-01-10, 00:41:05,100Hz,119,U-D,0.0002384185791015625,1.045,223.5253377931186,0,3.0,-5.67492313167576,0.0,0.0,0.0,0.0,0.0,0.0,0.0,0.0,0.0,0.0,0.0,0.0,0.0,0.0,0.0,E-W,0.0002384185791015625,2.553,N-S,0.0002384185791015625,1.957
20020110004100.knt,IBR0170201100041.UD,2002-01-10, 00:41:00,34.233,139.725,117,4.8,IBR017,35.9537,140.3194,17,2002-01-10, 00:41:02,100Hz,119,U-D,0.0002384185791015625,1.618,198.82753349454052,0,3.0,5.733335317515163,0.0,0.0,0.0,0.0,0.0,0.0,0.0,0.0,0.0,0.0,0.0,0.0,0.0,0.0,0.0,E-W,0.0002384185791015625,1.839,N-S,0.0002384185791015625,2.627
20020110004100.knt,KNG0010201100041.UD,2002-01-10, 00:41:00,34.233,139.725,117,4.8,KNG001,35.5291,139.7062,2,2002-01-10, 00:41:49,100Hz,119,U-D,0.0002384185791015625,4.265,144.1299458332852,0,-100.0,,0.0,0.0,0.0,0.0,0.0,0.0,0.0,0.0,0.0,0.0,0.0,0.0,0.0,0.0,0.0,E-W,0.0002384185791015625,5.122,N-S,0.0002384185791015625,4.367
20020110004100.knt,KNG0040201100041.UD,2002-01-10, 00:41:00,34.233,139.725,117,4.8,KNG004,35.1441,139.6218,31,2002-01-10, 00:41:41,100Hz,119,U-D,0.0002384185791015625,1.824,101.74813068387166,0,-100.0,,0.0,0.0,0.0,0.0,0.0,0.0,0.0,0.0,0.0,0.0,0.0,0.0,0.0,0.0,0.0,E-W,0.0002384185791015625,4.171,N-S,0.0002384185791015625,4.4
20020110004100.knt,KNG0050201100041.UD,2002-01-10, 00:41:00,34.233,139.725,117,4.8,KNG005,35.3194,139.549,7,2002-01-10, 00:41:45,100Hz,120,U-D,0.0002384185791015625,2.693,121.86690864016778,0,1.0,0.561075536110901,0.0,0.0,0.0,0.0,0.0,0.0,0.0,0.0,0.0,0.0,0.0,0.0,0.0,0.0,0.0,E-W,0.0002384185791015625,4.193,N-S,0.0002384185791015625,3.621
20020110004100.knt,KNG0090201100041.UD,2002-01-10, 00:41:00,34.233,139.725,117,4.8,KNG009,35.4424,139.3618,20,2002-01-10, 00:41:47,100Hz,119,U-D,0.0002384185791015625,4.14,138.50383654437346,0,3.0,16.292900225862518,0.0,0.0,0.0,0.0,0.0,0.0,0.0,0.0,0.0,0.0,0.0,0.0,0.0,0.0,0.0,E-W,0.0002384185791015625,6.84,N-S,0.0002384185791015625,9.951
20020110004100.knt,KNG2010201100041.UD,2002-01-10, 00:41:00,34.233,139.725,117,4.8,KNG201,34.5956,139.9183,-2197,2002-01-10, 00:41:34,200Hz,180,U-D,5.9604644775390625e-05,1.315,44.04615177962793,0,-100.0,,0.0,0.0,0.0,0.0,0.0,0.0,0.0,0.0,0.0,0.0,0.0,0.0,0.0,0.0,0.0,E-W,5.9604644775390625e-05,13.145,N-S,5.9604644775390625e-05,16.477
20020110004100.knt,KNG2020201100041.UD,2002-01-10, 00:41:00,34.233,139.725,117,4.8,KNG202,34.7396,139.8393,-2339,2002-01-10, 00:41:34,200Hz,180,U-D,5.9604644775390625e-05,9.24,57.2971745040451,0,-100.0,,0.0,0.0,0.0,0.0,0.0,0.0,0.0,0.0,0.0,0.0,0.0,0.0,0.0,0.0,0.0,E-W,5.9604644775390625e-05,25.696,N-S,5.9604644775390625e-05,22.157
20020110004100.knt,KNG2030201100041.UD,2002-01-10, 00:41:00,34.233,139.725,117,4.8,KNG203,34.7983,139.6435,-902,2002-01-10, 00:41:34,200Hz,180,U-D,5.9604644775390625e-05,1.479,63.30045196415334,0,-100.0,,0.0,0.0,0.0,0.0,0.0,0.0,0.0,0.0,0.0,0.0,0.0,0.0,0.0,0.0,0.0,E-W,5.9604644775390625e-05,16.857,N-S,5.9604644775390625e-05,10.221
20020110004100.knt,KNG2040201100041.UD,2002-01-10, 00:41:00,34.233,139.725,117,4.8,KNG204,34.8931,139.5711,-933,2002-01-10, 00:41:33,200Hz,180,U-D,5.9604644775390625e-05,1.712,74.74035034695757,0,-100.0,,0.0,0.0,0.0,0.0,0.0,0.0,0.0,0.0,0.0,0.0,0.0,0.0,0.0,0.0,0.0,E-W,5.9604644775390625e-05,4.842,N-S,5.9604644775390625e-05,4.909
20020110004100.knt,KNG2050201100041.UD,2002-01-10, 00:41:00,34.233,139.725,117,4.8,KNG205,34.9413,139.4213,-1486,2002-01-10, 00:41:33,200Hz,180,U-D,5.9604644775390625e-05,0.753,83.52208417425146,0,-100.0,,0.0,0.0,0.0,0.0,0.0,0.0,0.0,0.0,0.0,0.0,0.0,0.0,0.0,0.0,0.0,E-W,5.9604644775390625e-05,5.141,N-S,5.9604644775390625e-05,5.593
20020110004100.knt,KNG2060201100041.UD,2002-01-10, 00:41:00,34.233,139.725,117,4.8,KNG206,35.0966,139.3778,-1130,2002-01-10, 00:41:33,200Hz,180,U-D,5.9604644775390625e-05,2.035,101.14162557343741,1193,1190.0,30.420147960623932,3.5679652052084636,3.5983090126869084,4.629333241106912,4.640663278975726,7.071991041412787,0.007709362293884442,0.007709362293884442,0.006396069429655689,0.003898430670872048,0.0038845505206319348,0.43482683441552517,0.3739470579702696,0.2583122991033179,0.2583122991033179,0.1020750035802429,E-W,5.9604644775390625e-05,9.612,N-S,5.9604644775390625e-05,9.14
20020110004100.knt,MYG0020201100041.UD,2002-01-10, 00:41:00,34.233,139.725,117,4.8,MYG002,38.7262,141.5109,79,2002-01-10, 00:41:03,100Hz,119,U-D,0.0002384185791015625,0.736,524.4824614087357,0,-100.0,,0.0,0.0,0.0,0.0,0.0,0.0,0.0,0.0,0.0,0.0,0.0,0.0,0.0,0.0,0.0,E-W,0.0002384185791015625,3.629,N-S,0.0002384185791015625,3.716
20020110004100.knt,MYG0110201100041.UD,2002-01-10, 00:41:00,34.233,139.725,117,4.8,MYG011,38.2972,141.5043,30,2002-01-10, 00:41:53,100Hz,119,U-D,0.0002384185791015625,1.442,479.21747895637793,0,-100.0,,0.0,0.0,0.0,0.0,0.0,0.0,0.0,0.0,0.0,0.0,0.0,0.0,0.0,0.0,0.0,E-W,0.0002384185791015625,3.477,N-S,0.0002384185791015625,5.545
20020110004100.knt,MYG0150201100041.UD,2002-01-10, 00:41:00,34.233,139.725,117,4.8,MYG015,38.1049,140.8699,3,2002-01-10, 00:41:49,100Hz,119,U-D,0.0002384185791015625,0.663,442.6200725776944,0,1.0,17.010869573794725,0.0,0.0,0.0,0.0,0.0,0.0,0.0,0.0,0.0,0.0,0.0,0.0,0.0,0.0,0.0,E-W,0.0002384185791015625,3.432,N-S,0.0002384185791015625,2.86
20020110004100.knt,SIT0090201100041.UD,2002-01-10, 00:41:00,34.233,139.725,117,4.8,SIT009,35.9032,139.4837,22,2002-01-10, 00:41:00,100Hz,119,U-D,0.0002384185791015625,1.167,187.0114259939605,0,1.0,3.1695084393174833,0.0,0.0,0.0,0.0,0.0,0.0,0.0,0.0,0.0,0.0,0.0,0.0,0.0,0.0,0.0,E-W,0.0002384185791015625,2.58,N-S,0.0002384185791015625,2.04
20020110004100.knt,SIT0100201100041.UD,2002-01-10, 00:41:00,34.233,139.725,117,4.8,SIT010,35.9065,139.6481,13,2002-01-10, 00:41:59,100Hz,119,U-D,0.0002384185791015625,0.898,186.21624421749817,0,1.0,-2.770885266478854,0.0,0.0,0.0,0.0,0.0,0.0,0.0,0.0,0.0,0.0,0.0,0.0,0.0,0.0,0.0,E-W,0.0002384185791015625,2.536,N-S,0.0002384185791015625,1.173
20020110004100.knt,SIT0110201100041.UD,2002-01-10, 00:41:00,34.233,139.725,117,4.8,SIT011,35.8098,139.7212,2,2002-01-10, 00:41:56,100Hz,119,U-D,0.0002384185791015625,1.024,175.33250174543002,0,-100.0,,0.0,0.0,0.0,0.0,0.0,0.0,0.0,0.0,0.0,0.0,0.0,0.0,0.0,0.0,0.0,E-W,0.0002384185791015625,3.648,N-S,0.0002384185791015625,3.092
20020110004100.knt,TCG0030201100041.UD,2002-01-10, 00:41:00,34.233,139.725,117,4.8,TCG003,36.8144,139.7153,398,2002-01-10, 00:41:18,100Hz,119,U-D,0.0002384185791015625,0.186,287.0399253913335,0,2.0,-1.7405588866434836,0.0,0.0,0.0,0.0,0.0,0.0,0.0,0.0,0.0,0.0,0.0,0.0,0.0,0.0,0.0,E-W,0.0002384185791015625,2.391,N-S,0.0002384185791015625,1.953
20020110004100.knt,TCG0050201100041.UD,2002-01-10, 00:41:00,34.233,139.725,117,4.8,TCG005,36.8061,139.9264,197,2002-01-10, 00:41:17,100Hz,119,U-D,0.0002384185791015625,0.523,286.6954324508619,0,-100.0,,0.0,0.0,0.0,0.0,0.0,0.0,0.0,0.0,0.0,0.0,0.0,0.0,0.0,0.0,0.0,E-W,0.0002384185791015625,1.799,N-S,0.0002384185791015625,3.042
20020110004100.knt,TCG0090201100041.UD,2002-01-10, 00:41:00,34.233,139.725,117,4.8,TCG009,36.7258,139.7155,361,2002-01-10, 00:41:17,100Hz,119,U-D,0.0002384185791015625,2.335,277.18804738421903,0,-100.0,,0.0,0.0,0.0,0.0,0.0,0.0,0.0,0.0,0.0,0.0,0.0,0.0,0.0,0.0,0.0,E-W,0.0002384185791015625,5.895,N-S,0.0002384185791015625,4.904
20020110004100.knt,TCG0110201100041.UD,2002-01-10, 00:41:00,34.233,139.725,117,4.8,TCG011,36.3867,139.6145,93,2002-01-10, 00:41:06,100Hz,119,U-D,0.0002384185791015625,0.86,239.69026112527064,0,-100.0,,0.0,0.0,0.0,0.0,0.0,0.0,0.0,0.0,0.0,0.0,0.0,0.0,0.0,0.0,0.0,E-W,0.0002384185791015625,3.589,N-S,0.0002384185791015625,1.973
20020110004100.knt,TCG0140201100041.UD,2002-01-10, 00:41:00,34.233,139.725,117,4.8,TCG014,36.545,140.1742,130,2002-01-10, 00:41:08,100Hz,119,U-D,0.0002384185791015625,2.815,260.28650327589804,0,1.0,-2.5075575816665157,0.0,0.0,0.0,0.0,0.0,0.0,0.0,0.0,0.0,0.0,0.0,0.0,0.0,0.0,0.0,E-W,0.0002384185791015625,6.774,N-S,0.0002384185791015625,4.887
20020110004100.knt,TKY0040201100041.UD,2002-01-10, 00:41:00,34.233,139.725,117,4.8,TKY004,35.6282,139.4034,81,2002-01-10, 00:41:55,100Hz,119,U-D,0.0002384185791015625,1.609,157.8847538559589,0,-100.0,,0.0,0.0,0.0,0.0,0.0,0.0,0.0,0.0,0.0,0.0,0.0,0.0,0.0,0.0,0.0,E-W,0.0002384185791015625,2.175,N-S,0.0002384185791015625,2.441
20020110004100.knt,TKY0050201100041.UD,2002-01-10, 00:41:00,34.233,139.725,117,4.8,TKY005,35.5782,139.4156,109,2002-01-10, 00:41:51,100Hz,119,U-D,0.0002384185791015625,1.345,152.21681923154296,0,-100.0,,0.0,0.0,0.0,0.0,0.0,0.0,0.0,0.0,0.0,0.0,0.0,0.0,0.0,0.0,0.0,E-W,0.0002384185791015625,3.044,N-S,0.0002384185791015625,3.077
20020110004100.knt,TKY0070201100041.UD,2002-01-10, 00:41:00,34.233,139.725,117,4.8,TKY007,35.7107,139.6859,34,2002-01-10, 00:41:53,100Hz,119,U-D,0.0002384185791015625,1.741,164.3513566291581,0,1.0,-13.461899453908368,0.0,0.0,0.0,0.0,0.0,0.0,0.0,0.0,0.0,0.0,0.0,0.0,0.0,0.0,0.0,E-W,0.0002384185791015625,3.433,N-S,0.0002384185791015625,2.548
20020110004100.knt,TKY0080201100041.UD,2002-01-10, 00:41:00,34.233,139.725,117,4.8,TKY008,34.7852,139.3909,67,2002-01-10, 00:41:37,100Hz,119,U-D,0.0002384185791015625,2.163,68.60999316899924,0,2.0,1.3722389264557875,0.0,0.0,0.0,0.0,0.0,0.0,0.0,0.0,0.0,0.0,0.0,0.0,0.0,0.0,0.0,E-W,0.0002384185791015625,3.815,N-S,0.0002384185791015625,4.026
20020110004100.knt,TKY0100201100041.UD,2002-01-10, 00:41:00,34.233,139.725,117,4.8,TKY010,34.3775,139.2557,13,2002-01-10, 00:41:39,100Hz,119,U-D,0.0002384185791015625,1.301,46.003389608831675,0,-100.0,,0.0,0.0,0.0,0.0,0.0,0.0,0.0,0.0,0.0,0.0,0.0,0.0,0.0,0.0,0.0,E-W,0.0002384185791015625,1.527,N-S,0.0002384185791015625,2.54
20020110004100.knt,TKY0120201100041.UD,2002-01-10, 00:41:00,34.233,139.725,117,4.8,TKY012,33.1161,139.789,74,2002-01-10, 00:41:46,100Hz,119,U-D,0.0002384185791015625,1.63,124.33473007794774,0,-100.0,,0.0,0.0,0.0,0.0,0.0,0.0,0.0,0.0,0.0,0.0,0.0,0.0,0.0,0.0,0.0,E-W,0.0002384185791015625,4.32,N-S,0.0002384185791015625,4.435
20020110004100.knt,TKY0160201100041.UD,2002-01-10, 00:41:00,34.233,139.725,117,4.8,TKY016,35.6485,139.799,-9999,2002-01-10, 00:41:53,200Hz,180,U-D,0.0002384185791015625,1.229,157.54086686288085,0,-100.0,,0.0,0.0,0.0,0.0,0.0,0.0,0.0,0.0,0.0,0.0,0.0,0.0,0.0,0.0,0.0,E-W,0.0002384185791015625,2.572,N-S,0.0002384185791015625,3.224
20020110004100.knt,YMN0020201100041.UD,2002-01-10, 00:41:00,34.233,139.725,117,4.8,YMN002,35.6132,138.947,368,2002-01-10, 00:41:54,100Hz,119,U-D,0.0002384185791015625,1.226,169.06808185395127,0,-100.0,,0.0,0.0,0.0,0.0,0.0,0.0,0.0,0.0,0.0,0.0,0.0,0.0,0.0,0.0,0.0,E-W,0.0002384185791015625,3.14,N-S,0.0002384185791015625,2.723
