earthquake name,records name,earthquake date,earthquake time,lat,long,depth,mag,stn_code,stn_lat,stn_long,stn_height,rcd_date,rcd_time,frequency,rcd_duration,direction,scale_factor,max_pga,epi_dist,pick_index_manually,pick_index_kalkan,snr_db_kalkan,tc_5sec,tc_4sec,tc_3sec,tc_2sec,tc_1sec,Pd_5sec,Pd_4sec,Pd_3sec,Pd_2sec,Pd_1sec,Pga_5sec,Pga_4sec,Pga_3sec,Pga_2sec,Pga_1sec,Channel,Scale_factor,PGA_ew,Channel.1,Scale_factor.1,PGA_ns
19980110182600.knt,KGS0029801101826.UD,1998-01-10, 18:26:00,31.853,130.281,8,3.4,KGS002,32.0909,130.3532,12,1998-01-10, 18:26:47,100Hz,119,U-D,0.0002384185791015625,1.195,27.315886564086842,1072,1078.0,15.50418347211112,1.8883527207659419,2.5314475035747743,3.1025783969217358,2.1935284359155656,0.6779291668937484,0.0028256244993262896,0.0021118026578747485,0.0021118026578747485,0.00160354090367544,0.0006294916634631427,1.1944098710157005,0.8380883298775578,0.537665516522272,0.5122871910216852,0.5122871910216852,E-W,0.0002384185791015625,3.058,N-S,0.0002384185791015625,3.684
19980110182600.knt,KGS0059801101826.UD,1998-01-10, 18:26:00,31.853,130.281,8,3.4,KGS005,31.9006,130.4513,42,1998-01-10, 18:26:44,100Hz,119,U-D,0.0002384185791015625,2.011,16.929269326110436,1176,1174.0,13.844394051049065,5.289875729912132,4.986383782247167,4.441439141679443,3.3091926623942487,1.2018125368696426,0.012598658964600896,0.012598658964600896,0.01180614971433478,0.008659789557939676,0.003746753309215115,2.0351960216942575,2.0351960216942575,2.0351960216942575,2.0351960216942575,2.0351960216942575,E-W,0.0002384185791015625,6.243,N-S,0.0002384185791015625,13.674
19980110182600.knt,KGS0079801101826.UD,1998-01-10, 18:26:00,31.853,130.281,8,3.4,KGS007,31.8143,130.3032,4,1998-01-10, 18:26:41,100Hz,119,U-D,0.0002384185791015625,17.507,4.787090280821169,1343,1342.0,10.630850167385848,0.7495707754408455,0.6999061570045005,0.5396383512781135,0.43046931387683574,0.33295427453853743,0.020392909025681326,0.020392909025681326,0.015783679673142544,0.010832918240690027,0.003152211474185449,17.513072340503374,17.513072340503374,17.513072340503374,17.513072340503374,5.8447245463267254,E-W,0.0002384185791015625,19.658,N-S,0.0002384185791015625,29.481
19980110182600.knt,KGS0109801101826.UD,1998-01-10, 18:26:00,31.853,130.281,8,3.4,KGS010,31.7123,130.2735,16,1998-01-10, 18:26:42,100Hz,119,U-D,0.0002384185791015625,14.634,15.661179001280036,1399,1403.0,21.020972192165,0.3483990373030943,0.26187315659398724,0.1644343160788303,0.17184018736165127,0.1705979130520105,0.009076477603790836,0.008680231367747754,0.004177073900468515,0.0019069090397968746,0.0014418809499018115,14.652658439812846,14.652658439812846,14.652658439812846,4.211358248997145,4.211358248997145,E-W,0.0002384185791015625,16.644,N-S,0.0002384185791015625,17.755
19980110182600.knt,KGS0119801101826.UD,1998-01-10, 18:26:00,31.853,130.281,8,3.4,KGS011,31.5896,130.349,18,1998-01-10, 18:26:48,100Hz,89,U-D,0.0002384185791015625,3.793,29.986620344534522,0,-100.0,,0.0,0.0,0.0,0.0,0.0,0.0,0.0,0.0,0.0,0.0,0.0,0.0,0.0,0.0,0.0,E-W,0.0002384185791015625,8.751,N-S,0.0002384185791015625,21.09
19980110182600.knt,KGS0169801101826.UD,1998-01-10, 18:26:00,31.853,130.281,8,3.4,KGS016,31.4162,130.3225,11,1998-01-10, 18:26:53,100Hz,119,U-D,0.0002384185791015625,1.119,48.72859144095501,807,135.0,15.999450684493667,2.6265534502760195,2.589450481622954,2.5440852031034393,2.740656009764701,2.9320011558730656,0.0029332427747822153,0.0029332427747822153,0.0029332427747822153,0.0029332427747822153,0.0029332427747822153,0.6216532949604616,0.6216532949604616,0.6216532949604616,0.6216532949604616,0.6216532949604616,E-W,0.0002384185791015625,2.89,N-S,0.0002384185791015625,2.435
19980110182600.knt,KGS0189801101826.UD,1998-01-10, 18:26:00,31.853,130.281,8,3.4,KGS018,31.3757,130.5449,51,1998-01-10, 18:26:49,100Hz,119,U-D,0.0002384185791015625,3.301,58.662143201720596,1379,593.0,20.57734813961457,0.42699006072543505,0.39836696161481505,0.3695102594355343,0.3255128831060471,0.29774842264923385,0.003127690974354883,0.003127690974354883,0.003127690974354883,0.003127690974354883,0.0024833765445159,3.292183779435688,3.292183779435688,3.292183779435688,3.292183779435688,3.292183779435688,E-W,0.0002384185791015625,2.298,N-S,0.0002384185791015625,2.181
19980110182600.knt,KGS0199801101826.UD,1998-01-10, 18:26:00,31.853,130.281,8,3.4,KGS019,31.2776,130.3008,10,1998-01-10, 18:26:57,100Hz,119,U-D,0.0002384185791015625,1.51,64.00905483251636,662,670.0,21.35823678786315,2.8998555107669923,1.973876154553963,1.0180810109346643,0.8304026005491849,0.7294798069396161,0.0021674687982087978,0.0020435346323509546,0.0010491048021214614,0.0006151790978181994,0.0005653132793718263,0.7244267558944102,0.7244267558944102,0.7244267558944102,0.7244267558944102,0.7244267558944102,E-W,0.0002384185791015625,5.198,N-S,0.0002384185791015625,3.681
19980110182600.knt,KGS0209801101826.UD,1998-01-10, 18:26:00,31.853,130.281,8,3.4,KGS020,31.2396,130.4915,21,1998-01-10, 18:26:00,100Hz,119,U-D,0.0002384185791015625,2.193,71.06393899314027,502,498.00000000000006,19.196507135465588,1.0052194287736005,0.889255327566214,0.6377657619119254,0.4314401055783911,0.40381777466916813,0.0017103539413728841,0.0017103539413728841,0.0016441698993245233,0.0011072056469552721,0.0011072056469552721,1.1557592332894067,1.1557592332894067,1.1557592332894067,1.1557592332894067,1.1557592332894067,E-W,0.0002384185791015625,3.619,N-S,0.0002384185791015625,3.796
19980110182600.knt,KGS0369801101826.UD,1998-01-10, 18:26:00,31.853,130.281,8,3.4,KGS036,31.836,129.8678,6,1998-01-10, 18:26:52,100Hz,119,U-D,0.0002384185791015625,1.9,39.075861123763985,798,798.0,16.76833730772585,3.3276875765837612,3.1325389024190007,2.7484577216492365,2.629825647543614,2.44524920510675,0.0015979549348174792,0.0015979549348174792,0.0013253193937072633,0.0013253193937072633,0.001237268748025542,0.4212743959694668,0.4212743959694668,0.4212743959694668,0.32023848983126774,0.30860536308228925,E-W,0.0002384185791015625,2.232,N-S,0.0002384185791015625,3.39
19980112145100.knt,MIE0079801121451.UD,1998-01-12, 14:51:00,33.053,136.764,44,4.2,MIE007,34.651,136.3404,82,1998-01-12, 14:52:10,100Hz,119,U-D,0.0002384185791015625,4.178,181.94364421500015,1413,1412.0,28.093413236909505,0.6185523138777115,0.6097530449881345,0.605158192665364,0.5758148297032075,0.47187044354372465,0.002879417570484145,0.002879417570484145,0.002879417570484145,0.002879417570484145,0.002879417570484145,4.188388056973799,4.188388056973799,4.188388056973799,4.188388056973799,4.188388056973799,E-W,0.0002384185791015625,3.974,N-S,0.0002384185791015625,3.238
19980112145100.knt,MIE0119801121451.UD,1998-01-12, 14:51:00,33.053,136.764,44,4.2,MIE011,34.4283,136.3329,143,1998-01-12, 14:52:07,100Hz,119,U-D,0.0002384185791015625,4.981,158.03562744937548,1402,1412.0,19.831206239962736,7.841551014192552,5.205097685604892,2.6939329259145355,0.7997635379182771,0.48602455299896313,0.018243223199001755,0.016469711355904148,0.009212833238392547,0.0032570350536369275,0.0018815991117122875,4.971435600417215,4.971435600417215,4.971435600417215,4.971435600417215,4.971435600417215,E-W,0.0002384185791015625,4.606,N-S,0.0002384185791015625,3.862
19980112145100.knt,MIE0169801121451.UD,1998-01-12, 14:51:00,33.053,136.764,44,4.2,MIE016,33.8764,135.9188,63,1998-01-12, 14:52:15,100Hz,119,U-D,0.0002384185791015625,2.704,120.53825121273069,83,91.0,11.250670802578224,8.118552150870594,9.006115242905539,8.839929576799708,6.59066831137418,3.6544735050071946,0.007510682631042161,0.007510682631042161,0.007510682631042161,0.007300473756603346,0.005132127093390708,1.436457075588317,1.436457075588317,1.436457075588317,1.436457075588317,1.436457075588317,E-W,0.0002384185791015625,5.993,N-S,0.0002384185791015625,8.1
19980112145100.knt,NAR0069801121451.UD,1998-01-12, 14:51:00,33.053,136.764,44,4.2,NAR006,34.3383,135.9541,330,1998-01-12, 14:52:07,100Hz,119,U-D,0.0002384185791015625,3.267,161.36683672966598,1436,1435.0,22.225214873997032,1.6598389248189471,1.6000727330747608,1.6116730649842899,1.3721859328375816,0.528312896200481,0.003734558436397925,0.003734558436397925,0.003734558436397925,0.003734558436397925,0.002837510345133069,3.268011169531554,3.268011169531554,3.268011169531554,3.268011169531554,3.268011169531554,E-W,0.0002384185791015625,3.102,N-S,0.0002384185791015625,5.999
19980112145100.knt,NAR0089801121451.UD,1998-01-12, 14:51:00,33.053,136.764,44,4.2,NAR008,34.1352,136.0046,330,1998-01-12, 14:52:20,100Hz,119,U-D,0.0002384185791015625,1.423,139.38292657256184,0,-100.0,,0.0,0.0,0.0,0.0,0.0,0.0,0.0,0.0,0.0,0.0,0.0,0.0,0.0,0.0,0.0,E-W,0.0002384185791015625,6.049,N-S,0.0002384185791015625,4.827
19980112145100.knt,NAR0099801121451.UD,1998-01-12, 14:51:00,33.053,136.764,44,4.2,NAR009,33.938,135.7552,200,1998-01-12, 14:52:19,100Hz,119,U-D,0.0002384185791015625,1.138,135.77252482753,0,-100.0,,0.0,0.0,0.0,0.0,0.0,0.0,0.0,0.0,0.0,0.0,0.0,0.0,0.0,0.0,0.0,E-W,0.0002384185791015625,1.528,N-S,0.0002384185791015625,3.448
19980112145100.knt,WKY0059801121451.UD,1998-01-12, 14:51:00,33.053,136.764,44,4.2,WKY005,33.8938,135.4883,316,1998-01-12, 14:52:22,100Hz,119,U-D,0.0002384185791015625,1.699,150.80032720814683,0,-100.0,,0.0,0.0,0.0,0.0,0.0,0.0,0.0,0.0,0.0,0.0,0.0,0.0,0.0,0.0,0.0,E-W,0.0002384185791015625,3.695,N-S,0.0002384185791015625,9.712
19980114021700.knt,CHB0019801140217.UD,1998-01-14, 02:17:00,35.586,140.23,76,4.9,CHB001,35.9595,139.8733,13,1998-01-14, 02:17:24,100Hz,89,U-D,0.0002384185791015625,6.177,52.53969576324215,1294,993.0,21.90328509877507,0.8864290907647493,0.8004820798957758,0.5386751830740558,0.4131559502433166,0.441144847337131,0.011394934848322474,0.011394934848322474,0.009763159520206864,0.009763159520206864,0.009763159520206864,6.196112307372313,6.196112307372313,6.196112307372313,6.196112307372313,5.1533044342634815,E-W,0.0002384185791015625,17.098,N-S,0.0002384185791015625,14.049
19980114021700.knt,CHB0029801140217.UD,1998-01-14, 02:17:00,35.586,140.23,76,4.9,CHB002,35.7868,139.9031,14,1998-01-14, 02:17:22,100Hz,119,U-D,0.0002384185791015625,9.076,37.01618926731911,1401,1401.0,35.26456194665559,0.44376474352026835,0.3965834946595729,0.3156225266993781,0.3168797781289652,0.3680036955326909,0.008091485966754311,0.007326741365683863,0.007326741365683863,0.007326741365683863,0.007326741365683863,9.064633393519907,9.064633393519907,9.064633393519907,9.064633393519907,6.190302828534733,E-W,0.0002384185791015625,11.349,N-S,0.0002384185791015625,14.392
19980114021700.knt,CHB0039801140217.UD,1998-01-14, 02:17:00,35.586,140.23,76,4.9,CHB003,35.7943,140.0564,28,1998-01-14, 02:17:30,100Hz,119,U-D,0.0002384185791015625,8.454,27.969105294521718,0,-100.0,,0.0,0.0,0.0,0.0,0.0,0.0,0.0,0.0,0.0,0.0,0.0,0.0,0.0,0.0,0.0,E-W,0.0002384185791015625,30.396,N-S,0.0002384185791015625,23.229
19980114021700.knt,CHB0049801140217.UD,1998-01-14, 02:17:00,35.586,140.23,76,4.9,CHB004,35.9007,140.4905,14,1998-01-14, 02:17:33,100Hz,119,U-D,0.0002384185791015625,3.704,42.157332582959114,0,-100.0,,0.0,0.0,0.0,0.0,0.0,0.0,0.0,0.0,0.0,0.0,0.0,0.0,0.0,0.0,0.0,E-W,0.0002384185791015625,6.755,N-S,0.0002384185791015625,6.679
19980114021700.knt,CHB0069801140217.UD,1998-01-14, 02:17:00,35.586,140.23,76,4.9,CHB006,35.7801,140.3067,27,1998-01-14, 02:17:31,100Hz,119,U-D,0.0002384185791015625,6.095,22.667433097992465,392,406.00000000000006,21.43882421894045,7.418183010370714,6.91233464445815,7.442824598755032,11.31565386147719,24.620475242459612,0.1257168364027842,0.1257168364027842,0.1257168364027842,0.1257168364027842,0.1257168364027842,6.109102156714926,6.109102156714926,5.93368265021491,5.93368265021491,1.860767960143363,E-W,0.0002384185791015625,9.633,N-S,0.0002384185791015625,10.212
19980114021700.knt,CHB0079801140217.UD,1998-01-14, 02:17:00,35.586,140.23,76,4.9,CHB007,35.7234,140.2267,24,1998-01-14, 02:17:22,100Hz,119,U-D,0.0002384185791015625,5.103,15.281091954416503,1246,1243.0,37.689395109121044,0.46579613737962444,0.4942279188114449,0.4933097041216454,0.5905515094774286,0.6711458158312852,0.009970203056360222,0.009970203056360222,0.007851860152154186,0.0076157570483829816,0.003987294471036514,4.6681630395613976,4.6681630395613976,4.6681630395613976,3.2411283447890624,1.382921023796709,E-W,0.0002384185791015625,16.209,N-S,0.0002384185791015625,19.476
19980114021700.knt,CHB0089801140217.UD,1998-01-14, 02:17:00,35.586,140.23,76,4.9,CHB008,35.6537,139.9023,4,1998-01-14, 02:17:29,100Hz,119,U-D,0.0002384185791015625,4.214,30.562476272174333,649,649.0,29.037602850118702,1.2161631980428795,1.1756427007847157,1.2218792031415855,0.8416764876213355,0.6478891562724498,0.013177302047501857,0.0062763043803741375,0.0062763043803741375,0.005763744108713891,0.003615987120669456,2.1655390237530407,2.117466909657456,2.117466909657456,2.117466909657456,2.071898218113467,E-W,0.0002384185791015625,12.426,N-S,0.0002384185791015625,10.942
19980114021700.knt,CHB0099801140217.UD,1998-01-14, 02:17:00,35.586,140.23,76,4.9,CHB009,35.6082,140.1022,4,1998-01-14, 02:17:29,100Hz,119,U-D,0.0002384185791015625,6.674,11.815892128845773,588,26.0,16.483083764362824,3.7666780407329474,3.2553027819770293,2.6037341425302567,1.7113308575862727,0.7498770012289367,0.041050771513166655,0.041050771513166655,0.04070416201733292,0.03279478400452121,0.015978645115591588,4.584664993042615,4.584664993042615,4.584664993042615,4.584664993042615,4.584664993042615,E-W,0.0002384185791015625,14.07,N-S,0.0002384185791015625,16.744
19980114021700.knt,CHB0109801140217.UD,1998-01-14, 02:17:00,35.586,140.23,76,4.9,CHB010,35.7077,140.568,8,1998-01-14, 02:17:21,100Hz,119,U-D,0.0002384185791015625,3.665,33.40528565044325,1419,436.00000000000006,18.664444226557617,1.3843886527365181,1.300193775470616,1.2787556861594584,1.3425486168837422,1.4200917931205375,0.025732297345274435,0.025732297345274435,0.025732297345274435,0.025732297345274435,0.025732297345274435,3.351941301412402,3.351941301412402,3.351941301412402,3.351941301412402,3.351941301412402,E-W,0.0002384185791015625,8.223,N-S,0.0002384185791015625,12.396
19980114021700.knt,CHB0119801140217.UD,1998-01-14, 02:17:00,35.586,140.23,76,4.9,CHB011,35.6021,140.5014,2,1998-01-14, 02:17:21,100Hz,119,U-D,0.0002384185791015625,6.761,24.605031861474146,1405,1394.0,38.37658740301493,0.6051904261998907,0.5742934895423785,0.5677592396620007,0.5731739030049416,0.5626783037558389,0.03484813828763529,0.03484813828763529,0.03484813828763529,0.03484813828763529,0.03484813828763529,6.862100843974625,6.862100843974625,6.862100843974625,6.862100843974625,6.862100843974625,E-W,0.0002384185791015625,10.182,N-S,0.0002384185791015625,8.73
19980114021700.knt,CHB0129801140217.UD,1998-01-14, 02:17:00,35.586,140.23,76,4.9,CHB012,35.5727,140.3333,62,1998-01-14, 02:17:21,100Hz,119,U-D,0.0002384185791015625,8.289,9.458372385284981,1396,1394.0,43.81677553557797,0.7583957714351544,0.7220010944738036,0.7042574314062925,0.6296889247892042,0.5378594279824956,0.01523427742128075,0.01523427742128075,0.01523427742128075,0.01523427742128075,0.01523427742128075,5.727247762894172,5.727247762894172,5.619378780284813,5.619378780284813,5.540481005495788,E-W,0.0002384185791015625,16.015,N-S,0.0002384185791015625,17.056
19980114021700.knt,CHB0139801140217.UD,1998-01-14, 02:17:00,35.586,140.23,76,4.9,CHB013,35.4327,140.2905,13,1998-01-14, 02:17:31,100Hz,119,U-D,0.0002384185791015625,4.351,17.904205342426128,422,417.0,36.16406042327596,0.7680136640769148,0.7477225675595893,0.737105886566455,0.7253164592758207,0.8277089230603047,0.008917547876013471,0.008917547876013471,0.008917547876013471,0.008917547876013471,0.008917547876013471,2.4966293065976943,2.4966293065976943,2.4966293065976943,2.4966293065976943,2.4966293065976943,E-W,0.0002384185791015625,8.56,N-S,0.0002384185791015625,7.515
19980114021700.knt,CHB0149801140217.UD,1998-01-14, 02:17:00,35.586,140.23,76,4.9,CHB014,35.4769,140.0489,7,1998-01-14, 02:17:31,100Hz,119,U-D,0.0002384185791015625,17.361,20.38941164210347,419,443.0,28.0400696601004,2.3720099920802884,2.103019977871902,1.8256875843065619,2.531701367324663,3.8597534291825624,0.03020814238414684,0.026102620592359228,0.026102620592359228,0.026102620592359228,0.026102620592359228,2.8679285874796605,2.817032191483307,2.817032191483307,2.5322425637904997,2.5322425637904997,E-W,0.0002384185791015625,17.604,N-S,0.0002384185791015625,14.231
19980114021700.knt,CHB0159801140217.UD,1998-01-14, 02:17:00,35.586,140.23,76,4.9,CHB015,35.3738,139.9159,2,1998-01-14, 02:17:31,100Hz,119,U-D,0.0002384185791015625,8.835,36.95467747072329,496,507.0,30.268528193270452,4.732782140381461,3.862425017195563,3.1951760798826956,2.2594500282427865,2.6150335029488017,0.05011766383362683,0.04780735105900456,0.038863146963917614,0.03556892544129532,0.03556892544129532,4.641407671480307,4.641407671480307,4.641407671480307,4.641407671480307,4.641407671480307,E-W,0.0002384185791015625,11.854,N-S,0.0002384185791015625,9.081
19980114021700.knt,CHB0169801140217.UD,1998-01-14, 02:17:00,35.586,140.23,76,4.9,CHB016,35.3004,140.3869,8,1998-01-14, 02:17:21,100Hz,119,U-D,0.0002384185791015625,6.765,34.79290824457585,1462,1461.0,39.07537588575285,0.5824367808198689,0.6276259507205074,0.6054517874592521,0.4851714343162504,0.5094866822510924,0.010253465243212334,0.010253465243212334,0.010253465243212334,0.010253465243212334,0.010253465243212334,3.576449385661894,3.033464490809506,3.033464490809506,3.033464490809506,3.033464490809506,E-W,0.0002384185791015625,15.511,N-S,0.0002384185791015625,16.4
19980114021700.knt,CHB0179801140217.UD,1998-01-14, 02:17:00,35.586,140.23,76,4.9,CHB017,35.2988,140.0755,31,1998-01-14, 02:17:22,100Hz,119,U-D,0.0002384185791015625,7.849,34.86759024478984,1395,1402.0,41.53708881766292,0.4852713819688312,0.4771769552429765,0.4875308633414261,0.4901626850437028,0.4363076510882746,0.014457877263329961,0.014457877263329961,0.014457877263329961,0.014457877263329961,0.007803279063405249,4.452201333172955,4.452201333172955,4.452201333172955,4.452201333172955,4.043166962270036,E-W,0.0002384185791015625,13.184,N-S,0.0002384185791015625,14.434
19980114021700.knt,CHB0189801140217.UD,1998-01-14, 02:17:00,35.586,140.23,76,4.9,CHB018,35.1577,140.3222,56,1998-01-14, 02:17:22,100Hz,119,U-D,0.0002384185791015625,5.143,48.35292026765689,1442,1448.0,23.837622094508035,0.6362515940608329,0.6602558027671784,0.6601973898286828,0.601685849300435,0.5517309204693537,0.01051915215256279,0.01051915215256279,0.01051915215256279,0.01051915215256279,0.01051915215256279,3.2197781410764605,3.2197781410764605,3.2197781410764605,3.2197781410764605,3.2197781410764605,E-W,0.0002384185791015625,9.738,N-S,0.0002384185791015625,9.992
19980114021700.knt,CHB0199801140217.UD,1998-01-14, 02:17:00,35.586,140.23,76,4.9,CHB019,35.1105,139.8351,4,1998-01-14, 02:17:37,100Hz,119,U-D,0.0002384185791015625,6.095,63.861843616497154,100,107.0,25.414818776884218,7.064258736667147,8.160085244607014,8.118701233607505,7.398622184314852,5.509091745368652,0.04534305144341306,0.04534305144341306,0.04534305144341306,0.04534305144341306,0.03657049812943502,1.6440780476053225,1.6440780476053225,1.6440780476053225,1.6440780476053225,1.4859828475067522,E-W,0.0002384185791015625,10.338,N-S,0.0002384185791015625,10.096
19980114021700.knt,CHB0209801140217.UD,1998-01-14, 02:17:00,35.586,140.23,76,4.9,CHB020,35.1155,140.1022,13,1998-01-14, 02:17:27,100Hz,119,U-D,0.0002384185791015625,3.473,53.585737672597425,999,993.0,36.33752426186083,0.6400011118334641,0.6568999933797699,0.681777344805644,0.6381001454363459,0.7275006417982174,0.005886061087787426,0.005886061087787426,0.005886061087787426,0.005886061087787426,0.004235704941718963,2.106382546783769,2.106382546783769,2.106382546783769,2.106382546783769,0.7847969013300078,E-W,0.0002384185791015625,10.678,N-S,0.0002384185791015625,6.894
