earthquake name,records name,earthquake date,earthquake time,lat,long,depth,mag,stn_code,stn_lat,stn_long,stn_height,rcd_date,rcd_time,frequency,rcd_duration,direction,scale_factor,max_pga,epi_dist,pick_index_manually,pick_index_kalkan,snr_db_kalkan,tc_5sec,tc_4sec,tc_3sec,tc_2sec,tc_1sec,Pd_5sec,Pd_4sec,Pd_3sec,Pd_2sec,Pd_1sec,Pga_5sec,Pga_4sec,Pga_3sec,Pga_2sec,Pga_1sec,Channel,Scale_factor,PGA_ew,Channel.1,Scale_factor.1,PGA_ns
19990124093700.knt,KMM0159901240937.UD,1999-01-24, 09:37:00,30.587,131.248,49,6.2,KMM015,32.2161,130.4046,5,1999-01-24, 09:38:10,100Hz,119,U-D,0.0002384185791015625,0.858,198.0427298434611,0,-100.0,,0.0,0.0,0.0,0.0,0.0,0.0,0.0,0.0,0.0,0.0,0.0,0.0,0.0,0.0,0.0,E-W,0.0002384185791015625,1.857,N-S,0.0002384185791015625,2.183
19990124093700.knt,KOC0159901240937.UD,1999-01-24, 09:37:00,30.587,131.248,49,6.2,KOC015,32.937,132.7252,2,1999-01-24, 09:38:20,100Hz,119,U-D,0.0002384185791015625,2.838,296.27720193334824,0,-100.0,,0.0,0.0,0.0,0.0,0.0,0.0,0.0,0.0,0.0,0.0,0.0,0.0,0.0,0.0,0.0,E-W,0.0002384185791015625,2.348,N-S,0.0002384185791015625,2.03
19990124093700.knt,MYZ0019901240937.UD,1999-01-24, 09:37:00,30.587,131.248,49,6.2,MYZ001,32.705,131.3089,370,1999-01-24, 09:38:09,100Hz,119,U-D,0.0002384185791015625,1.727,235.58138304521202,0,-100.0,,0.0,0.0,0.0,0.0,0.0,0.0,0.0,0.0,0.0,0.0,0.0,0.0,0.0,0.0,0.0,E-W,0.0002384185791015625,3.309,N-S,0.0002384185791015625,3.858
19990124093700.knt,MYZ0029901240937.UD,1999-01-24, 09:37:00,30.587,131.248,49,6.2,MYZ002,32.6978,131.6831,19,1999-01-24, 09:38:59,100Hz,119,U-D,0.0002384185791015625,2.42,238.29600567329314,0,1.0,5.540677141042931,0.0,0.0,0.0,0.0,0.0,0.0,0.0,0.0,0.0,0.0,0.0,0.0,0.0,0.0,0.0,E-W,0.0002384185791015625,6.035,N-S,0.0002384185791015625,7.033
19990124093700.knt,MYZ0049901240937.UD,1999-01-24, 09:37:00,30.587,131.248,49,6.2,MYZ004,32.3889,131.3339,298,1999-01-24, 09:38:00,100Hz,119,U-D,0.0002384185791015625,1.723,200.5276004879074,0,-100.0,,0.0,0.0,0.0,0.0,0.0,0.0,0.0,0.0,0.0,0.0,0.0,0.0,0.0,0.0,0.0,E-W,0.0002384185791015625,3.053,N-S,0.0002384185791015625,1.897
19990124093700.knt,MYZ0069901240937.UD,1999-01-24, 09:37:00,30.587,131.248,49,6.2,MYZ006,32.2565,131.5609,22,1999-01-24, 09:38:39,100Hz,119,U-D,0.0002384185791015625,4.355,187.99889253141797,1039,1073.0,23.361776941129023,1.4462520196811763,1.727976550009018,1.0041769490076635,1.4285051186860194,2.574522513738481,0.011835633590981403,0.011835633590981403,0.005871689749394918,0.00427526647925372,0.00427526647925372,4.10911782981054,4.10911782981054,3.0599872341383025,2.5319354218927885,1.0693738916993252,E-W,0.0002384185791015625,7.209,N-S,0.0002384185791015625,9.23
19990124093700.knt,MYZ0079901240937.UD,1999-01-24, 09:37:00,30.587,131.248,49,6.2,MYZ007,32.2353,131.1158,305,1999-01-24, 09:38:58,100Hz,119,U-D,0.0002384185791015625,1.086,183.71140857905567,0,-100.0,,0.0,0.0,0.0,0.0,0.0,0.0,0.0,0.0,0.0,0.0,0.0,0.0,0.0,0.0,0.0,E-W,0.0002384185791015625,2.897,N-S,0.0002384185791015625,2.2
19990124093700.knt,MYZ0089901240937.UD,1999-01-24, 09:37:00,30.587,131.248,49,6.2,MYZ008,32.106,131.3928,65,1999-01-24, 09:38:35,100Hz,119,U-D,0.0002384185791015625,3.996,169.46384166701372,1210,1277.0,28.697819751325177,0.7855681147566655,0.8289609475097718,0.9202787836042462,1.0497449163530557,1.817633064706351,0.009544154953463769,0.009544154953463769,0.009544154953463769,0.005530570887199562,0.005530570887199562,3.9788903461985097,3.483022995751323,3.407127803227171,2.1490717095726595,0.7668657465602662,E-W,0.0002384185791015625,9.762,N-S,0.0002384185791015625,11.977
19990124093700.knt,MYZ0109901240937.UD,1999-01-24, 09:37:00,30.587,131.248,49,6.2,MYZ010,31.9968,130.9721,207,1999-01-24, 09:38:54,100Hz,119,U-D,0.0002384185791015625,2.478,158.9393476945739,0,1.0,-7.197228150966332,0.0,0.0,0.0,0.0,0.0,0.0,0.0,0.0,0.0,0.0,0.0,0.0,0.0,0.0,0.0,E-W,0.0002384185791015625,5.787,N-S,0.0002384185791015625,4.074
19990124093700.knt,MYZ0119901240937.UD,1999-01-24, 09:37:00,30.587,131.248,49,6.2,MYZ011,31.9951,131.2557,26,1999-01-24, 09:38:37,100Hz,119,U-D,0.0002384185791015625,5.868,156.5752855119243,869,873.0,29.687092123711945,3.468236390607778,3.823165375582173,4.326573317733023,6.203334900960514,7.547113436763946,0.022429025037346628,0.022429025037346628,0.022429025037346628,0.01908706320090179,0.013786186432841508,2.061574811900581,2.061574811900581,2.061574811900581,1.433761670089405,0.6425597754628523,E-W,0.0002384185791015625,13.383,N-S,0.0002384185791015625,12.946
19990124093700.knt,MYZ0129901240937.UD,1999-01-24, 09:37:00,30.587,131.248,49,6.2,MYZ012,31.8723,131.0685,149,1999-01-24, 09:38:49,100Hz,119,U-D,0.0002384185791015625,9.49,143.93422431195052,0,-100.0,,0.0,0.0,0.0,0.0,0.0,0.0,0.0,0.0,0.0,0.0,0.0,0.0,0.0,0.0,0.0,E-W,0.0002384185791015625,16.819,N-S,0.0002384185791015625,15.151
19990124093700.knt,MYZ0139901240937.UD,1999-01-24, 09:37:00,30.587,131.248,49,6.2,MYZ013,31.9087,131.4187,5,1999-01-24, 09:38:49,100Hz,119,U-D,0.0002384185791015625,13.411,147.85942083315763,0,1.0,-6.210901521351586,0.0,0.0,0.0,0.0,0.0,0.0,0.0,0.0,0.0,0.0,0.0,0.0,0.0,0.0,0.0,E-W,0.0002384185791015625,28.812,N-S,0.0002384185791015625,37.324
19990124093700.knt,MYZ0149901240937.UD,1999-01-24, 09:37:00,30.587,131.248,49,6.2,MYZ014,31.8454,131.3026,135,1999-01-24, 09:38:33,100Hz,119,U-D,0.0002384185791015625,4.9,140.02398739167572,1055,1059.0,22.245682246410993,1.2140673182948913,1.278852747034917,1.623079098224207,2.2533980689807125,4.712650408704209,0.011583051917332986,0.011583051917332986,0.011583051917332986,0.011583051917332986,0.011583051917332986,3.4264520973571453,3.4264520973571453,2.031679320587521,2.031679320587521,0.7982453552730328,E-W,0.0002384185791015625,9.766,N-S,0.0002384185791015625,12.809
19990124093700.knt,MYZ0159901240937.UD,1999-01-24, 09:37:00,30.587,131.248,49,6.2,MYZ015,31.7185,131.0621,159,1999-01-24, 09:38:31,100Hz,119,U-D,0.0002384185791015625,10.95,127.05452926855658,1187,1234.0,27.078344362973713,1.113380827770147,1.149218455677044,1.1799263481380353,1.3178613873466112,2.129881460806621,0.030139252634112164,0.030139252634112164,0.030139252634112164,0.030139252634112164,0.028250384206283816,11.013445782484139,11.013445782484139,8.739226576840764,5.191264423651408,3.7268327737144618,E-W,0.0002384185791015625,17.913,N-S,0.0002384185791015625,22.125
19990124093700.knt,MYZ0169901240937.UD,1999-01-24, 09:37:00,30.587,131.248,49,6.2,MYZ016,31.6129,131.3743,9,1999-01-24, 09:38:29,100Hz,119,U-D,0.0002384185791015625,5.221,114.70692288832824,1155,1165.0,24.002070215713182,1.3375394806970067,1.297569664363021,1.210559389916074,1.246981273990881,2.06074305902741,0.02055968946060167,0.02014291027169708,0.016952517478931877,0.016952517478931877,0.016952517478931877,5.211303519466473,5.211303519466473,2.9106612339679026,2.054903851540145,1.5519371336016057,E-W,0.0002384185791015625,14.163,N-S,0.0002384185791015625,15.035
19990124093700.knt,MYZ0179901240937.UD,1999-01-24, 09:37:00,30.587,131.248,49,6.2,MYZ017,31.4637,131.2277,6,1999-01-24, 09:38:25,100Hz,122,U-D,0.0002384185791015625,16.071,97.50378045834069,1364,1442.0,27.60027074479387,0.574624195112993,0.556169385415724,0.6655618493572197,0.9389856640495073,1.4647112402429636,0.014815982215374024,0.01255851304478846,0.012206888968285883,0.009631284750624768,0.009631284750624768,14.056418337699851,14.056418337699851,11.93473760426054,4.947848793755982,2.189618036642595,E-W,0.0002384185791015625,32.453,N-S,0.0002384185791015625,35.007
19990124093700.knt,MYZ0189901240937.UD,1999-01-24, 09:37:00,30.587,131.248,49,6.2,MYZ018,31.3985,131.3052,12,1999-01-24, 09:38:27,100Hz,119,U-D,0.0002384185791015625,13.929,90.39925073088091,0,-100.0,,0.0,0.0,0.0,0.0,0.0,0.0,0.0,0.0,0.0,0.0,0.0,0.0,0.0,0.0,0.0,E-W,0.0002384185791015625,23.8,N-S,0.0002384185791015625,21.433
19990124093700.knt,OIT0049901240937.UD,1999-01-24, 09:37:00,30.587,131.248,49,6.2,OIT004,33.5666,131.7378,7,1999-01-24, 09:38:30,100Hz,119,U-D,0.0002384185791015625,1.594,334.5134031638087,0,-100.0,,0.0,0.0,0.0,0.0,0.0,0.0,0.0,0.0,0.0,0.0,0.0,0.0,0.0,0.0,0.0,E-W,0.0002384185791015625,3.006,N-S,0.0002384185791015625,2.848
19990124093700.knt,OIT0099901240937.UD,1999-01-24, 09:37:00,30.587,131.248,49,6.2,OIT009,33.2569,131.3439,458,1999-01-24, 09:38:24,100Hz,119,U-D,0.0002384185791015625,1.177,297.01721595622774,0,-100.0,,0.0,0.0,0.0,0.0,0.0,0.0,0.0,0.0,0.0,0.0,0.0,0.0,0.0,0.0,0.0,E-W,0.0002384185791015625,2.714,N-S,0.0002384185791015625,2.553
19990124093700.knt,OIT0119901240937.UD,1999-01-24, 09:37:00,30.587,131.248,49,6.2,OIT011,33.2461,131.8811,7,1999-01-24, 09:38:26,100Hz,119,U-D,0.0002384185791015625,1.062,301.65371849458387,0,-100.0,,0.0,0.0,0.0,0.0,0.0,0.0,0.0,0.0,0.0,0.0,0.0,0.0,0.0,0.0,0.0,E-W,0.0002384185791015625,2.351,N-S,0.0002384185791015625,2.571
19990124093700.knt,OIT0139901240937.UD,1999-01-24, 09:37:00,30.587,131.248,49,6.2,OIT013,33.0647,131.6328,117,1999-01-24, 09:38:59,100Hz,119,U-D,0.0002384185791015625,7.051,277.8951370016345,216,467.0,21.459603786496917,3.6555585893603997,3.9951653978045876,8.169545341590545,11.609012143754684,19.639659410317666,0.01223494029721114,0.01223494029721114,0.01223494029721114,0.01223494029721114,0.012180805214878633,1.1991588478777906,1.1991588478777906,0.45673979088428934,0.23719348204182683,0.10865572003884721,E-W,0.0002384185791015625,8.076,N-S,0.0002384185791015625,13.761
19990124093700.knt,OIT0149901240937.UD,1999-01-24, 09:37:00,30.587,131.248,49,6.2,OIT014,33.0656,131.8589,8,1999-01-24, 09:38:21,100Hz,119,U-D,0.0002384185791015625,0.812,281.58413738348247,0,-100.0,,0.0,0.0,0.0,0.0,0.0,0.0,0.0,0.0,0.0,0.0,0.0,0.0,0.0,0.0,0.0,E-W,0.0002384185791015625,1.869,N-S,0.0002384185791015625,2.222
19990124093700.knt,OIT0159901240937.UD,1999-01-24, 09:37:00,30.587,131.248,49,6.2,OIT015,32.9722,131.397,260,1999-01-24, 09:38:16,100Hz,119,U-D,0.0002384185791015625,1.521,265.5957174516098,0,-100.0,,0.0,0.0,0.0,0.0,0.0,0.0,0.0,0.0,0.0,0.0,0.0,0.0,0.0,0.0,0.0,E-W,0.0002384185791015625,2.786,N-S,0.0002384185791015625,3.248
19990124093700.knt,YMG0139901240937.UD,1999-01-24, 09:37:00,30.587,131.248,49,6.2,YMG013,34.031,131.5348,3,1999-01-24, 09:38:43,100Hz,119,U-D,0.0002384185791015625,0.6,383.902047980536,0,-100.0,,0.0,0.0,0.0,0.0,0.0,0.0,0.0,0.0,0.0,0.0,0.0,0.0,0.0,0.0,0.0,E-W,0.0002384185791015625,1.897,N-S,0.0002384185791015625,2.699
19990125050300.knt,KOC0159901250503.UD,1999-01-25, 05:03:00,32.703,132.315,42,4.0,KOC015,32.937,132.7252,2,1999-01-25, 05:03:31,100Hz,119,U-D,0.0002384185791015625,5.994,46.328310612171094,702,712.0,25.024835812876066,6.611545278706936,6.69341946125001,5.810084739942285,3.9556606756969575,2.3332195600574437,0.013534185462634702,0.013534185462634702,0.013534185462634702,0.01112937379579809,0.005769014943779889,2.8432831354453407,2.8432831354453407,2.8432831354453407,2.8432831354453407,2.8432831354453407,E-W,0.0002384185791015625,8.612,N-S,0.0002384185791015625,5.259
19990125050300.knt,KOC0169901250503.UD,1999-01-25, 05:03:00,32.703,132.315,42,4.0,KOC016,32.7672,132.9711,88,1999-01-25, 05:03:35,100Hz,119,U-D,0.0002384185791015625,1.095,61.78196412281249,469,468.0,21.94181955177248,2.7299742915278657,1.9788655036030365,2.0434251573801845,2.216689098175025,2.185795551053254,0.0025794873304283562,0.001507978870735536,0.001507978870735536,0.001507978870735536,0.001507978870735536,1.0940370468099538,1.0940370468099538,1.0940370468099538,1.0940370468099538,1.0940370468099538,E-W,0.0002384185791015625,2.139,N-S,0.0002384185791015625,2.595
19990125050300.knt,MYZ0019901250503.UD,1999-01-25, 05:03:00,32.703,132.315,42,4.0,MYZ001,32.705,131.3089,370,1999-01-25, 05:03:42,100Hz,119,U-D,0.0002384185791015625,1.024,94.1382071895639,124,136.0,16.659888352568576,7.16075620513184,8.451031024878402,7.668298621721222,4.239599460249547,0.9911460342003793,0.012631172771393117,0.012631172771393117,0.012631172771393117,0.010106059979704528,0.0031083790378973342,1.020818330893952,1.020818330893952,1.020818330893952,1.020818330893952,1.020818330893952,E-W,0.0002384185791015625,2.154,N-S,0.0002384185791015625,2.065
19990125050300.knt,MYZ0029901250503.UD,1999-01-25, 05:03:00,32.703,132.315,42,4.0,MYZ002,32.6978,131.6831,19,1999-01-25, 05:03:24,100Hz,119,U-D,0.0002384185791015625,6.911,59.130450592375915,1473,1472.0,24.67064880226911,0.5163564649919319,0.5233558785061373,0.4946372820424006,0.31434236020474665,0.18524328451701297,0.002833291001193171,0.002833291001193171,0.002833291001193171,0.002833291001193171,0.002833291001193171,6.895865558201031,6.895865558201031,6.895865558201031,6.895865558201031,6.895865558201031,E-W,0.0002384185791015625,10.809,N-S,0.0002384185791015625,6.586
19990125050300.knt,OIT0139901250503.UD,1999-01-25, 05:03:00,32.703,132.315,42,4.0,OIT013,33.0647,131.6328,117,1999-01-25, 05:03:38,100Hz,119,U-D,0.0002384185791015625,1.266,75.3364945975336,278,289.0,25.108998272669865,1.0762682260953056,1.2151356934379833,1.364926428916539,2.3077811664980916,2.7357075768292938,0.0030922735257202533,0.0030922735257202533,0.0030922735257202533,0.0030922735257202533,0.0030922735257202533,1.2745795957929271,1.2745795957929271,1.2745795957929271,0.688815201883348,0.688815201883348,E-W,0.0002384185791015625,2.037,N-S,0.0002384185791015625,2.27
19990125050300.knt,OIT0149901250503.UD,1999-01-25, 05:03:00,32.703,132.315,42,4.0,OIT014,33.0656,131.8589,8,1999-01-25, 05:03:32,100Hz,119,U-D,0.0002384185791015625,1.988,58.64734912253827,657,650.0,20.167858554717924,4.079060701818901,3.9083474572484014,3.687406040724577,3.540807177750623,2.680346201166343,0.004670181235202793,0.004670181235202793,0.004670181235202793,0.00456249345540259,0.00456249345540259,1.9806124101145697,1.9806124101145697,1.9806124101145697,1.9806124101145697,1.9806124101145697,E-W,0.0002384185791015625,2.975,N-S,0.0002384185791015625,3.071
19990125050300.knt,OIT0189901250503.UD,1999-01-25, 05:03:00,32.703,132.315,42,4.0,OIT018,32.7972,131.9251,10,1999-01-25, 05:03:28,100Hz,119,U-D,0.0002384185791015625,1.422,37.93775974622177,796,796.0,19.752131929148838,4.4223969312224956,4.221060942450827,3.5619910698100763,2.42215640489181,0.8949139918988135,0.005631852511588522,0.005631852511588522,0.005631852511588522,0.005437493507034372,0.0031771549779468183,1.425126989009425,1.425126989009425,1.425126989009425,1.425126989009425,1.425126989009425,E-W,0.0002384185791015625,3.023,N-S,0.0002384185791015625,2.168
19990127102700.knt,SZO0019901271027.UD,1999-01-27, 10:27:00,34.82,139.647,38,3.6,SZO001,35.1424,139.0795,76,1999-01-27, 10:27:00,100Hz,119,U-D,0.0002384185791015625,1.894,62.91530863957313,331,330.0,19.711043766661348,5.892360278295642,6.110212422337599,7.1098354656659115,8.115202705112113,8.689845890417127,0.005448717341297941,0.005448717341297941,0.005448717341297941,0.005448717341297941,0.005448717341297941,1.9030928847033697,1.9030928847033697,1.9030928847033697,1.9030928847033697,1.9030928847033697,E-W,0.0002384185791015625,3.883,N-S,0.0002384185791015625,2.735
19990127102700.knt,SZO0039901271027.UD,1999-01-27, 10:27:00,34.82,139.647,38,3.6,SZO003,34.8158,139.0546,149,1999-01-27, 10:27:55,100Hz,119,U-D,0.0002384185791015625,9.997,54.080828130387744,12,768.0,16.2467615079208,13.075549245780985,13.574510921891767,11.581741640869193,7.17294569776125,3.1896107820587374,0.026706049235954595,0.026706049235954595,0.026706049235954595,0.02361485671935977,0.011416802162493923,0.2445849787400164,0.2445849787400164,0.2445849787400164,0.14649899401829086,0.14649899401829086,E-W,0.0002384185791015625,17.307,N-S,0.0002384185791015625,25.836
19990127102700.knt,TKY0089901271027.UD,1999-01-27, 10:27:00,34.82,139.647,38,3.6,TKY008,34.7852,139.3909,67,1999-01-27, 10:27:45,100Hz,119,U-D,0.0002384185791015625,16.267,23.70115677196299,1390,1398.0,17.233008361265092,0.1942932984201246,0.1967956050395442,0.18408338839555854,0.17681841405242962,0.17860828230526318,0.003837548259976171,0.0028412716072830735,0.0028412716072830735,0.0028412716072830735,0.0028412716072830735,6.022234403871234,6.022234403871234,6.022234403871234,6.022234403871234,6.022234403871234,E-W,0.0002384185791015625,38.782,N-S,0.0002384185791015625,30.317
19990127102700.knt,TKY0099901271027.UD,1999-01-27, 10:27:00,34.82,139.647,38,3.6,TKY009,34.6874,139.4412,60,1999-01-27, 10:27:45,100Hz,119,U-D,0.0002384185791015625,9.594,23.8935247403005,1422,1423.0,18.740790416101255,1.3893034574750738,1.472368601547831,1.1095059846211215,0.8169281015247011,0.8844309881292928,0.004311844006103352,0.004311844006103352,0.003967566011794933,0.003869672891215773,0.003869672891215773,7.005477214852679,7.005477214852679,7.005477214852679,7.005477214852679,7.005477214852679,E-W,0.0002384185791015625,17.182,N-S,0.0002384185791015625,19.654
19990128102500.knt,AIC0079901281025.UD,1999-01-28, 10:25:00,36.37,137.997,9,4.7,AIC007,35.1394,137.3353,158,1999-01-28, 10:26:29,100Hz,119,U-D,0.0002384185791015625,2.17,149.2955671729433,0,2.0,-4.756116292473137,0.0,0.0,0.0,0.0,0.0,0.0,0.0,0.0,0.0,0.0,0.0,0.0,0.0,0.0,0.0,E-W,0.0002384185791015625,5.562,N-S,0.0002384185791015625,3.574
19990128102500.knt,AIC0109901281025.UD,1999-01-28, 10:25:00,36.37,137.997,9,4.7,AIC010,34.976,137.4236,525,1999-01-28, 10:26:28,100Hz,119,U-D,0.0002384185791015625,2.583,163.4294469966411,0,-100.0,,0.0,0.0,0.0,0.0,0.0,0.0,0.0,0.0,0.0,0.0,0.0,0.0,0.0,0.0,0.0,E-W,0.0002384185791015625,4.134,N-S,0.0002384185791015625,3.52
19990128102500.knt,AIC0129901281025.UD,1999-01-28, 10:25:00,36.37,137.997,9,4.7,AIC012,34.9119,137.0447,6,1999-01-28, 10:26:40,100Hz,119,U-D,0.0002384185791015625,0.884,183.5531559119569,0,-100.0,,0.0,0.0,0.0,0.0,0.0,0.0,0.0,0.0,0.0,0.0,0.0,0.0,0.0,0.0,0.0,E-W,0.0002384185791015625,2.284,N-S,0.0002384185791015625,1.846
19990128102500.knt,GIF0049901281025.UD,1999-01-28, 10:25:00,36.37,137.997,9,4.7,GIF004,36.2492,137.5174,810,1999-01-28, 10:26:59,100Hz,121,U-D,0.0002384185791015625,7.343,45.02441702633864,0,-100.0,,0.0,0.0,0.0,0.0,0.0,0.0,0.0,0.0,0.0,0.0,0.0,0.0,0.0,0.0,0.0,E-W,0.0002384185791015625,12.408,N-S,0.0002384185791015625,18.537
19990128102500.knt,GIF0079901281025.UD,1999-01-28, 10:25:00,36.37,137.997,9,4.7,GIF007,36.0378,137.4861,995,1999-01-28, 10:26:57,100Hz,127,U-D,0.0002384185791015625,11.841,58.871364971337314,1420,1432.0,32.06849433845923,1.2035092516575987,1.289878954778489,1.110076199227465,0.620845668537931,0.5119025283363668,0.009882851498671139,0.009882851498671139,0.009021620802998977,0.006921144222983561,0.005121347886435434,4.758807525008237,4.758807525008237,4.758807525008237,4.010755443072258,4.010755443072258,E-W,0.0002384185791015625,62.171,N-S,0.0002384185791015625,38.552
19990128102500.knt,GIF0089901281025.UD,1999-01-28, 10:25:00,36.37,137.997,9,4.7,GIF008,35.9515,137.26,522,1999-01-28, 10:26:10,100Hz,119,U-D,0.0002384185791015625,1.737,80.88959205693996,491,486.00000000000006,21.24566839009775,5.376136670434637,4.476829205157942,3.2753705415005325,2.0418344048134114,2.8275378430238893,0.010943054434207736,0.010187568091893102,0.009047984647011073,0.006358097891707876,0.006358097891707876,0.7220950702435757,0.7220950702435757,0.7220950702435757,0.7220950702435757,0.5042709074248652,E-W,0.0002384185791015625,4.391,N-S,0.0002384185791015625,5.538
19990128102500.knt,GIF0109901281025.UD,1999-01-28, 10:25:00,36.37,137.997,9,4.7,GIF010,35.8029,137.245,362,1999-01-28, 10:26:14,100Hz,119,U-D,0.0002384185791015625,1.62,92.42619925823655,282,282.0,25.19608302808802,0.6407974488320118,0.6328645542892185,0.6379047451223413,0.68434883462643,0.6846561277965878,0.004337784847026252,0.004337784847026252,0.004337784847026252,0.004337784847026252,0.004337784847026252,1.0235106419178794,1.0235106419178794,1.0235106419178794,1.0235106419178794,1.0235106419178794,E-W,0.0002384185791015625,5.652,N-S,0.0002384185791015625,3.325
