earthquake name,records name,earthquake date,earthquake time,lat,long,depth,mag,stn_code,stn_lat,stn_long,stn_height,rcd_date,rcd_time,frequency,rcd_duration,direction,scale_factor,max_pga,epi_dist,pick_index_manually,pick_index_kalkan,snr_db_kalkan,tc_5sec,tc_4sec,tc_3sec,tc_2sec,tc_1sec,Pd_5sec,Pd_4sec,Pd_3sec,Pd_2sec,Pd_1sec,Pga_5sec,Pga_4sec,Pga_3sec,Pga_2sec,Pga_1sec,Channel,Scale_factor,PGA_ew,Channel.1,Scale_factor.1,PGA_ns
19980114021700.knt,CHB0219801140217.UD,1998-01-14, 02:17:00,35.586,140.23,76,4.9,CHB021,34.9083,139.8979,6,1998-01-14, 02:17:25,100Hz,119,U-D,0.0002384185791015625,3.461,81.16721658991732,1432,1438.0,28.200489410760092,1.376366556509212,1.2992586822813657,1.1796956082265244,0.9352043740810693,0.3958277800450273,0.01080095117097683,0.01080095117097683,0.01080095117097683,0.01080095117097683,0.0032976914679325466,2.88357670512509,2.88357670512509,2.88357670512509,2.88357670512509,2.88357670512509,E-W,0.0002384185791015625,6.881,N-S,0.0002384185791015625,7.405
19980114021700.knt,CHB0229801140217.UD,1998-01-14, 02:17:00,35.586,140.23,76,4.9,CHB022,35.3083,139.8598,7,1998-01-14, 02:17:31,100Hz,119,U-D,0.0002384185791015625,6.069,45.58578142743873,565,600.0,23.107865655363653,2.463985904397628,2.634261139056575,2.385131477359554,1.6251113423261458,0.6287236954371382,0.013735781984151017,0.013735781984151017,0.013735781984151017,0.00901583955770392,0.004960057635318024,1.9293249230589007,1.6860355309417716,1.6860355309417716,1.6804007509880463,1.6804007509880463,E-W,0.0002384185791015625,41.382,N-S,0.0002384185791015625,34.879
19980114021700.knt,CHB0239801140217.UD,1998-01-14, 02:17:00,35.586,140.23,76,4.9,CHB023,34.9741,139.8449,30,1998-01-14, 02:17:38,100Hz,119,U-D,0.0002384185791015625,2.281,76.49442591213081,116,114.00000000000001,32.0709704612612,1.0559987891770635,0.9938435153874006,0.9610618542719399,1.0088376274975694,1.0352486020435985,0.00861193947148178,0.00861193947148178,0.00861193947148178,0.00861193947148178,0.007574736632177465,1.2797103374253684,1.2797103374253684,1.2797103374253684,1.2797103374253684,1.2797103374253684,E-W,0.0002384185791015625,3.01,N-S,0.0002384185791015625,4.695
19980114021700.knt,FKS0089801140217.UD,1998-01-14, 02:17:00,35.586,140.23,76,4.9,FKS008,37.4363,140.5668,430,1998-01-14, 02:17:07,100Hz,119,U-D,0.0002384185791015625,0.678,207.93367041466274,0,-100.0,,0.0,0.0,0.0,0.0,0.0,0.0,0.0,0.0,0.0,0.0,0.0,0.0,0.0,0.0,0.0,E-W,0.0002384185791015625,3.202,N-S,0.0002384185791015625,2.153
19980114021700.knt,FKS0139801140217.UD,1998-01-14, 02:17:00,35.586,140.23,76,4.9,FKS013,37.09,140.5563,320,1998-01-14, 02:17:58,100Hz,119,U-D,0.0002384185791015625,0.953,169.77151908005845,0,-100.0,,0.0,0.0,0.0,0.0,0.0,0.0,0.0,0.0,0.0,0.0,0.0,0.0,0.0,0.0,0.0,E-W,0.0002384185791015625,2.5,N-S,0.0002384185791015625,2.428
19980114021700.knt,FKS0169801140217.UD,1998-01-14, 02:17:00,35.586,140.23,76,4.9,FKS016,37.1228,140.1914,375,1998-01-14, 02:17:58,100Hz,119,U-D,0.0002384185791015625,0.884,170.91931637934178,0,-100.0,,0.0,0.0,0.0,0.0,0.0,0.0,0.0,0.0,0.0,0.0,0.0,0.0,0.0,0.0,0.0,E-W,0.0002384185791015625,2.559,N-S,0.0002384185791015625,2.533
19980114021700.knt,FKS0179801140217.UD,1998-01-14, 02:17:00,35.586,140.23,76,4.9,FKS017,37.2842,140.3689,263,1998-01-14, 02:17:02,100Hz,119,U-D,0.0002384185791015625,0.934,189.23954577276695,0,-100.0,,0.0,0.0,0.0,0.0,0.0,0.0,0.0,0.0,0.0,0.0,0.0,0.0,0.0,0.0,0.0,E-W,0.0002384185791015625,2.338,N-S,0.0002384185791015625,2.066
19980114021700.knt,FKS0239801140217.UD,1998-01-14, 02:17:00,35.586,140.23,76,4.9,FKS023,37.4774,139.9294,219,1998-01-14, 02:17:09,100Hz,119,U-D,0.0002384185791015625,0.589,212.0216873254914,0,-100.0,,0.0,0.0,0.0,0.0,0.0,0.0,0.0,0.0,0.0,0.0,0.0,0.0,0.0,0.0,0.0,E-W,0.0002384185791015625,2.283,N-S,0.0002384185791015625,1.549
19980114021700.knt,FKS0249801140217.UD,1998-01-14, 02:17:00,35.586,140.23,76,4.9,FKS024,37.3957,140.1325,527,1998-01-14, 02:17:11,100Hz,119,U-D,0.0002384185791015625,1.09,201.41809222038813,0,-100.0,,0.0,0.0,0.0,0.0,0.0,0.0,0.0,0.0,0.0,0.0,0.0,0.0,0.0,0.0,0.0,E-W,0.0002384185791015625,2.512,N-S,0.0002384185791015625,2.058
19980114021700.knt,GNM0039801140217.UD,1998-01-14, 02:17:00,35.586,140.23,76,4.9,GNM003,36.6578,139.0784,462,1998-01-14, 02:17:56,100Hz,119,U-D,0.0002384185791015625,2.78,157.8024883948098,0,2.0,-7.699663829149989,0.0,0.0,0.0,0.0,0.0,0.0,0.0,0.0,0.0,0.0,0.0,0.0,0.0,0.0,0.0,E-W,0.0002384185791015625,4.748,N-S,0.0002384185791015625,3.942
19980114021700.knt,GNM0079801140217.UD,1998-01-14, 02:17:00,35.586,140.23,76,4.9,GNM007,36.4619,139.0101,186,1998-01-14, 02:17:57,100Hz,119,U-D,0.0002384185791015625,0.877,146.69970392466885,0,1.0,-2.790628567041601,0.0,0.0,0.0,0.0,0.0,0.0,0.0,0.0,0.0,0.0,0.0,0.0,0.0,0.0,0.0,E-W,0.0002384185791015625,1.215,N-S,0.0002384185791015625,2.301
19980114021700.knt,GNM0089801140217.UD,1998-01-14, 02:17:00,35.586,140.23,76,4.9,GNM008,36.3478,139.1368,77,1998-01-14, 02:17:51,100Hz,119,U-D,0.0002384185791015625,0.769,129.82463107201193,0,-100.0,,0.0,0.0,0.0,0.0,0.0,0.0,0.0,0.0,0.0,0.0,0.0,0.0,0.0,0.0,0.0,E-W,0.0002384185791015625,1.797,N-S,0.0002384185791015625,2.463
19980114021700.knt,GNM0099801140217.UD,1998-01-14, 02:17:00,35.586,140.23,76,4.9,GNM009,36.4106,139.3251,114,1998-01-14, 02:17:45,100Hz,119,U-D,0.0002384185791015625,2.571,122.61230563752135,0,1.0,-8.052879412410949,0.0,0.0,0.0,0.0,0.0,0.0,0.0,0.0,0.0,0.0,0.0,0.0,0.0,0.0,0.0,E-W,0.0002384185791015625,9.493,N-S,0.0002384185791015625,8.235
19980114021700.knt,GNM0119801140217.UD,1998-01-14, 02:17:00,35.586,140.23,76,4.9,GNM011,36.2914,139.3609,42,1998-01-14, 02:17:42,100Hz,119,U-D,0.0002384185791015625,2.839,110.78894279247434,34,28.000000000000004,36.27193306412316,1.1344534659267862,0.928629414006926,0.6602656392664428,0.48481127541407737,0.35122937264843745,0.0042799193091866755,0.003967805433923258,0.0030166142251243444,0.0027113854770109296,0.0027113854770109296,1.6406329354357527,1.6406329354357527,1.6406329354357527,1.6406329354357527,1.6406329354357527,E-W,0.0002384185791015625,7.287,N-S,0.0002384185791015625,5.492
19980114021700.knt,IBR0019801140217.UD,1998-01-14, 02:17:00,35.586,140.23,76,4.9,IBR001,36.7761,140.3569,105,1998-01-14, 02:17:46,100Hz,119,U-D,0.0002384185791015625,1.144,132.82225984873776,0,1.0,2.769090630838933,0.0,0.0,0.0,0.0,0.0,0.0,0.0,0.0,0.0,0.0,0.0,0.0,0.0,0.0,0.0,E-W,0.0002384185791015625,2.675,N-S,0.0002384185791015625,4.13
19980114021700.knt,IBR0029801140217.UD,1998-01-14, 02:17:00,35.586,140.23,76,4.9,IBR002,36.7061,140.7068,9,1998-01-14, 02:17:42,100Hz,119,U-D,0.0002384185791015625,1.668,131.701678942709,308,297.0,16.88924013888235,7.953225619608612,7.755377529133043,8.50093939329668,10.089415414956887,19.745619124399216,0.04771335016271466,0.04771335016271466,0.04771335016271466,0.04771335016271466,0.04771335016271466,1.1399359528275161,1.1399359528275161,1.1399359528275161,1.1399359528275161,0.7051393557890614,E-W,0.0002384185791015625,3.033,N-S,0.0002384185791015625,3.557
19980114021700.knt,IBR0039801140217.UD,1998-01-14, 02:17:00,35.586,140.23,76,4.9,IBR003,36.5915,140.6453,58,1998-01-14, 02:17:30,100Hz,119,U-D,0.0002384185791015625,3.393,117.8694612127286,1309,1359.0,27.18347923843949,0.7762417138577546,0.6863308004580211,0.5146057680402126,0.41577291421449253,1.0305594941240879,0.006216554233330641,0.006211745412395881,0.006211745412395881,0.003981787069776553,0.0024358701510022625,3.402065916782523,3.402065916782523,3.402065916782523,2.8589088877934636,0.5471000385091964,E-W,0.0002384185791015625,6.16,N-S,0.0002384185791015625,5.372
19980114021700.knt,IBR0049801140217.UD,1998-01-14, 02:17:00,35.586,140.23,76,4.9,IBR004,36.5273,140.4094,51,1998-01-14, 02:17:30,100Hz,89,U-D,0.0002384185791015625,2.948,105.90282814513199,1180,1212.0,34.26325118136379,0.6476707980409997,0.6866332883447027,0.700754511733251,0.8632285199984112,1.2945936641086653,0.004751445147528032,0.004751445147528032,0.004751445147528032,0.004751445147528032,0.0021861651990011614,2.70198299953439,2.70198299953439,2.2839445155675904,2.0485166093252967,1.132083631120989,E-W,0.0002384185791015625,8.742,N-S,0.0002384185791015625,8.443
19980114021700.knt,IBR0059801140217.UD,1998-01-14, 02:17:00,35.586,140.23,76,4.9,IBR005,36.3851,140.2372,63,1998-01-14, 02:17:26,100Hz,119,U-D,0.0002384185791015625,5.413,88.85822728025872,1364,1384.0,25.76253985691384,1.4784154542450165,1.3400312182700074,1.038134277359006,0.6720188953354002,0.42059285768998234,0.013526084083092733,0.013526084083092733,0.012417003186927743,0.007600205208189095,0.002154771392292231,5.407319091087157,5.407319091087157,5.407319091087157,3.9204370967377034,2.2918558666186986,E-W,0.0002384185791015625,8.862,N-S,0.0002384185791015625,10.896
19980114021700.knt,IBR0069801140217.UD,1998-01-14, 02:17:00,35.586,140.23,76,4.9,IBR006,36.369,140.4528,20,1998-01-14, 02:17:41,100Hz,119,U-D,0.0002384185791015625,3.608,89.34399321100486,0,-100.0,,0.0,0.0,0.0,0.0,0.0,0.0,0.0,0.0,0.0,0.0,0.0,0.0,0.0,0.0,0.0,E-W,0.0002384185791015625,4.38,N-S,0.0002384185791015625,4.719
19980114021700.knt,IBR0099801140217.UD,1998-01-14, 02:17:00,35.586,140.23,76,4.9,IBR009,36.1848,139.7037,17,1998-01-14, 02:17:39,100Hz,119,U-D,0.0002384185791015625,1.742,81.73974727769695,0,-100.0,,0.0,0.0,0.0,0.0,0.0,0.0,0.0,0.0,0.0,0.0,0.0,0.0,0.0,0.0,0.0,E-W,0.0002384185791015625,4.126,N-S,0.0002384185791015625,4.365
19980114021700.knt,IBR0109801140217.UD,1998-01-14, 02:17:00,35.586,140.23,76,4.9,IBR010,36.1843,139.9653,23,1998-01-14, 02:17:34,100Hz,119,U-D,0.0002384185791015625,3.279,70.6725882411825,366,366.0,29.243954796912398,2.7342842530630107,2.7334713675918283,3.403684604646889,4.313142823094652,5.511978560369315,0.014127682873460445,0.014127682873460445,0.014127682873460445,0.014127682873460445,0.014127682873460445,2.2523442043165702,1.6878192279127218,1.6878192279127218,1.4883223700291108,1.4883223700291108,E-W,0.0002384185791015625,6.112,N-S,0.0002384185791015625,6.305
19980114021700.knt,IBR0119801140217.UD,1998-01-14, 02:17:00,35.586,140.23,76,4.9,IBR011,36.1251,140.0903,26,1998-01-14, 02:17:34,100Hz,299,U-D,0.0002384185791015625,1.725,61.25304198061866,0,-100.0,,0.0,0.0,0.0,0.0,0.0,0.0,0.0,0.0,0.0,0.0,0.0,0.0,0.0,0.0,0.0,E-W,0.0002384185791015625,4.562,N-S,0.0002384185791015625,4.559
19980114021700.knt,IBR0129801140217.UD,1998-01-14, 02:17:00,35.586,140.23,76,4.9,IBR012,36.1901,140.2869,24,1998-01-14, 02:17:25,100Hz,119,U-D,0.0002384185791015625,3.798,67.36814305892369,0,1.0,5.9515750590062915,0.0,0.0,0.0,0.0,0.0,0.0,0.0,0.0,0.0,0.0,0.0,0.0,0.0,0.0,0.0,E-W,0.0002384185791015625,7.148,N-S,0.0002384185791015625,6.744
19980114021700.knt,IBR0139801140217.UD,1998-01-14, 02:17:00,35.586,140.23,76,4.9,IBR013,36.1587,140.4892,28,1998-01-14, 02:17:24,100Hz,119,U-D,0.0002384185791015625,10.603,67.82885881280154,1390,1409.0,30.718545360291024,0.28502600794796323,0.2959433737533953,0.3227919139113277,0.3153381876167438,0.27101443609598486,0.008429707509086106,0.008429707509086106,0.008429707509086106,0.008429707509086106,0.0047135308891330585,10.60610595079669,10.60610595079669,8.615193085599048,7.325710418967442,6.024780332316023,E-W,0.0002384185791015625,14.101,N-S,0.0002384185791015625,15.839
19980114021700.knt,IBR0149801140217.UD,1998-01-14, 02:17:00,35.586,140.23,76,4.9,IBR014,36.0729,140.1947,11,1998-01-14, 02:17:25,100Hz,119,U-D,0.0002384185791015625,2.651,54.234258029906805,1124,1117.0,33.312627007832944,0.5598157959593844,0.5029235703638494,0.4965192076950904,0.653983535337844,0.755816360976723,0.0064337141413300285,0.0064337141413300285,0.0064337141413300285,0.005155871536842534,0.005155871536842534,2.5609140075028005,2.5609140075028005,2.5609140075028005,1.0972397231295232,1.0374921136857564,E-W,0.0002384185791015625,6.188,N-S,0.0002384185791015625,7.77
19980114021700.knt,IBR0159801140217.UD,1998-01-14, 02:17:00,35.586,140.23,76,4.9,IBR015,36.0693,139.908,14,1998-01-14, 02:17:34,100Hz,119,U-D,0.0002384185791015625,4.059,61.07994953015678,299,299.0,34.123914121127974,1.2980487844168018,0.738986007395611,0.7322277498548474,0.7574269475190304,0.9629004126572968,0.012170878780590847,0.007089015424237425,0.006584775540208004,0.006584775540208004,0.006584775540208004,2.1339450706672234,2.1339450706672234,2.1339450706672234,2.1339450706672234,2.1339450706672234,E-W,0.0002384185791015625,9.358,N-S,0.0002384185791015625,6.739
19980114021700.knt,IBR0169801140217.UD,1998-01-14, 02:17:00,35.586,140.23,76,4.9,IBR016,35.9112,140.0494,20,1998-01-14, 02:17:31,100Hz,119,U-D,0.0002384185791015625,6.08,39.66379048569828,0,-100.0,,0.0,0.0,0.0,0.0,0.0,0.0,0.0,0.0,0.0,0.0,0.0,0.0,0.0,0.0,0.0,E-W,0.0002384185791015625,11.783,N-S,0.0002384185791015625,8.353
19980114021700.knt,IBR0179801140217.UD,1998-01-14, 02:17:00,35.586,140.23,76,4.9,IBR017,35.9537,140.3194,17,1998-01-14, 02:17:22,100Hz,119,U-D,0.0002384185791015625,4.29,41.6743400553392,1370,1384.0,26.70735217953505,0.8933806869679818,0.7543681999538062,0.722016968278987,0.6424953114903874,0.7910472791822033,0.009377456848959824,0.009377456848959824,0.009377456848959824,0.008030818832021749,0.006821315230934209,4.314096700009432,4.314096700009432,4.314096700009432,4.314096700009432,3.2977822071883236,E-W,0.0002384185791015625,6.949,N-S,0.0002384185791015625,9.079
19980114021700.knt,IBR0189801140217.UD,1998-01-14, 02:17:00,35.586,140.23,76,4.9,IBR018,35.977,140.6322,39,1998-01-14, 02:17:35,100Hz,119,U-D,0.0002384185791015625,3.294,56.626744038007715,226,243.00000000000003,21.758231712757876,5.1720476514103035,5.6561043848811146,6.897133154818386,8.695618107214818,13.247070802472031,0.03223783220459357,0.03223783220459357,0.03223783220459357,0.03223783220459357,0.03159960095365889,2.574141582623347,2.345561496505571,2.345561496505571,1.6707988713991286,0.874297314340849,E-W,0.0002384185791015625,6.791,N-S,0.0002384185791015625,5.49
19980114021700.knt,KNG0019801140217.UD,1998-01-14, 02:17:00,35.586,140.23,76,4.9,KNG001,35.5291,139.7062,2,1998-01-14, 02:17:23,100Hz,119,U-D,0.0002384185791015625,10.944,47.803757197243264,1364,1361.0,34.24930852047366,0.668579385449835,0.7521625005411134,0.4896189182562898,0.4553938474478095,0.8155801788635909,0.007997748628136342,0.007997748628136342,0.005361213515974439,0.005361213515974439,0.005361213515974439,3.6402867919748947,2.975731375771313,2.975731375771313,2.975731375771313,1.7157531097828669,E-W,0.0002384185791015625,16.244,N-S,0.0002384185791015625,12.147
19980114021700.knt,KNG0029801140217.UD,1998-01-14, 02:17:00,35.586,140.23,76,4.9,KNG002,35.4371,139.634,2,1998-01-14, 02:17:34,100Hz,119,U-D,0.0002384185791015625,6.139,56.42898309207965,361,361.0,23.164037466652037,4.640907542310238,4.588944846819301,4.673564496921605,5.46295174234196,7.371873962522322,0.03877123469127385,0.03877123469127385,0.03877123469127385,0.03877123469127385,0.03877123469127385,2.6851147037020313,2.6851147037020313,2.6851147037020313,2.6851147037020313,2.6851147037020313,E-W,0.0002384185791015625,10.289,N-S,0.0002384185791015625,9.861
19980114021700.knt,KNG0039801140217.UD,1998-01-14, 02:17:00,35.586,140.23,76,4.9,KNG003,35.2727,139.6579,26,1998-01-14, 02:17:35,100Hz,119,U-D,0.0002384185791015625,2.182,62.453997092899726,271,271.0,33.24910902940691,0.82607680123331,0.7733016634312918,0.6524672804792558,0.4977343659085061,0.7074897593306914,0.0038615861630558984,0.0038615861630558984,0.0031529958916320113,0.0016909332373800567,0.0016909332373800567,1.317707220006316,1.317707220006316,1.317707220006316,1.317707220006316,0.8182617758817987,E-W,0.0002384185791015625,8.226,N-S,0.0002384185791015625,7.077
19980114021700.knt,KNG0049801140217.UD,1998-01-14, 02:17:00,35.586,140.23,76,4.9,KNG004,35.1441,139.6218,31,1998-01-14, 02:17:26,100Hz,119,U-D,0.0002384185791015625,5.048,73.8641973462126,1284,1298.0,29.7310608014768,0.3074301361881622,0.3156404449258714,0.3276791086696888,0.34447753980256174,0.3958813857634312,0.006332992964538826,0.006332992964538826,0.006332992964538826,0.006332992964538826,0.004570737571645766,5.077539919073072,5.077539919073072,5.077539919073072,3.6594920768340202,2.0295910459896245,E-W,0.0002384185791015625,14.217,N-S,0.0002384185791015625,15.8
19980114021700.knt,KNG0059801140217.UD,1998-01-14, 02:17:00,35.586,140.23,76,4.9,KNG005,35.3194,139.549,7,1998-01-14, 02:17:32,100Hz,119,U-D,0.0002384185791015625,7.807,68.43758585557117,638,619.0,32.56456859587854,8.023975531409834,8.59412913227996,8.952445137860865,7.68989187626506,4.784584304727935,0.037357660159433176,0.037357660159433176,0.03610506007418081,0.030191309865038336,0.023276254219026096,1.6094424660605,1.6094424660605,1.2384719103717106,1.0557382612919772,1.0117384426136065,E-W,0.0002384185791015625,13.755,N-S,0.0002384185791015625,15.39
19980114021700.knt,KNG0069801140217.UD,1998-01-14, 02:17:00,35.586,140.23,76,4.9,KNG006,35.4544,139.5387,60,1998-01-14, 02:17:35,100Hz,119,U-D,0.0002384185791015625,3.861,64.25289322553374,319,318.0,30.38698724534756,3.4800866095410505,3.454352620689581,3.5971346690124992,4.00603623579532,7.315052271513967,0.018541072486236633,0.018541072486236633,0.018541072486236633,0.018541072486236633,0.018541072486236633,1.945621220237547,1.945621220237547,1.945621220237547,1.945621220237547,1.8513073570674974,E-W,0.0002384185791015625,8.562,N-S,0.0002384185791015625,9.238
19980114021700.knt,KNG0079801140217.UD,1998-01-14, 02:17:00,35.586,140.23,76,4.9,KNG007,35.3385,139.4901,14,1998-01-14, 02:17:41,100Hz,119,U-D,0.0002384185791015625,3.147,72.44215648609375,0,-100.0,,0.0,0.0,0.0,0.0,0.0,0.0,0.0,0.0,0.0,0.0,0.0,0.0,0.0,0.0,0.0,E-W,0.0002384185791015625,2.056,N-S,0.0002384185791015625,3.686
19980114021700.knt,KNG0089801140217.UD,1998-01-14, 02:17:00,35.586,140.23,76,4.9,KNG008,35.5751,139.3265,120,1998-01-14, 02:17:26,100Hz,119,U-D,0.0002384185791015625,6.746,81.71640614450364,1351,1341.0,17.20810579682186,1.563593185055381,1.4949741583649774,1.0536161535229474,0.5202906794642348,0.4525210958100864,0.01617622199041144,0.01617622199041144,0.014761119049784686,0.009688418640809661,0.00514964476160791,6.736593030652422,6.736593030652422,6.736593030652422,6.736593030652422,5.629129613794029,E-W,0.0002384185791015625,13.644,N-S,0.0002384185791015625,12.377
19980114021700.knt,KNG0099801140217.UD,1998-01-14, 02:17:00,35.586,140.23,76,4.9,KNG009,35.4424,139.3618,20,1998-01-14, 02:17:39,100Hz,89,U-D,0.0002384185791015625,4.156,80.18596073841115,52,50.0,28.345350494555582,0.5216230878922684,0.48149476841855504,0.4881685707226181,0.5198852641066326,0.7360081505747974,0.00468795961648403,0.00468795961648403,0.00468795961648403,0.00468795961648403,0.00468795961648403,2.235654637316605,2.235654637316605,2.235654637316605,1.7115789418905165,1.3335663481242113,E-W,0.0002384185791015625,11.215,N-S,0.0002384185791015625,13.464
19980114021700.knt,KNG0109801140217.UD,1998-01-14, 02:17:00,35.586,140.23,76,4.9,KNG010,35.3355,139.3504,7,1998-01-14, 02:17:38,100Hz,119,U-D,0.0002384185791015625,2.314,84.39389545578558,193,193.0,24.08719064430101,1.386055843337885,1.5064324780802276,1.6021863785405415,1.6977986629939728,1.2993690550818036,0.005244201444515205,0.005244201444515205,0.005244201444515205,0.005244201444515205,0.004546679058465931,1.111470673957943,1.111470673957943,1.111470673957943,1.0840646074175484,0.9543491092742586,E-W,0.0002384185791015625,4.898,N-S,0.0002384185791015625,3.725
19980114021700.knt,KNG0119801140217.UD,1998-01-14, 02:17:00,35.586,140.23,76,4.9,KNG011,35.6154,139.1548,214,1998-01-14, 02:17:40,100Hz,119,U-D,0.0002384185791015625,1.256,97.26533058763704,103,93.0,24.93079934590414,2.1454180061930614,2.2742204124469834,2.311364412022187,2.104691358718414,1.558664895333915,0.006901906895324552,0.006901906895324552,0.006901906895324552,0.006901906895324552,0.006901906895324552,1.2585988573379752,1.2585988573379752,1.2585988573379752,1.2585988573379752,0.7239762300068223,E-W,0.0002384185791015625,2.687,N-S,0.0002384185791015625,3.381
