earthquake name,records name,earthquake date,earthquake time,lat,long,depth,mag,stn_code,stn_lat,stn_long,stn_height,rcd_date,rcd_time,frequency,rcd_duration,direction,scale_factor,max_pga,epi_dist,pick_index_manually,pick_index_kalkan,snr_db_kalkan,tc_5sec,tc_4sec,tc_3sec,tc_2sec,tc_1sec,Pd_5sec,Pd_4sec,Pd_3sec,Pd_2sec,Pd_1sec,Pga_5sec,Pga_4sec,Pga_3sec,Pga_2sec,Pga_1sec,Channel,Scale_factor,PGA_ew,Channel.1,Scale_factor.1,PGA_ns
20020112022800.knt,TKY0100201120228.UD,2002-01-12, 02:28:00,34.263,139.187,10,2.9,TKY010,34.3775,139.2557,13,2002-01-12, 02:32:21,100Hz,212,U-D,0.0002384185791015625,3.627,14.209298420648556,1,1218.0,18.689419396427837,5.374733569160466,6.72436947101646,5.456697621608396,2.3629809786304103,1.4070991311322631,0.0018935906751189745,0.0018935906751189745,0.0018935906751189745,0.0013264023605436622,0.0004483403745228768,0.10442811861799738,0.10442811861799738,0.10442811861799738,0.06051077892940996,0.06051077892940996,E-W,0.0002384185791015625,4.33,N-S,0.0002384185791015625,4.87
20020112091800.knt,OKN0070201120918.UD,2002-01-12, 09:18:00,25.804,125.198,0,5.5,OKN007,24.853,125.2964,14,2002-01-12, 09:18:53,100Hz,119,U-D,0.0002384185791015625,1.36,106.20781313603352,1,64.0,18.220766453716912,4.8631448329592475,5.002388577049629,4.319193720706491,3.340130321095986,1.7468518640984532,0.02605246061816916,0.02605246061816916,0.018468645227899427,0.018468645227899427,0.0013781027614625536,1.2265741678552522,1.2265741678552522,0.9123132143647013,0.9123132143647013,0.25744725678998737,E-W,0.0002384185791015625,3.49,N-S,0.0002384185791015625,3.863
20020112091800.knt,OKN0080201120918.UD,2002-01-12, 09:18:00,25.804,125.198,0,5.5,OKN008,24.7558,125.3864,70,2002-01-12, 09:18:56,100Hz,119,U-D,0.0002384185791015625,1.665,118.08375186926106,0,1.0,-11.57716497022227,0.0,0.0,0.0,0.0,0.0,0.0,0.0,0.0,0.0,0.0,0.0,0.0,0.0,0.0,0.0,E-W,0.0002384185791015625,3.539,N-S,0.0002384185791015625,3.429
20020113093400.knt,EHM0060201130934.UD,2002-01-13, 09:34:00,33.715,132.734,41,3.9,EHM006,33.641,133.0082,552,2002-01-13, 09:34:37,100Hz,119,U-D,0.0002384185791015625,0.738,26.673381325963494,845,844.9999999999999,16.483419037182646,6.0052137769919876,6.704920315813221,6.387537881859604,5.984814935054676,4.907864994085132,0.0020255160882037904,0.0020255160882037904,0.0020255160882037904,0.0020255160882037904,0.0017515463408236248,0.44153884826883244,0.44153884826883244,0.44153884826883244,0.44153884826883244,0.44153884826883244,E-W,0.0002384185791015625,7.06,N-S,0.0002384185791015625,6.717
20020113093400.knt,EHM0070201130934.UD,2002-01-13, 09:34:00,33.715,132.734,41,3.9,EHM007,33.9621,132.7722,1,2002-01-13, 09:34:37,100Hz,120,U-D,0.0002384185791015625,1.309,27.70185773049721,0,1.0,2.9577122257881627,0.0,0.0,0.0,0.0,0.0,0.0,0.0,0.0,0.0,0.0,0.0,0.0,0.0,0.0,0.0,E-W,0.0002384185791015625,2.832,N-S,0.0002384185791015625,4.198
20020113093400.knt,EHM0090201130934.UD,2002-01-13, 09:34:00,33.715,132.734,41,3.9,EHM009,33.6324,132.7963,250,2002-01-13, 09:34:30,100Hz,119,U-D,0.0002384185791015625,5.081,10.844116177016513,1459,1458.0,28.750562818130238,0.8096812775666866,0.9214163133557599,0.9054551654949536,0.8539183601695204,0.6270970439236515,0.002440798448037296,0.002440798448037296,0.002440798448037296,0.002440798448037296,0.002440798448037296,5.039396924209621,5.039396924209621,5.039396924209621,5.039396924209621,5.039396924209621,E-W,0.0002384185791015625,5.993,N-S,0.0002384185791015625,7.508
20020113093400.knt,EHM0100201130934.UD,2002-01-13, 09:34:00,33.715,132.734,41,3.9,EHM010,33.4512,132.6882,190,2002-01-13, 09:34:37,100Hz,119,U-D,0.0002384185791015625,1.302,29.638456182162223,890,890.0,22.834730035900357,4.188217647039452,4.60898935320025,5.063294748229076,4.184280642395282,2.018745489060478,0.0028562266001970946,0.0028562266001970946,0.0028562266001970946,0.0027022641216614394,0.001521009214371102,0.6008694589546719,0.6008694589546719,0.5474035124199838,0.4586431492991193,0.3153395900785585,E-W,0.0002384185791015625,2.798,N-S,0.0002384185791015625,4.121
20020113093400.knt,EHM0110201130934.UD,2002-01-13, 09:34:00,33.715,132.734,41,3.9,EHM011,33.4496,132.4336,10,2002-01-13, 09:34:39,100Hz,119,U-D,0.0002384185791015625,2.287,40.56213001861907,807,824.0,11.682050638953934,4.145179193450887,4.217347219481344,3.077594451670638,1.4886175909586434,1.2010484269147934,0.002684074133535305,0.002684074133535305,0.002484924119016883,0.001026529618000894,0.0005917589504226223,0.5180348742033156,0.5180348742033156,0.5180348742033156,0.3575157739742279,0.3250893731978377,E-W,0.0002384185791015625,5.374,N-S,0.0002384185791015625,3.793
20020113093400.knt,EHM0120201130934.UD,2002-01-13, 09:34:00,33.715,132.734,41,3.9,EHM012,33.2217,132.5727,37,2002-01-13, 09:34:43,100Hz,119,U-D,0.0002384185791015625,1.001,56.856354910110475,574,593.0,16.505349734332274,8.082614752467615,7.450559849465384,6.203401645939845,4.445862872031162,2.006484411499072,0.0031585771619079598,0.0031585771619079598,0.0031585771619079598,0.0025020433928370812,0.0009952505125475056,0.37531553374381404,0.37531553374381404,0.37531553374381404,0.26720701502486666,0.18937547282295883,E-W,0.0002384185791015625,2.673,N-S,0.0002384185791015625,2.896
20020113093400.knt,EHM0150201130934.UD,2002-01-13, 09:34:00,33.715,132.734,41,3.9,EHM015,33.6105,132.4814,4,2002-01-13, 09:34:37,100Hz,119,U-D,0.0002384185791015625,3.53,26.106472261949015,835,854.0000000000001,19.099023591763498,6.156848233488676,6.832799734348267,7.063881557868495,6.530956132132097,5.00305015117563,0.004548533526996336,0.004548533526996336,0.004357532361810649,0.003786606466298939,0.0027235335760134455,1.163201824085987,1.0121086689176386,0.8126705595667969,0.7778144621494445,0.7778144621494445,E-W,0.0002384185791015625,6.5,N-S,0.0002384185791015625,7.497
20020115215900.knt,CHB0040201152159.UD,2002-01-15, 21:59:00,35.886,140.612,44,4.3,CHB004,35.9007,140.4905,14,2002-01-15, 22:00:01,100Hz,119,U-D,0.0002384185791015625,3.012,11.066115682701636,792,811.0,20.85736955750643,6.815739308829256,6.844017862331386,6.436687851749095,5.8165576527823,5.19381779706614,0.03427436089925027,0.03427436089925027,0.03427436089925027,0.03427436089925027,0.03322709888537235,2.9959946282521344,2.9959946282521344,2.9959946282521344,2.9959946282521344,2.9959946282521344,E-W,0.0002384185791015625,3.844,N-S,0.0002384185791015625,4.555
20020115215900.knt,CHB0070201152159.UD,2002-01-15, 21:59:00,35.886,140.612,44,4.3,CHB007,35.7234,140.2267,24,2002-01-15, 22:00:06,100Hz,119,U-D,0.0002384185791015625,2.177,39.16918692435694,494,512.0,19.810138783298374,2.8466000932791236,2.164679858277091,1.66759075502671,1.5353846036133716,2.1225094166749803,0.012781136940345186,0.010392461230225566,0.008985653115270123,0.008985653115270123,0.008985653115270123,2.183716602695024,2.183716602695024,2.183716602695024,2.183716602695024,1.6041233487512223,E-W,0.0002384185791015625,5.155,N-S,0.0002384185791015625,5.393
20020115215900.knt,CHB0100201152159.UD,2002-01-15, 21:59:00,35.886,140.612,44,4.3,CHB010,35.7077,140.568,8,2002-01-15, 22:00:02,100Hz,119,U-D,0.0002384185791015625,2.3,20.219303579152523,723,717.0,28.657249143620437,2.100618451290252,2.2557250358094825,2.1703987185580496,1.9927561473589412,2.1110759254441365,0.008556688334541361,0.008556688334541361,0.008556688334541361,0.008556688334541361,0.00784475503501238,1.4132856101258615,1.4132856101258615,1.4132856101258615,1.4132856101258615,1.4132856101258615,E-W,0.0002384185791015625,5.945,N-S,0.0002384185791015625,5.186
20020115215900.knt,CHB0110201152159.UD,2002-01-15, 21:59:00,35.886,140.612,44,4.3,CHB011,35.6021,140.5014,2,2002-01-15, 22:00:05,100Hz,119,U-D,0.0002384185791015625,1.413,33.10869675466757,0,3.0,23.465234674662586,0.0,0.0,0.0,0.0,0.0,0.0,0.0,0.0,0.0,0.0,0.0,0.0,0.0,0.0,0.0,E-W,0.0002384185791015625,5.648,N-S,0.0002384185791015625,4.977
20020115215900.knt,CHB0120201152159.UD,2002-01-15, 21:59:00,35.886,140.612,44,4.3,CHB012,35.5727,140.3333,62,2002-01-15, 22:00:58,100Hz,119,U-D,0.0002384185791015625,3.255,42.971197234380554,1351,1372.0,24.05623219058567,0.3733481437103251,0.3405769307121967,0.3516702895696605,0.37921866355013906,0.4359155156390593,0.0037802382694084,0.003601894025682189,0.003601894025682189,0.003601894025682189,0.003601894025682189,3.243514527378593,3.243514527378593,3.243514527378593,3.243514527378593,3.243514527378593,E-W,0.0002384185791015625,3.888,N-S,0.0002384185791015625,3.978
20020115215900.knt,CHB0140201152159.UD,2002-01-15, 21:59:00,35.886,140.612,44,4.3,CHB014,35.4769,140.0489,7,2002-01-15, 22:00:20,100Hz,119,U-D,0.0002384185791015625,1.085,68.23474923426704,0,-100.0,,0.0,0.0,0.0,0.0,0.0,0.0,0.0,0.0,0.0,0.0,0.0,0.0,0.0,0.0,0.0,E-W,0.0002384185791015625,2.265,N-S,0.0002384185791015625,1.764
20020115215900.knt,CHB0260201152159.UD,2002-01-15, 21:59:00,35.886,140.612,44,4.3,CHB026,35.3872,140.237,-9999,2002-01-15, 22:00:15,200Hz,180,U-D,0.0002384185791015625,1.362,64.99784204251827,0,-100.0,,0.0,0.0,0.0,0.0,0.0,0.0,0.0,0.0,0.0,0.0,0.0,0.0,0.0,0.0,0.0,E-W,0.0002384185791015625,1.591,N-S,0.0002384185791015625,2.352
20020115215900.knt,IBR0030201152159.UD,2002-01-15, 21:59:00,35.886,140.612,44,4.3,IBR003,36.5915,140.6453,58,2002-01-15, 22:00:14,100Hz,119,U-D,0.0002384185791015625,1.397,78.50484698860043,133,133.0,16.727655838202796,8.915322582127796,10.69114787754938,11.483708305632774,11.601302732960546,9.813822317532383,0.02670182165152578,0.02670182165152578,0.02670182165152578,0.02670182165152578,0.024598489715354582,1.3639720685976078,1.0989140475532735,1.0989140475532735,1.0792019024604411,0.6472160928594796,E-W,0.0002384185791015625,2.522,N-S,0.0002384185791015625,2.573
20020115215900.knt,IBR0050201152159.UD,2002-01-15, 21:59:00,35.886,140.612,44,4.3,IBR005,36.3851,140.2372,63,2002-01-15, 22:00:07,100Hz,119,U-D,0.0002384185791015625,1.764,64.90631665017762,0,-100.0,,0.0,0.0,0.0,0.0,0.0,0.0,0.0,0.0,0.0,0.0,0.0,0.0,0.0,0.0,0.0,E-W,0.0002384185791015625,2.796,N-S,0.0002384185791015625,3.696
20020115215900.knt,IBR0070201152159.UD,2002-01-15, 21:59:00,35.886,140.612,44,4.3,IBR007,36.3523,140.5955,24,2002-01-15, 22:00:07,100Hz,119,U-D,0.0002384185791015625,2.097,51.87137120565432,528,542.0,23.664191366865694,3.6453578664953707,2.94802952434472,1.96119065945146,1.2738287876715904,2.1112961567385766,0.010424410757931447,0.010424410757931447,0.007969136910527112,0.005813063480121488,0.005813063480121488,2.0199546390029055,2.0199546390029055,2.0199546390029055,2.0199546390029055,1.809981930166063,E-W,0.0002384185791015625,3.268,N-S,0.0002384185791015625,3.471
20020115215900.knt,IBR0120201152159.UD,2002-01-15, 21:59:00,35.886,140.612,44,4.3,IBR012,36.1901,140.2869,24,2002-01-15, 22:00:57,100Hz,119,U-D,0.0002384185791015625,2.546,44.69767293770713,1449,1468.0,16.448143167418966,0.4120097816667273,0.4037417446661362,0.3947524453918211,0.3573370779592745,0.3580571983181024,0.004107853863209982,0.004107853863209982,0.004107853863209982,0.004107853863209982,0.004107853863209982,2.555468563319351,2.555468563319351,2.555468563319351,2.555468563319351,2.555468563319351,E-W,0.0002384185791015625,2.463,N-S,0.0002384185791015625,2.635
20020115215900.knt,IBR0130201152159.UD,2002-01-15, 21:59:00,35.886,140.612,44,4.3,IBR013,36.1587,140.4892,28,2002-01-15, 22:00:02,100Hz,119,U-D,0.0002384185791015625,2.545,32.27135183447235,830,849.0,23.919491662911177,5.522968476767946,6.069764781954288,6.472909075023509,6.868967133514301,6.80637458375185,0.023680096681454644,0.023680096681454644,0.023680096681454644,0.023680096681454644,0.023680096681454644,2.5330860289781816,2.5330860289781816,2.5330860289781816,2.5330860289781816,2.5330860289781816,E-W,0.0002384185791015625,6.251,N-S,0.0002384185791015625,5.967
20020115215900.knt,IBR0140201152159.UD,2002-01-15, 21:59:00,35.886,140.612,44,4.3,IBR014,36.0729,140.1947,11,2002-01-15, 22:00:06,100Hz,119,U-D,0.0002384185791015625,1.184,42.916951229520464,519,517.0,24.63408846194698,2.3903069945509534,1.926438270746028,1.3508631835792988,0.7210791871074979,0.7047576318053641,0.009594126642111013,0.007875635200228083,0.00653003246207777,0.005200432845853337,0.005200432845853337,1.1003852651262733,1.1003852651262733,1.1003852651262733,1.065222346416791,1.022280401154386,E-W,0.0002384185791015625,2.685,N-S,0.0002384185791015625,2.503
20020115215900.knt,IBR0170201152159.UD,2002-01-15, 21:59:00,35.886,140.612,44,4.3,IBR017,35.9537,140.3194,17,2002-01-15, 22:00:56,100Hz,119,U-D,0.0002384185791015625,3.872,27.402876989733354,1370,1398.0,21.13848851259705,6.653632728894477,5.8670727619437395,4.118914810556284,2.3095311246122807,0.8676398037170371,0.026423804633242703,0.026423804633242703,0.0226612751213434,0.01671660526162272,0.006622169802656559,3.8878818953769883,3.8878818953769883,3.8878818953769883,3.8878818953769883,3.8878818953769883,E-W,0.0002384185791015625,4.184,N-S,0.0002384185791015625,3.551
20020115215900.knt,IBR0180201152159.UD,2002-01-15, 21:59:00,35.886,140.612,44,4.3,IBR018,35.977,140.6322,39,2002-01-15, 22:00:55,100Hz,119,U-D,0.0002384185791015625,3.581,10.280889098451667,1420,1428.0,27.38531999409652,0.6341630770337311,0.5940874560824896,0.560955989237075,0.5565952680725484,0.47117797530052297,0.004262876494630356,0.003977118617393073,0.003977118617393073,0.003977118617393073,0.003977118617393073,3.592450258416754,3.592450258416754,3.592450258416754,3.592450258416754,3.592450258416754,E-W,0.0002384185791015625,7.072,N-S,0.0002384185791015625,8.159
20020115215900.knt,TCG0140201152159.UD,2002-01-15, 21:59:00,35.886,140.612,44,4.3,TCG014,36.545,140.1742,130,2002-01-15, 22:00:05,100Hz,119,U-D,0.0002384185791015625,1.847,83.13928253307263,1105,1124.0,23.23329875270511,1.5876526601639696,1.0422378731636863,0.6722844866133576,0.6845619656058439,0.9523109855347556,0.006013344114603254,0.004652929086365969,0.0029898142197579375,0.0029898142197579375,0.0029898142197579375,1.8432990158231046,1.8432990158231046,1.8432990158231046,1.8432990158231046,1.7174263197639366,E-W,0.0002384185791015625,3.765,N-S,0.0002384185791015625,3.361
20020115215900.knt,TKY0140201152159.UD,2002-01-15, 21:59:00,35.886,140.612,44,4.3,TKY014,35.689,139.8354,-9999,2002-01-15, 22:00:20,200Hz,180,U-D,0.0002384185791015625,0.574,73.39452309603702,0,-100.0,,0.0,0.0,0.0,0.0,0.0,0.0,0.0,0.0,0.0,0.0,0.0,0.0,0.0,0.0,0.0,E-W,0.0002384185791015625,0.916,N-S,0.0002384185791015625,1.16
20020116223300.knt,OKN0070201162233.UD,2002-01-16, 22:33:00,23.937,125.298,77,5.6,OKN007,24.853,125.2964,14,2002-01-16, 22:33:44,100Hz,119,U-D,0.0002384185791015625,1.758,101.85468167696801,0,-100.0,,0.0,0.0,0.0,0.0,0.0,0.0,0.0,0.0,0.0,0.0,0.0,0.0,0.0,0.0,0.0,E-W,0.0002384185791015625,3.465,N-S,0.0002384185791015625,2.932
20020116223300.knt,OKN0080201162233.UD,2002-01-16, 22:33:00,23.937,125.298,77,5.6,OKN008,24.7558,125.3864,70,2002-01-16, 22:33:41,100Hz,119,U-D,0.0002384185791015625,2.637,91.485771808371,158,155.0,20.882221936339434,5.814318042413139,9.21521368697401,10.861736542185458,12.186701183778533,9.848800604099795,0.05097670855994317,0.05097670855994317,0.05097670855994317,0.05097670855994317,0.05097670855994317,1.8821304592095256,1.8821304592095256,1.675777110159367,1.3523390358548408,0.9684330640109905,E-W,0.0002384185791015625,3.798,N-S,0.0002384185791015625,3.356
20020116223300.knt,OKN0090201162233.UD,2002-01-16, 22:33:00,23.937,125.298,77,5.6,OKN009,24.3413,124.1526,3,2002-01-16, 22:33:47,100Hz,119,U-D,0.0002384185791015625,2.412,124.61636439128822,0,-100.0,,0.0,0.0,0.0,0.0,0.0,0.0,0.0,0.0,0.0,0.0,0.0,0.0,0.0,0.0,0.0,E-W,0.0002384185791015625,5.277,N-S,0.0002384185791015625,4.53
20020116223300.knt,OKN0110201162233.UD,2002-01-16, 22:33:00,23.937,125.298,77,5.6,OKN011,24.4324,123.7798,20,2002-01-16, 22:33:56,100Hz,119,U-D,0.0002384185791015625,1.376,163.55337623469796,0,-100.0,,0.0,0.0,0.0,0.0,0.0,0.0,0.0,0.0,0.0,0.0,0.0,0.0,0.0,0.0,0.0,E-W,0.0002384185791015625,4.113,N-S,0.0002384185791015625,3.421
20020118164600.knt,CHB0190201181646.UD,2002-01-18, 16:46:00,34.746,139.622,20,4.0,CHB019,35.1105,139.8351,4,2002-01-18, 16:46:27,100Hz,119,U-D,0.0002384185791015625,0.996,44.946008081637444,0,-100.0,,0.0,0.0,0.0,0.0,0.0,0.0,0.0,0.0,0.0,0.0,0.0,0.0,0.0,0.0,0.0,E-W,0.0002384185791015625,3.357,N-S,0.0002384185791015625,2.191
20020118164600.knt,CHB0210201181646.UD,2002-01-18, 16:46:00,34.746,139.622,20,4.0,CHB021,34.9083,139.8979,6,2002-01-18, 16:46:20,100Hz,119,U-D,0.0002384185791015625,1.379,30.982218646333905,882,901.0,21.509382139714866,1.7611654065253277,1.8764726777876382,1.9026037548997852,1.6590504400821862,2.0609251976771428,0.003551654171687219,0.003551654171687219,0.0027137722450367484,0.0027137722450367484,0.0027137722450367484,1.375890148821242,1.375890148821242,0.9024293069941289,0.8734892080664132,0.8734892080664132,E-W,0.0002384185791015625,3.188,N-S,0.0002384185791015625,4.572
20020118164600.knt,KNG0040201181646.UD,2002-01-18, 16:46:00,34.746,139.622,20,4.0,KNG004,35.1441,139.6218,31,2002-01-18, 16:46:23,100Hz,119,U-D,0.0002384185791015625,4.065,44.26670405064044,790,41.0,18.014790273499482,1.3162806781887415,1.3911597487301948,1.3318235328049137,1.2340901104265516,1.4725636679509406,0.0035932469495842476,0.0035932469495842476,0.0035932469495842476,0.0035921831560696772,0.003324864632185725,2.2494512272489007,2.2494512272489007,2.2494512272489007,2.2494512272489007,1.390928773987024,E-W,0.0002384185791015625,5.127,N-S,0.0002384185791015625,6.411
20020118164600.knt,KNG0050201181646.UD,2002-01-18, 16:46:00,34.746,139.622,20,4.0,KNG005,35.3194,139.549,7,2002-01-18, 16:46:29,100Hz,119,U-D,0.0002384185791015625,3.229,64.10466506260526,1,48.0,16.620969091842962,7.87144199210582,6.899776348044666,5.685478947782379,4.395847780094964,1.9089326694094797,0.0012367680459162294,0.0010981732753749384,0.0009596854928743386,0.0008330153241124375,0.0005217160582362462,0.19641419375388505,0.19641419375388505,0.13906749243554523,0.1334651578270675,0.12639799606953855,E-W,0.0002384185791015625,4.304,N-S,0.0002384185791015625,4.195
20020118164600.knt,KNG2010201181646.UD,2002-01-18, 16:46:00,34.746,139.622,20,4.0,KNG201,34.5956,139.9183,-2197,2002-01-18, 16:46:21,200Hz,180,U-D,5.9604644775390625e-05,1.674,31.842059115376188,1617,1620.0,31.28758881481569,2.122063455237823,2.130786050971352,2.1509532948137355,1.7776077638401748,0.9787909346922463,0.020643052412111607,0.020643052412111607,0.020643052412111607,0.020643052412111607,0.014887345568820955,1.665153696761938,1.665153696761938,1.665153696761938,1.665153696761938,1.665153696761938,E-W,5.9604644775390625e-05,13.665,N-S,5.9604644775390625e-05,29.564
20020118164600.knt,KNG2020201181646.UD,2002-01-18, 16:46:00,34.746,139.622,20,4.0,KNG202,34.7396,139.8393,-2339,2002-01-18, 16:46:21,200Hz,180,U-D,5.9604644775390625e-05,9.668,19.867649759269923,1195,1194.0,41.60588137427589,1.4090208923130008,1.2187831363862138,1.1360614753568368,1.1484282565824993,1.0051273928134146,0.017224501679594172,0.017224501679594172,0.017224501679594172,0.017224501679594172,0.017224501679594172,2.099387397743581,2.099387397743581,2.099387397743581,2.099387397743581,2.099387397743581,E-W,5.9604644775390625e-05,24.187,N-S,5.9604644775390625e-05,24.658
20020118164600.knt,KNG2030201181646.UD,2002-01-18, 16:46:00,34.746,139.622,20,4.0,KNG203,34.7983,139.6435,-902,2002-01-18, 16:46:21,200Hz,180,U-D,5.9604644775390625e-05,60.343,6.138110241335493,963,973.0,4.165624114701986,21.924003429563726,23.642514984820053,26.977771567609608,33.13177703546232,35.79830610024384,2.4801402290604924,2.4801402290604924,2.4801402290604924,2.4801402290604924,2.4801402290604924,37.64236211308129,37.64236211308129,37.64236211308129,37.64236211308129,37.64236211308129,E-W,5.9604644775390625e-05,208.904,N-S,5.9604644775390625e-05,281.135
