earthquake name,records name,earthquake date,earthquake time,lat,long,depth,mag,stn_code,stn_lat,stn_long,stn_height,rcd_date,rcd_time,frequency,rcd_duration,direction,scale_factor,max_pga,epi_dist,pick_index_manually,pick_index_kalkan,snr_db_kalkan,tc_5sec,tc_4sec,tc_3sec,tc_2sec,tc_1sec,Pd_5sec,Pd_4sec,Pd_3sec,Pd_2sec,Pd_1sec,Pga_5sec,Pga_4sec,Pga_3sec,Pga_2sec,Pga_1sec,Channel,Scale_factor,PGA_ew,Channel.1,Scale_factor.1,PGA_ns
19980114021700.knt,YMN0029801140217.UD,1998-01-14, 02:17:00,35.586,140.23,76,4.9,YMN002,35.6132,138.947,368,1998-01-14, 02:17:30,100Hz,119,U-D,0.0002384185791015625,2.634,116.03864643749746,1310,1320.0,28.4390974770131,0.708380706844076,0.6214174118148137,0.5414944222984,0.6103774406650012,1.1689658652697854,0.0033042919424524034,0.0033042919424524034,0.0033042919424524034,0.0033042919424524034,0.003142521656416534,2.6349287721723775,2.6349287721723775,2.6349287721723775,2.6349287721723775,1.1683398034558945,E-W,0.0002384185791015625,6.99,N-S,0.0002384185791015625,6.094
19980114021700.knt,YMN0049801140217.UD,1998-01-14, 02:17:00,35.586,140.23,76,4.9,YMN004,35.702,138.7266,393,1998-01-14, 02:17:46,100Hz,119,U-D,0.0002384185791015625,2.2,136.46123818287606,0,-100.0,,0.0,0.0,0.0,0.0,0.0,0.0,0.0,0.0,0.0,0.0,0.0,0.0,0.0,0.0,0.0,E-W,0.0002384185791015625,3.852,N-S,0.0002384185791015625,3.616
19980114021700.knt,YMN0069801140217.UD,1998-01-14, 02:17:00,35.586,140.23,76,4.9,YMN006,35.4684,138.6069,927,1998-01-14, 02:17:50,100Hz,119,U-D,0.0002384185791015625,0.795,147.46141107811582,0,-100.0,,0.0,0.0,0.0,0.0,0.0,0.0,0.0,0.0,0.0,0.0,0.0,0.0,0.0,0.0,0.0,E-W,0.0002384185791015625,2.538,N-S,0.0002384185791015625,1.453
19980114021700.knt,YMN0109801140217.UD,1998-01-14, 02:17:00,35.586,140.23,76,4.9,YMN010,35.7918,138.4096,530,1998-01-14, 02:17:59,100Hz,119,U-D,0.0002384185791015625,1.206,165.9866603878433,0,1.0,6.642324944165889,0.0,0.0,0.0,0.0,0.0,0.0,0.0,0.0,0.0,0.0,0.0,0.0,0.0,0.0,0.0,E-W,0.0002384185791015625,2.314,N-S,0.0002384185791015625,2.384
19980116105800.knt,CHB0019801161058.UD,1998-01-16, 10:58:00,35.203,140.297,57,4.6,CHB001,35.9595,139.8733,13,1998-01-16, 10:58:28,100Hz,89,U-D,0.0002384185791015625,2.405,92.43442282663086,0,-100.0,,0.0,0.0,0.0,0.0,0.0,0.0,0.0,0.0,0.0,0.0,0.0,0.0,0.0,0.0,0.0,E-W,0.0002384185791015625,5.591,N-S,0.0002384185791015625,6.451
19980116105800.knt,CHB0029801161058.UD,1998-01-16, 10:58:00,35.203,140.297,57,4.6,CHB002,35.7868,139.9031,14,1998-01-16, 10:58:11,100Hz,119,U-D,0.0002384185791015625,7.375,74.06524057416225,1388,245.00000000000003,8.74693577126375,2.8084333615786408,2.5117196786414384,1.7890171496584795,0.9522172229183324,0.8234719904707196,0.016770922098749978,0.016770922098749978,0.016212304318137746,0.00950105897128687,0.00808994318447829,7.39143596758347,7.39143596758347,7.39143596758347,7.39143596758347,4.584364810414764,E-W,0.0002384185791015625,5.545,N-S,0.0002384185791015625,6.712
19980116105800.knt,CHB0039801161058.UD,1998-01-16, 10:58:00,35.203,140.297,57,4.6,CHB003,35.7943,140.0564,28,1998-01-16, 10:58:10,100Hz,119,U-D,0.0002384185791015625,12.664,69.26324604724941,1426,1443.0,18.091980690495873,0.2014687931819749,0.19597800991483286,0.18105042764862295,0.1844895905723386,0.16742651300039277,0.0044974187550567415,0.0044974187550567415,0.0044974187550567415,0.0044974187550567415,0.0044974187550567415,12.650726381322437,12.650726381322437,12.650726381322437,12.650726381322437,12.650726381322437,E-W,0.0002384185791015625,13.337,N-S,0.0002384185791015625,11.738
19980116105800.knt,CHB0049801161058.UD,1998-01-16, 10:58:00,35.203,140.297,57,4.6,CHB004,35.9007,140.4905,14,1998-01-16, 10:58:11,100Hz,119,U-D,0.0002384185791015625,5.516,79.53108487705231,1364,1359.0,28.48493387389768,0.4140758464698675,0.4398895028158733,0.3951129431715175,0.36726531919076955,0.35220768331176405,0.0058101446825069725,0.0058101446825069725,0.004851917161377179,0.004851917161377179,0.0035056550081086625,5.524199803671558,5.524199803671558,5.524199803671558,5.524199803671558,5.524199803671558,E-W,0.0002384185791015625,11.398,N-S,0.0002384185791015625,12.52
19980116105800.knt,CHB0069801161058.UD,1998-01-16, 10:58:00,35.203,140.297,57,4.6,CHB006,35.7801,140.3067,27,1998-01-16, 10:58:18,100Hz,119,U-D,0.0002384185791015625,5.707,64.17660087583133,0,-100.0,,0.0,0.0,0.0,0.0,0.0,0.0,0.0,0.0,0.0,0.0,0.0,0.0,0.0,0.0,0.0,E-W,0.0002384185791015625,9.958,N-S,0.0002384185791015625,11.29
19980116105800.knt,CHB0079801161058.UD,1998-01-16, 10:58:00,35.203,140.297,57,4.6,CHB007,35.7234,140.2267,24,1998-01-16, 10:58:09,100Hz,119,U-D,0.0002384185791015625,11.541,58.215046117205084,1379,1386.0,25.334540350496404,0.46430840762436987,0.48837832999529246,0.4968975585426461,0.43900764953894944,0.211374438383154,0.011407101225533645,0.011407101225533645,0.011407101225533645,0.008443816377146338,0.008443816377146338,11.519967016532487,11.519967016532487,11.519967016532487,11.519967016532487,11.519967016532487,E-W,0.0002384185791015625,16.314,N-S,0.0002384185791015625,20.171
19980116105800.knt,CHB0089801161058.UD,1998-01-16, 10:58:00,35.203,140.297,57,4.6,CHB008,35.6537,139.9023,4,1998-01-16, 10:58:09,100Hz,119,U-D,0.0002384185791015625,6.672,61.56695488488336,1462,59.0,14.678938005778114,0.5162986552836369,0.4828709827915796,0.3813883461554059,0.3589682415594441,0.34934346277874717,0.009269558396248281,0.009269558396248281,0.009269558396248281,0.009269558396248281,0.009269558396248281,6.6878266870638985,6.6878266870638985,6.6878266870638985,6.6878266870638985,6.6878266870638985,E-W,0.0002384185791015625,7.473,N-S,0.0002384185791015625,8.463
19980116105800.knt,CHB0099801161058.UD,1998-01-16, 10:58:00,35.203,140.297,57,4.6,CHB009,35.6082,140.1022,4,1998-01-16, 10:58:08,100Hz,119,U-D,0.0002384185791015625,14.639,48.3917130425177,0,-100.0,,0.0,0.0,0.0,0.0,0.0,0.0,0.0,0.0,0.0,0.0,0.0,0.0,0.0,0.0,0.0,E-W,0.0002384185791015625,11.945,N-S,0.0002384185791015625,9.928
19980116105800.knt,CHB0109801161058.UD,1998-01-16, 10:58:00,35.203,140.297,57,4.6,CHB010,35.7077,140.568,8,1998-01-16, 10:58:08,100Hz,119,U-D,0.0002384185791015625,4.307,61.253256141940085,1469,1463.0,19.41623441442586,0.3969800184088331,0.4270319986308107,0.4395212501344509,0.4456564996579056,0.48209135561383315,0.008695765822289522,0.008695765822289522,0.008695765822289522,0.008695765822289522,0.008695765822289522,4.330023006176532,4.330023006176532,4.330023006176532,4.330023006176532,4.330023006176532,E-W,0.0002384185791015625,14.098,N-S,0.0002384185791015625,11.628
19980116105800.knt,CHB0119801161058.UD,1998-01-16, 10:58:00,35.203,140.297,57,4.6,CHB011,35.6021,140.5014,2,1998-01-16, 10:58:12,100Hz,119,U-D,0.0002384185791015625,4.366,48.08950607812678,943,516.0,27.655103975612526,1.61948420438506,1.464681020966389,1.208060516527804,1.2348208415043345,1.2744805736100109,0.011166748091525154,0.011166748091525154,0.011166748091525154,0.011166748091525154,0.011166748091525154,1.8495946138718973,1.8495946138718973,1.8495946138718973,1.8495946138718973,1.8495946138718973,E-W,0.0002384185791015625,16.612,N-S,0.0002384185791015625,14.258
19980116105800.knt,CHB0129801161058.UD,1998-01-16, 10:58:00,35.203,140.297,57,4.6,CHB012,35.5727,140.3333,62,1998-01-16, 10:58:07,100Hz,119,U-D,0.0002384185791015625,20.655,41.24025756130731,1397,1408.0,39.228858890633255,1.8192186610315482,1.695619485667569,1.3757709589909188,1.1237173372360694,0.5849366395547804,0.04131530408598344,0.04131530408598344,0.04131530408598344,0.028526352148443276,0.01296787644292458,11.305543364697073,11.305543364697073,11.305543364697073,10.57368145095241,10.57368145095241,E-W,0.0002384185791015625,37.761,N-S,0.0002384185791015625,34.737
19980116105800.knt,CHB0139801161058.UD,1998-01-16, 10:58:00,35.203,140.297,57,4.6,CHB013,35.4327,140.2905,13,1998-01-16, 10:58:12,100Hz,119,U-D,0.0002384185791015625,9.838,25.548282288352894,769,675.0,23.234327917035486,6.061382110703225,6.2770812234488265,6.397562323461324,11.15551570650979,12.04239579843604,0.03368635822178858,0.03368635822178858,0.03368635822178858,0.031830700166169,0.02758340613361114,4.471665175768661,4.471665175768661,4.471665175768661,2.254798003646712,1.8527869490817868,E-W,0.0002384185791015625,25.137,N-S,0.0002384185791015625,20.554
19980116105800.knt,CHB0149801161058.UD,1998-01-16, 10:58:00,35.203,140.297,57,4.6,CHB014,35.4769,140.0489,7,1998-01-16, 10:58:09,100Hz,119,U-D,0.0002384185791015625,19.8,37.86838925589071,1249,1249.0,29.044090803848665,0.3046327006358203,0.2898660021181643,0.29296554780482914,0.30766034961657585,0.3306168554794472,0.018932580174624607,0.018932580174624607,0.018932580174624607,0.018932580174624607,0.018932580174624607,10.331607550087467,10.331607550087467,10.331607550087467,10.331607550087467,10.331607550087467,E-W,0.0002384185791015625,29.76,N-S,0.0002384185791015625,23.472
19980116105800.knt,CHB0159801161058.UD,1998-01-16, 10:58:00,35.203,140.297,57,4.6,CHB015,35.3738,139.9159,2,1998-01-16, 10:58:07,100Hz,119,U-D,0.0002384185791015625,13.75,39.46084666992363,1444,1440.0,26.00251486606741,0.3663023196611721,0.3379152635675185,0.3373696683668322,0.3411505268071496,0.34510814775889437,0.012014468159748104,0.012014468159748104,0.012014468159748104,0.012014468159748104,0.012014468159748104,13.763820210736657,13.763820210736657,13.763820210736657,13.763820210736657,13.763820210736657,E-W,0.0002384185791015625,15.817,N-S,0.0002384185791015625,21.148
19980116105800.knt,CHB0169801161058.UD,1998-01-16, 10:58:00,35.203,140.297,57,4.6,CHB016,35.3004,140.3869,8,1998-01-16, 10:58:05,100Hz,119,U-D,0.0002384185791015625,12.673,13.562340192956432,1396,147.0,16.9749622813867,0.4647579140341676,0.3358654670161089,0.31499779181792237,0.3671303714838257,0.36026173156729285,0.011507624251556563,0.008669139919955,0.006503522420498621,0.0063071267051592605,0.0063071267051592605,7.837632370771525,7.837632370771525,6.82818408952012,6.82818408952012,6.82818408952012,E-W,0.0002384185791015625,44.261,N-S,0.0002384185791015625,46.204
19980116105800.knt,CHB0179801161058.UD,1998-01-16, 10:58:00,35.203,140.297,57,4.6,CHB017,35.2988,140.0755,31,1998-01-16, 10:58:05,100Hz,119,U-D,0.0002384185791015625,23.314,22.760127629174352,1479,1477.0,43.793277326039146,0.2764502286697928,0.28059598061005864,0.24872920839886303,0.21499787483883254,0.1625584162396974,0.01129734225178148,0.01129734225178148,0.01129734225178148,0.01129734225178148,0.01129734225178148,23.278978575099444,23.278978575099444,23.278978575099444,23.278978575099444,23.278978575099444,E-W,0.0002384185791015625,15.8,N-S,0.0002384185791015625,24.668
19980116105800.knt,CHB0189801161058.UD,1998-01-16, 10:58:00,35.203,140.297,57,4.6,CHB018,35.1577,140.3222,56,1998-01-16, 10:58:04,100Hz,119,U-D,0.0002384185791015625,9.458,5.533361296183344,1465,1474.0,28.364064059746514,0.22219007912645813,0.1968196792964357,0.20881751633699916,0.23047036260516787,0.2116027348772225,0.005192269409443172,0.005192269409443172,0.004756369616589784,0.002722401941008096,0.001905321769252821,8.797927208813311,8.797927208813311,8.797927208813311,5.518256413809294,3.0800027608765848,E-W,0.0002384185791015625,19.09,N-S,0.0002384185791015625,20.869
19980116105800.knt,CHB0199801161058.UD,1998-01-16, 10:58:00,35.203,140.297,57,4.6,CHB019,35.1105,139.8351,4,1998-01-16, 10:58:16,100Hz,119,U-D,0.0002384185791015625,5.954,43.23294856597843,0,9.0,19.096894436593114,0.0,0.0,0.0,0.0,0.0,0.0,0.0,0.0,0.0,0.0,0.0,0.0,0.0,0.0,0.0,E-W,0.0002384185791015625,9.284,N-S,0.0002384185791015625,8.961
19980116105800.knt,CHB0209801161058.UD,1998-01-16, 10:58:00,35.203,140.297,57,4.6,CHB020,35.1155,140.1022,13,1998-01-16, 10:58:05,100Hz,119,U-D,0.0002384185791015625,8.453,20.205640453816144,1445,1455.0,28.035790969091657,0.27027532443216634,0.2704478252704139,0.2404997677220038,0.25041434175630795,0.22904252102055725,0.008331937617763676,0.008331937617763676,0.008331937617763676,0.002887003701281882,0.002887003701281882,8.254071202290607,8.254071202290607,8.254071202290607,3.0415997490338906,3.0415997490338906,E-W,0.0002384185791015625,19.009,N-S,0.0002384185791015625,20.597
19980116105800.knt,CHB0219801161058.UD,1998-01-16, 10:58:00,35.203,140.297,57,4.6,CHB021,34.9083,139.8979,6,1998-01-16, 10:58:07,100Hz,119,U-D,0.0002384185791015625,4.51,48.92336250746594,1472,1469.0,19.35275565036426,0.8007450023760518,0.6434609469787562,0.4233555983990657,0.3562480311071072,0.3457470098275876,0.006437187753009656,0.006437187753009656,0.006437187753009656,0.006437187753009656,0.006437187753009656,4.508127990020865,4.508127990020865,4.508127990020865,4.508127990020865,4.508127990020865,E-W,0.0002384185791015625,9.641,N-S,0.0002384185791015625,15.457
19980116105800.knt,CHB0229801161058.UD,1998-01-16, 10:58:00,35.203,140.297,57,4.6,CHB022,35.3083,139.8598,7,1998-01-16, 10:58:07,100Hz,119,U-D,0.0002384185791015625,12.743,41.38849462372897,0,7.000000000000001,12.794305773913464,0.0,0.0,0.0,0.0,0.0,0.0,0.0,0.0,0.0,0.0,0.0,0.0,0.0,0.0,0.0,E-W,0.0002384185791015625,55.985,N-S,0.0002384185791015625,30.488
19980116105800.knt,CHB0239801161058.UD,1998-01-16, 10:58:00,35.203,140.297,57,4.6,CHB023,34.9741,139.8449,30,1998-01-16, 10:58:16,100Hz,119,U-D,0.0002384185791015625,2.631,48.372761543171464,604,600.0,30.349334131289353,3.9366551976456026,3.766881871123164,3.32999669185268,2.562510061027083,1.4853198775119651,0.013169483876760243,0.013169483876760243,0.013169483876760243,0.012268500006522149,0.00848357140588763,2.641966557488261,2.641966557488261,2.641966557488261,2.641966557488261,2.641966557488261,E-W,0.0002384185791015625,3.904,N-S,0.0002384185791015625,3.619
19980116105800.knt,IBR0039801161058.UD,1998-01-16, 10:58:00,35.203,140.297,57,4.6,IBR003,36.5915,140.6453,58,1998-01-16, 10:58:38,100Hz,119,U-D,0.0002384185791015625,0.831,157.54909518684633,0,-100.0,,0.0,0.0,0.0,0.0,0.0,0.0,0.0,0.0,0.0,0.0,0.0,0.0,0.0,0.0,0.0,E-W,0.0002384185791015625,2.053,N-S,0.0002384185791015625,3.659
19980116105800.knt,IBR0049801161058.UD,1998-01-16, 10:58:00,35.203,140.297,57,4.6,IBR004,36.5273,140.4094,51,1998-01-16, 10:58:37,100Hz,89,U-D,0.0002384185791015625,1.245,147.60332635341715,0,-100.0,,0.0,0.0,0.0,0.0,0.0,0.0,0.0,0.0,0.0,0.0,0.0,0.0,0.0,0.0,0.0,E-W,0.0002384185791015625,5.423,N-S,0.0002384185791015625,4.829
19980116105800.knt,IBR0059801161058.UD,1998-01-16, 10:58:00,35.203,140.297,57,4.6,IBR005,36.3851,140.2372,63,1998-01-16, 10:58:31,100Hz,119,U-D,0.0002384185791015625,2.776,131.55412303582736,0,-100.0,,0.0,0.0,0.0,0.0,0.0,0.0,0.0,0.0,0.0,0.0,0.0,0.0,0.0,0.0,0.0,E-W,0.0002384185791015625,3.895,N-S,0.0002384185791015625,5.152
19980116105800.knt,IBR0109801161058.UD,1998-01-16, 10:58:00,35.203,140.297,57,4.6,IBR010,36.1843,139.9653,23,1998-01-16, 10:58:30,100Hz,119,U-D,0.0002384185791015625,1.274,113.15228917708781,0,-100.0,,0.0,0.0,0.0,0.0,0.0,0.0,0.0,0.0,0.0,0.0,0.0,0.0,0.0,0.0,0.0,E-W,0.0002384185791015625,2.535,N-S,0.0002384185791015625,2.349
19980116105800.knt,IBR0119801161058.UD,1998-01-16, 10:58:00,35.203,140.297,57,4.6,IBR011,36.1251,140.0903,26,1998-01-16, 10:58:28,100Hz,299,U-D,0.0002384185791015625,1.19,104.21927711191586,0,6.0,18.963623414930417,0.0,0.0,0.0,0.0,0.0,0.0,0.0,0.0,0.0,0.0,0.0,0.0,0.0,0.0,0.0,E-W,0.0002384185791015625,2.847,N-S,0.0002384185791015625,3.833
19980116105800.knt,IBR0129801161058.UD,1998-01-16, 10:58:00,35.203,140.297,57,4.6,IBR012,36.1901,140.2869,24,1998-01-16, 10:58:27,100Hz,119,U-D,0.0002384185791015625,1.715,109.76430123108345,0,10.0,16.280520085016718,0.0,0.0,0.0,0.0,0.0,0.0,0.0,0.0,0.0,0.0,0.0,0.0,0.0,0.0,0.0,E-W,0.0002384185791015625,4.35,N-S,0.0002384185791015625,3.889
19980116105800.knt,IBR0139801161058.UD,1998-01-16, 10:58:00,35.203,140.297,57,4.6,IBR013,36.1587,140.4892,28,1998-01-16, 10:58:27,100Hz,119,U-D,0.0002384185791015625,5.246,107.67748772440923,86,101.0,19.860335037752197,10.007905832421757,11.506951266716959,11.960207077708963,9.680296654417424,5.716310753267627,0.059188032987769666,0.059188032987769666,0.059188032987769666,0.05814872624038575,0.045261418776081704,2.4297719896237924,2.4297719896237924,2.4297719896237924,2.4297719896237924,2.4297719896237924,E-W,0.0002384185791015625,8.988,N-S,0.0002384185791015625,9.09
19980116105800.knt,IBR0149801161058.UD,1998-01-16, 10:58:00,35.203,140.297,57,4.6,IBR014,36.0729,140.1947,11,1998-01-16, 10:58:25,100Hz,119,U-D,0.0002384185791015625,2.739,97.16922842283437,0,-100.0,,0.0,0.0,0.0,0.0,0.0,0.0,0.0,0.0,0.0,0.0,0.0,0.0,0.0,0.0,0.0,E-W,0.0002384185791015625,6.222,N-S,0.0002384185791015625,4.691
19980116105800.knt,IBR0169801161058.UD,1998-01-16, 10:58:00,35.203,140.297,57,4.6,IBR016,35.9112,140.0494,20,1998-01-16, 10:58:23,100Hz,119,U-D,0.0002384185791015625,3.353,81.87153435343922,0,-100.0,,0.0,0.0,0.0,0.0,0.0,0.0,0.0,0.0,0.0,0.0,0.0,0.0,0.0,0.0,0.0,E-W,0.0002384185791015625,5.928,N-S,0.0002384185791015625,8.353
19980116105800.knt,IBR0179801161058.UD,1998-01-16, 10:58:00,35.203,140.297,57,4.6,IBR017,35.9537,140.3194,17,1998-01-16, 10:58:12,100Hz,119,U-D,0.0002384185791015625,5.726,83.49860841292123,1330,1340.0,25.819279597821165,0.6319690104392827,0.62773729421881,0.5622137978685042,0.30582250274641626,0.35119126087815206,0.004222429703914396,0.004222429703914396,0.0033909214066882866,0.001459399933911394,0.00127639483412452,4.937442578977976,2.7274258844514545,2.0622998554879506,1.8082803235019147,1.2817749326705692,E-W,0.0002384185791015625,11.893,N-S,0.0002384185791015625,10.299
19980116105800.knt,IBR0189801161058.UD,1998-01-16, 10:58:00,35.203,140.297,57,4.6,IBR018,35.977,140.6322,39,1998-01-16, 10:58:25,100Hz,119,U-D,0.0002384185791015625,3.62,91.24598206861722,141,155.0,9.493093822469184,12.523953227063025,14.480567236707595,17.411283625386503,17.029835969210673,11.1679937546545,0.1724509884475376,0.1724509884475376,0.1724509884475376,0.1724509884475376,0.16017216049664817,3.657614631294812,3.657614631294812,3.657614631294812,3.657614631294812,3.657614631294812,E-W,0.0002384185791015625,7.454,N-S,0.0002384185791015625,5.699
19980116105800.knt,KNG0019801161058.UD,1998-01-16, 10:58:00,35.203,140.297,57,4.6,KNG001,35.5291,139.7062,2,1998-01-16, 10:58:10,100Hz,119,U-D,0.0002384185791015625,8.537,64.68937388683634,0,-100.0,,0.0,0.0,0.0,0.0,0.0,0.0,0.0,0.0,0.0,0.0,0.0,0.0,0.0,0.0,0.0,E-W,0.0002384185791015625,9.137,N-S,0.0002384185791015625,9.585
19980116105800.knt,KNG0029801161058.UD,1998-01-16, 10:58:00,35.203,140.297,57,4.6,KNG002,35.4371,139.634,2,1998-01-16, 10:58:10,100Hz,119,U-D,0.0002384185791015625,8.086,65.54315696807686,1434,178.0,16.81764304025396,1.961489587500375,1.6250745786121463,1.2364084290408763,1.1528083533975668,1.1927584941612435,0.018486607041776765,0.018334090887214525,0.015627948663353312,0.015627948663353312,0.015627948663353312,7.878410305533356,7.878410305533356,7.878410305533356,7.878410305533356,7.878410305533356,E-W,0.0002384185791015625,12.092,N-S,0.0002384185791015625,12.162
19980116105800.knt,KNG0039801161058.UD,1998-01-16, 10:58:00,35.203,140.297,57,4.6,KNG003,35.2727,139.6579,26,1998-01-16, 10:58:17,100Hz,119,U-D,0.0002384185791015625,4.791,58.55810505964509,610,611.0,27.38092333958296,0.8440616166413331,0.7029760107043991,0.5528952765218499,0.5784941856184055,0.6121731171463102,0.0030099581109617507,0.002628377553687177,0.0022438986285971984,0.0022438986285971984,0.0022438986285971984,1.69755935507284,1.69755935507284,1.69755935507284,1.69755935507284,1.69755935507284,E-W,0.0002384185791015625,9.736,N-S,0.0002384185791015625,11.488
19980116105800.knt,KNG0049801161058.UD,1998-01-16, 10:58:00,35.203,140.297,57,4.6,KNG004,35.1441,139.6218,31,1998-01-16, 10:58:11,100Hz,119,U-D,0.0002384185791015625,14.53,61.71860143047206,1254,1267.0,29.2777422437567,0.26926894706380067,0.2685482823153067,0.2571930505068806,0.293516850675553,0.34763656364261547,0.006325728951735928,0.006325728951735928,0.006325728951735928,0.006325728951735928,0.002906392124892668,7.06853049409127,7.06853049409127,7.06853049409127,7.06853049409127,2.895282560138983,E-W,0.0002384185791015625,47.446,N-S,0.0002384185791015625,43.631
