earthquake name,records name,earthquake date,earthquake time,lat,long,depth,mag,stn_code,stn_lat,stn_long,stn_height,rcd_date,rcd_time,frequency,rcd_duration,direction,scale_factor,max_pga,epi_dist,pick_index_manually,pick_index_kalkan,snr_db_kalkan,tc_5sec,tc_4sec,tc_3sec,tc_2sec,tc_1sec,Pd_5sec,Pd_4sec,Pd_3sec,Pd_2sec,Pd_1sec,Pga_5sec,Pga_4sec,Pga_3sec,Pga_2sec,Pga_1sec,Channel,Scale_factor,PGA_ew,Channel.1,Scale_factor.1,PGA_ns
19960527053800.knt,SZO0239605270538.UD,1996-05-27, 05:38:00,34.903,138.197,30,4.7,SZO023,34.8738,137.8164,46,1996-05-27, 05:38:24,100Hz,59,U-D,0.0002384185791015625,2.994,34.86586727209748,1452,1450.0,37.000444572692395,4.204217108734119,4.473721442795496,3.8498519508441147,2.5686201731358422,0.909297351236785,0.030828717309829973,0.030828717309829973,0.03078295046390629,0.024863993838542632,0.010660530302571775,2.981250079158597,2.981250079158597,2.981250079158597,2.981250079158597,2.981250079158597,E-W,0.0002384185791015625,2.812,N-S,0.0002384185791015625,2.371
19960527053800.knt,SZO0269605270538.UD,1996-05-27, 05:38:00,34.903,138.197,30,4.7,SZO026,34.9816,137.8975,133,1996-05-27, 05:38:23,100Hz,59,U-D,0.0002384185791015625,7.795,28.664257089082074,1446,1434.0,26.468394487564957,0.554915867428662,0.6368741025041328,0.5987094798498367,0.4811021657108288,0.34908184369308703,0.010261208269904388,0.010261208269904388,0.010261208269904388,0.010261208269904388,0.010261208269904388,7.799903565744532,7.799903565744532,7.799903565744532,7.799903565744532,7.799903565744532,E-W,0.0002384185791015625,27.38,N-S,0.0002384185791015625,21.569
19960527053800.knt,YMN0079605270538.UD,1996-05-27, 05:38:00,34.903,138.197,30,4.7,YMN007,35.2791,138.4649,123,1996-05-27, 05:38:33,100Hz,59,U-D,0.0002384185791015625,2.338,48.40520726306864,685,620.0,8.87882697065557,22.774896097880333,22.058813093822152,19.502081523054855,14.555457099317527,9.22508108556384,0.11409857226745829,0.11409857226745829,0.11409857226745829,0.11116113960602528,0.08944389471766627,2.322032795636744,2.322032795636744,2.322032795636744,2.322032795636744,2.322032795636744,E-W,0.0002384185791015625,5.002,N-S,0.0002384185791015625,4.431
19960527053800.knt,YMN0099605270538.UD,1996-05-27, 05:38:00,34.903,138.197,30,4.7,YMN009,35.4965,138.4627,234,1996-05-27, 05:38:40,100Hz,59,U-D,0.0002384185791015625,2.052,70.27137191996825,306,304.0,30.340392968550354,4.2610256726162685,3.5718119146722724,3.720286812339852,4.24013052457103,6.729887614266572,0.007810739913972195,0.007678916878822116,0.007678916878822116,0.007678916878822116,0.007678916878822116,0.6065498646761918,0.6065498646761918,0.6065498646761918,0.6065498646761918,0.5247861867847237,E-W,0.0002384185791015625,4.695,N-S,0.0002384185791015625,5.043
19960529173700.knt,GIF0129605291737.UD,1996-05-29, 17:37:00,35.003,135.647,17,3.9,GIF012,35.6365,136.4882,221,1996-05-29, 17:37:16,100Hz,59,U-D,0.0002384185791015625,0.524,103.85912834894394,221,227.0,17.680764452330575,11.38119862266584,11.733192321302441,15.0981047946884,21.790007409220273,25.109784793512194,0.0065010907739136035,0.0065010907739136035,0.0065010907739136035,0.0065010907739136035,0.0065010907739136035,0.3292191283358407,0.3292191283358407,0.3292191283358407,0.3292191283358407,0.23100635877508874,E-W,0.0002384185791015625,3.534,N-S,0.0002384185791015625,1.594
19960529173700.knt,GIF0269605291737.UD,1996-05-29, 17:37:00,35.003,135.647,17,3.9,GIF026,35.5912,136.7414,145,1996-05-29, 17:37:20,100Hz,59,U-D,0.0002384185791015625,0.463,118.92051967994006,90,91.0,11.705914149167791,7.3460972508292715,6.952996702107636,10.14206476962479,12.451066960570335,7.662768770343042,0.005608081720870545,0.0044719541439161015,0.0044719541439161015,0.0044719541439161015,0.0038644956291914046,0.1348033202124353,0.1348033202124353,0.1348033202124353,0.1348033202124353,0.1348033202124353,E-W,0.0002384185791015625,2.705,N-S,0.0002384185791015625,1.462
19960529173700.knt,HYG0159605291737.UD,1996-05-29, 17:37:00,35.003,135.647,17,3.9,HYG015,34.9515,135.2713,195,1996-05-29, 17:37:53,100Hz,299,U-D,0.0002384185791015625,5.335,34.70603343675931,1435,381.0,13.894992468144016,1.2670266612570278,1.0347889034562718,0.6112223309960033,0.22432500020079632,0.15722379591070149,0.0037384347211368908,0.002656153657323379,0.002148757236125969,0.0009344548146109441,0.0008921120256224532,5.331881908731313,5.331881908731313,5.331881908731313,5.331881908731313,5.331881908731313,E-W,0.0002384185791015625,6.683,N-S,0.0002384185791015625,4.91
19960529173700.knt,KYT0109605291737.UD,1996-05-29, 17:37:00,35.003,135.647,17,3.9,KYT010,35.2098,135.7738,402,1996-05-29, 17:37:51,100Hz,299,U-D,0.0002384185791015625,4.513,25.725900799606823,1478,1478.0,25.86714361571083,1.5545722144834995,1.5004317211600202,1.631474520579727,1.008263519390931,0.3168123826863904,0.003575369664726661,0.003575369664726661,0.003345758851151091,0.0026616566440981738,0.0015479300498300844,4.409089313480351,4.409089313480351,4.409089313480351,4.409089313480351,4.409089313480351,E-W,0.0002384185791015625,11.089,N-S,0.0002384185791015625,12.462
19960529173700.knt,KYT0119605291737.UD,1996-05-29, 17:37:00,35.003,135.647,17,3.9,KYT011,35.017,135.5638,101,1996-05-29, 17:37:49,100Hz,59,U-D,0.0002384185791015625,10.428,7.735648966638217,1470,1479.0,32.16859280208218,1.0387369238382562,0.6740929658141097,0.35643908872013813,0.2426408686963916,0.2073730068107418,0.014621006827282105,0.014100045879466491,0.0105241996655132,0.003015813102675269,0.001344621462822155,10.424108769836575,10.424108769836575,10.424108769836575,10.424108769836575,6.478255355545333,E-W,0.0002384185791015625,16.975,N-S,0.0002384185791015625,34.492
19960529173700.knt,KYT0129605291737.UD,1996-05-29, 17:37:00,35.003,135.647,17,3.9,KYT012,34.9962,135.8188,89,1996-05-29, 17:37:50,100Hz,59,U-D,0.0002384185791015625,30.666,15.666829302955188,1457,1469.0,25.58393394444712,0.3962014857804414,0.22865733293283347,0.14368569197472927,0.23135799029311868,0.3075533987261942,0.0062732658085197825,0.0048522672837190695,0.004759554990103467,0.001653252515077884,0.0016486561538292175,30.76412758249034,30.76412758249034,30.76412758249034,8.971535143932412,7.328753107605726,E-W,0.0002384185791015625,64.019,N-S,0.0002384185791015625,50.035
19960529173700.knt,KYT0139605291737.UD,1996-05-29, 17:37:00,35.003,135.647,17,3.9,KYT013,34.8784,135.8047,82,1996-05-29, 17:37:54,100Hz,59,U-D,0.0002384185791015625,6.372,19.96463405341386,0,-100.0,,0.0,0.0,0.0,0.0,0.0,0.0,0.0,0.0,0.0,0.0,0.0,0.0,0.0,0.0,0.0,E-W,0.0002384185791015625,9.543,N-S,0.0002384185791015625,6.624
19960529173700.knt,MIE0059605291737.UD,1996-05-29, 17:37:00,35.003,135.647,17,3.9,MIE005,34.7677,136.1151,134,1996-05-29, 17:37:56,100Hz,59,U-D,0.0002384185791015625,3.673,50.075651058724524,1386,1390.0,22.487911403041508,1.5985127166611337,1.6193913013598902,1.5268661580231317,1.147822526682505,0.8058187173960635,0.002730623840235034,0.002730623840235034,0.002730623840235034,0.0025440999055978747,0.002030178354610781,3.6747710188497815,3.6747710188497815,3.6747710188497815,3.6747710188497815,3.6747710188497815,E-W,0.0002384185791015625,3.947,N-S,0.0002384185791015625,4.453
19960529173700.knt,NAR0029605291737.UD,1996-05-29, 17:37:00,35.003,135.647,17,3.9,NAR002,34.6683,135.8352,90,1996-05-29, 17:37:00,100Hz,59,U-D,0.0002384185791015625,1.642,40.98946566774079,873,867.0,22.208386683531746,6.982204861724496,7.66928138336272,8.876593482180517,9.346476365208861,9.99622045543772,0.006301435569160815,0.006301435569160815,0.006301435569160815,0.006301435569160815,0.006301435569160815,0.9460751171160469,0.9460751171160469,0.9460751171160469,0.9460751171160469,0.9457862527110381,E-W,0.0002384185791015625,5.82,N-S,0.0002384185791015625,5.921
19960529173700.knt,NAR0049605291737.UD,1996-05-29, 17:37:00,35.003,135.647,17,3.9,NAR004,34.5277,135.9526,311,1996-05-29, 17:37:05,100Hz,59,U-D,0.0002384185791015625,4.513,59.77020246503754,646,663.0,15.808885322426487,18.89962100783102,17.181672978517103,13.878706643514835,9.703446366134614,5.4430205651274015,0.04237446627508888,0.04237446627508888,0.042255863544064,0.0378290544445767,0.025890949480244806,1.5160857910702155,1.5160857910702155,1.5160857910702155,1.5160857910702155,1.309029053112577,E-W,0.0002384185791015625,4.257,N-S,0.0002384185791015625,8.566
19960529173700.knt,NAR0069605291737.UD,1996-05-29, 17:37:00,35.003,135.647,17,3.9,NAR006,34.3383,135.9541,330,1996-05-29, 17:37:10,100Hz,59,U-D,0.0002384185791015625,2.198,79.06701186066923,435,472.0,20.267206782699432,5.726414792068995,5.47764762636052,4.471697839014934,7.19132685195042,7.125060557622381,0.004125774182197446,0.004125774182197446,0.0038223138034643566,0.0031169552953703933,0.002398447768347509,0.9613185426769849,0.9613185426769849,0.9613185426769849,0.40309325054464257,0.3518918751699702,E-W,0.0002384185791015625,3.027,N-S,0.0002384185791015625,2.636
19960529173700.knt,OSK0019605291737.UD,1996-05-29, 17:37:00,35.003,135.647,17,3.9,OSK001,34.9659,135.4069,208,1996-05-29, 17:37:51,100Hz,59,U-D,0.0002384185791015625,6.533,22.25940356569683,1448,1448.0,32.36731398893883,0.41641103660281453,0.612037094921128,0.9493603115734311,0.9614416748375134,0.9792753947722929,0.006814017490412219,0.005321959534421546,0.005321959534421546,0.005321959534421546,0.005321959534421546,6.5408699514916355,6.5408699514916355,6.5408699514916355,6.5408699514916355,6.5408699514916355,E-W,0.0002384185791015625,16.428,N-S,0.0002384185791015625,12.837
19960529173700.knt,OSK0049605291737.UD,1996-05-29, 17:37:00,35.003,135.647,17,3.9,OSK004,34.7405,135.6394,15,1996-05-29, 17:37:58,100Hz,59,U-D,0.0002384185791015625,2.184,29.196901600508923,0,1.0,7.226660322754484,0.0,0.0,0.0,0.0,0.0,0.0,0.0,0.0,0.0,0.0,0.0,0.0,0.0,0.0,0.0,E-W,0.0002384185791015625,9.292,N-S,0.0002384185791015625,4.52
19960529173700.knt,SIG0029605291737.UD,1996-05-29, 17:37:00,35.003,135.647,17,3.9,SIG002,35.4215,136.0243,95,1996-05-29, 17:37:04,100Hz,59,U-D,0.0002384185791015625,2.946,57.796413013927946,717,717.0,22.923634340123247,1.1654289944947007,1.2667569566741532,1.1500763158885325,1.296111401686712,1.5142703389284238,0.0012147812682017482,0.0012147812682017482,0.0012147812682017482,0.0012147812682017482,0.0012147812682017482,0.6187263328627804,0.6187263328627804,0.6187263328627804,0.6187263328627804,0.6187263328627804,E-W,0.0002384185791015625,2.271,N-S,0.0002384185791015625,3.853
19960529173700.knt,SIG0049605291737.UD,1996-05-29, 17:37:00,35.003,135.647,17,3.9,SIG004,35.3476,135.9184,187,1996-05-29, 17:37:00,100Hz,59,U-D,0.0002384185791015625,4.293,45.571201215294394,891,891.0,32.46418724625886,4.277855419266698,4.3739011384959285,4.335911907176294,3.8049165730327097,2.7631197079893104,0.005012900303620363,0.005012900303620363,0.005012900303620363,0.005012900303620363,0.004933229928857563,4.290905636884346,4.290905636884346,4.290905636884346,4.290905636884346,4.290905636884346,E-W,0.0002384185791015625,3.444,N-S,0.0002384185791015625,3.699
19960529173700.knt,SIG0059605291737.UD,1996-05-29, 17:37:00,35.003,135.647,17,3.9,SIG005,35.2493,136.2421,93,1996-05-29, 17:37:05,100Hz,59,U-D,0.0002384185791015625,0.989,60.65609194976897,643,642.0,15.189300843455957,2.4198830950874886,2.5347698745255918,2.7751713127580717,2.761291983864032,2.286946694357437,0.0021337660847826527,0.0021337660847826527,0.0021337660847826527,0.0021337660847826527,0.0015994222257059258,0.8350346405284927,0.8350346405284927,0.8350346405284927,0.8350346405284927,0.621098299841583,E-W,0.0002384185791015625,3.217,N-S,0.0002384185791015625,2.754
19960529173700.knt,SIG0089605291737.UD,1996-05-29, 17:37:00,35.003,135.647,17,3.9,SIG008,35.0701,136.2946,218,1996-05-29, 17:37:57,100Hz,59,U-D,0.0002384185791015625,4.148,59.43074504683552,1442,1440.0,33.348619968362854,1.2449173311405917,1.140625055863553,1.1550337613337356,1.0300950901758976,0.783896728855395,0.003204501745128837,0.003204501745128837,0.003204501745128837,0.003204501745128837,0.0029848028371304847,4.148174447651444,4.148174447651444,4.148174447651444,4.148174447651444,4.148174447651444,E-W,0.0002384185791015625,2.553,N-S,0.0002384185791015625,2.31
19960529173700.knt,SIG0099605291737.UD,1996-05-29, 17:37:00,35.003,135.647,17,3.9,SIG009,35.0051,136.0854,136,1996-05-29, 17:37:54,100Hz,59,U-D,0.0002384185791015625,7.293,39.93057996317053,1421,1419.0,24.948411836168013,1.2449660369091395,1.001398801023717,0.7374641991727362,0.71707982782617,0.7470648589741058,0.00426796211010628,0.00426796211010628,0.00426796211010628,0.00426796211010628,0.00426796211010628,7.303986794244493,7.303986794244493,7.303986794244493,7.303986794244493,7.303986794244493,E-W,0.0002384185791015625,5.273,N-S,0.0002384185791015625,8.573
19960529173700.knt,SIG0109605291737.UD,1996-05-29, 17:37:00,35.003,135.647,17,3.9,SIG010,34.9718,135.8965,110,1996-05-29, 17:37:55,100Hz,59,U-D,0.0002384185791015625,2.772,22.992579067653065,1068,1060.0,26.23416805799261,1.9189469551473803,2.6193939049726187,3.3160686380737214,3.63987933948449,3.6774327984790065,0.010945819660796286,0.010945819660796286,0.010945819660796286,0.010945819660796286,0.010945819660796286,2.7579376099919033,2.7579376099919033,2.7579376099919033,2.594337226592122,2.594337226592122,E-W,0.0002384185791015625,3.327,N-S,0.0002384185791015625,3.019
19960529173700.knt,SIG0119605291737.UD,1996-05-29, 17:37:00,35.003,135.647,17,3.9,SIG011,34.8779,136.0587,283,1996-05-29, 17:37:54,100Hz,59,U-D,0.0002384185791015625,8.312,40.02234852299436,1426,1429.0,27.53487902392829,1.322847151930613,1.3785488824001424,1.1985547163558368,0.6993792849961337,0.6168438360512242,0.004265192184738765,0.004265192184738765,0.004218815198735552,0.0031970877567637354,0.0031970877567637354,8.327447826813632,8.327447826813632,8.327447826813632,8.327447826813632,8.327447826813632,E-W,0.0002384185791015625,10.614,N-S,0.0002384185791015625,8.453
19960529173700.knt,SIG0129605291737.UD,1996-05-29, 17:37:00,35.003,135.647,17,3.9,SIG012,34.9043,136.2307,230,1996-05-29, 17:37:56,100Hz,59,U-D,0.0002384185791015625,6.968,54.31695974434444,1461,1462.0,31.619115344877926,1.389619372933301,1.3813228370604556,1.0678931743431475,0.6234867561196065,0.5044419285647047,0.0030252403582642705,0.0030252403582642705,0.0026611535150224365,0.002223230309290757,0.002223230309290757,6.9437526791514745,6.9437526791514745,6.9437526791514745,6.9437526791514745,6.9437526791514745,E-W,0.0002384185791015625,5.611,N-S,0.0002384185791015625,4.986
19960602183700.knt,KGS0309606021837.UD,1996-06-02, 18:37:00,27.504,128.498,50,5.7,KGS030,28.451,129.6784,4,1996-06-02, 18:38:31,100Hz,60,U-D,0.0002384185791015625,3.553,156.60156439008844,0,-100.0,,0.0,0.0,0.0,0.0,0.0,0.0,0.0,0.0,0.0,0.0,0.0,0.0,0.0,0.0,0.0,E-W,0.0002384185791015625,7.401,N-S,0.0002384185791015625,8.473
19960602183700.knt,KGS0329606021837.UD,1996-06-02, 18:37:00,27.504,128.498,50,5.7,KGS032,28.1388,129.3206,2,1996-06-02, 18:38:18,100Hz,59,U-D,0.0002384185791015625,3.142,107.36123465713595,239,259.0,27.525360428352844,6.689125256400599,7.939384005996728,9.65730533156525,10.187809738772616,10.182827626566214,0.039875910864277386,0.039875910864277386,0.039875910864277386,0.039875910864277386,0.03627860058267155,1.501716139414756,1.3315776927964982,1.1366721863172788,1.1366721863172788,1.1366721863172788,E-W,0.0002384185791015625,11.12,N-S,0.0002384185791015625,7.354
19960602183700.knt,KGS0339606021837.UD,1996-06-02, 18:37:00,27.504,128.498,50,5.7,KGS033,27.6882,128.9427,135,1996-06-02, 18:38:59,100Hz,73,U-D,0.0002384185791015625,39.259,48.37310834058144,1391,1393.0,54.30506660044092,0.7126221660631743,0.8302011436014215,0.9720368400892876,0.9573618658763128,1.0510896530167553,0.026748143773147694,0.026748143773147694,0.026748143773147694,0.026748143773147694,0.026748143773147694,15.014244255698129,13.200218896941486,11.522110001281044,11.522110001281044,9.63049340539627,E-W,0.0002384185791015625,61.073,N-S,0.0002384185791015625,61.155
19960602183700.knt,KGS0349606021837.UD,1996-06-02, 18:37:00,27.504,128.498,50,5.7,KGS034,27.334,128.5743,24,1996-06-02, 18:38:56,100Hz,59,U-D,0.0002384185791015625,25.422,20.348114376877643,1420,1433.0,37.22388919857436,1.040329797144761,1.1032104092860755,1.0996732875831154,1.0806205246293035,1.0766020072370566,0.16238479810211018,0.16238479810211018,0.16238479810211018,0.16238479810211018,0.16238479810211018,18.700047194233914,18.700047194233914,18.700047194233914,18.700047194233914,18.700047194233914,E-W,0.0002384185791015625,96.556,N-S,0.0002384185791015625,76.021
19960602183700.knt,KGS0359606021837.UD,1996-06-02, 18:37:00,27.504,128.498,50,5.7,KGS035,27.0522,128.4241,44,1996-06-02, 18:38:59,100Hz,64,U-D,0.0002384185791015625,34.961,50.76596963450963,1392,1403.0,36.97249601144729,0.5826450206525403,0.6067336841659139,0.6428237215353252,0.6023625988975876,0.5710358848030522,0.06443528465460761,0.06443528465460761,0.06443528465460761,0.06443528465460761,0.06443528465460761,23.431317899715225,23.431317899715225,23.431317899715225,23.431317899715225,23.431317899715225,E-W,0.0002384185791015625,86.157,N-S,0.0002384185791015625,85.144
19960602183700.knt,OKN0019606021837.UD,1996-06-02, 18:37:00,27.504,128.498,50,5.7,OKN001,26.7402,128.1736,7,1996-06-02, 18:38:05,100Hz,299,U-D,0.0002384185791015625,8.522,90.7960913562457,1292,1307.0,29.922484986892268,0.5080811765571167,0.5223622881898382,0.5413702425977152,0.5517868113996889,1.0471118355409064,0.009586486510129345,0.009586486510129345,0.009586486510129345,0.009586486510129345,0.006969959678362836,3.9430322599169654,3.795751367911151,3.795751367911151,2.931057596597165,2.029044431389998,E-W,0.0002384185791015625,34.721,N-S,0.0002384185791015625,28.788
19960602183700.knt,OKN0029606021837.UD,1996-06-02, 18:37:00,27.504,128.498,50,5.7,OKN002,26.5916,127.9767,3,1996-06-02, 18:38:15,100Hz,62,U-D,0.0002384185791015625,5.219,113.83368787358134,622,639.0,28.815817542310832,6.603946466553051,6.708219425902771,6.205035159466602,5.905054687900922,3.21589295509749,0.029242827379012168,0.029242827379012168,0.029242827379012168,0.025359466270393666,0.017782337657935784,1.857241601899489,1.857241601899489,1.5733620939701891,1.050331008729814,0.4372990809488725,E-W,0.0002384185791015625,14.407,N-S,0.0002384185791015625,13.404
19960602183700.knt,OKN0039606021837.UD,1996-06-02, 18:37:00,27.504,128.498,50,5.7,OKN003,26.38,127.8572,10,1996-06-02, 18:38:27,100Hz,59,U-D,0.0002384185791015625,2.703,140.19756194979297,0,-100.0,,0.0,0.0,0.0,0.0,0.0,0.0,0.0,0.0,0.0,0.0,0.0,0.0,0.0,0.0,0.0,E-W,0.0002384185791015625,4.775,N-S,0.0002384185791015625,4.133
19960602183700.knt,OKN0049606021837.UD,1996-06-02, 18:37:00,27.504,128.498,50,5.7,OKN004,26.2497,127.6786,4,1996-06-02, 18:38:38,100Hz,59,U-D,0.0002384185791015625,1.882,161.42145081685572,0,1.0,-2.3545758061529773,0.0,0.0,0.0,0.0,0.0,0.0,0.0,0.0,0.0,0.0,0.0,0.0,0.0,0.0,0.0,E-W,0.0002384185791015625,4.243,N-S,0.0002384185791015625,6.338
19960602183700.knt,OKN0059606021837.UD,1996-06-02, 18:37:00,27.504,128.498,50,5.7,OKN005,26.1686,127.8267,73,1996-06-02, 18:38:34,100Hz,299,U-D,0.0002384185791015625,2.767,162.74264658950514,0,-100.0,,0.0,0.0,0.0,0.0,0.0,0.0,0.0,0.0,0.0,0.0,0.0,0.0,0.0,0.0,0.0,E-W,0.0002384185791015625,5.168,N-S,0.0002384185791015625,4.845
19960602204500.knt,FKS0239606022045.UD,1996-06-02, 20:45:00,37.053,139.347,12,4.3,FKS023,37.4774,139.9294,219,1996-06-02, 20:46:56,100Hz,59,U-D,0.0002384185791015625,1.821,69.8798336316443,464,465.00000000000006,18.969104212497623,1.9802446407453014,1.6015451302139916,1.3849600647950733,1.2799636347605976,1.6112453671035734,0.006153604693759489,0.004913901765333968,0.004913901765333968,0.004913901765333968,0.004913901765333968,1.680325886391211,1.680325886391211,1.680325886391211,1.680325886391211,1.636187178838734,E-W,0.0002384185791015625,4.69,N-S,0.0002384185791015625,5.338
