earthquake name,records name,earthquake date,earthquake time,lat,long,depth,mag,stn_code,stn_lat,stn_long,stn_height,rcd_date,rcd_time,frequency,rcd_duration,direction,scale_factor,max_pga,epi_dist,pick_index_manually,pick_index_kalkan,snr_db_kalkan,tc_5sec,tc_4sec,tc_3sec,tc_2sec,tc_1sec,Pd_5sec,Pd_4sec,Pd_3sec,Pd_2sec,Pd_1sec,Pga_5sec,Pga_4sec,Pga_3sec,Pga_2sec,Pga_1sec,Channel,Scale_factor,PGA_ew,Channel.1,Scale_factor.1,PGA_ns
19970111042000.knt,HKD0599701110420.UD,1997-01-11, 04:20:00,43.103,145.879,83,5.1,HKD059,43.8565,144.4629,31.0,1997-01-11, 04:21:21,100Hz,70,U-D,0.0002384185791015625,4.17,141.68230343219923,1394,1393.0,34.617894305989395,0.93643796086846,0.9451550508140614,0.8561339642409699,0.7958657819848178,0.7562142673876251,0.008897373634721034,0.008897373634721034,0.008897373634721034,0.008897373634721034,0.008897373634721034,4.1647601880894145,4.1647601880894145,4.1647601880894145,4.1647601880894145,4.1647601880894145,E-W,0.0002384185791015625,10.038,N-S,0.0002384185791015625,7.33
19970111042000.knt,HKD0609701110420.UD,1997-01-11, 04:20:00,43.103,145.879,83,5.1,HKD060,43.9136,144.6657,6.0,1997-01-11, 04:21:20,100Hz,59,U-D,0.0002384185791015625,4.571,133.03338425970398,1410,1409.0,32.36346211691033,0.6706926275760056,0.6675672698814324,0.6830798924519218,0.6904628534069256,0.7065620808237726,0.01537260624235661,0.01537260624235661,0.01537260624235661,0.01537260624235661,0.01537260624235661,4.616088212471393,4.616088212471393,4.616088212471393,4.616088212471393,4.616088212471393,E-W,0.0002384185791015625,3.917,N-S,0.0002384185791015625,4.252
19970111042000.knt,HKD0619701110420.UD,1997-01-11, 04:20:00,43.103,145.879,83,5.1,HKD061,44.0699,144.9973,64.0,1997-01-11, 04:21:34,100Hz,59,U-D,0.0002384185791015625,2.815,128.84822883896345,0,-100.0,,0.0,0.0,0.0,0.0,0.0,0.0,0.0,0.0,0.0,0.0,0.0,0.0,0.0,0.0,0.0,E-W,0.0002384185791015625,8.961,N-S,0.0002384185791015625,18.896
19970111042000.knt,HKD0639701110420.UD,1997-01-11, 04:20:00,43.103,145.879,83,5.1,HKD063,44.106,145.2478,4.0,1997-01-11, 04:21:18,100Hz,59,U-D,0.0002384185791015625,9.631,122.56156870025006,1435,1432.0,43.51495924534934,0.45058149890628185,0.4347101036003003,0.43886931368220694,0.43307394060667015,0.4087646471452577,0.02736150881440048,0.02736150881440048,0.02736150881440048,0.02736150881440048,0.02736150881440048,9.683630192913062,9.683630192913062,9.683630192913062,9.683630192913062,9.683630192913062,E-W,0.0002384185791015625,17.788,N-S,0.0002384185791015625,28.991
19970111042000.knt,HKD0649701110420.UD,1997-01-11, 04:20:00,43.103,145.879,83,5.1,HKD064,44.0202,145.1886,17.0,1997-01-11, 04:21:18,100Hz,59,U-D,0.0002384185791015625,6.377,116.17192718126128,1347,1343.0,33.730194521131,0.5943953428292451,0.6138491739726306,0.6121125092100645,0.6497521738917643,0.6986187884639815,0.01378085196268887,0.01378085196268887,0.01378085196268887,0.01378085196268887,0.01378085196268887,3.5389467718684386,3.5389467718684386,3.5389467718684386,3.5389467718684386,2.755147707900517,E-W,0.0002384185791015625,9.05,N-S,0.0002384185791015625,7.822
19970111042000.knt,HKD0659701110420.UD,1997-01-11, 04:20:00,43.103,145.879,83,5.1,HKD065,43.7938,145.0565,10.0,1997-01-11, 04:21:16,100Hz,59,U-D,0.0002384185791015625,6.082,101.53199642836297,1395,1411.0,32.1456730802944,1.1431848094655994,1.180394145152748,1.0892659600865497,1.0307513105838575,0.6435281323891413,0.011611618136827555,0.011611618136827555,0.011611618136827555,0.011611618136827555,0.009668562692837467,6.084369998732901,6.084369998732901,6.084369998732901,6.084369998732901,5.626857795549314,E-W,0.0002384185791015625,10.336,N-S,0.0002384185791015625,9.511
19970111042000.knt,HKD0669701110420.UD,1997-01-11, 04:20:00,43.103,145.879,83,5.1,HKD066,43.6619,145.1307,2.0,1997-01-11, 04:21:15,100Hz,73,U-D,0.0002384185791015625,11.215,86.7131514500597,1364,1390.0,28.618004710171935,0.6029997585872593,0.594507778261333,0.5913895375229297,0.5999711018435326,0.7023543376184813,0.015354854890578579,0.015354854890578579,0.015354854890578579,0.015354854890578579,0.015354854890578579,11.196102308119096,11.196102308119096,11.196102308119096,11.196102308119096,11.196102308119096,E-W,0.0002384185791015625,26.217,N-S,0.0002384185791015625,22.221
19970111042000.knt,HKD0679701110420.UD,1997-01-11, 04:20:00,43.103,145.879,83,5.1,HKD067,43.555,144.9726,30.0,1997-01-11, 04:21:15,100Hz,59,U-D,0.0002384185791015625,45.825,88.88771990564352,1427,1388.0,48.682230153191654,4.416722465536687,4.456265433661743,3.913088235739029,2.5772263361266394,0.8335790534186919,0.14675960523546455,0.14675960523546455,0.14675960523546455,0.1380377414620156,0.07985192994141545,45.83050493874046,45.83050493874046,45.83050493874046,45.83050493874046,45.83050493874046,E-W,0.0002384185791015625,40.571,N-S,0.0002384185791015625,38.326
19970111042000.knt,HKD0689701110420.UD,1997-01-11, 04:20:00,43.103,145.879,83,5.1,HKD068,43.4108,144.7704,105.0,1997-01-11, 04:21:16,100Hz,66,U-D,0.0002384185791015625,51.588,96.07839775580841,1442,1466.0,8.865474828174023,0.4585301772826708,0.4216234629090199,0.3688122391606732,0.3220240059202792,0.3328175633363089,0.03664769484304505,0.03664769484304505,0.03664769484304505,0.03664769484304505,0.03664769484304505,51.74553316800853,51.74553316800853,51.74553316800853,51.74553316800853,51.74553316800853,E-W,0.0002384185791015625,44.185,N-S,0.0002384185791015625,67.093
19970111042000.knt,HKD0699701110420.UD,1997-01-11, 04:20:00,43.103,145.879,83,5.1,HKD069,43.3941,145.1168,25.0,1997-01-11, 04:21:13,100Hz,72,U-D,0.0002384185791015625,13.627,69.70394683299466,1464,1460.0,45.022111906862534,0.6567209736862605,0.6652503261733246,0.67649428736424,0.6908425591174382,0.6225687789399647,0.02486134651046165,0.02486134651046165,0.02486134651046165,0.02486134651046165,0.02486134651046165,13.63790736846748,13.63790736846748,13.63790736846748,13.63790736846748,13.63790736846748,E-W,0.0002384185791015625,32.559,N-S,0.0002384185791015625,34.493
19970111042000.knt,HKD0709701110420.UD,1997-01-11, 04:20:00,43.103,145.879,83,5.1,HKD070,43.3852,145.284,6.0,1997-01-11, 04:21:12,100Hz,81,U-D,0.0002384185791015625,14.52,57.50937773501281,1445,1441.0,44.09319811692608,0.6930696014023698,0.7082922871836954,0.7465357761189785,0.7579037894755045,0.6849870763370663,0.02299905114521694,0.02299905114521694,0.02299905114521694,0.02299905114521694,0.02299905114521694,14.462477271025232,14.462477271025232,14.462477271025232,14.462477271025232,14.462477271025232,E-W,0.0002384185791015625,30.644,N-S,0.0002384185791015625,43.612
19970111042000.knt,HKD0719701110420.UD,1997-01-11, 04:20:00,43.103,145.879,83,5.1,HKD071,43.2326,145.2604,38.0,1997-01-11, 04:21:11,100Hz,60,U-D,0.0002384185791015625,26.356,52.197274561456126,1463,1468.0,48.21537390179543,0.5993751627534082,0.5654532720026072,0.557292638087188,0.4621857709080302,0.26494997375470314,0.010999920966907339,0.010999920966907339,0.010999920966907339,0.010999920966907339,0.010999920966907339,26.22278122787747,26.22278122787747,26.22278122787747,26.22278122787747,26.22278122787747,E-W,0.0002384185791015625,82.241,N-S,0.0002384185791015625,82.294
19970111042000.knt,HKD0729701110420.UD,1997-01-11, 04:20:00,43.103,145.879,83,5.1,HKD072,43.1948,145.5209,46.0,1997-01-11, 04:21:11,100Hz,74,U-D,0.0002384185791015625,22.568,30.79216500955661,1385,1403.0,24.30219319784461,0.9258247123532511,0.9613797644755903,0.9840010126998346,0.9491049759085065,0.6933581159752,0.01521665080947787,0.01521665080947787,0.01521665080947787,0.01521665080947787,0.014081406137898479,7.853146693269072,7.853146693269072,7.853146693269072,7.853146693269072,7.853146693269072,E-W,0.0002384185791015625,57.621,N-S,0.0002384185791015625,119.956
19970111042000.knt,HKD0739701110420.UD,1997-01-11, 04:20:00,43.103,145.879,83,5.1,HKD073,43.3327,145.6003,36.0,1997-01-11, 04:21:10,100Hz,67,U-D,0.0002384185791015625,12.052,34.09409978314952,1444,1436.0,48.05386433815406,0.5309467478202976,0.5369517535114032,0.5471920868594176,0.559100457733407,0.5640279664034807,0.018662260450075602,0.018662260450075602,0.018662260450075602,0.018662260450075602,0.018662260450075602,12.059284445272679,12.059284445272679,12.059284445272679,12.059284445272679,12.059284445272679,E-W,0.0002384185791015625,24.573,N-S,0.0002384185791015625,30.643
19970111042000.knt,HKD0749701110420.UD,1997-01-11, 04:20:00,43.103,145.879,83,5.1,HKD074,43.3687,145.8028,16.0,1997-01-11, 04:21:10,100Hz,65,U-D,0.0002384185791015625,39.847,30.182481470248405,1419,1413.0,54.876779422040414,0.614083967428459,0.6008017497261556,0.5399828844961976,0.4405750793004353,0.4585298900715297,0.017893327999762235,0.017893327999762235,0.017893327999762235,0.017893327999762235,0.017893327999762235,14.29241514616059,14.29241514616059,14.29241514616059,14.29241514616059,14.29241514616059,E-W,0.0002384185791015625,68.003,N-S,0.0002384185791015625,49.449
19970111042000.knt,HKD0759701110420.UD,1997-01-11, 04:20:00,43.103,145.879,83,5.1,HKD075,43.0767,145.1296,11.0,1997-01-11, 04:21:13,100Hz,59,U-D,0.0002384185791015625,36.698,60.924150802988564,1399,1398.0,52.95662218650754,0.7999051066981956,0.7972863942268619,0.7942545387669753,0.797506903391132,0.7610155665299642,0.01441699785412357,0.01441699785412357,0.01441699785412357,0.01441699785412357,0.01441699785412357,10.175296791791627,10.175296791791627,10.175296791791627,10.175296791791627,10.175296791791627,E-W,0.0002384185791015625,49.488,N-S,0.0002384185791015625,43.276
19970111042000.knt,HKD0769701110420.UD,1997-01-11, 04:20:00,43.103,145.879,83,5.1,HKD076,43.0509,144.8498,2.0,1997-01-11, 04:21:27,100Hz,59,U-D,0.0002384185791015625,4.765,83.7925222970874,163,163.0,33.05105544269184,1.0968921671429832,1.1377089893505474,1.1317600218784256,1.0042321962773535,0.7398052208248841,0.010298047409093394,0.010298047409093394,0.010298047409093394,0.010298047409093394,0.010298047409093394,2.7996253810252654,2.7996253810252654,2.7996253810252654,2.7996253810252654,2.5787208642731905,E-W,0.0002384185791015625,6.594,N-S,0.0002384185791015625,5.942
19970111042000.knt,HKD0779701110420.UD,1997-01-11, 04:20:00,43.103,145.879,83,5.1,HKD077,42.9845,144.3824,3.0,1997-01-11, 04:21:35,100Hz,59,U-D,0.0002384185791015625,13.216,122.3310606633468,0,1.0,-1.5041095345759183,0.0,0.0,0.0,0.0,0.0,0.0,0.0,0.0,0.0,0.0,0.0,0.0,0.0,0.0,0.0,E-W,0.0002384185791015625,13.114,N-S,0.0002384185791015625,15.62
19970111042000.knt,HKD0789701110420.UD,1997-01-11, 04:20:00,43.103,145.879,83,5.1,HKD078,43.1486,144.4976,21.0,1997-01-11, 04:21:17,100Hz,76,U-D,0.0002384185791015625,36.329,112.2223926367171,1481,1479.0,55.8817815694328,0.7648052803690041,0.7103237601591739,0.5442322740903931,0.3311842296728686,0.24323654880326484,0.03989641391327131,0.03989641391327131,0.03989641391327131,0.02726501424576825,0.02726501424576825,25.383648324084923,25.383648324084923,25.383648324084923,25.383648324084923,25.383648324084923,E-W,0.0002384185791015625,52.269,N-S,0.0002384185791015625,42.361
19970111042000.knt,HKD0799701110420.UD,1997-01-11, 04:20:00,43.103,145.879,83,5.1,HKD079,43.3033,144.5996,32.0,1997-01-11, 04:21:17,100Hz,59,U-D,0.0002384185791015625,27.981,106.06341184477802,1445,1471.0,22.9313447536834,0.690298885683458,0.6065821392825504,0.5857340833931631,0.5352567916520012,0.46525515297862036,0.0217548140120512,0.0217548140120512,0.0217548140120512,0.0217548140120512,0.0217548140120512,27.955267148411657,27.955267148411657,27.955267148411657,27.955267148411657,27.955267148411657,E-W,0.0002384185791015625,14.177,N-S,0.0002384185791015625,14.3
19970111042000.knt,HKD0809701110420.UD,1997-01-11, 04:20:00,43.103,145.879,83,5.1,HKD080,43.5077,144.4485,140.0,1997-01-11, 04:21:18,100Hz,72,U-D,0.0002384185791015625,6.68,124.19003357148019,1467,1467.0,40.10518498349927,0.4216099050103241,0.42290052889762464,0.4470604207953967,0.5047917745866858,0.43438669897066273,0.007139976011075412,0.007139976011075412,0.007139976011075412,0.007139976011075412,0.007139976011075412,6.682655139380751,6.682655139380751,6.682655139380751,6.682655139380751,4.912018714971378,E-W,0.0002384185791015625,9.736,N-S,0.0002384185791015625,11.453
19970111042000.knt,HKD0819701110420.UD,1997-01-11, 04:20:00,43.103,145.879,83,5.1,HKD081,43.6427,144.3901,130.0,1997-01-11, 04:21:20,100Hz,59,U-D,0.0002384185791015625,6.689,134.47447311191695,1407,1425.0,28.9184041747653,0.6440706572128102,0.6515606551785967,0.6325004552101743,0.5255980801528192,0.6823041922712682,0.008327414308864155,0.008327414308864155,0.008327414308864155,0.008327414308864155,0.008327414308864155,6.718601284632574,6.718601284632574,6.718601284632574,6.718601284632574,6.718601284632574,E-W,0.0002384185791015625,9.752,N-S,0.0002384185791015625,8.524
19970111042000.knt,HKD0839701110420.UD,1997-01-11, 04:20:00,43.103,145.879,83,5.1,HKD083,43.233,144.3248,38.0,1997-01-11, 04:21:20,100Hz,59,U-D,0.0002384185791015625,12.489,126.87008552802448,1385,1384.0,47.262034096592515,0.6018864643577608,0.5461801095463811,0.4921554315084092,0.48073409481498464,0.4789691861207277,0.021926063043111073,0.021926063043111073,0.021926063043111073,0.021926063043111073,0.021926063043111073,12.456920034266764,12.456920034266764,12.456920034266764,12.456920034266764,12.456920034266764,E-W,0.0002384185791015625,27.548,N-S,0.0002384185791015625,24.906
19970111042000.knt,HKD0849701110420.UD,1997-01-11, 04:20:00,43.103,145.879,83,5.1,HKD084,43.1141,144.123,30.0,1997-01-11, 04:21:39,100Hz,59,U-D,0.0002384185791015625,6.245,142.55306490128797,0,1.0,-0.5036776288558195,0.0,0.0,0.0,0.0,0.0,0.0,0.0,0.0,0.0,0.0,0.0,0.0,0.0,0.0,0.0,E-W,0.0002384185791015625,12.959,N-S,0.0002384185791015625,13.858
19970111042000.knt,HKD0859701110420.UD,1997-01-11, 04:20:00,43.103,145.879,83,5.1,HKD085,42.9581,144.0697,5.0,1997-01-11, 04:21:40,100Hz,59,U-D,0.0002384185791015625,3.945,147.94121028848687,0,-100.0,,0.0,0.0,0.0,0.0,0.0,0.0,0.0,0.0,0.0,0.0,0.0,0.0,0.0,0.0,0.0,E-W,0.0002384185791015625,11.956,N-S,0.0002384185791015625,22.376
19970111042000.knt,HKD0869701110420.UD,1997-01-11, 04:20:00,43.103,145.879,83,5.1,HKD086,42.8526,143.8636,32.0,1997-01-11, 04:21:45,100Hz,59,U-D,0.0002384185791015625,3.118,166.30024657126734,0,-100.0,,0.0,0.0,0.0,0.0,0.0,0.0,0.0,0.0,0.0,0.0,0.0,0.0,0.0,0.0,0.0,E-W,0.0002384185791015625,8.707,N-S,0.0002384185791015625,6.899
19970111042000.knt,HKD0879701110420.UD,1997-01-11, 04:20:00,43.103,145.879,83,5.1,HKD087,43.1502,143.8916,170.0,1997-01-11, 04:21:23,100Hz,59,U-D,0.0002384185791015625,3.349,161.36914207924744,1441,1437.0,34.016349442697724,0.6961952583942217,0.7053305455445392,0.6673092987937407,0.6263301012837487,0.6289330732078093,0.0076476449311828325,0.0076476449311828325,0.0076476449311828325,0.0076476449311828325,0.0076476449311828325,3.3496894838554025,3.3496894838554025,3.3496894838554025,3.3496894838554025,3.3496894838554025,E-W,0.0002384185791015625,8.358,N-S,0.0002384185791015625,8.183
19970111042000.knt,HKD0889701110420.UD,1997-01-11, 04:20:00,43.103,145.879,83,5.1,HKD088,43.4716,143.7483,215.0,1997-01-11, 04:21:48,100Hz,59,U-D,0.0002384185791015625,0.537,177.25995399568748,0,1.0,-4.820818229017203,0.0,0.0,0.0,0.0,0.0,0.0,0.0,0.0,0.0,0.0,0.0,0.0,0.0,0.0,0.0,E-W,0.0002384185791015625,2.939,N-S,0.0002384185791015625,1.661
19970111042000.knt,HKD0899701110420.UD,1997-01-11, 04:20:00,43.103,145.879,83,5.1,HKD089,43.2436,143.5544,90.0,1997-01-11, 04:21:27,100Hz,61,U-D,0.0002384185791015625,3.793,189.14995219698875,1424,1424.0,31.774807464660284,0.47526862270040904,0.43039900300806033,0.41636891754186145,0.42120273666193425,0.3385143698474396,0.006444929378232471,0.006444929378232471,0.006444929378232471,0.006444929378232471,0.006032857141556588,3.824666166171797,3.824666166171797,3.824666166171797,3.824666166171797,3.824666166171797,E-W,0.0002384185791015625,14.807,N-S,0.0002384185791015625,11.822
19970111042000.knt,HKD0909701110420.UD,1997-01-11, 04:20:00,43.103,145.879,83,5.1,HKD090,43.1213,143.6183,65.0,1997-01-11, 04:21:47,100Hz,59,U-D,0.0002384185791015625,3.68,183.51629483886438,0,-100.0,,0.0,0.0,0.0,0.0,0.0,0.0,0.0,0.0,0.0,0.0,0.0,0.0,0.0,0.0,0.0,E-W,0.0002384185791015625,8.941,N-S,0.0002384185791015625,5.317
19970111042000.knt,HKD0929701110420.UD,1997-01-11, 04:20:00,43.103,145.879,83,5.1,HKD092,42.9283,143.4483,17.0,1997-01-11, 04:21:50,100Hz,59,U-D,0.0002384185791015625,3.973,198.566346610212,0,-100.0,,0.0,0.0,0.0,0.0,0.0,0.0,0.0,0.0,0.0,0.0,0.0,0.0,0.0,0.0,0.0,E-W,0.0002384185791015625,10.521,N-S,0.0002384185791015625,8.805
19970111042000.knt,HKD0959701110420.UD,1997-01-11, 04:20:00,43.103,145.879,83,5.1,HKD095,42.9311,143.2137,35.0,1997-01-11, 04:21:57,100Hz,59,U-D,0.0002384185791015625,1.527,217.5216241813697,0,-100.0,,0.0,0.0,0.0,0.0,0.0,0.0,0.0,0.0,0.0,0.0,0.0,0.0,0.0,0.0,0.0,E-W,0.0002384185791015625,2.775,N-S,0.0002384185791015625,2.392
19970111042000.knt,HKD0969701110420.UD,1997-01-11, 04:20:00,43.103,145.879,83,5.1,HKD096,42.6975,143.1356,192.0,1997-01-11, 04:21:57,100Hz,59,U-D,0.0002384185791015625,1.396,227.95517082876535,0,1.0,11.889859478271065,0.0,0.0,0.0,0.0,0.0,0.0,0.0,0.0,0.0,0.0,0.0,0.0,0.0,0.0,0.0,E-W,0.0002384185791015625,2.663,N-S,0.0002384185791015625,3.611
19970111042000.knt,HKD0979701110420.UD,1997-01-11, 04:20:00,43.103,145.879,83,5.1,HKD097,42.6181,143.4209,33.0,1997-01-11, 04:21:52,100Hz,59,U-D,0.0002384185791015625,2.604,207.47217768405594,0,-100.0,,0.0,0.0,0.0,0.0,0.0,0.0,0.0,0.0,0.0,0.0,0.0,0.0,0.0,0.0,0.0,E-W,0.0002384185791015625,9.515,N-S,0.0002384185791015625,8.889
19970111042000.knt,HKD0989701110420.UD,1997-01-11, 04:20:00,43.103,145.879,83,5.1,HKD098,42.4984,143.2787,83.0,1997-01-11, 04:21:58,100Hz,59,U-D,0.0002384185791015625,1.739,222.53435619310818,0,-100.0,,0.0,0.0,0.0,0.0,0.0,0.0,0.0,0.0,0.0,0.0,0.0,0.0,0.0,0.0,0.0,E-W,0.0002384185791015625,3.632,N-S,0.0002384185791015625,2.881
19970111042000.knt,HKD1099701110420.UD,1997-01-11, 04:20:00,43.103,145.879,83,5.1,HKD109,42.1678,142.7673,4.0,1997-01-11, 04:21:10,100Hz,59,U-D,0.0002384185791015625,0.895,274.94809743378255,0,-100.0,,0.0,0.0,0.0,0.0,0.0,0.0,0.0,0.0,0.0,0.0,0.0,0.0,0.0,0.0,0.0,E-W,0.0002384185791015625,2.148,N-S,0.0002384185791015625,1.643
19970111042000.knt,HKD1109701110420.UD,1997-01-11, 04:20:00,43.103,145.879,83,5.1,HKD110,42.1306,142.9353,5.0,1997-01-11, 04:21:10,100Hz,59,U-D,0.0002384185791015625,0.541,264.0122656805881,0,-100.0,,0.0,0.0,0.0,0.0,0.0,0.0,0.0,0.0,0.0,0.0,0.0,0.0,0.0,0.0,0.0,E-W,0.0002384185791015625,2.215,N-S,0.0002384185791015625,2.261
19970111042000.knt,HKD1589701110420.UD,1997-01-11, 04:20:00,43.103,145.879,83,5.1,HKD158,41.8345,141.1411,6.0,1997-01-11, 04:21:35,100Hz,59,U-D,0.0002384185791015625,2.743,413.34659712642144,0,1.0,9.816371681890356,0.0,0.0,0.0,0.0,0.0,0.0,0.0,0.0,0.0,0.0,0.0,0.0,0.0,0.0,0.0,E-W,0.0002384185791015625,3.004,N-S,0.0002384185791015625,2.894
19970111042000.knt,HKD1599701110420.UD,1997-01-11, 04:20:00,43.103,145.879,83,5.1,HKD159,41.7162,141.0025,35.0,1997-01-11, 04:21:39,100Hz,59,U-D,0.0002384185791015625,1.091,428.9477062483622,2,33.0,14.80148957929337,3.5713029028534233,2.266851725108082,1.63377895944205,1.7451498892973714,1.1238293877894103,0.0017953046027705767,0.0012915313300921568,0.0006480297852898155,0.0006480297852898155,0.0005035192317577891,0.27752547954508106,0.1735054847709352,0.1735054847709352,0.1735054847709352,0.10337916242092508,E-W,0.0002384185791015625,5.001,N-S,0.0002384185791015625,3.209
19970111045300.knt,AOM0079701110453.UD,1997-01-11, 04:53:00,40.086,141.979,71,4.1,AOM007,41.2256,141.3958,10.0,1997-01-11, 04:53:51,100Hz,59,U-D,0.0002384185791015625,1.527,135.93175609790708,0,13.0,10.498110367333089,0.0,0.0,0.0,0.0,0.0,0.0,0.0,0.0,0.0,0.0,0.0,0.0,0.0,0.0,0.0,E-W,0.0002384185791015625,2.395,N-S,0.0002384185791015625,1.775
19970111045300.knt,AOM0089701110453.UD,1997-01-11, 04:53:00,40.086,141.979,71,4.1,AOM008,41.084,141.2552,17.0,1997-01-11, 04:53:46,100Hz,59,U-D,0.0002384185791015625,1.696,126.69051421561619,0,-100.0,,0.0,0.0,0.0,0.0,0.0,0.0,0.0,0.0,0.0,0.0,0.0,0.0,0.0,0.0,0.0,E-W,0.0002384185791015625,4.376,N-S,0.0002384185791015625,5.643
