earthquake name,records name,earthquake date,earthquake time,lat,long,depth,mag,stn_code,stn_lat,stn_long,stn_height,rcd_date,rcd_time,frequency,rcd_duration,direction,scale_factor,max_pga,epi_dist,pick_index_manually,pick_index_kalkan,snr_db_kalkan,tc_5sec,tc_4sec,tc_3sec,tc_2sec,tc_1sec,Pd_5sec,Pd_4sec,Pd_3sec,Pd_2sec,Pd_1sec,Pga_5sec,Pga_4sec,Pga_3sec,Pga_2sec,Pga_1sec,Channel,Scale_factor,PGA_ew,Channel.1,Scale_factor.1,PGA_ns
19960603021800.knt,IBR0019606030218.UD,1996-06-03, 02:18:00,36.353,140.647,61,3.7,IBR001,36.7761,140.3569,105,1996-06-03, 02:18:32,100Hz,59,U-D,0.0002384185791015625,5.351,53.708867982273524,585,592.0,23.893280569648283,11.183973578004586,9.518024847068894,7.0471949380893175,4.371379219659935,1.7164650344578998,0.026376451709153245,0.025709349679384624,0.02308583152382183,0.017909736039516778,0.008140401825688932,2.893297386132191,2.893297386132191,2.893297386132191,2.893297386132191,2.6670901636971287,E-W,0.0002384185791015625,7.665,N-S,0.0002384185791015625,7.805
19960603021800.knt,IBR0029606030218.UD,1996-06-03, 02:18:00,36.353,140.647,61,3.7,IBR002,36.7061,140.7068,9,1996-06-03, 02:18:31,100Hz,299,U-D,0.0002384185791015625,4.247,39.62482549239577,562,565.0,24.755800084612577,7.580832130161592,6.828630271684253,5.578541240766159,4.1096728472239885,1.8534911118035884,0.01012112579633184,0.01012112579633184,0.009939853874714395,0.008787729488749821,0.005294549821721156,1.9572685396084197,1.9572685396084197,1.9572685396084197,1.9572685396084197,1.9572685396084197,E-W,0.0002384185791015625,10.09,N-S,0.0002384185791015625,8.999
19960603021800.knt,IBR0039606030218.UD,1996-06-03, 02:18:00,36.353,140.647,61,3.7,IBR003,36.5915,140.6453,58,1996-06-03, 02:18:21,100Hz,59,U-D,0.0002384185791015625,23.371,26.520425644724373,1446,1453.0,33.41829132655798,0.9497226015022945,1.0301117809194353,1.1043050523566162,1.0018213448824558,0.59748934122091,0.005008274413374902,0.005008274413374902,0.005008274413374902,0.005008274413374902,0.0034873619749528676,8.598432790591982,8.598432790591982,8.138106317733577,8.138106317733577,8.138106317733577,E-W,0.0002384185791015625,57.467,N-S,0.0002384185791015625,51.412
19960603021800.knt,IBR0049606030218.UD,1996-06-03, 02:18:00,36.353,140.647,61,3.7,IBR004,36.5273,140.4094,51,1996-06-03, 02:18:22,100Hz,59,U-D,0.0002384185791015625,14.403,28.764129632317218,1396,1398.0,46.88944074658559,0.27266560139419693,0.24679812764172523,0.23335113574232996,0.23533128877511791,0.24359214431781528,0.002959744515285571,0.002959744515285571,0.002959744515285571,0.002959744515285571,0.002959744515285571,11.142939405368674,11.142939405368674,11.142939405368674,11.142939405368674,11.142939405368674,E-W,0.0002384185791015625,34.567,N-S,0.0002384185791015625,24.91
19960603021800.knt,IBR0069606030218.UD,1996-06-03, 02:18:00,36.353,140.647,61,3.7,IBR006,36.369,140.4528,20,1996-06-03, 02:18:21,100Hz,59,U-D,0.0002384185791015625,9.527,17.48040920957639,1429,1437.0,17.536408104830134,0.5393184713228848,0.3883477647698858,0.25852091541310956,0.2510976122790006,0.25450960571470405,0.0046454995872257125,0.004470023184417135,0.004470023184417135,0.004470023184417135,0.004470023184417135,9.56646039422397,9.56646039422397,9.56646039422397,9.56646039422397,9.56646039422397,E-W,0.0002384185791015625,9.086,N-S,0.0002384185791015625,15.318
19960603021800.knt,IBR0079606030218.UD,1996-06-03, 02:18:00,36.353,140.647,61,3.7,IBR007,36.3523,140.5955,24,1996-06-03, 02:18:21,100Hz,299,U-D,0.0002384185791015625,20.537,4.6127189821509464,1368,1368.0,39.03961225021332,0.1900708971033823,0.19033520383682687,0.18997427522669352,0.1857890731981657,0.16547222949671217,0.009314842928541595,0.009314842928541595,0.009314842928541595,0.009314842928541595,0.009314842928541595,20.482969350845003,20.482969350845003,20.482969350845003,20.482969350845003,20.482969350845003,E-W,0.0002384185791015625,19.275,N-S,0.0002384185791015625,18.446
19960603021800.knt,IBR0089606030218.UD,1996-06-03, 02:18:00,36.353,140.647,61,3.7,IBR008,36.3062,139.9828,20,1996-06-03, 02:18:36,100Hz,59,U-D,0.0002384185791015625,3.704,59.72679353452785,230,235.0,25.28045776260859,10.897806845041988,12.579269766350482,15.043530457367465,19.695182912884178,27.938454802415794,0.024511127347629814,0.024511127347629814,0.024511127347629814,0.024511127347629814,0.024511127347629814,2.5719642969791177,2.5719642969791177,2.5719642969791177,2.5719642969791177,1.428981426520397,E-W,0.0002384185791015625,5.239,N-S,0.0002384185791015625,5.127
19960603021800.knt,IBR0109606030218.UD,1996-06-03, 02:18:00,36.353,140.647,61,3.7,IBR010,36.1843,139.9653,23,1996-06-03, 02:18:34,100Hz,59,U-D,0.0002384185791015625,3.824,63.92908288041798,451,457.0,24.017371991356,5.449685826625647,4.797978449187448,3.895285504022612,2.928382735682416,3.256884684073924,0.007451151373948733,0.007451151373948733,0.007451151373948733,0.007451151373948733,0.007451151373948733,1.343122036075322,1.343122036075322,1.343122036075322,1.343122036075322,1.343122036075322,E-W,0.0002384185791015625,6.51,N-S,0.0002384185791015625,5.302
19960603021800.knt,IBR0119606030218.UD,1996-06-03, 02:18:00,36.353,140.647,61,3.7,IBR011,36.1251,140.0903,26,1996-06-03, 02:18:33,100Hz,59,U-D,0.0002384185791015625,2.402,55.9905591303519,469,471.0,25.601825067052935,5.161163568273182,4.215144079812625,3.0702328908707,1.6814953843219476,0.74044183651502,0.005804006744447025,0.005396909552178876,0.005130590188274245,0.003459804024935629,0.002013362738275839,2.401617021880954,2.401617021880954,2.401617021880954,2.401617021880954,2.401617021880954,E-W,0.0002384185791015625,5.592,N-S,0.0002384185791015625,4.515
19960603021800.knt,IBR0139606030218.UD,1996-06-03, 02:18:00,36.353,140.647,61,3.7,IBR013,36.1587,140.4892,28,1996-06-03, 02:18:21,100Hz,59,U-D,0.0002384185791015625,10.481,25.82604914779541,1423,1423.0,40.39157472562141,0.16666628065115635,0.16894049923178528,0.17221062779503538,0.1628266378349251,0.1672057739289452,0.00335719444033468,0.00335719444033468,0.00335719444033468,0.00335719444033468,0.00335719444033468,10.483846745660038,10.483846745660038,10.483846745660038,10.483846745660038,10.483846745660038,E-W,0.0002384185791015625,10.434,N-S,0.0002384185791015625,9.22
19960603021800.knt,IBR0149606030218.UD,1996-06-03, 02:18:00,36.353,140.647,61,3.7,IBR014,36.0729,140.1947,11,1996-06-03, 02:18:23,100Hz,59,U-D,0.0002384185791015625,6.697,51.15297164873532,1415,1414.0,34.06314788534991,2.51539345914187,2.4187006437549496,2.0301781286934895,1.183770717318023,0.4325823983578828,0.006167033940866557,0.006167033940866557,0.006167033940866557,0.00494784469348237,0.0023875522836267283,6.734379460148447,6.734379460148447,6.734379460148447,6.734379460148447,6.734379460148447,E-W,0.0002384185791015625,8.51,N-S,0.0002384185791015625,7.158
19960603021800.knt,IBR0159606030218.UD,1996-06-03, 02:18:00,36.353,140.647,61,3.7,IBR015,36.0693,139.908,14,1996-06-03, 02:18:36,100Hz,59,U-D,0.0002384185791015625,2.246,73.42288994191807,335,337.0,28.214433845985283,5.307909506395914,5.829522882023476,6.306712316182914,7.804413301399457,7.825688976578184,0.004133071136342449,0.004133071136342449,0.004133071136342449,0.004133071136342449,0.004056391972849654,0.8754414759026994,0.8754414759026994,0.8754414759026994,0.8754414759026994,0.7167498967998464,E-W,0.0002384185791015625,5.682,N-S,0.0002384185791015625,5.218
19960603021800.knt,IBR0169606030218.UD,1996-06-03, 02:18:00,36.353,140.647,61,3.7,IBR016,35.9112,140.0494,20,1996-06-03, 02:18:36,100Hz,59,U-D,0.0002384185791015625,2.622,72.75766098997366,327,322.0,21.493814684566885,5.6244510655033,5.31254011399421,5.839740703761926,6.787779410352863,8.226533375255075,0.012855972800856102,0.012855972800856102,0.012855972800856102,0.012855972800856102,0.012855972800856102,1.7299210925605901,1.7299210925605901,1.7299210925605901,1.7299210925605901,1.5060585527288661,E-W,0.0002384185791015625,5.016,N-S,0.0002384185791015625,5.558
19960603021800.knt,IBR0189606030218.UD,1996-06-03, 02:18:00,36.353,140.647,61,3.7,IBR018,35.977,140.6322,39,1996-06-03, 02:18:23,100Hz,59,U-D,0.0002384185791015625,6.619,41.83039664033919,1378,1379.0,35.2436686174397,0.2564285648875412,0.2437528712968807,0.24685325268621117,0.25807079607023314,0.274204184342951,0.003093388248165924,0.003093388248165924,0.003093388248165924,0.003093388248165924,0.003093388248165924,6.604339999060811,6.604339999060811,6.604339999060811,6.604339999060811,6.604339999060811,E-W,0.0002384185791015625,5.019,N-S,0.0002384185791015625,5.213
19960603021800.knt,SIT0099606030218.UD,1996-06-03, 02:18:00,36.353,140.647,61,3.7,SIT009,35.9032,139.4837,22,1996-06-03, 02:18:45,100Hz,59,U-D,0.0002384185791015625,1.724,115.83196410927142,0,1.0,8.582268410080333,0.0,0.0,0.0,0.0,0.0,0.0,0.0,0.0,0.0,0.0,0.0,0.0,0.0,0.0,0.0,E-W,0.0002384185791015625,2.603,N-S,0.0002384185791015625,1.598
19960603021800.knt,TCG0039606030218.UD,1996-06-03, 02:18:00,36.353,140.647,61,3.7,TCG003,36.8144,139.7153,398,1996-06-03, 02:18:41,100Hz,59,U-D,0.0002384185791015625,0.841,97.73746709432226,160,167.0,19.24487963298031,8.602181887716114,6.540901078409008,4.503821943842938,5.610122905334845,10.966692812123483,0.004169145326940314,0.0040357508151182405,0.002697081944061197,0.0021225736127618955,0.0021225736127618955,0.2630267145124774,0.2630267145124774,0.24630879611696685,0.24630879611696685,0.2402085091690449,E-W,0.0002384185791015625,3.664,N-S,0.0002384185791015625,4.91
19960603021800.knt,TCG0059606030218.UD,1996-06-03, 02:18:00,36.353,140.647,61,3.7,TCG005,36.8061,139.9264,197,1996-06-03, 02:18:39,100Hz,59,U-D,0.0002384185791015625,1.057,81.72221611281749,199,201.00000000000003,23.541552562324664,12.146571094837162,16.324396408844425,21.414377069650758,25.98267341175747,26.705651937512243,0.004688867414152986,0.004688867414152986,0.004688867414152986,0.004688867414152986,0.004688867414152986,0.31550966344716197,0.31550966344716197,0.29333181904753064,0.2550022282789699,0.18697487174862112,E-W,0.0002384185791015625,2.758,N-S,0.0002384185791015625,3.043
19960603021800.knt,TCG0069606030218.UD,1996-06-03, 02:18:00,36.353,140.647,61,3.7,TCG006,36.7639,140.1297,122,1996-06-03, 02:18:35,100Hz,59,U-D,0.0002384185791015625,3.07,64.97953762409472,406,411.00000000000006,25.624326686548798,9.09560297546732,7.3544996881795495,6.5240604259795,7.595883268723061,10.73232213735058,0.021042746391263172,0.021042746391263172,0.021042746391263172,0.021042746391263172,0.021042746391263172,1.3669016812041075,1.3669016812041075,1.3669016812041075,1.3669016812041075,1.3669016812041075,E-W,0.0002384185791015625,2.912,N-S,0.0002384185791015625,3.835
19960603021800.knt,TCG0099606030218.UD,1996-06-03, 02:18:00,36.353,140.647,61,3.7,TCG009,36.7258,139.7155,361,1996-06-03, 02:18:40,100Hz,59,U-D,0.0002384185791015625,4.091,92.97185736126693,0,-100.0,,0.0,0.0,0.0,0.0,0.0,0.0,0.0,0.0,0.0,0.0,0.0,0.0,0.0,0.0,0.0,E-W,0.0002384185791015625,3.944,N-S,0.0002384185791015625,3.505
19960603021800.knt,TCG0109606030218.UD,1996-06-03, 02:18:00,36.353,140.647,61,3.7,TCG010,36.6347,139.4376,640,1996-06-03, 02:18:44,100Hz,59,U-D,0.0002384185791015625,1.446,112.55597652261264,50,64.0,18.334771206024016,2.7836657985864846,2.4276330228333864,1.488167584876878,0.6063715711402783,0.2952918412831039,0.0024370727523346687,0.0024370727523346687,0.0020619980404953187,0.0009608210120993264,0.0002566352850785763,0.8942209952855087,0.8942209952855087,0.8942209952855087,0.8942209952855087,0.4034215843082461,E-W,0.0002384185791015625,3.007,N-S,0.0002384185791015625,3.957
19960603021800.knt,TCG0129606030218.UD,1996-06-03, 02:18:00,36.353,140.647,61,3.7,TCG012,36.2859,139.8047,33,1996-06-03, 02:18:36,100Hz,59,U-D,0.0002384185791015625,4.731,75.83170282937806,407,419.00000000000006,27.442451213535865,7.422832569423356,6.308296203978272,5.8718959417662795,7.022639152220556,9.956583219395336,0.02715181433503048,0.02715181433503048,0.02715181433503048,0.02715181433503048,0.02715181433503048,2.8166209339218082,2.8166209339218082,2.8166209339218082,2.203910029779003,1.7944352980672997,E-W,0.0002384185791015625,4.303,N-S,0.0002384185791015625,2.617
19960603021800.knt,TCG0139606030218.UD,1996-06-03, 02:18:00,36.353,140.647,61,3.7,TCG013,36.4368,140.0225,67,1996-06-03, 02:18:26,100Hz,59,U-D,0.0002384185791015625,5.929,56.66773555455053,1212,1220.0,34.5287365223197,2.0200407492123316,2.113424363921381,1.9557985570115275,1.8971464788938772,1.5379650495124064,0.0050784403943897995,0.0050784403943897995,0.0050784403943897995,0.004953147947402774,0.004048877266430031,4.054680756262275,4.054680756262275,4.054680756262275,4.054680756262275,3.4605493202541533,E-W,0.0002384185791015625,13.818,N-S,0.0002384185791015625,11.23
19960603021800.knt,TCG0149606030218.UD,1996-06-03, 02:18:00,36.353,140.647,61,3.7,TCG014,36.545,140.1742,130,1996-06-03, 02:18:23,100Hz,59,U-D,0.0002384185791015625,10.571,47.37241442594128,1430,1428.0,44.33545397209801,0.7801862854487159,0.8038012722583896,0.8161490747460398,0.7292109508395008,0.6056973598234489,0.005751408912190075,0.005751408912190075,0.005751408912190075,0.005751408912190075,0.005751408912190075,5.156697857333845,5.156697857333845,5.156697857333845,5.156697857333845,5.156697857333845,E-W,0.0002384185791015625,14.682,N-S,0.0002384185791015625,18.832
19960605093700.knt,AOM0129606050937.UD,1996-06-05, 09:37:00,39.486,141.696,12,4.4,AOM012,40.5138,141.4805,15,1996-06-05, 09:38:28,100Hz,59,U-D,0.0002384185791015625,1.185,115.7508150437046,0,1.0,-7.13230616592984,0.0,0.0,0.0,0.0,0.0,0.0,0.0,0.0,0.0,0.0,0.0,0.0,0.0,0.0,0.0,E-W,0.0002384185791015625,2.87,N-S,0.0002384185791015625,2.117
19960605093700.knt,IWT0019606050937.UD,1996-06-05, 09:37:00,39.486,141.696,12,4.4,IWT001,40.4099,141.7191,15,1996-06-05, 09:38:21,100Hz,59,U-D,0.0002384185791015625,1.567,102.75186196200032,155,151.0,16.181066194096832,7.86646729406409,8.467414253965055,9.275665632681767,9.88466736306859,9.044365311196753,0.012649034994797132,0.012649034994797132,0.012649034994797132,0.012649034994797132,0.011419218741008166,1.0218435712389322,1.0218435712389322,1.0218435712389322,0.6722165696438078,0.6190907746332397,E-W,0.0002384185791015625,3.808,N-S,0.0002384185791015625,3.414
19960605093700.knt,IWT0039606050937.UD,1996-06-05, 09:37:00,39.486,141.696,12,4.4,IWT003,40.0083,141.8861,9,1996-06-05, 09:38:10,100Hz,59,U-D,0.0002384185791015625,2.542,60.308300044006266,0,-100.0,,0.0,0.0,0.0,0.0,0.0,0.0,0.0,0.0,0.0,0.0,0.0,0.0,0.0,0.0,0.0,E-W,0.0002384185791015625,3.726,N-S,0.0002384185791015625,2.578
19960605093700.knt,IWT0059606050937.UD,1996-06-05, 09:37:00,39.486,141.696,12,4.4,IWT005,39.6472,141.9464,4,1996-06-05, 09:38:00,100Hz,59,U-D,0.0002384185791015625,7.118,27.96408472284575,1077,1079.0,16.318530513799143,0.6948005823332931,1.7272105280383576,2.5786708854479348,2.776907027933871,2.7737335675813037,0.011861497042005465,0.009818221385779653,0.009818221385779653,0.009818221385779653,0.009818221385779653,7.069313380949913,4.895042948125981,2.3263585068099344,2.3263585068099344,2.3263585068099344,E-W,0.0002384185791015625,6.113,N-S,0.0002384185791015625,7.93
19960605093700.knt,IWT0069606050937.UD,1996-06-05, 09:37:00,39.486,141.696,12,4.4,IWT006,39.4806,141.9652,4,1996-06-05, 09:38:56,100Hz,59,U-D,0.0002384185791015625,8.662,23.11090056448021,1395,1394.0,32.23850419045973,0.38873364167164587,0.4269735989092945,0.45507395626061636,0.3240636331938388,0.25387273772269536,0.010489061748111294,0.010489061748111294,0.003668544258256341,0.003441108280103563,0.003441108280103563,8.629425516374948,8.629425516374948,4.735051542668887,4.735051542668887,4.735051542668887,E-W,0.0002384185791015625,22.778,N-S,0.0002384185791015625,21.715
19960605093700.knt,IWT0079606050937.UD,1996-06-05, 09:37:00,39.486,141.696,12,4.4,IWT007,39.2701,141.8561,11,1996-06-05, 09:38:56,100Hz,59,U-D,0.0002384185791015625,21.677,27.671164476998797,1429,1429.0,38.68909723122686,1.0042232704162093,1.0862544854060208,1.5033295456503513,1.1446836456800038,0.5931000410414441,0.013532556109635078,0.013532556109635078,0.013532556109635078,0.01108585119809029,0.008548127354579159,21.634529094630075,20.032617161652922,20.032617161652922,20.032617161652922,20.032617161652922,E-W,0.0002384185791015625,35.385,N-S,0.0002384185791015625,31.412
19960605093700.knt,IWT0089606050937.UD,1996-06-05, 09:37:00,39.486,141.696,12,4.4,IWT008,39.0815,141.7083,50,1996-06-05, 09:38:59,100Hz,59,U-D,0.0002384185791015625,3.368,44.99080401921092,1386,1385.0,32.82820478515531,0.9800333438114277,0.5420635701035118,0.5021887251411518,0.47849420149929645,0.34441320372985557,0.0031836760863049904,0.002210708423487087,0.002210708423487087,0.002210708423487087,0.002210708423487087,3.3862137032412454,3.3862137032412454,3.3862137032412454,3.3862137032412454,3.3862137032412454,E-W,0.0002384185791015625,6.189,N-S,0.0002384185791015625,4.377
19960605093700.knt,IWT0099606050937.UD,1996-06-05, 09:37:00,39.486,141.696,12,4.4,IWT009,39.0187,141.4031,150,1996-06-05, 09:38:07,100Hz,59,U-D,0.0002384185791015625,7.453,57.7584676723391,792,797.0,31.56875971775346,12.150911481345227,12.712609523326096,12.362209727038518,9.86005051374834,6.200261146011462,0.017836547028389566,0.017836547028389566,0.017836547028389566,0.01769102403754225,0.012998757614623787,1.76968403495908,1.76968403495908,1.76968403495908,1.76968403495908,1.6868083325153171,E-W,0.0002384185791015625,12.505,N-S,0.0002384185791015625,17.514
19960605093700.knt,IWT0109606050937.UD,1996-06-05, 09:37:00,39.486,141.696,12,4.4,IWT010,38.9334,141.1173,37,1996-06-05, 09:38:14,100Hz,59,U-D,0.0002384185791015625,1.058,79.13006106866084,0,1.0,21.060462783080762,0.0,0.0,0.0,0.0,0.0,0.0,0.0,0.0,0.0,0.0,0.0,0.0,0.0,0.0,0.0,E-W,0.0002384185791015625,3.057,N-S,0.0002384185791015625,2.35
19960605093700.knt,IWT0119606050937.UD,1996-06-05, 09:37:00,39.486,141.696,12,4.4,IWT011,39.1454,141.152,45,1996-06-05, 09:38:11,100Hz,59,U-D,0.0002384185791015625,1.434,60.203783948909155,478,477.00000000000006,19.568162321012494,2.7868597642966306,2.2486388848662098,1.9051899250781383,1.0676214255254854,0.6134773883420607,0.0028861683704097343,0.00247481579361946,0.002175940235994777,0.0016432767844500422,0.0008814269352645034,0.5999032810871596,0.5999032810871596,0.31876922295089394,0.2621625829462375,0.23300697460620245,E-W,0.0002384185791015625,2.712,N-S,0.0002384185791015625,1.69
19960605093700.knt,IWT0129606050937.UD,1996-06-05, 09:37:00,39.486,141.696,12,4.4,IWT012,39.3209,141.1378,64,1996-06-05, 09:38:00,100Hz,59,U-D,0.0002384185791015625,4.752,51.35384720060529,1408,1408.0,37.34292524766794,2.474110951003671,2.089582259434752,1.6902050953508556,0.9391451453226144,0.4989146617473054,0.005405443396122028,0.00538220418907651,0.0039929352487943865,0.002610419791797805,0.0016319611039386157,1.3942966397298648,1.3942966397298648,1.1693595498155427,1.1693595498155427,1.1693595498155427,E-W,0.0002384185791015625,17.966,N-S,0.0002384185791015625,25.171
19960605093700.knt,IWT0139606050937.UD,1996-06-05, 09:37:00,39.486,141.696,12,4.4,IWT013,39.3367,141.5378,272,1996-06-05, 09:38:55,100Hz,299,U-D,0.0002384185791015625,32.672,21.45508686188049,1425,1429.0,20.80073025759877,0.3841563991530525,0.3773452538865031,0.4893108392612979,0.5133002766777981,0.26592663915855563,0.01604644766061314,0.01604644766061314,0.01604644766061314,0.004026327134853489,0.0017603612725140283,32.690582544275344,32.690582544275344,32.690582544275344,7.275135528854771,7.275135528854771,E-W,0.0002384185791015625,64.352,N-S,0.0002384185791015625,57.375
19960605093700.knt,IWT0149606050937.UD,1996-06-05, 09:37:00,39.486,141.696,12,4.4,IWT014,39.4844,141.147,86,1996-06-05, 09:38:05,100Hz,59,U-D,0.0002384185791015625,4.717,47.114897276487724,843,843.0,28.209672818759817,8.986553052671743,8.909518375738122,7.99510585816603,5.750848577670783,3.3876246257132285,0.020617387230897247,0.020617387230897247,0.02026522127604594,0.017816564030655492,0.010874450253570613,1.2561152991159805,1.2561152991159805,1.2561152991159805,1.2561152991159805,1.2561152991159805,E-W,0.0002384185791015625,7.549,N-S,0.0002384185791015625,8.922
