earthquake name,records name,earthquake date,earthquake time,lat,long,depth,mag,stn_code,stn_lat,stn_long,stn_height,rcd_date,rcd_time,frequency,rcd_duration,direction,scale_factor,max_pga,epi_dist,pick_index_manually,pick_index_kalkan,snr_db_kalkan,tc_5sec,tc_4sec,tc_3sec,tc_2sec,tc_1sec,Pd_5sec,Pd_4sec,Pd_3sec,Pd_2sec,Pd_1sec,Pga_5sec,Pga_4sec,Pga_3sec,Pga_2sec,Pga_1sec,Channel,Scale_factor,PGA_ew,Channel.1,Scale_factor.1,PGA_ns
19980116105800.knt,KNG0059801161058.UD,1998-01-16, 10:58:00,35.203,140.297,57,4.6,KNG005,35.3194,139.549,7,1998-01-16, 10:58:10,100Hz,119,U-D,0.0002384185791015625,13.583,69.13596817714284,1440,186.0,20.56656768760583,0.9339404249769508,0.8273744519241171,0.6344411746529356,0.4504188742733882,0.44297070823535306,0.007325676949433985,0.0061647422214964965,0.005553582015088719,0.003923058618840325,0.003116973259528013,2.691450989026703,2.5465902058962295,2.5465902058962295,2.5465902058962295,2.5465902058962295,E-W,0.0002384185791015625,25.265,N-S,0.0002384185791015625,27.868
19980116105800.knt,KNG0069801161058.UD,1998-01-16, 10:58:00,35.203,140.297,57,4.6,KNG006,35.4544,139.5387,60,1998-01-16, 10:58:21,100Hz,119,U-D,0.0002384185791015625,4.709,74.25421476930097,417,417.0,19.909111389615127,4.007769541740362,3.4524070178316433,2.7779018301722718,2.2323927063595845,2.5843317112593542,0.019106015918457165,0.019106015918457165,0.019106015918457165,0.019106015918457165,0.019106015918457165,3.270645182089513,3.270645182089513,3.270645182089513,3.270645182089513,3.270645182089513,E-W,0.0002384185791015625,14.524,N-S,0.0002384185791015625,21.276
19980116105800.knt,KNG0079801161058.UD,1998-01-16, 10:58:00,35.203,140.297,57,4.6,KNG007,35.3385,139.4901,14,1998-01-16, 10:58:21,100Hz,119,U-D,0.0002384185791015625,4.59,74.78614108421375,400,400.0,17.659232696366495,1.1926981936141592,0.9442871504741567,0.9233549928973198,0.9929963644003423,1.1393419028478637,0.008740206088064245,0.008740206088064245,0.008740206088064245,0.008740206088064245,0.008740206088064245,3.728435778357046,3.728435778357046,3.728435778357046,3.728435778357046,3.313097137957487,E-W,0.0002384185791015625,6.245,N-S,0.0002384185791015625,8.525
19980116105800.knt,KNG0089801161058.UD,1998-01-16, 10:58:00,35.203,140.297,57,4.6,KNG008,35.5751,139.3265,120,1998-01-16, 10:58:24,100Hz,119,U-D,0.0002384185791015625,10.257,97.21946229153602,0,10.0,12.059047459763066,0.0,0.0,0.0,0.0,0.0,0.0,0.0,0.0,0.0,0.0,0.0,0.0,0.0,0.0,0.0,E-W,0.0002384185791015625,7.516,N-S,0.0002384185791015625,7.207
19980116105800.knt,KNG0099801161058.UD,1998-01-16, 10:58:00,35.203,140.297,57,4.6,KNG009,35.4424,139.3618,20,1998-01-16, 10:58:24,100Hz,89,U-D,0.0002384185791015625,6.331,88.92344284339673,253,85.0,17.887640242865437,1.9968533385791114,1.717626177787965,1.839484232113124,2.345393547704879,2.760004878384156,0.007651604897505886,0.007029634304490178,0.007029634304490178,0.007029634304490178,0.007029634304490178,1.889069428232869,1.889069428232869,1.889069428232869,1.6101262241310277,1.3559461471464491,E-W,0.0002384185791015625,16.726,N-S,0.0002384185791015625,13.422
19980116105800.knt,KNG0109801161058.UD,1998-01-16, 10:58:00,35.203,140.297,57,4.6,KNG010,35.3355,139.3504,7,1998-01-16, 10:58:23,100Hz,119,U-D,0.0002384185791015625,2.288,87.19037299213056,343,71.0,11.32167412482583,1.668406054442715,1.6693132126382568,1.6387814564042682,1.86714142256324,2.8330819457878404,0.006612078989817855,0.006612078989817855,0.006612078989817855,0.006612078989817855,0.006612078989817855,1.638833385527469,1.638833385527469,1.638833385527469,1.295209406008001,1.198647328045903,E-W,0.0002384185791015625,5.773,N-S,0.0002384185791015625,6.845
19980116105800.knt,KNG0119801161058.UD,1998-01-16, 10:58:00,35.203,140.297,57,4.6,KNG011,35.6154,139.1548,214,1998-01-16, 10:58:29,100Hz,119,U-D,0.0002384185791015625,1.271,113.21644582263637,0,-100.0,,0.0,0.0,0.0,0.0,0.0,0.0,0.0,0.0,0.0,0.0,0.0,0.0,0.0,0.0,0.0,E-W,0.0002384185791015625,4.008,N-S,0.0002384185791015625,3.06
19980116105800.knt,KNG0129801161058.UD,1998-01-16, 10:58:00,35.203,140.297,57,4.6,KNG012,35.3794,139.2048,138,1998-01-16, 10:58:25,100Hz,119,U-D,0.0002384185791015625,3.035,101.04971502228847,276,267.0,22.48033256406746,3.393438238958258,3.2378411848120288,3.401997732881502,3.8418744092449093,5.932013612063167,0.011811565567370888,0.011811565567370888,0.011811565567370888,0.011811565567370888,0.011811565567370888,1.8857122578767975,1.8857122578767975,1.8857122578767975,1.8857122578767975,0.9371734073914735,E-W,0.0002384185791015625,6.51,N-S,0.0002384185791015625,8.191
19980116105800.knt,KNG0139801161058.UD,1998-01-16, 10:58:00,35.203,140.297,57,4.6,KNG013,35.2641,139.152,11,1998-01-16, 10:58:27,100Hz,119,U-D,0.0002384185791015625,11.398,104.21552294230364,110,111.00000000000001,23.03619990190785,2.6600883274956946,2.9620825701308577,3.4017790965436485,3.4993748923914447,3.2666287391160704,0.010107984437893765,0.010107984437893765,0.010107984437893765,0.010107984437893765,0.009000973041076298,1.5118946477825888,1.5118946477825888,1.5118946477825888,1.5118946477825888,1.192669973203542,E-W,0.0002384185791015625,12.872,N-S,0.0002384185791015625,15.407
19980116105800.knt,SIT0039801161058.UD,1998-01-16, 10:58:00,35.203,140.297,57,4.6,SIT003,36.072,139.6968,9,1998-01-16, 10:58:15,100Hz,119,U-D,0.0002384185791015625,3.052,110.81019059310528,1440,1438.0,19.68401413890707,0.47707404916450014,0.47636137595980993,0.42827313664701666,0.33763821362053,0.3301678908312278,0.005134133138265395,0.005134133138265395,0.005134133138265395,0.005134133138265395,0.005134133138265395,3.066015432195002,3.066015432195002,3.066015432195002,3.066015432195002,3.066015432195002,E-W,0.0002384185791015625,1.819,N-S,0.0002384185791015625,1.551
19980116105800.knt,SIT0049801161058.UD,1998-01-16, 10:58:00,35.203,140.297,57,4.6,SIT004,36.1179,139.1045,140,1998-01-16, 10:58:39,100Hz,89,U-D,0.0002384185791015625,0.634,148.17436513020814,0,-100.0,,0.0,0.0,0.0,0.0,0.0,0.0,0.0,0.0,0.0,0.0,0.0,0.0,0.0,0.0,0.0,E-W,0.0002384185791015625,2.343,N-S,0.0002384185791015625,2.723
19980116105800.knt,SIT0099801161058.UD,1998-01-16, 10:58:00,35.203,140.297,57,4.6,SIT009,35.9032,139.4837,22,1998-01-16, 10:58:14,100Hz,119,U-D,0.0002384185791015625,3.226,107.1221616770238,1462,40.0,17.196524303684463,0.4115590186563209,0.3685533625113412,0.35846034664859316,0.3347874769925418,0.29809811256105867,0.0033164531667883375,0.0033164531667883375,0.0033164531667883375,0.0033164531667883375,0.0033164531667883375,3.2494003826343656,3.2494003826343656,3.2494003826343656,3.2494003826343656,3.2494003826343656,E-W,0.0002384185791015625,3.344,N-S,0.0002384185791015625,3.017
19980116105800.knt,SIT0119801161058.UD,1998-01-16, 10:58:00,35.203,140.297,57,4.6,SIT011,35.8098,139.7212,2,1998-01-16, 10:58:12,100Hz,119,U-D,0.0002384185791015625,5.173,85.25892880785263,1429,191.0,11.902439162738343,0.7054591927645466,0.5577492631708176,0.5751110179217814,0.4806017097553023,0.28109318417071627,0.005628074678587914,0.0037602209213445856,0.0037602209213445856,0.0036019757501108978,0.0036019757501108978,5.1706995595200045,5.1706995595200045,5.1706995595200045,5.1706995595200045,5.1706995595200045,E-W,0.0002384185791015625,5.086,N-S,0.0002384185791015625,4.415
19980116105800.knt,SIT0149801161058.UD,1998-01-16, 10:58:00,35.203,140.297,57,4.6,SIT014,35.9954,138.801,748,1998-01-16, 10:58:42,100Hz,119,U-D,0.0002384185791015625,0.557,161.42290088340056,0,-100.0,,0.0,0.0,0.0,0.0,0.0,0.0,0.0,0.0,0.0,0.0,0.0,0.0,0.0,0.0,0.0,E-W,0.0002384185791015625,2.387,N-S,0.0002384185791015625,2.381
19980116105800.knt,SZO0019801161058.UD,1998-01-16, 10:58:00,35.203,140.297,57,4.6,SZO001,35.1424,139.0795,76,1998-01-16, 10:58:23,100Hz,119,U-D,0.0002384185791015625,4.44,110.86636684660813,534,538.0,8.32969938003475,3.3181650636280042,2.584457526641817,2.1886711092859295,1.5941985884615333,0.8400761765350616,0.004187966401454041,0.0038092124736209764,0.0028780419449587103,0.002639587352614007,0.0013432984920335046,1.419360542470763,1.419360542470763,1.258537368919596,1.258537368919596,0.8027737388537848,E-W,0.0002384185791015625,17.925,N-S,0.0002384185791015625,12.34
19980116105800.knt,SZO0029801161058.UD,1998-01-16, 10:58:00,35.203,140.297,57,4.6,SZO002,34.9652,139.1031,44,1998-01-16, 10:58:28,100Hz,119,U-D,0.0002384185791015625,6.49,111.80608768225159,0,1.0,8.031385187403208,0.0,0.0,0.0,0.0,0.0,0.0,0.0,0.0,0.0,0.0,0.0,0.0,0.0,0.0,0.0,E-W,0.0002384185791015625,9.438,N-S,0.0002384185791015625,10.463
19980116105800.knt,SZO0039801161058.UD,1998-01-16, 10:58:00,35.203,140.297,57,4.6,SZO003,34.8158,139.0546,149,1998-01-16, 10:58:15,100Hz,119,U-D,0.0002384185791015625,20.612,121.06495749277776,1454,1470.0,34.38157018185026,1.1251270535672668,1.056654066773131,0.8387909642072567,0.45878081064577747,0.23773072892492195,0.012514788896490393,0.012514788896490393,0.012514788896490393,0.011261966461315972,0.0057523894848873,6.5635498930212135,6.5635498930212135,6.5635498930212135,6.5635498930212135,6.5635498930212135,E-W,0.0002384185791015625,31.94,N-S,0.0002384185791015625,24.549
19980116105800.knt,SZO0079801161058.UD,1998-01-16, 10:58:00,35.203,140.297,57,4.6,SZO007,34.9771,138.9466,49,1998-01-16, 10:58:30,100Hz,119,U-D,0.0002384185791015625,1.927,125.40668663005619,1,25.0,9.839720848847994,3.896633628561697,4.019476240521813,3.668035939156252,2.7140140051961743,1.3418400873735126,0.003914448585685318,0.003914448585685318,0.003914448585685318,0.0034620988647469614,0.0022425400106374227,0.9589276982663552,0.9589276982663552,0.9589276982663552,0.9589276982663552,0.9589276982663552,E-W,0.0002384185791015625,13.18,N-S,0.0002384185791015625,6.458
19980116105800.knt,SZO0089801161058.UD,1998-01-16, 10:58:00,35.203,140.297,57,4.6,SZO008,35.096,138.8657,5,1998-01-16, 10:58:25,100Hz,119,U-D,0.0002384185791015625,1.258,130.67372450359497,0,3.0,14.773287924697314,0.0,0.0,0.0,0.0,0.0,0.0,0.0,0.0,0.0,0.0,0.0,0.0,0.0,0.0,0.0,E-W,0.0002384185791015625,4.882,N-S,0.0002384185791015625,3.473
19980116105800.knt,SZO0109801161058.UD,1998-01-16, 10:58:00,35.203,140.297,57,4.6,SZO010,35.3091,138.9349,460,1998-01-16, 10:58:30,100Hz,119,U-D,0.0002384185791015625,2.188,124.23858027665112,55,55.00000000000001,14.352483997626146,6.95407162348546,7.379673514859546,7.502325500162133,6.449726408304234,4.771221923270992,0.015126594940502475,0.015126594940502475,0.015126594940502475,0.015126594940502475,0.01020869128519707,1.0978599180993431,1.0978599180993431,1.0978599180993431,1.0978599180993431,0.6252137587490008,E-W,0.0002384185791015625,5.373,N-S,0.0002384185791015625,4.563
19980116105800.knt,SZO0119801161058.UD,1998-01-16, 10:58:00,35.203,140.297,57,4.6,SZO011,35.2216,138.6221,121,1998-01-16, 10:58:37,100Hz,119,U-D,0.0002384185791015625,1.208,152.1745808884709,0,-100.0,,0.0,0.0,0.0,0.0,0.0,0.0,0.0,0.0,0.0,0.0,0.0,0.0,0.0,0.0,0.0,E-W,0.0002384185791015625,3.212,N-S,0.0002384185791015625,5.59
19980116105800.knt,SZO0129801161058.UD,1998-01-16, 10:58:00,35.203,140.297,57,4.6,SZO012,35.1271,138.6213,10,1998-01-16, 10:58:37,100Hz,119,U-D,0.0002384185791015625,1.25,152.55535862229576,0,-100.0,,0.0,0.0,0.0,0.0,0.0,0.0,0.0,0.0,0.0,0.0,0.0,0.0,0.0,0.0,0.0,E-W,0.0002384185791015625,2.464,N-S,0.0002384185791015625,3.095
19980116105800.knt,SZO0159801161058.UD,1998-01-16, 10:58:00,35.203,140.297,57,4.6,SZO015,35.2435,138.3407,452,1998-01-16, 10:58:43,100Hz,119,U-D,0.0002384185791015625,1.08,177.7573252902428,0,-100.0,,0.0,0.0,0.0,0.0,0.0,0.0,0.0,0.0,0.0,0.0,0.0,0.0,0.0,0.0,0.0,E-W,0.0002384185791015625,2.983,N-S,0.0002384185791015625,1.547
19980116105800.knt,TCG0149801161058.UD,1998-01-16, 10:58:00,35.203,140.297,57,4.6,TCG014,36.545,140.1742,130,1998-01-16, 10:58:29,100Hz,119,U-D,0.0002384185791015625,1.58,149.63318441521733,442,474.0,18.52562262172614,4.202851872398498,3.67891189667799,3.2480272558047476,3.3241999396244224,5.328557261588061,0.013950621431998675,0.013950621431998675,0.013950621431998675,0.013950621431998675,0.013950621431998675,1.5911615861273307,1.5911615861273307,1.5911615861273307,1.5911615861273307,1.460900513478344,E-W,0.0002384185791015625,5.625,N-S,0.0002384185791015625,3.454
19980116105800.knt,TKY0029801161058.UD,1998-01-16, 10:58:00,35.203,140.297,57,4.6,TKY002,35.7304,139.1454,302,1998-01-16, 10:58:29,100Hz,119,U-D,0.0002384185791015625,1.508,119.6483471009272,30,52.0,16.073718311506486,2.022407205595145,1.7075325774016186,1.1683862251076826,1.2884512433031061,1.0178597657988713,0.0023931025492951526,0.0023931025492951526,0.0019329990226560783,0.0019329990226560783,0.0016229262967337665,1.060518538780792,1.060518538780792,1.060518538780792,1.060518538780792,0.6370820844392839,E-W,0.0002384185791015625,2.997,N-S,0.0002384185791015625,2.86
19980116105800.knt,TKY0039801161058.UD,1998-01-16, 10:58:00,35.203,140.297,57,4.6,TKY003,35.7968,139.2912,181,1998-01-16, 10:58:28,100Hz,119,U-D,0.0002384185791015625,4.424,112.47045607567428,96,87.0,18.68248267324587,4.212305961285338,4.26959029979476,4.018273613961221,3.2306015322452803,1.9461999290561698,0.02439466769403847,0.02439466769403847,0.02439466769403847,0.02375667766760101,0.020181298513113503,4.411608632727112,4.411608632727112,4.411608632727112,4.411608632727112,4.411608632727112,E-W,0.0002384185791015625,5.944,N-S,0.0002384185791015625,5.16
19980116105800.knt,TKY0049801161058.UD,1998-01-16, 10:58:00,35.203,140.297,57,4.6,TKY004,35.6282,139.4034,81,1998-01-16, 10:58:25,100Hz,119,U-D,0.0002384185791015625,5.811,93.76995696432942,211,211.0,19.84232697770182,7.0022007011673555,7.346186374733472,8.034552371851634,9.455896281109533,9.274731508788689,0.056599876756745555,0.056599876756745555,0.056599876756745555,0.056599876756745555,0.056599876756745555,5.125284282807122,5.125284282807122,5.125284282807122,5.125284282807122,4.473163772182261,E-W,0.0002384185791015625,13.291,N-S,0.0002384185791015625,12.425
19980116105800.knt,TKY0059801161058.UD,1998-01-16, 10:58:00,35.203,140.297,57,4.6,TKY005,35.5782,139.4156,109,1998-01-16, 10:58:12,100Hz,119,U-D,0.0002384185791015625,7.147,90.13396384326796,1482,1477.0,23.061562701577323,0.3406153000352093,0.338167017500941,0.28991179288804403,0.20600568613371745,0.20575752677618045,0.005497330409538265,0.005497330409538265,0.005497330409538265,0.005497330409538265,0.005497330409538265,7.145907294078925,7.145907294078925,7.145907294078925,7.145907294078925,7.145907294078925,E-W,0.0002384185791015625,7.201,N-S,0.0002384185791015625,7.732
19980116105800.knt,TKY0079801161058.UD,1998-01-16, 10:58:00,35.203,140.297,57,4.6,TKY007,35.7107,139.6859,34,1998-01-16, 10:58:11,100Hz,119,U-D,0.0002384185791015625,13.881,79.06049029246162,1460,1459.0,24.99956688353023,0.26033986257375524,0.2610109463075174,0.2585932812752867,0.24265039701556995,0.18941339729532153,0.008622284262110485,0.008622284262110485,0.008622284262110485,0.008622284262110485,0.008622284262110485,13.908631284325757,13.908631284325757,13.908631284325757,13.908631284325757,13.908631284325757,E-W,0.0002384185791015625,7.964,N-S,0.0002384185791015625,6.794
19980116105800.knt,TKY0089801161058.UD,1998-01-16, 10:58:00,35.203,140.297,57,4.6,TKY008,34.7852,139.3909,67,1998-01-16, 10:58:12,100Hz,119,U-D,0.0002384185791015625,13.037,94.71414480701549,1412,1407.0,33.51431006088954,0.9231629417007386,0.8883091087967152,0.7427590619577633,0.5071591280254609,0.2932405969975643,0.012831784094743729,0.012831784094743729,0.012831784094743729,0.011194065610046343,0.008574681720765524,9.674486307982445,9.674486307982445,9.674486307982445,9.674486307982445,9.674486307982445,E-W,0.0002384185791015625,40.444,N-S,0.0002384185791015625,32.308
19980116105800.knt,TKY0099801161058.UD,1998-01-16, 10:58:00,35.203,140.297,57,4.6,TKY009,34.6874,139.4412,60,1998-01-16, 10:58:12,100Hz,119,U-D,0.0002384185791015625,8.181,96.80562224771286,1435,1430.0,18.672085434736893,2.2824669286352637,2.320732400758057,2.32017745012757,2.010965692812842,1.248508926067049,0.01658013896809582,0.01658013896809582,0.01658013896809582,0.01658013896809582,0.016415106510757657,8.129601824122762,8.129601824122762,8.129601824122762,8.129601824122762,8.129601824122762,E-W,0.0002384185791015625,9.109,N-S,0.0002384185791015625,14.581
19980116105800.knt,TKY0119801161058.UD,1998-01-16, 10:58:00,35.203,140.297,57,4.6,TKY011,34.1228,139.5315,42,1998-01-16, 10:58:35,100Hz,119,U-D,0.0002384185791015625,1.474,139.0265525163009,0,1.0,-2.281583562177511,0.0,0.0,0.0,0.0,0.0,0.0,0.0,0.0,0.0,0.0,0.0,0.0,0.0,0.0,0.0,E-W,0.0002384185791015625,3.994,N-S,0.0002384185791015625,4.403
19980116105800.knt,TKY0129801161058.UD,1998-01-16, 10:58:00,35.203,140.297,57,4.6,TKY012,33.1161,139.789,74,1998-01-16, 10:58:54,100Hz,119,U-D,0.0002384185791015625,1.199,236.71219016051228,0,-100.0,,0.0,0.0,0.0,0.0,0.0,0.0,0.0,0.0,0.0,0.0,0.0,0.0,0.0,0.0,0.0,E-W,0.0002384185791015625,3.964,N-S,0.0002384185791015625,4.73
19980116105800.knt,YMN0029801161058.UD,1998-01-16, 10:58:00,35.203,140.297,57,4.6,YMN002,35.6132,138.947,368,1998-01-16, 10:58:17,100Hz,119,U-D,0.0002384185791015625,6.569,130.5732734002016,1392,1416.0,13.615131929605685,0.7746283963273927,0.7633222832605706,0.6568418686317183,0.38168056598034206,0.1570727105099178,0.006142023566806414,0.006142023566806414,0.006142023566806414,0.005383871750281161,0.0033457573399315404,6.554147082787566,6.554147082787566,6.554147082787566,6.554147082787566,6.554147082787566,E-W,0.0002384185791015625,10.88,N-S,0.0002384185791015625,8.514
19980116105800.knt,YMN0049801161058.UD,1998-01-16, 10:58:00,35.203,140.297,57,4.6,YMN004,35.702,138.7266,393,1998-01-16, 10:58:36,100Hz,119,U-D,0.0002384185791015625,1.719,152.6816913962509,0,2.0,-7.217782392615016,0.0,0.0,0.0,0.0,0.0,0.0,0.0,0.0,0.0,0.0,0.0,0.0,0.0,0.0,0.0,E-W,0.0002384185791015625,3.888,N-S,0.0002384185791015625,3.359
19980116105800.knt,YMN0069801161058.UD,1998-01-16, 10:58:00,35.203,140.297,57,4.6,YMN006,35.4684,138.6069,927,1998-01-16, 10:58:38,100Hz,119,U-D,0.0002384185791015625,0.947,156.12184516506616,0,-100.0,,0.0,0.0,0.0,0.0,0.0,0.0,0.0,0.0,0.0,0.0,0.0,0.0,0.0,0.0,0.0,E-W,0.0002384185791015625,2.504,N-S,0.0002384185791015625,1.93
19980116105800.knt,YMN0109801161058.UD,1998-01-16, 10:58:00,35.203,140.297,57,4.6,YMN010,35.7918,138.4096,530,1998-01-16, 10:58:43,100Hz,119,U-D,0.0002384185791015625,1.551,182.97345422269333,0,1.0,-0.5548959336765356,0.0,0.0,0.0,0.0,0.0,0.0,0.0,0.0,0.0,0.0,0.0,0.0,0.0,0.0,0.0,E-W,0.0002384185791015625,5.47,N-S,0.0002384185791015625,4.333
19980117015700.knt,MIE0079801170157.UD,1998-01-17, 01:57:00,34.12,135.297,8,3.7,MIE007,34.651,136.3404,82,1998-01-17, 01:57:58,100Hz,119,U-D,0.0002384185791015625,1.443,112.48770769172538,1341,1353.0,23.70294806305809,0.432926555470832,0.355121100361443,0.29632102508298264,0.3091287089421121,0.6082702356478618,0.0013206852071629067,0.0013206852071629067,0.0013206852071629067,0.0013206852071629067,0.0007098229535726925,1.4398933666703988,1.4398933666703988,1.4398933666703988,1.246142796003298,0.5203606805782821,E-W,0.0002384185791015625,3.091,N-S,0.0002384185791015625,3.005
19980117015700.knt,MIE0149801170157.UD,1998-01-17, 01:57:00,34.12,135.297,8,3.7,MIE014,34.0638,136.1687,85,1998-01-17, 01:57:03,100Hz,119,U-D,0.0002384185791015625,1.629,80.513059852458,330,355.0,15.726237486480912,1.2793643032173097,1.197029629801387,1.1670722827122009,1.0988740346858976,1.6101271209128911,0.001092545613346462,0.001092545613346462,0.001092545613346462,0.001092545613346462,0.001092545613346462,1.0510610376241825,1.0510610376241825,1.0510610376241825,1.0510610376241825,0.8742279183312,E-W,0.0002384185791015625,5.117,N-S,0.0002384185791015625,3.8
