earthquake name,records name,earthquake date,earthquake time,lat,long,depth,mag,stn_code,stn_lat,stn_long,stn_height,rcd_date,rcd_time,frequency,rcd_duration,direction,scale_factor,max_pga,epi_dist,pick_index_manually,pick_index_kalkan,snr_db_kalkan,tc_5sec,tc_4sec,tc_3sec,tc_2sec,tc_1sec,Pd_5sec,Pd_4sec,Pd_3sec,Pd_2sec,Pd_1sec,Pga_5sec,Pga_4sec,Pga_3sec,Pga_2sec,Pga_1sec,Channel,Scale_factor,PGA_ew,Channel.1,Scale_factor.1,PGA_ns
20020104163400.knt,NAR0060201041634.UD,2002-01-04, 16:34:00,33.956,135.637,12,4.0,NAR006,34.3383,135.9541,330,2002-01-04, 16:34:11,100Hz,119,U-D,0.0002384185791015625,2.871,51.56171723653958,812,850.0,19.128506023049734,5.018011178738513,5.268644877484081,5.429344255154371,5.036781307341748,9.270854309358448,0.00447409727143494,0.00447409727143494,0.00447409727143494,0.00447409727143494,0.004144402764300358,1.4697143182448942,1.4697143182448942,1.4697143182448942,1.4697143182448942,0.5518724979137912,E-W,0.0002384185791015625,4.364,N-S,0.0002384185791015625,6.457
20020104163400.knt,NAR0070201041634.UD,2002-01-04, 16:34:00,33.956,135.637,12,4.0,NAR007,34.2213,135.7369,760,2002-01-04, 16:34:05,100Hz,119,U-D,0.0002384185791015625,2.767,30.90119380085332,1083,1094.0,24.589648087863583,0.880361853523867,0.6356196898661829,0.57949344292434,0.7137449922301577,0.44425244341801423,0.0018659130731553274,0.0014743369791603907,0.0006327891982831582,0.0006327891982831582,0.00034348715388807027,2.7699666061315384,2.7699666061315384,1.3591174610610093,0.8669481822881852,0.6036783261406587,E-W,0.0002384185791015625,4.417,N-S,0.0002384185791015625,3.134
20020104163400.knt,NAR0080201041634.UD,2002-01-04, 16:34:00,33.956,135.637,12,4.0,NAR008,34.1352,136.0046,330,2002-01-04, 16:34:09,100Hz,119,U-D,0.0002384185791015625,3.657,39.295686713488564,811,825.0,28.32488319087165,7.948365426045006,11.285547004884066,11.598140192853297,11.909849280789123,13.033031955813291,0.005746341625510598,0.005746341625510598,0.005746341625510598,0.0056007848738449,0.005076204533566299,1.5170819493282541,1.1718390603516187,1.1718390603516187,1.1718390603516187,0.6530196357136266,E-W,0.0002384185791015625,4.223,N-S,0.0002384185791015625,5.272
20020104163400.knt,NAR0090201041634.UD,2002-01-04, 16:34:00,33.956,135.637,12,4.0,NAR009,33.938,135.7552,200,2002-01-04, 16:34:58,100Hz,119,U-D,0.0002384185791015625,34.883,11.08522309697019,1482,1482.0,42.6314471553854,1.6663063867668249,1.6334193343701164,1.4037052998557669,1.0622986507701127,0.38486532778907034,0.024604533862820275,0.024604533862820275,0.024604533862820275,0.024604533862820275,0.009513659626330394,34.90724637969552,34.90724637969552,34.90724637969552,34.90724637969552,34.90724637969552,E-W,0.0002384185791015625,50.384,N-S,0.0002384185791015625,50.16
20020104163400.knt,WKY0040201041634.UD,2002-01-04, 16:34:00,33.956,135.637,12,4.0,WKY004,34.0838,135.4313,238,2002-01-04, 16:34:00,100Hz,119,U-D,0.0002384185791015625,12.765,23.692789103307764,1476,1476.0,29.423280343183894,1.0974876252106842,0.9687613198422976,0.8431866805310221,0.629633262334409,0.28013942934127983,0.003872002906041743,0.003872002906041743,0.002626030478151303,0.002626030478151303,0.002626030478151303,12.742681171427956,12.742681171427956,12.742681171427956,12.742681171427956,12.742681171427956,E-W,0.0002384185791015625,9.677,N-S,0.0002384185791015625,6.274
20020104163400.knt,WKY0050201041634.UD,2002-01-04, 16:34:00,33.956,135.637,12,4.0,WKY005,33.8938,135.4883,316,2002-01-04, 16:34:59,100Hz,119,U-D,0.0002384185791015625,22.849,15.364680349038114,1444,1447.0,27.84555476188092,1.9718458428412098,1.607129869688618,0.8500879472857434,1.0459397172587264,0.27224843757221,0.019337463843775767,0.018294005188466474,0.01299268321379825,0.006185840026368242,0.0021263909532582494,22.90126494948627,22.90126494948627,22.90126494948627,9.860020799465127,9.860020799465127,E-W,0.0002384185791015625,53.895,N-S,0.0002384185791015625,67.304
20020104163400.knt,WKY0070201041634.UD,2002-01-04, 16:34:00,33.956,135.637,12,4.0,WKY007,33.8375,135.7735,59,2002-01-04, 16:34:59,100Hz,119,U-D,0.0002384185791015625,12.923,18.230323564077963,1484,1483.0,33.6169036949873,0.707388995988296,0.6357041958275453,0.6297009629259749,0.48927851478770606,0.2289280138242943,0.01577503854973739,0.01577503854973739,0.01577503854973739,0.0028856786571347117,0.0024620055563347714,13.047916639547022,13.047916639547022,13.047916639547022,9.827278290152666,9.827278290152666,E-W,0.0002384185791015625,17.576,N-S,0.0002384185791015625,30.622
20020104163400.knt,WKY0080201041634.UD,2002-01-04, 16:34:00,33.956,135.637,12,4.0,WKY008,33.7289,135.3772,4,2002-01-04, 16:34:07,100Hz,120,U-D,0.0002384185791015625,3.36,34.83373149097373,0,-100.0,,0.0,0.0,0.0,0.0,0.0,0.0,0.0,0.0,0.0,0.0,0.0,0.0,0.0,0.0,0.0,E-W,0.0002384185791015625,9.545,N-S,0.0002384185791015625,5.047
20020104163400.knt,WKY0100201041634.UD,2002-01-04, 16:34:00,33.956,135.637,12,4.0,WKY010,33.5503,135.4972,6,2002-01-04, 16:34:10,100Hz,119,U-D,0.0002384185791015625,2.415,46.92675866154417,866,868.0,16.708123768141753,1.2099562821815804,1.1579008057165858,1.020793022188651,0.9765532096845643,0.7660214224369722,0.001825848685204993,0.0012550470285735324,0.0012550470285735324,0.0012550470285735324,0.0012550470285735324,2.3390725719204855,2.3390725719204855,2.3390725719204855,2.3390725719204855,2.3390725719204855,E-W,0.0002384185791015625,4.646,N-S,0.0002384185791015625,3.907
20020104163400.knt,WKY0130201041634.UD,2002-01-04, 16:34:00,33.956,135.637,12,4.0,WKY013,34.216,135.586,823,2002-01-04, 16:34:05,100Hz,119,U-D,0.0002384185791015625,2.387,29.28969067775611,0,-100.0,,0.0,0.0,0.0,0.0,0.0,0.0,0.0,0.0,0.0,0.0,0.0,0.0,0.0,0.0,0.0,E-W,0.0002384185791015625,4.679,N-S,0.0002384185791015625,7.172
20020104163400.knt,WKY0140201041634.UD,2002-01-04, 16:34:00,33.956,135.637,12,4.0,WKY014,33.7053,135.6397,430,2002-01-04, 16:34:04,100Hz,119,U-D,0.0002384185791015625,3.43,27.877683668491276,1137,1137.0,30.642128778820776,0.648751341287579,0.6479117830169787,0.930424541167224,0.5847973514123015,0.24516213253684993,0.00451979555669391,0.0032635189487691726,0.002841961430161439,0.0018236844384663994,0.0011361778381901789,3.4176023283402652,3.4176023283402652,2.3649715549141734,2.3649715549141734,2.3649715549141734,E-W,0.0002384185791015625,9.033,N-S,0.0002384185791015625,10.921
20020106183500.knt,CHB0030201061835.UD,2002-01-06, 18:35:00,36.395,141.029,47,4.2,CHB003,35.7943,140.0564,28,2002-01-06, 18:35:51,100Hz,119,U-D,0.0002384185791015625,2.987,109.9912029473095,0,-100.0,,0.0,0.0,0.0,0.0,0.0,0.0,0.0,0.0,0.0,0.0,0.0,0.0,0.0,0.0,0.0,E-W,0.0002384185791015625,5.725,N-S,0.0002384185791015625,4.637
20020106183500.knt,CHB0070201061835.UD,2002-01-06, 18:35:00,36.395,141.029,47,4.2,CHB007,35.7234,140.2267,24,2002-01-06, 18:35:52,100Hz,119,U-D,0.0002384185791015625,2.414,103.81679381932453,0,-100.0,,0.0,0.0,0.0,0.0,0.0,0.0,0.0,0.0,0.0,0.0,0.0,0.0,0.0,0.0,0.0,E-W,0.0002384185791015625,6.749,N-S,0.0002384185791015625,4.88
20020106183500.knt,CHB0100201061835.UD,2002-01-06, 18:35:00,36.395,141.029,47,4.2,CHB010,35.7077,140.568,8,2002-01-06, 18:35:45,100Hz,119,U-D,0.0002384185791015625,1.166,86.93795940859563,389,385.0,14.249132119740576,2.0476234834983598,1.979387461355303,1.902586149589483,2.1542435371635977,2.455520084662951,0.001835132568477131,0.0011699127082043142,0.0011699127082043142,0.0011699127082043142,0.0011699127082043142,0.7337249729525687,0.7337249729525687,0.7337249729525687,0.7337249729525687,0.7337249729525687,E-W,0.0002384185791015625,2.618,N-S,0.0002384185791015625,2.343
20020106183500.knt,FKS0080201061835.UD,2002-01-06, 18:35:00,36.395,141.029,47,4.2,FKS008,37.4363,140.5668,430,2002-01-06, 18:35:52,100Hz,119,U-D,0.0002384185791015625,1.532,122.86178755835893,94,94.0,24.15255237825237,9.341958923420107,10.829588159735017,11.559030149358497,9.085675038758897,5.373897721296102,0.008667247110928384,0.008667247110928384,0.008667247110928384,0.008667247110928384,0.005935013129953226,0.7522780899580689,0.7522780899580689,0.7522780899580689,0.7522780899580689,0.7522780899580689,E-W,0.0002384185791015625,4.044,N-S,0.0002384185791015625,3.854
20020106183500.knt,FKS0090201061835.UD,2002-01-06, 18:35:00,36.395,141.029,47,4.2,FKS009,37.2778,140.6349,440,2002-01-06, 18:35:48,100Hz,119,U-D,0.0002384185791015625,1.393,104.24007245663906,250,255.00000000000003,19.57759587901092,11.11338048214911,12.070816876485203,14.715631150830715,20.67696859304669,32.76339174979176,0.015318549549701133,0.015318549549701133,0.015318549549701133,0.015318549549701133,0.015318549549701133,0.7484753254538998,0.7484753254538998,0.7484753254538998,0.7484753254538998,0.7484753254538998,E-W,0.0002384185791015625,2.66,N-S,0.0002384185791015625,3.117
20020106183500.knt,FKS0160201061835.UD,2002-01-06, 18:35:00,36.395,141.029,47,4.2,FKS016,37.1228,140.1914,375,2002-01-06, 18:35:51,100Hz,119,U-D,0.0002384185791015625,1.949,110.0765199218325,0,-100.0,,0.0,0.0,0.0,0.0,0.0,0.0,0.0,0.0,0.0,0.0,0.0,0.0,0.0,0.0,0.0,E-W,0.0002384185791015625,6.012,N-S,0.0002384185791015625,5.314
20020106183500.knt,FKS0190201061835.UD,2002-01-06, 18:35:00,36.395,141.029,47,4.2,FKS019,37.603,140.4368,235,2002-01-06, 18:35:01,100Hz,119,U-D,0.0002384185791015625,1.443,144.25073624381895,0,1.0,0.9481835399479579,0.0,0.0,0.0,0.0,0.0,0.0,0.0,0.0,0.0,0.0,0.0,0.0,0.0,0.0,0.0,E-W,0.0002384185791015625,2.106,N-S,0.0002384185791015625,3.034
20020106183500.knt,FKS0290201061835.UD,2002-01-06, 18:35:00,36.395,141.029,47,4.2,FKS029,37.0159,139.3801,957,2002-01-06, 18:35:04,100Hz,119,U-D,0.0002384185791015625,0.389,162.39754637895035,0,-100.0,,0.0,0.0,0.0,0.0,0.0,0.0,0.0,0.0,0.0,0.0,0.0,0.0,0.0,0.0,0.0,E-W,0.0002384185791015625,2.38,N-S,0.0002384185791015625,2.867
20020106183500.knt,IBR0020201061835.UD,2002-01-06, 18:35:00,36.395,141.029,47,4.2,IBR002,36.7061,140.7068,9,2002-01-06, 18:35:30,100Hz,119,U-D,0.0002384185791015625,8.227,44.99995459973389,1379,1374.0,33.36038556414312,2.085614173862744,2.075443344295471,1.632379929855996,0.9480934471614038,0.3726706348845383,0.007121011364679835,0.007121011364679835,0.00684945520357203,0.004743008515347634,0.00284252363113989,3.2944600500017587,3.2944600500017587,3.2944600500017587,3.2944600500017587,3.2944600500017587,E-W,0.0002384185791015625,25.177,N-S,0.0002384185791015625,23.08
20020106183500.knt,IBR0030201061835.UD,2002-01-06, 18:35:00,36.395,141.029,47,4.2,IBR003,36.5915,140.6453,58,2002-01-06, 18:35:29,100Hz,119,U-D,0.0002384185791015625,19.254,40.668109343075415,1421,1440.0,20.438472383721248,1.2781952771241005,1.4544667793256416,1.3436687517019168,0.8105298550385253,0.2914039699213482,0.009412958982682513,0.009412958982682513,0.009412958982682513,0.006653352102726707,0.0030058984907700833,6.186305238112371,4.524295644648202,4.524295644648202,4.524295644648202,4.524295644648202,E-W,0.0002384185791015625,23.941,N-S,0.0002384185791015625,29.209
20020106183500.knt,IBR0040201061835.UD,2002-01-06, 18:35:00,36.395,141.029,47,4.2,IBR004,36.5273,140.4094,51,2002-01-06, 18:35:31,100Hz,119,U-D,0.0002384185791015625,9.127,57.33006672008517,1444,1452.0,30.903224928217252,0.5205420313175091,0.5594661697854941,0.5843475250089901,0.5551219353578941,0.36717328583551767,0.0037598419680147928,0.0037598419680147928,0.0037598419680147928,0.0037598419680147928,0.0037598419680147928,9.07476265331218,9.07476265331218,9.07476265331218,9.07476265331218,9.07476265331218,E-W,0.0002384185791015625,22.518,N-S,0.0002384185791015625,27.269
20020106183500.knt,IBR0050201061835.UD,2002-01-06, 18:35:00,36.395,141.029,47,4.2,IBR005,36.3851,140.2372,63,2002-01-06, 18:35:33,100Hz,119,U-D,0.0002384185791015625,8.335,70.88360646596504,1380,1385.0,29.869267933493298,3.932616785448403,4.018088399517494,3.1728624540894717,1.6995301343251679,0.41713575260755803,0.0218522980874843,0.0218522980874843,0.02157513333666101,0.017097986725326884,0.00583059878230888,4.528931279676601,4.528931279676601,4.528931279676601,4.528931279676601,4.275313840432887,E-W,0.0002384185791015625,11.408,N-S,0.0002384185791015625,17.033
20020106183500.knt,IBR0080201061835.UD,2002-01-06, 18:35:00,36.395,141.029,47,4.2,IBR008,36.3062,139.9828,20,2002-01-06, 18:35:49,100Hz,119,U-D,0.0002384185791015625,2.156,94.21287884584002,91,86.0,16.098364418074894,3.712505860436906,3.894226870586761,3.3884149667518937,2.7734759729029017,1.8534496026470788,0.0048659780595630975,0.0048659780595630975,0.004709205731881717,0.0039438594755722475,0.0033288643820651633,1.439395052709824,1.439395052709824,1.439395052709824,1.439395052709824,1.2995695499200972,E-W,0.0002384185791015625,6.288,N-S,0.0002384185791015625,3.144
20020106183500.knt,IBR0100201061835.UD,2002-01-06, 18:35:00,36.395,141.029,47,4.2,IBR010,36.1843,139.9653,23,2002-01-06, 18:35:48,100Hz,119,U-D,0.0002384185791015625,2.221,98.17226187483851,0,-100.0,,0.0,0.0,0.0,0.0,0.0,0.0,0.0,0.0,0.0,0.0,0.0,0.0,0.0,0.0,0.0,E-W,0.0002384185791015625,3.747,N-S,0.0002384185791015625,3.228
20020106183500.knt,IBR0110201061835.UD,2002-01-06, 18:35:00,36.395,141.029,47,4.2,IBR011,36.1251,140.0903,26,2002-01-06, 18:35:46,100Hz,119,U-D,0.0002384185791015625,2.101,89.35498676253236,302,302.0,26.244876580200177,2.589241895547735,2.4670090156246354,2.459753117087678,2.9737781933644745,3.1503723892583335,0.004137149653181738,0.004137149653181738,0.004137149653181738,0.004137149653181738,0.004137149653181738,1.1652254549536136,1.1652254549536136,1.1652254549536136,1.1249553816734992,1.1249553816734992,E-W,0.0002384185791015625,6.366,N-S,0.0002384185791015625,5.299
20020106183500.knt,IBR0120201061835.UD,2002-01-06, 18:35:00,36.395,141.029,47,4.2,IBR012,36.1901,140.2869,24,2002-01-06, 18:35:41,100Hz,119,U-D,0.0002384185791015625,3.089,70.30373697903194,553,553.0,16.422415131002325,5.838809395190456,5.841143601267011,4.489240814908405,2.8135560129301287,1.0503507457991097,0.009917154808335316,0.009917154808335316,0.009257016874392596,0.007351197032865709,0.003485303638257559,1.954486581571792,1.7895848518537865,1.7895848518537865,1.7895848518537865,1.7895848518537865,E-W,0.0002384185791015625,7.929,N-S,0.0002384185791015625,4.602
20020106183500.knt,IBR0130201061835.UD,2002-01-06, 18:35:00,36.395,141.029,47,4.2,IBR013,36.1587,140.4892,28,2002-01-06, 18:35:31,100Hz,119,U-D,0.0002384185791015625,9.706,55.06211819546906,1428,1427.0,40.025171674925026,0.2377167742595978,0.2469739313300728,0.25526347232557484,0.22230321230356098,0.189546664004673,0.004029813477751641,0.004029813477751641,0.004029813477751641,0.004029813477751641,0.004029813477751641,7.34833159989234,7.34833159989234,7.34833159989234,7.34833159989234,7.34833159989234,E-W,0.0002384185791015625,15.294,N-S,0.0002384185791015625,19.219
20020106183500.knt,IBR0140201061835.UD,2002-01-06, 18:35:00,36.395,141.029,47,4.2,IBR014,36.0729,140.1947,11,2002-01-06, 18:35:44,100Hz,119,U-D,0.0002384185791015625,2.587,82.95848010670983,341,360.0,23.605210636015542,2.7434249549124776,2.6275681495769,2.678642126004148,3.532160310913339,7.67896899337015,0.004709498385544657,0.004709498385544657,0.004709498385544657,0.004709498385544657,0.004709498385544657,1.784351100924974,1.784351100924974,1.784351100924974,1.784351100924974,0.6613517566760418,E-W,0.0002384185791015625,6.775,N-S,0.0002384185791015625,6.187
20020106183500.knt,IBR0150201061835.UD,2002-01-06, 18:35:00,36.395,141.029,47,4.2,IBR015,36.0693,139.908,14,2002-01-06, 18:35:50,100Hz,119,U-D,0.0002384185791015625,2.983,106.86862702539713,123,131.0,16.317235108784555,11.741286702421379,14.366535903244072,16.748626784980473,15.119304992780528,9.49091383851531,0.038223985808161116,0.038223985808161116,0.038223985808161116,0.038223985808161116,0.033886943565460056,0.839222723605703,0.839222723605703,0.839222723605703,0.839222723605703,0.839222723605703,E-W,0.0002384185791015625,4.999,N-S,0.0002384185791015625,6.065
20020106183500.knt,IBR0170201061835.UD,2002-01-06, 18:35:00,36.395,141.029,47,4.2,IBR017,35.9537,140.3194,17,2002-01-06, 18:35:43,100Hz,119,U-D,0.0002384185791015625,5.166,80.40303656902965,484,507.0,25.737652632528082,1.3198505384411663,1.1759828139768294,1.1688764143604164,1.268116040188061,1.6211342067971766,0.003349787022954227,0.003349787022954227,0.003349787022954227,0.003349787022954227,0.002918384089579137,1.6986753956503113,1.6986753956503113,1.6986753956503113,1.6986753956503113,0.8232060244607953,E-W,0.0002384185791015625,8.229,N-S,0.0002384185791015625,5.694
20020106183500.knt,IBR0180201061835.UD,2002-01-06, 18:35:00,36.395,141.029,47,4.2,IBR018,35.977,140.6322,39,2002-01-06, 18:35:40,100Hz,119,U-D,0.0002384185791015625,3.192,58.55324303455451,600,610.0,25.44932194607073,3.9308904885593883,3.8004978294143217,3.6315657343296244,2.715413399379882,1.3951347563235474,0.008290165686041653,0.008290165686041653,0.008290165686041653,0.007546449137768376,0.004054775273086186,1.7360432654546165,1.7360432654546165,1.5175667568364128,1.5175667568364128,1.4173279082434402,E-W,0.0002384185791015625,10.499,N-S,0.0002384185791015625,5.736
20020106183500.knt,SIT0040201061835.UD,2002-01-06, 18:35:00,36.395,141.029,47,4.2,SIT004,36.1179,139.1045,140,2002-01-06, 18:35:05,100Hz,119,U-D,0.0002384185791015625,0.536,175.28664279942686,0,-100.0,,0.0,0.0,0.0,0.0,0.0,0.0,0.0,0.0,0.0,0.0,0.0,0.0,0.0,0.0,0.0,E-W,0.0002384185791015625,4.17,N-S,0.0002384185791015625,3.373
20020106183500.knt,TCG0030201061835.UD,2002-01-06, 18:35:00,36.395,141.029,47,4.2,TCG003,36.8144,139.7153,398,2002-01-06, 18:35:40,100Hz,119,U-D,0.0002384185791015625,0.605,126.1972191198417,1385,1389.0,16.4350005933758,2.21173473940168,1.89254741501718,1.7976574273367547,1.8738920666010253,2.25996056479122,0.0022089992459606357,0.0022089992459606357,0.0022089992459606357,0.0022089992459606357,0.0022089992459606357,0.6035222595282633,0.6035222595282633,0.6035222595282633,0.6035222595282633,0.6035222595282633,E-W,0.0002384185791015625,2.834,N-S,0.0002384185791015625,3.24
20020106183500.knt,TCG0050201061835.UD,2002-01-06, 18:35:00,36.395,141.029,47,4.2,TCG005,36.8061,139.9264,197,2002-01-06, 18:35:52,100Hz,119,U-D,0.0002384185791015625,0.835,108.5236133457593,0,-100.0,,0.0,0.0,0.0,0.0,0.0,0.0,0.0,0.0,0.0,0.0,0.0,0.0,0.0,0.0,0.0,E-W,0.0002384185791015625,2.895,N-S,0.0002384185791015625,2.443
20020106183500.knt,TCG0060201061835.UD,2002-01-06, 18:35:00,36.395,141.029,47,4.2,TCG006,36.7639,140.1297,122,2002-01-06, 18:35:35,100Hz,119,U-D,0.0002384185791015625,5.607,90.17095389853418,1452,1460.0,20.66163012915842,1.3491507339647963,1.338457794264488,1.1120896608452953,0.6004782923536377,0.2545714174484788,0.006146402192254301,0.006146402192254301,0.006146402192254301,0.00440357484978454,0.003435173802132296,5.579325578980541,5.579325578980541,5.579325578980541,5.579325578980541,5.579325578980541,E-W,0.0002384185791015625,4.252,N-S,0.0002384185791015625,4.585
20020106183500.knt,TCG0120201061835.UD,2002-01-06, 18:35:00,36.395,141.029,47,4.2,TCG012,36.2859,139.8047,33,2002-01-06, 18:35:51,100Hz,119,U-D,0.0002384185791015625,2.352,110.3271092008752,104,36.0,14.039653184096192,3.4084185797559283,3.5865576575491063,3.508174256838038,3.2213153467517373,2.1671878536670537,0.0068019535266053005,0.0068019535266053005,0.0068019535266053005,0.0068019535266053005,0.006294006209870145,1.7681207916617148,1.7681207916617148,1.7681207916617148,1.7681207916617148,1.7681207916617148,E-W,0.0002384185791015625,3.56,N-S,0.0002384185791015625,2.735
20020106183500.knt,TCG0130201061835.UD,2002-01-06, 18:35:00,36.395,141.029,47,4.2,TCG013,36.4368,140.0225,67,2002-01-06, 18:35:36,100Hz,119,U-D,0.0002384185791015625,3.617,90.18286549815335,1346,1354.0,30.850565771849006,0.36591815780647263,0.37213071599712233,0.32528616340566435,0.2727929782950176,0.3045742887254501,0.0020335403886178514,0.0020335403886178514,0.0020335403886178514,0.0020335403886178514,0.0020335403886178514,3.6076066222273147,3.6076066222273147,3.6076066222273147,3.6076066222273147,2.6341857123296446,E-W,0.0002384185791015625,5.468,N-S,0.0002384185791015625,4.599
