earthquake name,records name,earthquake date,earthquake time,lat,long,depth,mag,stn_code,stn_lat,stn_long,stn_height,rcd_date,rcd_time,frequency,rcd_duration,direction,scale_factor,max_pga,epi_dist,pick_index_manually,pick_index_kalkan,snr_db_kalkan,tc_5sec,tc_4sec,tc_3sec,tc_2sec,tc_1sec,Pd_5sec,Pd_4sec,Pd_3sec,Pd_2sec,Pd_1sec,Pga_5sec,Pga_4sec,Pga_3sec,Pga_2sec,Pga_1sec,Channel,Scale_factor,PGA_ew,Channel.1,Scale_factor.1,PGA_ns
19990116154100.knt,IBR0139901161541.UD,1999-01-16, 15:41:00,36.67,141.43,41,4.4,IBR013,36.1587,140.4892,28,1999-01-16, 15:42:12,100Hz,119,U-D,0.0002384185791015625,4.385,101.58494647753909,118,135.0,21.416645557023223,11.540338869791448,13.544521869725276,15.18931992599208,13.96186002123673,9.054878005372215,0.04891868674147171,0.04891868674147171,0.04891868674147171,0.04891868674147171,0.04292739799999748,1.8079762396925834,1.8079762396925834,1.8079762396925834,1.0295283240577375,1.0295283240577375,E-W,0.0002384185791015625,12.973,N-S,0.0002384185791015625,10.173
19990116154100.knt,IBR0149901161541.UD,1999-01-16, 15:41:00,36.67,141.43,41,4.4,IBR014,36.0729,140.1947,11,1999-01-16, 15:42:18,100Hz,119,U-D,0.0002384185791015625,1.6,128.99670388250766,0,2.0,-3.9156582643858586,0.0,0.0,0.0,0.0,0.0,0.0,0.0,0.0,0.0,0.0,0.0,0.0,0.0,0.0,0.0,E-W,0.0002384185791015625,3.664,N-S,0.0002384185791015625,3.547
19990116154100.knt,MYG0119901161541.UD,1999-01-16, 15:41:00,36.67,141.43,41,4.4,MYG011,38.2972,141.5043,30,1999-01-16, 15:42:38,100Hz,119,U-D,0.0002384185791015625,0.888,181.05509606265534,0,-100.0,,0.0,0.0,0.0,0.0,0.0,0.0,0.0,0.0,0.0,0.0,0.0,0.0,0.0,0.0,0.0,E-W,0.0002384185791015625,2.278,N-S,0.0002384185791015625,2.739
19990116154100.knt,MYG0159901161541.UD,1999-01-16, 15:41:00,36.67,141.43,41,4.4,MYG015,38.1049,140.8699,3,1999-01-16, 15:42:32,100Hz,120,U-D,0.0002384185791015625,0.863,167.05005938217397,0,-100.0,,0.0,0.0,0.0,0.0,0.0,0.0,0.0,0.0,0.0,0.0,0.0,0.0,0.0,0.0,0.0,E-W,0.0002384185791015625,2.353,N-S,0.0002384185791015625,2.19
19990116154100.knt,TCG0039901161541.UD,1999-01-16, 15:41:00,36.67,141.43,41,4.4,TCG003,36.8144,139.7153,398,1999-01-16, 15:42:24,100Hz,119,U-D,0.0002384185791015625,0.277,153.62658529148644,0,1.0,-4.567033606873007,0.0,0.0,0.0,0.0,0.0,0.0,0.0,0.0,0.0,0.0,0.0,0.0,0.0,0.0,0.0,E-W,0.0002384185791015625,2.849,N-S,0.0002384185791015625,2.211
19990116154100.knt,TCG0129901161541.UD,1999-01-16, 15:41:00,36.67,141.43,41,4.4,TCG012,36.2859,139.8047,33,1999-01-16, 15:42:24,100Hz,119,U-D,0.0002384185791015625,1.139,151.46251615047566,0,-100.0,,0.0,0.0,0.0,0.0,0.0,0.0,0.0,0.0,0.0,0.0,0.0,0.0,0.0,0.0,0.0,E-W,0.0002384185791015625,3.434,N-S,0.0002384185791015625,3.239
19990116154100.knt,TCG0139901161541.UD,1999-01-16, 15:41:00,36.67,141.43,41,4.4,TCG013,36.4368,140.0225,67,1999-01-16, 15:42:16,100Hz,119,U-D,0.0002384185791015625,3.051,128.3672637279377,70,69.0,15.784051940579108,11.460623582567907,12.703515741151236,12.993591169289811,9.954413915005226,5.7176313851216,0.02130992648119084,0.02130992648119084,0.02130992648119084,0.020771173582766415,0.014792952863752934,0.9323940952064894,0.9323940952064894,0.9323940952064894,0.9323940952064894,0.6013495839986058,E-W,0.0002384185791015625,8.236,N-S,0.0002384185791015625,4.809
19990116154100.knt,TCG0149901161541.UD,1999-01-16, 15:41:00,36.67,141.43,41,4.4,TCG014,36.545,140.1742,130,1999-01-16, 15:42:07,100Hz,119,U-D,0.0002384185791015625,5.202,112.95100986581755,720,764.0,27.897343779954,7.735450188526661,7.888631407144533,7.661293808105085,7.379372967718721,8.809525083907355,0.017198217169230454,0.017198217169230454,0.017198217169230454,0.017198217169230454,0.014857085248822993,1.910758129148369,1.910758129148369,1.910758129148369,1.910758129148369,1.294043349963078,E-W,0.0002384185791015625,32.639,N-S,0.0002384185791015625,15.473
19990119023500.knt,AOM0039901190235.UD,1999-01-19, 02:35:00,41.553,141.446,86,4.4,AOM003,41.4053,141.1691,4,1999-01-19, 02:36:10,100Hz,119,U-D,0.0002384185791015625,3.046,28.31690800811933,294,289.0,33.52972275896785,0.9168917847290545,0.8911928360418693,0.7900228491519523,0.6588012039046727,0.6646759851789619,0.006577088017571769,0.006577088017571769,0.006577088017571769,0.006577088017571769,0.006577088017571769,1.4888824589336511,1.4888824589336511,1.4888824589336511,1.4888824589336511,1.294773124639885,E-W,0.0002384185791015625,5.958,N-S,0.0002384185791015625,7.141
19990119023500.knt,AOM0049901190235.UD,1999-01-19, 02:35:00,41.553,141.446,86,4.4,AOM004,41.4051,141.4472,29,1999-01-19, 02:36:08,100Hz,119,U-D,0.0002384185791015625,3.192,16.446033485761053,420,411.00000000000006,27.26517193489839,4.743356645799912,3.85644703759089,3.1137020046586144,3.089060815033256,3.783800422500671,0.01145639323635534,0.01145639323635534,0.01145639323635534,0.01145639323635534,0.01145639323635534,3.196331657880089,3.196331657880089,3.196331657880089,3.196331657880089,3.196331657880089,E-W,0.0002384185791015625,5.281,N-S,0.0002384185791015625,6.686
19990119023500.knt,AOM0059901190235.UD,1999-01-19, 02:35:00,41.553,141.446,86,4.4,AOM005,41.2948,141.1972,10,1999-01-19, 02:36:10,100Hz,119,U-D,0.0002384185791015625,3.125,35.420650298319195,343,344.0,25.62448256574244,5.368519912187824,4.81083271673,4.8853523577193165,5.234091710373144,5.232279283061018,0.024679062258666954,0.024679062258666954,0.024679062258666954,0.024679062258666954,0.024679062258666954,1.901257725856248,1.901257725856248,1.901257725856248,1.901257725856248,1.901257725856248,E-W,0.0002384185791015625,5.348,N-S,0.0002384185791015625,7.485
19990119023500.knt,AOM0069901190235.UD,1999-01-19, 02:35:00,41.553,141.446,86,4.4,AOM006,41.1976,140.9972,2,1999-01-19, 02:36:12,100Hz,119,U-D,0.0002384185791015625,3.069,54.443170835074454,0,-100.0,,0.0,0.0,0.0,0.0,0.0,0.0,0.0,0.0,0.0,0.0,0.0,0.0,0.0,0.0,0.0,E-W,0.0002384185791015625,6.902,N-S,0.0002384185791015625,4.736
19990119023500.knt,AOM0079901190235.UD,1999-01-19, 02:35:00,41.553,141.446,86,4.4,AOM007,41.2256,141.3958,10,1999-01-19, 02:36:59,100Hz,119,U-D,0.0002384185791015625,6.999,36.645292525257275,1437,1436.0,40.76194415947823,0.5379925222800958,0.5621956016732951,0.537139005707756,0.45374991292703,0.4350701416999133,0.006738741057514231,0.006738741057514231,0.006738741057514231,0.006738741057514231,0.006738741057514231,6.358920427216558,6.358920427216558,6.358920427216558,6.358920427216558,6.358920427216558,E-W,0.0002384185791015625,24.21,N-S,0.0002384185791015625,12.875
19990119023500.knt,AOM0099901190235.UD,1999-01-19, 02:35:00,41.553,141.446,86,4.4,AOM009,40.9665,141.3733,10,1999-01-19, 02:36:14,100Hz,119,U-D,0.0002384185791015625,3.732,65.49832845512242,137,162.0,10.912587972646406,1.969610616221959,1.999828548163038,1.9689752126622664,1.5646125838543563,0.9221393027503548,0.006862569029004037,0.006862569029004037,0.006862569029004037,0.006862569029004037,0.006862569029004037,3.755330142329667,3.755330142329667,3.755330142329667,3.755330142329667,3.755330142329667,E-W,0.0002384185791015625,4.349,N-S,0.0002384185791015625,4.538
19990119023500.knt,AOM0109901190235.UD,1999-01-19, 02:35:00,41.553,141.446,86,4.4,AOM010,40.8721,141.1416,15,1999-01-19, 02:36:16,100Hz,119,U-D,0.0002384185791015625,4.801,79.87942607227154,0,-100.0,,0.0,0.0,0.0,0.0,0.0,0.0,0.0,0.0,0.0,0.0,0.0,0.0,0.0,0.0,0.0,E-W,0.0002384185791015625,20.737,N-S,0.0002384185791015625,10.577
19990119023500.knt,AOM0129901190235.UD,1999-01-19, 02:35:00,41.553,141.446,86,4.4,AOM012,40.5138,141.4805,15,1999-01-19, 02:36:21,100Hz,119,U-D,0.0002384185791015625,2.167,115.58999259513928,0,1.0,-10.498697613466996,0.0,0.0,0.0,0.0,0.0,0.0,0.0,0.0,0.0,0.0,0.0,0.0,0.0,0.0,0.0,E-W,0.0002384185791015625,5.353,N-S,0.0002384185791015625,7.985
19990119023500.knt,AOM0149901190235.UD,1999-01-19, 02:35:00,41.553,141.446,86,4.4,AOM014,40.4371,140.9406,425,1999-01-19, 02:36:26,100Hz,119,U-D,0.0002384185791015625,1.679,131.13122264783954,0,-100.0,,0.0,0.0,0.0,0.0,0.0,0.0,0.0,0.0,0.0,0.0,0.0,0.0,0.0,0.0,0.0,E-W,0.0002384185791015625,2.186,N-S,0.0002384185791015625,2.88
19990119023500.knt,AOM0209901190235.UD,1999-01-19, 02:35:00,41.553,141.446,86,4.4,AOM020,40.8193,140.7501,4,1999-01-19, 02:36:22,100Hz,119,U-D,0.0002384185791015625,1.233,100.23472727474254,0,-100.0,,0.0,0.0,0.0,0.0,0.0,0.0,0.0,0.0,0.0,0.0,0.0,0.0,0.0,0.0,0.0,E-W,0.0002384185791015625,2.168,N-S,0.0002384185791015625,2.511
19990119023500.knt,AOM0229901190235.UD,1999-01-19, 02:35:00,41.553,141.446,86,4.4,AOM022,40.9924,140.9155,3,1999-01-19, 02:36:15,100Hz,119,U-D,0.0002384185791015625,1.747,76.49364415145523,0,-100.0,,0.0,0.0,0.0,0.0,0.0,0.0,0.0,0.0,0.0,0.0,0.0,0.0,0.0,0.0,0.0,E-W,0.0002384185791015625,4.589,N-S,0.0002384185791015625,3.65
19990119023500.knt,AOM0239901190235.UD,1999-01-19, 02:35:00,41.553,141.446,86,4.4,AOM023,40.9676,140.4326,15,1999-01-19, 02:36:28,100Hz,119,U-D,0.0002384185791015625,0.647,106.8282060450804,0,1.0,16.785236937106532,0.0,0.0,0.0,0.0,0.0,0.0,0.0,0.0,0.0,0.0,0.0,0.0,0.0,0.0,0.0,E-W,0.0002384185791015625,2.389,N-S,0.0002384185791015625,1.781
19990119023500.knt,HKD1279901190235.UD,1999-01-19, 02:35:00,41.553,141.446,86,4.4,HKD127,42.8741,141.8204,63,1999-01-19, 02:36:31,100Hz,119,U-D,0.0002384185791015625,0.483,150.10027299916305,0,-100.0,,0.0,0.0,0.0,0.0,0.0,0.0,0.0,0.0,0.0,0.0,0.0,0.0,0.0,0.0,0.0,E-W,0.0002384185791015625,2.335,N-S,0.0002384185791015625,2.061
19990119023500.knt,HKD1299901190235.UD,1999-01-19, 02:35:00,41.553,141.446,86,4.4,HKD129,42.6344,141.6057,6,1999-01-19, 02:36:24,100Hz,119,U-D,0.0002384185791015625,1.045,120.96597701603831,0,2.0,-2.9160882301538034,0.0,0.0,0.0,0.0,0.0,0.0,0.0,0.0,0.0,0.0,0.0,0.0,0.0,0.0,0.0,E-W,0.0002384185791015625,1.783,N-S,0.0002384185791015625,2.753
19990119023500.knt,HKD1589901190235.UD,1999-01-19, 02:35:00,41.553,141.446,86,4.4,HKD158,41.8345,141.1411,6,1999-01-19, 02:36:59,100Hz,119,U-D,0.0002384185791015625,6.246,40.2575440376491,1433,1445.0,28.174230694667813,1.5841922422172552,1.474723808051474,1.056109632034199,0.5236909221389067,0.24919820320503197,0.0074542068772306515,0.0074542068772306515,0.0064923939238229166,0.0035290334947454503,0.0023712247895045467,4.455204164553481,4.455204164553481,4.455204164553481,4.455204164553481,4.455204164553481,E-W,0.0002384185791015625,6.167,N-S,0.0002384185791015625,7.564
19990119023500.knt,HKD1599901190235.UD,1999-01-19, 02:35:00,41.553,141.446,86,4.4,HKD159,41.7162,141.0025,35,1999-01-19, 02:36:01,100Hz,119,U-D,0.0002384185791015625,12.852,41.082950411056316,1226,1240.0,29.61639543356098,0.5139648043831943,0.5163609418434402,0.397442859607051,0.2899967668238857,0.36069157908411803,0.002129693408361526,0.002129693408361526,0.002079561644301315,0.0015280057611646448,0.0015280057611646448,2.982335415510167,2.982335415510167,2.982335415510167,2.982335415510167,1.8533431158247584,E-W,0.0002384185791015625,19.319,N-S,0.0002384185791015625,17.421
19990119023500.knt,IWT0019901190235.UD,1999-01-19, 02:35:00,41.553,141.446,86,4.4,IWT001,40.4099,141.7191,15,1999-01-19, 02:36:22,100Hz,119,U-D,0.0002384185791015625,3.313,129.15752424406452,0,-100.0,,0.0,0.0,0.0,0.0,0.0,0.0,0.0,0.0,0.0,0.0,0.0,0.0,0.0,0.0,0.0,E-W,0.0002384185791015625,3.998,N-S,0.0002384185791015625,5.862
19990119023500.knt,IWT0029901190235.UD,1999-01-19, 02:35:00,41.553,141.446,86,4.4,IWT002,40.1819,141.7641,28,1999-01-19, 02:36:29,100Hz,119,U-D,0.0002384185791015625,0.716,154.78769219691833,0,-100.0,,0.0,0.0,0.0,0.0,0.0,0.0,0.0,0.0,0.0,0.0,0.0,0.0,0.0,0.0,0.0,E-W,0.0002384185791015625,2.395,N-S,0.0002384185791015625,1.566
19990119023500.knt,IWT0249901190235.UD,1999-01-19, 02:35:00,41.553,141.446,86,4.4,IWT024,40.2632,141.2901,94,1999-01-19, 02:36:27,100Hz,119,U-D,0.0002384185791015625,0.944,144.01629404949776,0,1.0,-6.816314563101354,0.0,0.0,0.0,0.0,0.0,0.0,0.0,0.0,0.0,0.0,0.0,0.0,0.0,0.0,0.0,E-W,0.0002384185791015625,2.368,N-S,0.0002384185791015625,1.996
19990122070200.knt,AKT0169901220702.UD,1999-01-22, 07:02:00,38.603,143.163,0,5.5,AKT016,39.4544,140.476,25,1999-01-22, 07:03:24,100Hz,119,U-D,0.0002384185791015625,0.938,250.65348255528227,0,-100.0,,0.0,0.0,0.0,0.0,0.0,0.0,0.0,0.0,0.0,0.0,0.0,0.0,0.0,0.0,0.0,E-W,0.0002384185791015625,2.395,N-S,0.0002384185791015625,2.186
19990122070200.knt,AOM0079901220702.UD,1999-01-22, 07:02:00,38.603,143.163,0,5.5,AOM007,41.2256,141.3958,10,1999-01-22, 07:03:47,100Hz,119,U-D,0.0002384185791015625,0.509,328.2459286653074,0,2.0,14.596388790253174,0.0,0.0,0.0,0.0,0.0,0.0,0.0,0.0,0.0,0.0,0.0,0.0,0.0,0.0,0.0,E-W,0.0002384185791015625,2.295,N-S,0.0002384185791015625,1.396
19990122070200.knt,FKS0019901220702.UD,1999-01-22, 07:02:00,38.603,143.163,0,5.5,FKS001,37.7949,140.9196,9,1999-01-22, 07:03:14,100Hz,119,U-D,0.0002384185791015625,0.869,215.64233300564513,0,-100.0,,0.0,0.0,0.0,0.0,0.0,0.0,0.0,0.0,0.0,0.0,0.0,0.0,0.0,0.0,0.0,E-W,0.0002384185791015625,2.277,N-S,0.0002384185791015625,2.528
19990122070200.knt,FKS0179901220702.UD,1999-01-22, 07:02:00,38.603,143.163,0,5.5,FKS017,37.2842,140.3689,263,1999-01-22, 07:03:35,100Hz,119,U-D,0.0002384185791015625,0.973,285.52549125201574,0,-100.0,,0.0,0.0,0.0,0.0,0.0,0.0,0.0,0.0,0.0,0.0,0.0,0.0,0.0,0.0,0.0,E-W,0.0002384185791015625,2.06,N-S,0.0002384185791015625,2.194
19990122070200.knt,FKS0239901220702.UD,1999-01-22, 07:02:00,38.603,143.163,0,5.5,FKS023,37.4774,139.9294,219,1999-01-22, 07:03:47,100Hz,119,U-D,0.0002384185791015625,0.561,309.5831877357825,0,-100.0,,0.0,0.0,0.0,0.0,0.0,0.0,0.0,0.0,0.0,0.0,0.0,0.0,0.0,0.0,0.0,E-W,0.0002384185791015625,1.926,N-S,0.0002384185791015625,1.949
19990122070200.knt,FKS0249901220702.UD,1999-01-22, 07:02:00,38.603,143.163,0,5.5,FKS024,37.3957,140.1325,527,1999-01-22, 07:03:45,100Hz,119,U-D,0.0002384185791015625,1.194,297.52560537389166,0,-100.0,,0.0,0.0,0.0,0.0,0.0,0.0,0.0,0.0,0.0,0.0,0.0,0.0,0.0,0.0,0.0,E-W,0.0002384185791015625,2.445,N-S,0.0002384185791015625,2.283
19990122070200.knt,IWT0069901220702.UD,1999-01-22, 07:02:00,38.603,143.163,0,5.5,IWT006,39.4806,141.9652,4,1999-01-22, 07:03:49,100Hz,167,U-D,0.0002384185791015625,1.245,142.2080699369463,0,1.0,28.064431433226083,0.0,0.0,0.0,0.0,0.0,0.0,0.0,0.0,0.0,0.0,0.0,0.0,0.0,0.0,0.0,E-W,0.0002384185791015625,4.558,N-S,0.0002384185791015625,4.71
19990122070200.knt,IWT0079901220702.UD,1999-01-22, 07:02:00,38.603,143.163,0,5.5,IWT007,39.2701,141.8561,11,1999-01-22, 07:03:38,100Hz,178,U-D,0.0002384185791015625,1.745,135.19990592001645,1220,1245.0,22.820613514932006,1.7599090707054983,1.4458746469811752,1.183290263826215,0.9364397105257447,0.8834523924440643,0.0069436001936903705,0.006392811666164238,0.004610561045461075,0.0029743122782858104,0.002853744340922768,1.4036168375854114,1.4036168375854114,1.2513714108208163,1.0564807643199685,0.5689036735493687,E-W,0.0002384185791015625,7.13,N-S,0.0002384185791015625,6.498
19990122070200.knt,IWT0099901220702.UD,1999-01-22, 07:02:00,38.603,143.163,0,5.5,IWT009,39.0187,141.4031,150,1999-01-22, 07:03:00,100Hz,119,U-D,0.0002384185791015625,1.15,159.33575623914578,0,-100.0,,0.0,0.0,0.0,0.0,0.0,0.0,0.0,0.0,0.0,0.0,0.0,0.0,0.0,0.0,0.0,E-W,0.0002384185791015625,3.016,N-S,0.0002384185791015625,3.062
19990122070200.knt,IWT0109901220702.UD,1999-01-22, 07:02:00,38.603,143.163,0,5.5,IWT010,38.9334,141.1173,37,1999-01-22, 07:03:05,100Hz,119,U-D,0.0002384185791015625,1.68,181.11710285277007,0,2.0,-0.6378700414690914,0.0,0.0,0.0,0.0,0.0,0.0,0.0,0.0,0.0,0.0,0.0,0.0,0.0,0.0,0.0,E-W,0.0002384185791015625,2.747,N-S,0.0002384185791015625,3.161
19990122070200.knt,IWT0119901220702.UD,1999-01-22, 07:02:00,38.603,143.163,0,5.5,IWT011,39.1454,141.152,45,1999-01-22, 07:03:10,100Hz,119,U-D,0.0002384185791015625,1.14,184.23480708038232,0,-100.0,,0.0,0.0,0.0,0.0,0.0,0.0,0.0,0.0,0.0,0.0,0.0,0.0,0.0,0.0,0.0,E-W,0.0002384185791015625,1.826,N-S,0.0002384185791015625,1.961
19990122070200.knt,IWT0129901220702.UD,1999-01-22, 07:02:00,38.603,143.163,0,5.5,IWT012,39.3209,141.1378,64,1999-01-22, 07:03:59,100Hz,175,U-D,0.0002384185791015625,1.981,192.43250701385557,4,28.000000000000004,15.878919764402237,10.364797486367914,10.970572885774706,8.726359527009263,5.390158108222744,1.743808238677621,0.037087956704459184,0.037087956704459184,0.036465113468736515,0.027402998057705193,0.009398469129229437,0.756111244628753,0.6224978721906931,0.5423386676502315,0.4811797517967259,0.28361924819475404,E-W,0.0002384185791015625,5.021,N-S,0.0002384185791015625,4.141
19990122070200.knt,IWT0139901220702.UD,1999-01-22, 07:02:00,38.603,143.163,0,5.5,IWT013,39.3367,141.5378,272,1999-01-22, 07:03:56,100Hz,119,U-D,0.0002384185791015625,1.495,162.4657030021998,0,-100.0,,0.0,0.0,0.0,0.0,0.0,0.0,0.0,0.0,0.0,0.0,0.0,0.0,0.0,0.0,0.0,E-W,0.0002384185791015625,3.639,N-S,0.0002384185791015625,4.507
19990122070200.knt,IWT0149901220702.UD,1999-01-22, 07:02:00,38.603,143.163,0,5.5,IWT014,39.4844,141.147,86,1999-01-22, 07:03:11,100Hz,119,U-D,0.0002384185791015625,1.628,199.7866947724313,0,-100.0,,0.0,0.0,0.0,0.0,0.0,0.0,0.0,0.0,0.0,0.0,0.0,0.0,0.0,0.0,0.0,E-W,0.0002384185791015625,3.481,N-S,0.0002384185791015625,2.601
19990122070200.knt,IWT0169901220702.UD,1999-01-22, 07:02:00,38.603,143.163,0,5.5,IWT016,39.5997,141.6789,198,1999-01-22, 07:03:02,100Hz,119,U-D,0.0002384185791015625,1.177,169.3566243746773,0,-100.0,,0.0,0.0,0.0,0.0,0.0,0.0,0.0,0.0,0.0,0.0,0.0,0.0,0.0,0.0,0.0,E-W,0.0002384185791015625,2.202,N-S,0.0002384185791015625,1.979
19990122070200.knt,IWT0209901220702.UD,1999-01-22, 07:02:00,38.603,143.163,0,5.5,IWT020,39.7841,141.3295,690,1999-01-22, 07:03:59,100Hz,119,U-D,0.0002384185791015625,1.926,205.45290591688118,2,154.0,22.120562683993654,7.880808901073781,7.953103025037756,7.495943938724613,6.780623201914105,2.928566210364487,0.014917436839595278,0.01423910404807205,0.01423910404807205,0.01423910404807205,0.009487254966369678,0.679297291615842,0.25753960603570514,0.14897175321648945,0.07016113029391463,0.04577869050732534,E-W,0.0002384185791015625,5.361,N-S,0.0002384185791015625,4.97
19990122070200.knt,IWT0219901220702.UD,1999-01-22, 07:02:00,38.603,143.163,0,5.5,IWT021,39.9203,141.082,282,1999-01-22, 07:03:19,100Hz,119,U-D,0.0002384185791015625,1.876,231.40640731198044,0,-100.0,,0.0,0.0,0.0,0.0,0.0,0.0,0.0,0.0,0.0,0.0,0.0,0.0,0.0,0.0,0.0,E-W,0.0002384185791015625,3.225,N-S,0.0002384185791015625,3.708
19990122070200.knt,MYG0019901220702.UD,1999-01-22, 07:02:00,38.603,143.163,0,5.5,MYG001,38.9015,141.5684,48,1999-01-22, 07:03:40,100Hz,177,U-D,0.0002384185791015625,3.015,142.2037392503995,1121,1189.0,24.814052177135963,0.7574459818590482,0.7190730721330906,0.767785547768004,1.0311969683632531,2.287545713450664,0.004268027573143572,0.003984385328446374,0.003984385328446374,0.003984385328446374,0.003984385328446374,3.0112182014483304,2.828154984631218,2.828154984631218,2.2186130362015155,0.28221215492847923,E-W,0.0002384185791015625,4.746,N-S,0.0002384185791015625,6.79
19990122070200.knt,MYG0029901220702.UD,1999-01-22, 07:02:00,38.603,143.163,0,5.5,MYG002,38.7262,141.5109,79,1999-01-22, 07:03:42,100Hz,173,U-D,0.0002384185791015625,1.427,144.09068902992783,952,993.0,26.01347669289794,1.779861327630028,1.950070155382237,1.5978784579157082,1.5737134407990305,1.4422620439954685,0.0051704823484938905,0.0051704823484938905,0.003326725551580203,0.003326725551580203,0.0020066006571913793,1.126079311710129,1.126079311710129,1.126079311710129,0.8867420001092227,0.16267068556451583,E-W,0.0002384185791015625,4.124,N-S,0.0002384185791015625,3.746
19990122070200.knt,MYG0039901220702.UD,1999-01-22, 07:02:00,38.603,143.163,0,5.5,MYG003,38.7348,141.3106,28,1999-01-22, 07:03:00,100Hz,119,U-D,0.0002384185791015625,1.009,161.4845359618664,0,-100.0,,0.0,0.0,0.0,0.0,0.0,0.0,0.0,0.0,0.0,0.0,0.0,0.0,0.0,0.0,0.0,E-W,0.0002384185791015625,2.538,N-S,0.0002384185791015625,2.173
19990122070200.knt,MYG0049901220702.UD,1999-01-22, 07:02:00,38.603,143.163,0,5.5,MYG004,38.7292,141.0217,40,1999-01-22, 07:03:07,100Hz,119,U-D,0.0002384185791015625,1.141,186.4343903152565,0,1.0,-4.4054624651898475,0.0,0.0,0.0,0.0,0.0,0.0,0.0,0.0,0.0,0.0,0.0,0.0,0.0,0.0,0.0,E-W,0.0002384185791015625,3.037,N-S,0.0002384185791015625,2.798
