earthquake name,records name,earthquake date,earthquake time,lat,long,depth,mag,stn_code,stn_lat,stn_long,stn_height,rcd_date,rcd_time,frequency,rcd_duration,direction,scale_factor,max_pga,epi_dist,pick_index_manually,pick_index_kalkan,snr_db_kalkan,tc_5sec,tc_4sec,tc_3sec,tc_2sec,tc_1sec,Pd_5sec,Pd_4sec,Pd_3sec,Pd_2sec,Pd_1sec,Pga_5sec,Pga_4sec,Pga_3sec,Pga_2sec,Pga_1sec,Channel,Scale_factor,PGA_ew,Channel.1,Scale_factor.1,PGA_ns
19970111045300.knt,AOM0129701110453.UD,1997-01-11, 04:53:00,40.086,141.979,71,4.1,AOM012,40.5138,141.4805,15.0,1997-01-11, 04:53:24,100Hz,59,U-D,0.0002384185791015625,4.445,63.63958004602496,1236,1238.0,28.812557516246343,1.4358736418279574,1.3882134077090276,1.118341992960611,0.746500707843584,0.552250967999728,0.003596422045495012,0.003596422045495012,0.003596422045495012,0.0023033700733458493,0.001328726292180482,3.4119513216532393,3.3721034986542096,3.3721034986542096,2.95284555402736,2.95284555402736,E-W,0.0002384185791015625,9.78,N-S,0.0002384185791015625,9.875
19970111045300.knt,IWT0019701110453.UD,1997-01-11, 04:53:00,40.086,141.979,71,4.1,IWT001,40.4099,141.7191,15.0,1997-01-11, 04:53:20,100Hz,59,U-D,0.0002384185791015625,21.073,42.23381209920642,1468,1473.0,33.895524161590515,0.3452035630560457,0.3471203300836787,0.3297343034438965,0.2302052323839983,0.13339638436072912,0.005315844287528559,0.005315844287528559,0.005315844287528559,0.004980314836452787,0.004720302196613455,21.0615866214342,21.0615866214342,21.0615866214342,21.0615866214342,21.0615866214342,E-W,0.0002384185791015625,16.261,N-S,0.0002384185791015625,11.348
19970111045300.knt,IWT0029701110453.UD,1997-01-11, 04:53:00,40.086,141.979,71,4.1,IWT002,40.1819,141.7641,28.0,1997-01-11, 04:53:27,100Hz,59,U-D,0.0002384185791015625,4.677,21.153683334602245,636,644.0,32.300813399121544,5.614228960092292,5.3309653506397074,4.495353662744614,3.388990512405604,1.9227704382397435,0.012808872627322998,0.012808872627322998,0.012808872627322998,0.010843991684187149,0.007319206933080467,4.678780585290856,4.678780585290856,4.678780585290856,4.678780585290856,4.678780585290856,E-W,0.0002384185791015625,6.966,N-S,0.0002384185791015625,7.919
19970111045300.knt,IWT0039701110453.UD,1997-01-11, 04:53:00,40.086,141.979,71,4.1,IWT003,40.0083,141.8861,9.0,1997-01-11, 04:53:19,100Hz,59,U-D,0.0002384185791015625,8.186,11.712380904135227,1402,1402.0,29.78780131146854,0.48317986643442945,0.35503710129616295,0.13502390151120663,0.10231710173416117,0.10305683287890588,0.0037972466963575816,0.0037397061663335235,0.0015231229916575066,0.0012455662678371596,0.0012455662678371596,8.167468477301652,8.167468477301652,8.167468477301652,8.167468477301652,8.167468477301652,E-W,0.0002384185791015625,9.522,N-S,0.0002384185791015625,12.241
19970111045300.knt,IWT0059701110453.UD,1997-01-11, 04:53:00,40.086,141.979,71,4.1,IWT005,39.6472,141.9464,4.0,1997-01-11, 04:53:30,100Hz,59,U-D,0.0002384185791015625,4.428,48.87159584822885,497,496.0,33.05433565818538,4.383535758588931,3.7689384703107045,2.719684795317315,1.7948912493476867,2.0907437275403105,0.015233806386024404,0.014645422563600494,0.012512555415252515,0.010685908891119212,0.010685908891119212,2.3866614362600638,2.3866614362600638,2.3866614362600638,2.3866614362600638,2.3866614362600638,E-W,0.0002384185791015625,8.266,N-S,0.0002384185791015625,4.993
19970111045300.knt,IWT0069701110453.UD,1997-01-11, 04:53:00,40.086,141.979,71,4.1,IWT006,39.4806,141.9652,4.0,1997-01-11, 04:53:32,100Hz,59,U-D,0.0002384185791015625,4.438,67.32773570254408,0,-100.0,,0.0,0.0,0.0,0.0,0.0,0.0,0.0,0.0,0.0,0.0,0.0,0.0,0.0,0.0,0.0,E-W,0.0002384185791015625,7.614,N-S,0.0002384185791015625,6.863
19970111045300.knt,IWT0079701110453.UD,1997-01-11, 04:53:00,40.086,141.979,71,4.1,IWT007,39.2701,141.8561,11.0,1997-01-11, 04:53:37,100Hz,59,U-D,0.0002384185791015625,4.356,91.33155409292297,221,35.0,21.54414457210415,8.868610542914983,7.385608877272869,7.15461778835205,9.04424089819273,17.222124273581837,0.023966966169801148,0.02170828529718819,0.02170828529718819,0.02170828529718819,0.02170828529718819,1.7562187031693122,1.7562187031693122,1.7562187031693122,1.7190432055847034,1.6771032827346373,E-W,0.0002384185791015625,10.846,N-S,0.0002384185791015625,12.974
19970111045300.knt,IWT0099701110453.UD,1997-01-11, 04:53:00,40.086,141.979,71,4.1,IWT009,39.0187,141.4031,150.0,1997-01-11, 04:53:45,100Hz,59,U-D,0.0002384185791015625,1.842,128.5389337779547,0,-100.0,,0.0,0.0,0.0,0.0,0.0,0.0,0.0,0.0,0.0,0.0,0.0,0.0,0.0,0.0,0.0,E-W,0.0002384185791015625,5.138,N-S,0.0002384185791015625,8.569
19970111045300.knt,IWT0129701110453.UD,1997-01-11, 04:53:00,40.086,141.979,71,4.1,IWT012,39.3209,141.1378,64.0,1997-01-11, 04:53:42,100Hz,59,U-D,0.0002384185791015625,2.037,111.42853933193662,0,1.0,-7.378888988111871,0.0,0.0,0.0,0.0,0.0,0.0,0.0,0.0,0.0,0.0,0.0,0.0,0.0,0.0,0.0,E-W,0.0002384185791015625,7.526,N-S,0.0002384185791015625,5.652
19970111045300.knt,IWT0139701110453.UD,1997-01-11, 04:53:00,40.086,141.979,71,4.1,IWT013,39.3367,141.5378,272.0,1997-01-11, 04:53:37,100Hz,59,U-D,0.0002384185791015625,3.93,91.46685302263927,238,248.0,27.389994152928807,5.949194088459032,6.327084553589748,7.303211562041251,9.21656706627477,9.712633236139853,0.013750923786562898,0.013750923786562898,0.013750923786562898,0.013750923786562898,0.013750923786562898,2.9700703507233785,2.9700703507233785,2.9700703507233785,2.1130130784714636,1.9990960090891572,E-W,0.0002384185791015625,11.059,N-S,0.0002384185791015625,8.732
19970111045300.knt,IWT0169701110453.UD,1997-01-11, 04:53:00,40.086,141.979,71,4.1,IWT016,39.5997,141.6789,198.0,1997-01-11, 04:53:31,100Hz,59,U-D,0.0002384185791015625,4.288,59.83683881468857,505,502.00000000000006,29.44855200887412,9.096179723306408,7.423977192417835,5.230158357374519,3.1124101327842015,3.4823465056561838,0.02522119121802712,0.025168486220483084,0.02164108800482024,0.014928346146979268,0.014928346146979268,2.885062671151221,2.885062671151221,2.885062671151221,2.885062671151221,2.1202653342181845,E-W,0.0002384185791015625,7.164,N-S,0.0002384185791015625,9.043
19970111045300.knt,IWT0179701110453.UD,1997-01-11, 04:53:00,40.086,141.979,71,4.1,IWT017,39.6336,141.4376,630.0,1997-01-11, 04:53:33,100Hz,59,U-D,0.0002384185791015625,3.822,68.30797856753145,0,-100.0,,0.0,0.0,0.0,0.0,0.0,0.0,0.0,0.0,0.0,0.0,0.0,0.0,0.0,0.0,0.0,E-W,0.0002384185791015625,4.386,N-S,0.0002384185791015625,6.465
19970111045300.knt,IWT0189701110453.UD,1997-01-11, 04:53:00,40.086,141.979,71,4.1,IWT018,39.6953,141.1478,125.0,1997-01-11, 04:53:36,100Hz,59,U-D,0.0002384185791015625,2.922,83.16382225789746,0,-100.0,,0.0,0.0,0.0,0.0,0.0,0.0,0.0,0.0,0.0,0.0,0.0,0.0,0.0,0.0,0.0,E-W,0.0002384185791015625,8.294,N-S,0.0002384185791015625,4.747
19970111045300.knt,IWT0199701110453.UD,1997-01-11, 04:53:00,40.086,141.979,71,4.1,IWT019,39.8428,141.7952,103.0,1997-01-11, 04:53:27,100Hz,59,U-D,0.0002384185791015625,11.354,31.251740969517506,695,695.0,38.616732527747374,6.963354882421952,7.180194655171059,7.001321901556249,6.386425363459159,5.636655572217147,0.02387431652931069,0.02387431652931069,0.02387431652931069,0.023872478662020143,0.01987663386539588,7.275698059845118,7.275698059845118,7.275698059845118,7.275698059845118,5.107289869089987,E-W,0.0002384185791015625,26.43,N-S,0.0002384185791015625,17.804
19970111045300.knt,IWT0209701110453.UD,1997-01-11, 04:53:00,40.086,141.979,71,4.1,IWT020,39.7841,141.3295,690.0,1997-01-11, 04:53:22,100Hz,59,U-D,0.0002384185791015625,10.35,64.75741551680619,1479,1491.0,29.674526448165764,0.7562563821931564,0.7372875779308056,0.6190157891981352,0.34064370103595,0.1969217609145295,0.0035767120056166782,0.0035767120056166782,0.0035767120056166782,0.002528099008448521,0.0023796644344590626,10.33725543246359,10.33725543246359,10.33725543246359,10.33725543246359,10.33725543246359,E-W,0.0002384185791015625,5.209,N-S,0.0002384185791015625,8.801
19970111045300.knt,IWT0219701110453.UD,1997-01-11, 04:53:00,40.086,141.979,71,4.1,IWT021,39.9203,141.082,282.0,1997-01-11, 04:53:24,100Hz,59,U-D,0.0002384185791015625,2.044,78.59301623582911,1407,1397.0,31.595551646886655,8.147773480643767,6.645751682340277,5.539962584462878,7.123050220013297,12.121406849453688,0.02664848469563387,0.025620099974068184,0.023188397188661662,0.023188397188661662,0.023188397188661662,2.072502846362491,2.072502846362491,2.072502846362491,2.072502846362491,2.072502846362491,E-W,0.0002384185791015625,5.761,N-S,0.0002384185791015625,7.551
19970111045300.knt,IWT0229701110453.UD,1997-01-11, 04:53:00,40.086,141.979,71,4.1,IWT022,40.1011,141.0523,300.0,1997-01-11, 04:53:36,100Hz,59,U-D,0.0002384185791015625,1.514,78.84581393379523,207,201.00000000000003,22.09672634265285,1.8795062762402532,2.0476786901406228,2.1233593467540106,2.2025778442130877,2.5456043744326147,0.003053010694122325,0.003053010694122325,0.003053010694122325,0.003053010694122325,0.003053010694122325,1.5147455618695114,1.5147455618695114,1.5147455618695114,1.5147455618695114,1.0428601453214226,E-W,0.0002384185791015625,3.527,N-S,0.0002384185791015625,2.69
19970111045300.knt,IWT0249701110453.UD,1997-01-11, 04:53:00,40.086,141.979,71,4.1,IWT024,40.2632,141.2901,94.0,1997-01-11, 04:53:32,100Hz,59,U-D,0.0002384185791015625,6.116,61.757707663483004,0,-100.0,,0.0,0.0,0.0,0.0,0.0,0.0,0.0,0.0,0.0,0.0,0.0,0.0,0.0,0.0,0.0,E-W,0.0002384185791015625,10.533,N-S,0.0002384185791015625,6.315
19970111045300.knt,MYG0029701110453.UD,1997-01-11, 04:53:00,40.086,141.979,71,4.1,MYG002,38.7262,141.5109,79.0,1997-01-11, 04:53:51,100Hz,59,U-D,0.0002384185791015625,1.067,156.45932956170972,0,-100.0,,0.0,0.0,0.0,0.0,0.0,0.0,0.0,0.0,0.0,0.0,0.0,0.0,0.0,0.0,0.0,E-W,0.0002384185791015625,4.32,N-S,0.0002384185791015625,5.353
19970111145000.knt,KGS0069701111450.UD,1997-01-11, 14:50:00,31.571,131.915,26,5.0,KGS006,31.906,130.7021,188.0,1997-01-11, 14:51:58,100Hz,59,U-D,0.0002384185791015625,0.873,120.59609443670395,0,-100.0,,0.0,0.0,0.0,0.0,0.0,0.0,0.0,0.0,0.0,0.0,0.0,0.0,0.0,0.0,0.0,E-W,0.0002384185791015625,1.376,N-S,0.0002384185791015625,2.497
19970111145000.knt,KGS0089701111450.UD,1997-01-11, 14:50:00,31.571,131.915,26,5.0,KGS008,31.7621,130.5699,15.0,1997-01-11, 14:51:01,100Hz,59,U-D,0.0002384185791015625,2.107,129.06062988417315,0,-100.0,,0.0,0.0,0.0,0.0,0.0,0.0,0.0,0.0,0.0,0.0,0.0,0.0,0.0,0.0,0.0,E-W,0.0002384185791015625,2.911,N-S,0.0002384185791015625,2.818
19970111145000.knt,KGS0099701111450.UD,1997-01-11, 14:50:00,31.571,131.915,26,5.0,KGS009,31.7368,130.7613,4.0,1997-01-11, 14:51:55,100Hz,59,U-D,0.0002384185791015625,2.408,110.74575060489353,0,1.0,-6.2088270885030425,0.0,0.0,0.0,0.0,0.0,0.0,0.0,0.0,0.0,0.0,0.0,0.0,0.0,0.0,0.0,E-W,0.0002384185791015625,3.436,N-S,0.0002384185791015625,4.643
19970111145000.knt,KGS0139701111450.UD,1997-01-11, 14:50:00,31.571,131.915,26,5.0,KGS013,31.5973,130.9938,118.0,1997-01-11, 14:51:37,100Hz,59,U-D,0.0002384185791015625,3.149,87.30832236468018,1425,571.0,24.74261673573912,0.6153730742882698,0.5963358570862399,0.6027620808700574,0.6168424607201872,0.5060178148951977,0.013361265700141163,0.013361265700141163,0.013361265700141163,0.013361265700141163,0.011049123590824775,3.1966851115045603,3.1966851115045603,3.1966851115045603,3.1966851115045603,3.1966851115045603,E-W,0.0002384185791015625,4.627,N-S,0.0002384185791015625,6.731
19970111145000.knt,KGS0149701111450.UD,1997-01-11, 14:50:00,31.571,131.915,26,5.0,KGS014,31.496,130.6999,3.0,1997-01-11, 14:51:46,100Hz,59,U-D,0.0002384185791015625,1.888,115.46239921513381,0,-100.0,,0.0,0.0,0.0,0.0,0.0,0.0,0.0,0.0,0.0,0.0,0.0,0.0,0.0,0.0,0.0,E-W,0.0002384185791015625,5.717,N-S,0.0002384185791015625,5.618
19970111145000.knt,KGS0159701111450.UD,1997-01-11, 14:50:00,31.571,131.915,26,5.0,KGS015,31.4304,131.011,34.0,1997-01-11, 14:51:49,100Hz,59,U-D,0.0002384185791015625,5.65,87.12089613965078,0,-100.0,,0.0,0.0,0.0,0.0,0.0,0.0,0.0,0.0,0.0,0.0,0.0,0.0,0.0,0.0,0.0,E-W,0.0002384185791015625,18.781,N-S,0.0002384185791015625,17.264
19970111145000.knt,KGS0189701111450.UD,1997-01-11, 14:50:00,31.571,131.915,26,5.0,KGS018,31.3757,130.5449,51.0,1997-01-11, 14:51:44,100Hz,60,U-D,0.0002384185791015625,6.543,131.73646946239828,1392,1392.0,25.026847542919384,0.7003665983088044,0.6755006076685385,0.5919884665576394,0.436258804566807,0.5204915371493126,0.016258103104743644,0.016258103104743644,0.011549647026635338,0.010448593956442239,0.009186822898452924,6.465612709955017,6.465612709955017,6.465612709955017,6.465612709955017,5.794803805305669,E-W,0.0002384185791015625,6.257,N-S,0.0002384185791015625,5.803
19970111145000.knt,KGS0209701111450.UD,1997-01-11, 14:50:00,31.571,131.915,26,5.0,KGS020,31.2396,130.4915,21.0,1997-01-11, 14:51:02,100Hz,59,U-D,0.0002384185791015625,1.541,140.03175526973214,0,-100.0,,0.0,0.0,0.0,0.0,0.0,0.0,0.0,0.0,0.0,0.0,0.0,0.0,0.0,0.0,0.0,E-W,0.0002384185791015625,4.319,N-S,0.0002384185791015625,2.514
19970111145000.knt,KGS0219701111450.UD,1997-01-11, 14:50:00,31.571,131.915,26,5.0,KGS021,31.2535,130.6324,8.0,1997-01-11, 14:51:01,100Hz,59,U-D,0.0002384185791015625,1.754,126.73207656003363,0,-100.0,,0.0,0.0,0.0,0.0,0.0,0.0,0.0,0.0,0.0,0.0,0.0,0.0,0.0,0.0,0.0,E-W,0.0002384185791015625,4.615,N-S,0.0002384185791015625,5.791
19970111145000.knt,KGS0229701111450.UD,1997-01-11, 14:50:00,31.571,131.915,26,5.0,KGS022,31.2804,131.0504,12.0,1997-01-11, 14:51:48,100Hz,59,U-D,0.0002384185791015625,1.234,88.17128715660222,0,-100.0,,0.0,0.0,0.0,0.0,0.0,0.0,0.0,0.0,0.0,0.0,0.0,0.0,0.0,0.0,0.0,E-W,0.0002384185791015625,5.018,N-S,0.0002384185791015625,4.657
19970111145000.knt,KGS0239701111450.UD,1997-01-11, 14:50:00,31.571,131.915,26,5.0,KGS023,31.199,130.849,179.0,1997-01-11, 14:51:42,100Hz,59,U-D,0.0002384185791015625,4.482,109.31806816785598,1223,1239.0,35.74090838012671,5.505380443345409,5.683559893833451,5.573228231490373,3.9482086245097836,1.5011250253684136,0.023895832111793136,0.023895832111793136,0.023312646179841287,0.017181103104709005,0.0050961835432746586,2.123813474100585,2.123813474100585,1.7184336257414077,1.123782845152298,1.0644361425625712,E-W,0.0002384185791015625,9.177,N-S,0.0002384185791015625,8.475
19970111145000.knt,MYZ0019701111450.UD,1997-01-11, 14:50:00,31.571,131.915,26,5.0,MYZ001,32.705,131.3089,370.0,1997-01-11, 14:51:03,100Hz,59,U-D,0.0002384185791015625,0.929,138.40701670661332,0,-100.0,,0.0,0.0,0.0,0.0,0.0,0.0,0.0,0.0,0.0,0.0,0.0,0.0,0.0,0.0,0.0,E-W,0.0002384185791015625,2.136,N-S,0.0002384185791015625,2.724
19970111145000.knt,MYZ0029701111450.UD,1997-01-11, 14:50:00,31.571,131.915,26,5.0,MYZ002,32.6978,131.6831,19.0,1997-01-11, 14:51:01,100Hz,59,U-D,0.0002384185791015625,1.144,127.1827953959317,0,-100.0,,0.0,0.0,0.0,0.0,0.0,0.0,0.0,0.0,0.0,0.0,0.0,0.0,0.0,0.0,0.0,E-W,0.0002384185791015625,2.666,N-S,0.0002384185791015625,4.843
19970111145000.knt,MYZ0039701111450.UD,1997-01-11, 14:50:00,31.571,131.915,26,5.0,MYZ003,32.5659,131.6598,7.0,1997-01-11, 14:51:57,100Hz,59,U-D,0.0002384185791015625,4.363,113.21106474080796,0,1.0,8.279302443684308,0.0,0.0,0.0,0.0,0.0,0.0,0.0,0.0,0.0,0.0,0.0,0.0,0.0,0.0,0.0,E-W,0.0002384185791015625,7.203,N-S,0.0002384185791015625,5.335
19970111145000.knt,MYZ0049701111450.UD,1997-01-11, 14:50:00,31.571,131.915,26,5.0,MYZ004,32.3889,131.3339,298.0,1997-01-11, 14:51:56,100Hz,59,U-D,0.0002384185791015625,0.79,106.18443887772808,0,-100.0,,0.0,0.0,0.0,0.0,0.0,0.0,0.0,0.0,0.0,0.0,0.0,0.0,0.0,0.0,0.0,E-W,0.0002384185791015625,2.148,N-S,0.0002384185791015625,1.591
19970111145000.knt,MYZ0069701111450.UD,1997-01-11, 14:50:00,31.571,131.915,26,5.0,MYZ006,32.2565,131.5609,22.0,1997-01-11, 14:51:39,100Hz,59,U-D,0.0002384185791015625,5.826,83.22951370654134,1221,1229.0,23.28148389843075,1.6021912483997638,1.3086507087672217,0.8173626679248538,0.4799009784978902,0.5368408193742719,0.014610311441663519,0.014610311441663519,0.012396143189164974,0.008923986552806538,0.003910480393653905,5.7874220206552875,5.7874220206552875,5.7874220206552875,5.7874220206552875,2.2563650870534753,E-W,0.0002384185791015625,6.042,N-S,0.0002384185791015625,7.894
19970111145000.knt,MYZ0089701111450.UD,1997-01-11, 14:50:00,31.571,131.915,26,5.0,MYZ008,32.106,131.3928,65.0,1997-01-11, 14:51:36,100Hz,59,U-D,0.0002384185791015625,7.638,77.28072920275862,1390,1390.0,37.24974133465605,3.050382963484971,2.829211758246919,2.06332596564085,1.2415499226373252,0.635978710535904,0.029319444967199924,0.029319444967199924,0.027535315912135507,0.02008327592242982,0.007944443074994749,7.640707634219669,7.640707634219669,7.640707634219669,7.640707634219669,4.667523535005973,E-W,0.0002384185791015625,8.405,N-S,0.0002384185791015625,7.237
19970111145000.knt,MYZ0119701111450.UD,1997-01-11, 14:50:00,31.571,131.915,26,5.0,MYZ011,31.9951,131.2557,26.0,1997-01-11, 14:51:36,100Hz,59,U-D,0.0002384185791015625,2.871,78.14926280780041,1363,1362.0,26.031208941918187,0.7579911547311002,0.7250046195299025,0.5960229356713843,0.6173257580395375,0.6601794257459038,0.012928505407586584,0.012928505407586584,0.012928505407586584,0.012928505407586584,0.012928505407586584,2.8952091509550804,2.8952091509550804,2.8952091509550804,2.8952091509550804,2.777302616978955,E-W,0.0002384185791015625,4.384,N-S,0.0002384185791015625,3.913
19970111145000.knt,MYZ0139701111450.UD,1997-01-11, 14:50:00,31.571,131.915,26,5.0,MYZ013,31.9087,131.4187,5.0,1997-01-11, 14:51:33,100Hz,75,U-D,0.0002384185791015625,14.04,60.10577765605371,1403,1403.0,31.170438074338783,0.9259331444153499,0.9777850351515941,0.8411570865485578,0.6024082099879055,0.6060093504980109,0.02952760549725856,0.02952760549725856,0.02952760549725856,0.02952760549725856,0.02952760549725856,10.23205978218083,10.23205978218083,10.23205978218083,10.23205978218083,10.23205978218083,E-W,0.0002384185791015625,17.224,N-S,0.0002384185791015625,21.72
19970111145000.knt,MYZ0149701111450.UD,1997-01-11, 14:50:00,31.571,131.915,26,5.0,MYZ014,31.8454,131.3026,135.0,1997-01-11, 14:51:33,100Hz,59,U-D,0.0002384185791015625,13.206,65.47528968916393,1436,1434.0,23.91163680870898,0.8694977245105268,0.8280914453478839,0.669711594119367,0.4757126841377007,0.4020950595888995,0.02338721576437272,0.02338721576437272,0.02338721576437272,0.02338721576437272,0.02338721576437272,13.265271933183511,13.265271933183511,13.265271933183511,13.265271933183511,13.265271933183511,E-W,0.0002384185791015625,7.623,N-S,0.0002384185791015625,7.831
19970111145000.knt,MYZ0159701111450.UD,1997-01-11, 14:50:00,31.571,131.915,26,5.0,MYZ015,31.7185,131.0621,159.0,1997-01-11, 14:51:36,100Hz,59,U-D,0.0002384185791015625,9.611,82.38618485198336,0,3.0,14.800397166591782,0.0,0.0,0.0,0.0,0.0,0.0,0.0,0.0,0.0,0.0,0.0,0.0,0.0,0.0,0.0,E-W,0.0002384185791015625,7.113,N-S,0.0002384185791015625,5.763
19970111145000.knt,MYZ0169701111450.UD,1997-01-11, 14:50:00,31.571,131.915,26,5.0,MYZ016,31.6129,131.3743,9.0,1997-01-11, 14:51:31,100Hz,60,U-D,0.0002384185791015625,18.381,51.42432380402416,1414,1416.0,26.97850953588371,0.9005604118364431,0.8769298452935508,0.8439124660722069,0.5783707791200287,0.5439825700132491,0.04296803060115293,0.04296803060115293,0.04296803060115293,0.04296803060115293,0.04296803060115293,18.37292374085268,18.37292374085268,18.37292374085268,18.37292374085268,18.37292374085268,E-W,0.0002384185791015625,14.141,N-S,0.0002384185791015625,17.457
19970111145000.knt,MYZ0179701111450.UD,1997-01-11, 14:50:00,31.571,131.915,26,5.0,MYZ017,31.4637,131.2277,6.0,1997-01-11, 14:51:34,100Hz,59,U-D,0.0002384185791015625,10.785,66.23367903569236,1408,1408.0,22.986409813141545,0.5032312182077523,0.5079291903907521,0.5109497136172554,0.45857081992573945,0.4519492759058777,0.019873678725400485,0.019873678725400485,0.019873678725400485,0.019873678725400485,0.019873678725400485,10.800613179699528,10.800613179699528,10.800613179699528,10.800613179699528,10.800613179699528,E-W,0.0002384185791015625,11.019,N-S,0.0002384185791015625,16.792
