earthquake name,records name,earthquake date,earthquake time,lat,long,depth,mag,stn_code,stn_lat,stn_long,stn_height,rcd_date,rcd_time,frequency,rcd_duration,direction,scale_factor,max_pga,epi_dist,pick_index_manually,pick_index_kalkan,snr_db_kalkan,tc_5sec,tc_4sec,tc_3sec,tc_2sec,tc_1sec,Pd_5sec,Pd_4sec,Pd_3sec,Pd_2sec,Pd_1sec,Pga_5sec,Pga_4sec,Pga_3sec,Pga_2sec,Pga_1sec,Channel,Scale_factor,PGA_ew,Channel.1,Scale_factor.1,PGA_ns
20020124160800.knt,OKY0080201241608.UD,2002-01-24, 16:08:00,35.363,133.32,9,4.5,OKY008,34.8701,133.9036,62,2002-01-24, 16:09:58,100Hz,119,U-D,0.0002384185791015625,1.419,76.29895527999165,465,482.0,19.628735365125436,1.162511425377456,0.7454233184644149,0.7359544240060635,0.7715348875305487,0.4249181898484271,0.0017238499048129895,0.0012053768738454036,0.0012053768738454036,0.0012053768738454036,0.0009080566410609558,0.8819921722129589,0.8819921722129589,0.8819921722129589,0.8819921722129589,0.7999413034745388,E-W,0.0002384185791015625,3.444,N-S,0.0002384185791015625,3.5
20020124160800.knt,OKY0100201241608.UD,2002-01-24, 16:08:00,35.363,133.32,9,4.5,OKY010,34.7454,134.1884,2,2002-01-24, 16:09:06,100Hz,119,U-D,0.0002384185791015625,1.527,104.71026257443683,133,132.0,12.193934616338405,1.5921874737471082,1.625013646799236,1.6184461555160465,1.4137775362911211,1.153744257635615,0.0026304370075824423,0.0026304370075824423,0.0026304370075824423,0.0026304370075824423,0.0026304370075824423,1.293843145212697,1.293843145212697,1.293843145212697,1.293843145212697,1.293843145212697,E-W,0.0002384185791015625,3.236,N-S,0.0002384185791015625,2.173
20020124160800.knt,OKY0110201241608.UD,2002-01-24, 16:08:00,35.363,133.32,9,4.5,OKY011,34.654,133.9067,2,2002-01-24, 16:09:04,100Hz,119,U-D,0.0002384185791015625,1.724,95.23883204518857,0,-100.0,,0.0,0.0,0.0,0.0,0.0,0.0,0.0,0.0,0.0,0.0,0.0,0.0,0.0,0.0,0.0,E-W,0.0002384185791015625,4.506,N-S,0.0002384185791015625,5.199
20020124160800.knt,OKY0130201241608.UD,2002-01-24, 16:08:00,35.363,133.32,9,4.5,OKY013,34.5095,133.5099,6,2002-01-24, 16:09:04,100Hz,119,U-D,0.0002384185791015625,1.981,96.4706061683075,201,208.0,22.53155677349246,5.630303138895908,5.848960425832466,6.812320031181053,7.553393102161956,9.556389657577013,0.005434089399861742,0.005434089399861742,0.005434089399861742,0.005434089399861742,0.005434089399861742,0.7572470467651732,0.7572470467651732,0.7572470467651732,0.7572470467651732,0.4409685954420962,E-W,0.0002384185791015625,5.215,N-S,0.0002384185791015625,3.66
20020124160800.knt,OKY0140201241608.UD,2002-01-24, 16:08:00,35.363,133.32,9,4.5,OKY014,34.4462,133.7876,49,2002-01-24, 16:09:08,100Hz,119,U-D,0.0002384185791015625,2.061,110.50182019941353,7,52.0,10.29953477566735,1.591446881806865,0.8906065447145174,0.7091779799601354,0.4656410647606532,0.5290840415877462,0.0016871707570221333,0.0009899020514232406,0.0007338935192137412,0.0004836314394097885,0.0003876398166707522,0.6790087117712794,0.6790087117712794,0.5065385376859695,0.5065385376859695,0.3639154127957629,E-W,0.0002384185791015625,2.608,N-S,0.0002384185791015625,3.71
20020124160800.knt,OKY0150201241608.UD,2002-01-24, 16:08:00,35.363,133.32,9,4.5,OKY015,35.2793,133.9256,475,2002-01-24, 16:09:45,100Hz,119,U-D,0.0002384185791015625,2.081,55.72663998845234,1420,1419.0,23.410972370227803,1.6371964588707932,1.684172326189773,1.788472354523629,1.9141000235990369,1.776422162134338,0.0040368234723210114,0.0040368234723210114,0.0040368234723210114,0.0040368234723210114,0.0040368234723210114,2.0889084852770363,2.0889084852770363,2.0889084852770363,2.0889084852770363,2.0889084852770363,E-W,0.0002384185791015625,3.579,N-S,0.0002384185791015625,2.514
20020124160800.knt,SMN0010201241608.UD,2002-01-24, 16:08:00,35.363,133.32,9,4.5,SMN001,35.5372,133.1612,2,2002-01-24, 16:09:40,100Hz,119,U-D,0.0002384185791015625,5.477,24.127013886862347,1402,1400.0,33.521970469180815,2.138588378522077,2.5764065076650953,2.3742575079049653,1.2511823889476266,0.8863305665596362,0.02460736299539668,0.02460736299539668,0.021504111315776026,0.009160024707994967,0.006841960813157722,5.462802806290246,4.581888801933769,4.581888801933769,4.581888801933769,4.581888801933769,E-W,0.0002384185791015625,22.284,N-S,0.0002384185791015625,22.148
20020124160800.knt,SMN0020201241608.UD,2002-01-24, 16:08:00,35.363,133.32,9,4.5,SMN002,35.4714,133.0682,2,2002-01-24, 16:09:40,100Hz,119,U-D,0.0002384185791015625,4.757,25.805789914218746,1433,804.0000000000001,20.490090181228787,1.081918108760564,1.1194847018870662,0.9085857908135161,0.9157029975640648,0.9783943123548486,0.011147123523427747,0.011147123523427747,0.011147123523427747,0.011147123523427747,0.011147123523427747,4.791533439506114,4.791533439506114,4.791533439506114,4.791533439506114,4.791533439506114,E-W,0.0002384185791015625,7.463,N-S,0.0002384185791015625,6.508
20020124160800.knt,SMN0030201241608.UD,2002-01-24, 16:08:00,35.363,133.32,9,4.5,SMN003,35.1795,133.0929,332,2002-01-24, 16:09:41,100Hz,119,U-D,0.0002384185791015625,7.568,29.006594066318677,1388,1394.0,21.425268685114606,3.8896783558146697,4.382609096761082,4.245037675777795,2.6909940428101216,0.9152750595615436,0.02274652912091776,0.02274652912091776,0.02274652912091776,0.021022705848464142,0.009405513023920531,7.593388754802747,7.593388754802747,7.593388754802747,7.593388754802747,7.593388754802747,E-W,0.0002384185791015625,12.641,N-S,0.0002384185791015625,16.47
20020124160800.knt,SMN0040201241608.UD,2002-01-24, 16:08:00,35.363,133.32,9,4.5,SMN004,35.2881,132.9004,45,2002-01-24, 16:09:47,100Hz,119,U-D,0.0002384185791015625,3.614,38.967221217247825,955,919.0,17.51161874532743,4.960230365332911,6.042644619789412,6.7943918096173395,7.606863311252621,10.771832069397322,0.01808702204290923,0.01808702204290923,0.01808702204290923,0.01808702204290923,0.01808702204290923,2.9542793245052845,2.9542793245052845,2.9542793245052845,2.9542793245052845,2.4621162931918557,E-W,0.0002384185791015625,7.48,N-S,0.0002384185791015625,8.502
20020124160800.knt,SMN0060201241608.UD,2002-01-24, 16:08:00,35.363,133.32,9,4.5,SMN006,35.1942,132.4978,36,2002-01-24, 16:09:58,100Hz,119,U-D,0.0002384185791015625,0.84,76.95839231377063,473,482.0,20.268381644863723,3.1666722633719377,2.5854197041134257,2.0908145421984083,1.481787149083193,1.722099940190176,0.0035783622623709595,0.0032675744541130545,0.002722824917296015,0.002211823500354487,0.0021972960996924657,0.557874853069198,0.557874853069198,0.557874853069198,0.557874853069198,0.33844242902025173,E-W,0.0002384185791015625,2.166,N-S,0.0002384185791015625,2.647
20020124160800.knt,SMN0150201241608.UD,2002-01-24, 16:08:00,35.363,133.32,9,4.5,SMN015,35.3644,133.1704,32,2002-01-24, 16:09:38,100Hz,119,U-D,0.0002384185791015625,6.583,13.566450325340748,1417,1424.0,29.662629256155277,0.7866919191107805,0.8158001318136127,0.9791628616826562,0.4760039862832218,0.5998516949864825,0.028335688914022834,0.028335688914022834,0.028335688914022834,0.0051339312542050515,0.0051339312542050515,6.6166769424978655,6.6166769424978655,6.584417123831733,6.150931144392263,5.991314325131285,E-W,0.0002384185791015625,29.465,N-S,0.0002384185791015625,16.402
20020124160800.knt,SMN0160201241608.UD,2002-01-24, 16:08:00,35.363,133.32,9,4.5,SMN016,35.1957,132.8146,210,2002-01-24, 16:09:44,100Hz,119,U-D,0.0002384185791015625,4.205,49.5050803091914,1416,1433.0,24.71196678340496,4.912124370121204,4.617351547908852,3.5666300324298486,1.9519711692948243,0.538841374621816,0.018340086587719056,0.018340086587719056,0.017802532263875917,0.013514609247223468,0.003708530138308602,4.225993344901568,4.225993344901568,4.225993344901568,4.225993344901568,4.225993344901568,E-W,0.0002384185791015625,6.764,N-S,0.0002384185791015625,5.561
20020124160800.knt,TTR0050201241608.UD,2002-01-24, 16:08:00,35.363,133.32,9,4.5,TTR005,35.429,133.8253,27,2002-01-24, 16:09:49,100Hz,119,U-D,0.0002384185791015625,2.413,46.385868089639544,883,882.0,19.588066890485205,1.9904950967384585,2.0734020116521803,2.1966526813432004,2.3487036457430666,2.51900824175634,0.004498235246415775,0.004498235246415775,0.004498235246415775,0.004498235246415775,0.004498235246415775,1.5462877678581084,1.5462877678581084,1.5462877678581084,1.5462877678581084,1.5462877678581084,E-W,0.0002384185791015625,7.698,N-S,0.0002384185791015625,12.683
20020124160800.knt,TTR0060201241608.UD,2002-01-24, 16:08:00,35.363,133.32,9,4.5,TTR006,35.5106,133.6303,20,2002-01-24, 16:09:46,100Hz,119,U-D,0.0002384185791015625,1.968,32.552376845392224,0,1.0,10.40562199470719,0.0,0.0,0.0,0.0,0.0,0.0,0.0,0.0,0.0,0.0,0.0,0.0,0.0,0.0,0.0,E-W,0.0002384185791015625,5.764,N-S,0.0002384185791015625,7.332
20020124160800.knt,TTR0070201241608.UD,2002-01-24, 16:08:00,35.363,133.32,9,4.5,TTR007,35.2826,133.4876,155,2002-01-24, 16:09:39,100Hz,119,U-D,0.0002384185791015625,26.776,17.63891060821137,1402,1401.0,40.84753644136989,6.61081580001608,6.3762404261656815,5.6408131842111064,4.001743371040391,1.3123867525160628,0.09284608518588726,0.09284608518588726,0.09284608518588726,0.07672988055847813,0.03321986696205941,26.79029148047264,26.79029148047264,26.79029148047264,26.79029148047264,26.79029148047264,E-W,0.0002384185791015625,35.067,N-S,0.0002384185791015625,26.0
20020124160800.knt,TTR0080201241608.UD,2002-01-24, 16:08:00,35.363,133.32,9,4.5,TTR008,35.4258,133.3301,2,2002-01-24, 16:09:37,100Hz,145,U-D,0.0002384185791015625,75.79,7.042799304916991,1404,1411.0,20.946032249963324,0.6936884543509144,0.6968509363597402,0.7099568647335469,0.8228117576251367,0.5975829497447406,0.07814172189308095,0.07814172189308095,0.07814172189308095,0.07814172189308095,0.06109080287271655,75.8136375212757,75.8136375212757,75.8136375212757,75.8136375212757,75.8136375212757,E-W,0.0002384185791015625,67.177,N-S,0.0002384185791015625,50.567
20020124160800.knt,TTR0090201241608.UD,2002-01-24, 16:08:00,35.363,133.32,9,4.5,TTR009,35.1708,133.3113,300,2002-01-24, 16:09:43,100Hz,119,U-D,0.0002384185791015625,7.717,21.38625548548173,1083,1086.0,17.035709596350717,0.8553889096294959,0.8951458191433508,1.1133835855957606,1.16630724175867,0.9553360026517458,0.015079212702658943,0.015079212702658943,0.011581214964653017,0.011581214964653017,0.011581214964653017,7.736332797094118,7.736332797094118,7.736332797094118,7.736332797094118,7.736332797094118,E-W,0.0002384185791015625,36.195,N-S,0.0002384185791015625,24.065
20020124160800.knt,YMG0160201241608.UD,2002-01-24, 16:08:00,35.363,133.32,9,4.5,YMG016,34.1699,132.1766,7,2002-01-24, 16:09:25,100Hz,119,U-D,0.0002384185791015625,0.682,168.84262059100467,0,1.0,2.474025361760693,0.0,0.0,0.0,0.0,0.0,0.0,0.0,0.0,0.0,0.0,0.0,0.0,0.0,0.0,0.0,E-W,0.0002384185791015625,2.704,N-S,0.0002384185791015625,2.066
20021021010600.knt,CHB0010210210106.UD,2002-10-21, 01:06:00,36.368,141.124,50,5.2,CHB001,35.9595,139.8733,13,2002-10-21, 01:06:37,100Hz,119,U-D,0.0002384185791015625,3.972,121.11605601478848,0,-100.0,,0.0,0.0,0.0,0.0,0.0,0.0,0.0,0.0,0.0,0.0,0.0,0.0,0.0,0.0,0.0,E-W,0.0002384185791015625,9.308,N-S,0.0002384185791015625,8.163
20021021010600.knt,CHB0030210210106.UD,2002-10-21, 01:06:00,36.368,141.124,50,5.2,CHB003,35.7943,140.0564,28,2002-10-21, 01:06:35,100Hz,119,U-D,0.0002384185791015625,6.959,115.21216946376596,1,36.0,12.44524509783856,10.776968732459311,10.96503221150541,8.921888843160383,5.415632797769968,2.4541808711108026,0.06887279575141383,0.06887279575141383,0.0684837347711795,0.054212998915580915,0.02500212468779522,2.310227246782361,2.310227246782361,1.8861081814170029,1.8861081814170029,1.0673890123008511,E-W,0.0002384185791015625,13.259,N-S,0.0002384185791015625,12.766
20021021010600.knt,CHB0040210210106.UD,2002-10-21, 01:06:00,36.368,141.124,50,5.2,CHB004,35.9007,140.4905,14,2002-10-21, 01:06:23,100Hz,119,U-D,0.0002384185791015625,7.228,77.04915856509756,745,764.0,27.967532523501212,2.191945127041525,2.466292603585452,3.073366314145512,3.639388614635842,1.4418703819385053,0.01454668892114903,0.01454668892114903,0.01454668892114903,0.01454668892114903,0.0077387788029594515,3.8818604770072196,2.9997181280371836,2.4668956679545597,1.5991483188414968,1.3004018641527357,E-W,0.0002384185791015625,11.313,N-S,0.0002384185791015625,10.966
20021021010600.knt,CHB0060210210106.UD,2002-10-21, 01:06:00,36.368,141.124,50,5.2,CHB006,35.7801,140.3067,27,2002-10-21, 01:06:32,100Hz,119,U-D,0.0002384185791015625,7.28,98.32993474110789,88,106.0,19.515719352305055,11.485580186433294,13.147380905271888,14.211536423773152,11.255341208602358,6.737542401194528,0.11519951118192422,0.11519951118192422,0.11519951118192422,0.11507430418425316,0.08374346371862204,4.2616442708644495,3.8754496808405525,2.1918402202794316,2.1918402202794316,1.2400659977974846,E-W,0.0002384185791015625,9.45,N-S,0.0002384185791015625,7.888
20021021010600.knt,CHB0070210210106.UD,2002-10-21, 01:06:00,36.368,141.124,50,5.2,CHB007,35.7234,140.2267,24,2002-10-21, 01:06:29,100Hz,119,U-D,0.0002384185791015625,7.069,107.91385306747836,516,560.0,23.067853416550573,5.642931696959902,6.534282492845329,7.778777761001242,7.187052685826783,4.320984947466191,0.026093430702188787,0.026093430702188787,0.026093430702188787,0.02569889649390697,0.01806310789251667,2.353067355274486,2.353067355274486,1.0501087133075977,1.0501087133075977,0.8608421362795415,E-W,0.0002384185791015625,13.631,N-S,0.0002384185791015625,15.528
20021021010600.knt,CHB0080210210106.UD,2002-10-21, 01:06:00,36.368,141.124,50,5.2,CHB008,35.6537,139.9023,4,2002-10-21, 01:06:41,100Hz,119,U-D,0.0002384185791015625,2.237,135.58475845523802,0,3.0,14.502597103618609,0.0,0.0,0.0,0.0,0.0,0.0,0.0,0.0,0.0,0.0,0.0,0.0,0.0,0.0,0.0,E-W,0.0002384185791015625,3.189,N-S,0.0002384185791015625,3.089
20021021010600.knt,CHB0090210210106.UD,2002-10-21, 01:06:00,36.368,141.124,50,5.2,CHB009,35.6082,140.1022,4,2002-10-21, 01:06:39,100Hz,119,U-D,0.0002384185791015625,2.877,124.8569134069836,0,1.0,-10.464107796572906,0.0,0.0,0.0,0.0,0.0,0.0,0.0,0.0,0.0,0.0,0.0,0.0,0.0,0.0,0.0,E-W,0.0002384185791015625,5.241,N-S,0.0002384185791015625,5.145
20021021010600.knt,CHB0100210210106.UD,2002-10-21, 01:06:00,36.368,141.124,50,5.2,CHB010,35.7077,140.568,8,2002-10-21, 01:06:23,100Hz,119,U-D,0.0002384185791015625,3.604,88.82572194010629,856,852.9999999999999,27.209285901918882,2.179020643029421,2.4121300450409304,2.9684379375717063,3.5262023931542483,3.0642947789982378,0.00596730027090313,0.00596730027090313,0.00596730027090313,0.00596730027090313,0.005864690073480985,2.170835983451777,2.170835983451777,2.170835983451777,2.170835983451777,1.420493481994736,E-W,0.0002384185791015625,10.006,N-S,0.0002384185791015625,9.589
20021021010600.knt,CHB0110210210106.UD,2002-10-21, 01:06:00,36.368,141.124,50,5.2,CHB011,35.6021,140.5014,2,2002-10-21, 01:06:32,100Hz,120,U-D,0.0002384185791015625,3.277,101.93585294912397,0,6.0,17.348251745200805,0.0,0.0,0.0,0.0,0.0,0.0,0.0,0.0,0.0,0.0,0.0,0.0,0.0,0.0,0.0,E-W,0.0002384185791015625,7.114,N-S,0.0002384185791015625,4.93
20021021010600.knt,CHB0120210210106.UD,2002-10-21, 01:06:00,36.368,141.124,50,5.2,CHB012,35.5727,140.3333,62,2002-10-21, 01:06:26,100Hz,119,U-D,0.0002384185791015625,4.25,113.50564904753776,915,900.0,39.80489904989285,0.6802229075437767,0.7543897825106252,0.7869902003732638,0.7777351789719564,0.980549137935555,0.0034537043598644257,0.0034537043598644257,0.0034537043598644257,0.002360944134434798,0.002360944134434798,1.6194817393546466,1.6194817393546466,1.3967089825995516,0.9973408200125975,0.6715846622027893,E-W,0.0002384185791015625,5.996,N-S,0.0002384185791015625,7.993
20021021010600.knt,CHB0140210210106.UD,2002-10-21, 01:06:00,36.368,141.124,50,5.2,CHB014,35.4769,140.0489,7,2002-10-21, 01:06:43,100Hz,119,U-D,0.0002384185791015625,2.428,138.52614391684185,0,-100.0,,0.0,0.0,0.0,0.0,0.0,0.0,0.0,0.0,0.0,0.0,0.0,0.0,0.0,0.0,0.0,E-W,0.0002384185791015625,4.616,N-S,0.0002384185791015625,3.715
20021021010600.knt,CHB0160210210106.UD,2002-10-21, 01:06:00,36.368,141.124,50,5.2,CHB016,35.2999,140.3867,8,2002-10-21, 01:06:53,100Hz,119,U-D,0.0002384185791015625,1.372,136.0993432042203,0,-100.0,,0.0,0.0,0.0,0.0,0.0,0.0,0.0,0.0,0.0,0.0,0.0,0.0,0.0,0.0,0.0,E-W,0.0002384185791015625,2.471,N-S,0.0002384185791015625,2.327
20021021010600.knt,CHB0170210210106.UD,2002-10-21, 01:06:00,36.368,141.124,50,5.2,CHB017,35.2988,140.0755,31,2002-10-21, 01:06:57,100Hz,119,U-D,0.0002384185791015625,1.183,151.88187484540268,0,-100.0,,0.0,0.0,0.0,0.0,0.0,0.0,0.0,0.0,0.0,0.0,0.0,0.0,0.0,0.0,0.0,E-W,0.0002384185791015625,2.445,N-S,0.0002384185791015625,2.557
20021021010600.knt,CHB0240210210106.UD,2002-10-21, 01:06:00,36.368,141.124,50,5.2,CHB024,35.6335,140.0784,3,2002-10-21, 01:06:39,100Hz,119,U-D,0.0002384185791015625,2.156,124.5683512696528,0,-100.0,,0.0,0.0,0.0,0.0,0.0,0.0,0.0,0.0,0.0,0.0,0.0,0.0,0.0,0.0,0.0,E-W,0.0002384185791015625,4.238,N-S,0.0002384185791015625,3.662
20021021010600.knt,CHB0260210210106.UD,2002-10-21, 01:06:00,36.368,141.124,50,5.2,CHB026,35.3872,140.237,-9999,2002-10-21, 01:06:47,200Hz,180,U-D,0.0002384185791015625,1.194,135.20484942982472,0,-100.0,,0.0,0.0,0.0,0.0,0.0,0.0,0.0,0.0,0.0,0.0,0.0,0.0,0.0,0.0,0.0,E-W,0.0002384185791015625,1.817,N-S,0.0002384185791015625,1.562
20021021010600.knt,CHB0280210210106.UD,2002-10-21, 01:06:00,36.368,141.124,50,5.2,CHB028,35.766,139.9665,-9999,2002-10-21, 01:06:40,200Hz,180,U-D,0.0002384185791015625,5.575,123.71137829656989,0,-100.0,,0.0,0.0,0.0,0.0,0.0,0.0,0.0,0.0,0.0,0.0,0.0,0.0,0.0,0.0,0.0,E-W,0.0002384185791015625,10.123,N-S,0.0002384185791015625,6.988
20021021010600.knt,CHB0300210210106.UD,2002-10-21, 01:06:00,36.368,141.124,50,5.2,CHB030,35.3766,139.9151,-9999,2002-10-21, 01:06:54,100Hz,119,U-D,0.0002384185791015625,0.702,154.97318632662765,0,1.0,7.697888204916468,0.0,0.0,0.0,0.0,0.0,0.0,0.0,0.0,0.0,0.0,0.0,0.0,0.0,0.0,0.0,E-W,0.0002384185791015625,1.822,N-S,0.0002384185791015625,2.202
20021021010600.knt,FKS0010210210106.UD,2002-10-21, 01:06:00,36.368,141.124,50,5.2,FKS001,37.7949,140.9196,9,2002-10-21, 01:06:43,100Hz,119,U-D,0.0002384185791015625,3.07,159.69660408053954,0,-100.0,,0.0,0.0,0.0,0.0,0.0,0.0,0.0,0.0,0.0,0.0,0.0,0.0,0.0,0.0,0.0,E-W,0.0002384185791015625,5.154,N-S,0.0002384185791015625,7.039
20021021010600.knt,FKS0020210210106.UD,2002-10-21, 01:06:00,36.368,141.124,50,5.2,FKS002,37.8449,140.6013,42,2002-10-21, 01:06:49,100Hz,119,U-D,0.0002384185791015625,1.953,170.63913601798924,0,-100.0,,0.0,0.0,0.0,0.0,0.0,0.0,0.0,0.0,0.0,0.0,0.0,0.0,0.0,0.0,0.0,E-W,0.0002384185791015625,5.629,N-S,0.0002384185791015625,4.763
20021021010600.knt,FKS0030210210106.UD,2002-10-21, 01:06:00,36.368,141.124,50,5.2,FKS003,37.7613,140.4799,64,2002-10-21, 01:06:47,100Hz,119,U-D,0.0002384185791015625,3.128,165.13127910942632,0,-100.0,,0.0,0.0,0.0,0.0,0.0,0.0,0.0,0.0,0.0,0.0,0.0,0.0,0.0,0.0,0.0,E-W,0.0002384185791015625,6.802,N-S,0.0002384185791015625,6.871
20021021010600.knt,FKS0040210210106.UD,2002-10-21, 01:06:00,36.368,141.124,50,5.2,FKS004,37.6799,140.7346,488,2002-10-21, 01:06:29,100Hz,119,U-D,0.0002384185791015625,6.643,149.91629179647032,987,1072.0,22.397830413693853,1.655182952423534,2.173334230811987,2.5632347875522394,3.043600164200309,4.521486323439406,0.007657209712169628,0.007657209712169628,0.007657209712169628,0.007657209712169628,0.007657209712169628,3.233745453478408,2.7364563418921786,2.1337721104132656,2.1337721104132656,0.9978659762292605,E-W,0.0002384185791015625,10.835,N-S,0.0002384185791015625,12.239
20021021010600.knt,FKS0050210210106.UD,2002-10-21, 01:06:00,36.368,141.124,50,5.2,FKS005,37.6385,140.9849,16,2002-10-21, 01:06:38,100Hz,119,U-D,0.0002384185791015625,2.773,141.81206761471145,0,-100.0,,0.0,0.0,0.0,0.0,0.0,0.0,0.0,0.0,0.0,0.0,0.0,0.0,0.0,0.0,0.0,E-W,0.0002384185791015625,11.095,N-S,0.0002384185791015625,10.437
