earthquake name,records name,earthquake date,earthquake time,lat,long,depth,mag,stn_code,stn_lat,stn_long,stn_height,rcd_date,rcd_time,frequency,rcd_duration,direction,scale_factor,max_pga,epi_dist,pick_index_manually,pick_index_kalkan,snr_db_kalkan,tc_5sec,tc_4sec,tc_3sec,tc_2sec,tc_1sec,Pd_5sec,Pd_4sec,Pd_3sec,Pd_2sec,Pd_1sec,Pga_5sec,Pga_4sec,Pga_3sec,Pga_2sec,Pga_1sec,Channel,Scale_factor,PGA_ew,Channel.1,Scale_factor.1,PGA_ns
19970127002600.knt,IBR0049701270026.UD,1997-01-27, 00:26:00,35.753,140.08,77,4.2,IBR004,36.5273,140.4094,51.0,1997-01-27, 00:27:11,100Hz,59,U-D,0.0002384185791015625,3.211,91.03748246922197,94,119.0,24.340013563873597,4.407902575668135,5.82104261832118,6.121566351359403,6.271098327868728,4.967765459983998,0.010414387039488833,0.010414387039488833,0.010414387039488833,0.010414387039488833,0.009458856471131823,3.139645342284281,2.008492594411386,2.008492594411386,2.008492594411386,1.7576971083862671,E-W,0.0002384185791015625,11.289,N-S,0.0002384185791015625,8.52
19970127002600.knt,IBR0059701270026.UD,1997-01-27, 00:26:00,35.753,140.08,77,4.2,IBR005,36.3851,140.2372,63.0,1997-01-27, 00:27:57,100Hz,59,U-D,0.0002384185791015625,5.088,71.6923420562899,1258,1265.0,32.48766340937111,1.3664352088866263,1.4379073194213803,1.2192863080471914,0.7776998807962807,0.2519914945413849,0.008813482872238518,0.008813482872238518,0.008813482872238518,0.0056721565406492,0.0013814457012361545,4.135183842265437,4.074923241764107,4.074923241764107,3.070744726549598,2.6176794215738917,E-W,0.0002384185791015625,6.914,N-S,0.0002384185791015625,11.447
19970127002600.knt,IBR0099701270026.UD,1997-01-27, 00:26:00,35.753,140.08,77,4.2,IBR009,36.1848,139.7037,17.0,1997-01-27, 00:27:06,100Hz,59,U-D,0.0002384185791015625,1.45,58.75498130587692,297,297.0,26.17497308078994,2.765120473484702,3.1531735712711124,3.6345278254496836,4.548717566580342,5.2375333298685325,0.0030977221476249186,0.0030977221476249186,0.0030977221476249186,0.0030977221476249186,0.0030977221476249186,1.246521799561682,0.9268331038533083,0.9268331038533083,0.9268331038533083,0.9268331038533083,E-W,0.0002384185791015625,2.128,N-S,0.0002384185791015625,2.304
19970127002600.knt,IBR0109701270026.UD,1997-01-27, 00:26:00,35.753,140.08,77,4.2,IBR010,36.1843,139.9653,23.0,1997-01-27, 00:27:03,100Hz,59,U-D,0.0002384185791015625,3.256,49.05665125280897,463,469.00000000000006,29.963600913884672,4.169807957015201,3.471146530074845,2.9197669278575935,2.996186251576889,4.487995341789625,0.009423691098131496,0.0076272537453171444,0.0076272537453171444,0.0076272537453171444,0.0076272537453171444,1.6522543042513755,1.6522543042513755,1.6522543042513755,1.6522543042513755,0.9844226331318631,E-W,0.0002384185791015625,6.458,N-S,0.0002384185791015625,5.1
19970127002600.knt,IBR0119701270026.UD,1997-01-27, 00:26:00,35.753,140.08,77,4.2,IBR011,36.1251,140.0903,26.0,1997-01-27, 00:27:01,100Hz,59,U-D,0.0002384185791015625,2.137,41.38602176448549,595,594.0,32.2013118432252,1.8640906424237682,1.4531254932564086,1.1132202880543842,0.5796858667471646,0.48185567466376134,0.004188618950829534,0.0034003104017697396,0.003164191913291247,0.0016614259975732642,0.0015955259479113763,2.1283796719815937,2.1283796719815937,2.1283796719815937,2.1283796719815937,2.1283796719815937,E-W,0.0002384185791015625,4.345,N-S,0.0002384185791015625,5.039
19970127002600.knt,IBR0129701270026.UD,1997-01-27, 00:26:00,35.753,140.08,77,4.2,IBR012,36.1901,140.2869,24.0,1997-01-27, 00:27:54,100Hz,59,U-D,0.0002384185791015625,5.624,52.04756526837847,1388,136.0,17.80029645259625,0.5612936452259603,0.4470360663115196,0.38735262470962245,0.4144846849647381,0.48846395283879096,0.0036029717213441224,0.0033567242240516476,0.003332105617340712,0.003332105617340712,0.003332105617340712,5.632375332967544,5.632375332967544,5.632375332967544,5.632375332967544,4.6623637392721164,E-W,0.0002384185791015625,9.818,N-S,0.0002384185791015625,5.768
19970127002600.knt,IBR0139701270026.UD,1997-01-27, 00:26:00,35.753,140.08,77,4.2,IBR013,36.1587,140.4892,28.0,1997-01-27, 00:27:55,100Hz,59,U-D,0.0002384185791015625,12.928,58.23767462074157,1365,1380.0,31.940967968362855,0.24605590058979318,0.2594802570349147,0.26737746031422616,0.2612566522074137,0.29459983154997677,0.00635921250591046,0.00635921250591046,0.00635921250591046,0.00635921250591046,0.00635921250591046,12.98276229330709,12.98276229330709,12.98276229330709,12.98276229330709,12.98276229330709,E-W,0.0002384185791015625,15.446,N-S,0.0002384185791015625,12.095
19970127002600.knt,IBR0149701270026.UD,1997-01-27, 00:26:00,35.753,140.08,77,4.2,IBR014,36.0729,140.1947,11.0,1997-01-27, 00:27:03,100Hz,59,U-D,0.0002384185791015625,3.091,37.04071822569339,370,377.0,24.718529182931242,6.311606161004078,5.294953809676334,4.359485950987533,4.726618375045563,6.4801871554985,0.023915175221952693,0.023915175221952693,0.023915175221952693,0.023915175221952693,0.023915175221952693,3.073545217442249,3.073545217442249,3.073545217442249,3.073545217442249,3.073545217442249,E-W,0.0002384185791015625,6.012,N-S,0.0002384185791015625,5.499
19970127002600.knt,IBR0159701270026.UD,1997-01-27, 00:26:00,35.753,140.08,77,4.2,IBR015,36.0693,139.908,14.0,1997-01-27, 00:27:04,100Hz,59,U-D,0.0002384185791015625,3.564,38.43102363077836,303,302.0,33.18094347325837,3.7192949006119593,4.26515990416438,4.96528097991194,5.935407033635359,6.715383432110544,0.008586277212365831,0.008586277212365831,0.008586277212365831,0.008586277212365831,0.008586277212365831,1.7013487246073493,1.6385468040816396,1.6385468040816396,1.6385468040816396,1.3832330085580806,E-W,0.0002384185791015625,5.557,N-S,0.0002384185791015625,5.282
19970127002600.knt,IBR0169701270026.UD,1997-01-27, 00:26:00,35.753,140.08,77,4.2,IBR016,35.9112,140.0494,20.0,1997-01-27, 00:27:52,100Hz,59,U-D,0.0002384185791015625,8.481,17.806020240425546,1430,1428.0,33.253985206791015,0.5129828790294404,0.4517693933840658,0.4356548015411097,0.34301588897488106,0.3248460244460545,0.006690395448960514,0.005776801883317916,0.005776801883317916,0.005776801883317916,0.005776801883317916,8.481613291689191,8.481613291689191,8.481613291689191,8.481613291689191,8.481613291689191,E-W,0.0002384185791015625,11.689,N-S,0.0002384185791015625,11.792
19970127002600.knt,IBR0179701270026.UD,1997-01-27, 00:26:00,35.753,140.08,77,4.2,IBR017,35.9537,140.3194,17.0,1997-01-27, 00:27:53,100Hz,59,U-D,0.0002384185791015625,7.985,31.041352889581436,1368,1378.0,32.856144727675016,1.4352711892572498,1.384088871060747,0.9968959021272091,0.7500357942673489,0.6852195519484581,0.012409184271500241,0.012409184271500241,0.009759625531225525,0.009002285748140215,0.007497763994036935,7.959479287346214,7.959479287346214,7.959479287346214,7.959479287346214,7.959479287346214,E-W,0.0002384185791015625,7.308,N-S,0.0002384185791015625,9.525
19970127002600.knt,KNG0019701270026.UD,1997-01-27, 00:26:00,35.753,140.08,77,4.2,KNG001,35.5291,139.7062,2.0,1997-01-27, 00:27:04,100Hz,59,U-D,0.0002384185791015625,8.185,41.96245925096946,436,440.00000000000006,29.32802905764092,5.415011679141159,5.087964645977558,4.897329007388964,5.623692967566646,8.583122522706162,0.02709132408658084,0.02709132408658084,0.02709132408658084,0.02709132408658084,0.02709132408658084,2.5300119344825394,2.5300119344825394,2.5300119344825394,2.5300119344825394,1.999337105647522,E-W,0.0002384185791015625,8.039,N-S,0.0002384185791015625,12.957
19970127002600.knt,KNG0029701270026.UD,1997-01-27, 00:26:00,35.753,140.08,77,4.2,KNG002,35.4371,139.634,2.0,1997-01-27, 00:27:06,100Hz,59,U-D,0.0002384185791015625,4.574,53.4797787122206,350,350.0,23.919613781225276,1.6468466978645944,2.020421956602835,2.4018407965150144,2.6060811361283585,3.997301390250127,0.0062473169557872655,0.0062473169557872655,0.0062473169557872655,0.0062473169557872655,0.0062473169557872655,1.9360256656510955,1.8823512971899679,1.566891401547505,1.566891401547505,1.0289818349304578,E-W,0.0002384185791015625,6.185,N-S,0.0002384185791015625,6.131
19970127002600.knt,KNG0039701270026.UD,1997-01-27, 00:26:00,35.753,140.08,77,4.2,KNG003,35.2727,139.6579,26.0,1997-01-27, 00:27:09,100Hz,59,U-D,0.0002384185791015625,1.862,65.66487040825083,115,114.00000000000001,28.24147555618231,4.779858495844232,5.363730059841827,6.121858597885811,6.174980373444759,4.203552241424628,0.005412408764260333,0.005412408764260333,0.005412408764260333,0.005412408764260333,0.004177883586599621,0.944590711871354,0.944590711871354,0.944590711871354,0.944590711871354,0.944590711871354,E-W,0.0002384185791015625,4.356,N-S,0.0002384185791015625,5.149
19970127002600.knt,KNG0049701270026.UD,1997-01-27, 00:26:00,35.753,140.08,77,4.2,KNG004,35.1441,139.6218,31.0,1997-01-27, 00:27:10,100Hz,59,U-D,0.0002384185791015625,2.403,79.41556475059883,145,156.0,25.90127505133378,5.901992425613602,6.812946891614887,7.959210151142207,7.956150313194794,6.3815014884169,0.010795112389150915,0.010795112389150915,0.010795112389150915,0.010795112389150915,0.010083278997170951,1.0594623024955885,0.9404417500010301,0.9404417500010301,0.9404417500010301,0.8404476474821234,E-W,0.0002384185791015625,4.776,N-S,0.0002384185791015625,4.708
19970127002600.knt,KNG0059701270026.UD,1997-01-27, 00:26:00,35.753,140.08,77,4.2,KNG005,35.3194,139.549,7.0,1997-01-27, 00:27:09,100Hz,59,U-D,0.0002384185791015625,3.353,68.067013052394,214,90.0,20.421256664132763,0.8357317543046636,0.9198781579301863,1.0235564364784842,0.8041599826748345,0.6702652370656812,0.001416377664323192,0.001416377664323192,0.001416377664323192,0.001416377664323192,0.001410181814990298,0.8183534280437241,0.7106468756193551,0.7106468756193551,0.7106468756193551,0.7106468756193551,E-W,0.0002384185791015625,4.017,N-S,0.0002384185791015625,6.324
19970127002600.knt,KNG0069701270026.UD,1997-01-27, 00:26:00,35.753,140.08,77,4.2,KNG006,35.4544,139.5387,60.0,1997-01-27, 00:27:08,100Hz,59,U-D,0.0002384185791015625,2.407,59.13836423040394,183,173.0,31.289110780477685,3.9269898915288004,4.536166944732108,4.78891864481484,4.591557639397167,3.760369745300181,0.00721205246258655,0.00721205246258655,0.00721205246258655,0.00721205246258655,0.005387778667842392,1.289022230096726,1.143107411000412,1.143107411000412,1.143107411000412,1.143107411000412,E-W,0.0002384185791015625,5.744,N-S,0.0002384185791015625,4.256
19970127002600.knt,KNG0089701270026.UD,1997-01-27, 00:26:00,35.753,140.08,77,4.2,KNG008,35.5751,139.3265,120.0,1997-01-27, 00:27:09,100Hz,59,U-D,0.0002384185791015625,3.9,70.88718190548158,146,150.0,15.065150419483622,2.2814203524545746,2.3661502922446997,2.3757298434455385,2.03646355108567,1.6528624170380064,0.00923586012911814,0.00923586012911814,0.00923586012911814,0.00923586012911814,0.008627173899995934,3.8919561386218997,3.8919561386218997,3.8919561386218997,3.8919561386218997,3.8919561386218997,E-W,0.0002384185791015625,5.548,N-S,0.0002384185791015625,5.558
19970127002600.knt,KNG0099701270026.UD,1997-01-27, 00:26:00,35.753,140.08,77,4.2,KNG009,35.4424,139.3618,20.0,1997-01-27, 00:27:09,100Hz,59,U-D,0.0002384185791015625,3.853,73.54921013242543,210,196.0,22.348085210358306,4.184875623381863,4.8196948928920635,4.999917041560551,4.557091570014283,3.778084677044512,0.009067061528266366,0.009067061528266366,0.009067061528266366,0.009067061528266366,0.008642484727756776,1.210064817428394,1.210064817428394,1.210064817428394,1.210064817428394,0.799734456196511,E-W,0.0002384185791015625,4.988,N-S,0.0002384185791015625,5.934
19970127002600.knt,KNG0109701270026.UD,1997-01-27, 00:26:00,35.753,140.08,77,4.2,KNG010,35.3355,139.3504,7.0,1997-01-27, 00:27:12,100Hz,59,U-D,0.0002384185791015625,0.993,80.70044487933521,0,1.0,45.39096545978416,0.0,0.0,0.0,0.0,0.0,0.0,0.0,0.0,0.0,0.0,0.0,0.0,0.0,0.0,0.0,E-W,0.0002384185791015625,2.244,N-S,0.0002384185791015625,2.937
19970127002600.knt,KNG0139701270026.UD,1997-01-27, 00:26:00,35.753,140.08,77,4.2,KNG013,35.2641,139.152,11.0,1997-01-27, 00:27:13,100Hz,59,U-D,0.0002384185791015625,2.582,100.05490885547754,0,-100.0,,0.0,0.0,0.0,0.0,0.0,0.0,0.0,0.0,0.0,0.0,0.0,0.0,0.0,0.0,0.0,E-W,0.0002384185791015625,4.395,N-S,0.0002384185791015625,3.09
19970127002600.knt,SIT0049701270026.UD,1997-01-27, 00:26:00,35.753,140.08,77,4.2,SIT004,36.1179,139.1045,140.0,1997-01-27, 00:27:11,100Hz,59,U-D,0.0002384185791015625,1.407,96.74540609337015,175,180.0,22.126128599554665,5.100240877949788,5.065723324748879,4.074936356616394,2.1651179696691383,0.362206503206688,0.006304184439586834,0.006304184439586834,0.006304184439586834,0.0051339116855472836,0.0008179024324726247,1.2995728757872165,1.2995728757872165,1.2995728757872165,1.2995728757872165,0.9111475217390682,E-W,0.0002384185791015625,5.805,N-S,0.0002384185791015625,5.434
19970127002600.knt,SIT0079701270026.UD,1997-01-27, 00:26:00,35.753,140.08,77,4.2,SIT007,36.054,139.3912,25.0,1997-01-27, 00:27:06,100Hz,59,U-D,0.0002384185791015625,1.025,70.49144427676852,406,413.99999999999994,25.384078158761277,0.876973470389874,0.6853793474973384,0.6245691355445417,0.5999459565550849,0.59077421287054,0.0026972507197846564,0.0020010470676561105,0.0020010470676561105,0.0020010470676561105,0.0020010470676561105,0.8618441734067447,0.8618441734067447,0.8618441734067447,0.8618441734067447,0.8618441734067447,E-W,0.0002384185791015625,3.773,N-S,0.0002384185791015625,2.997
19970127002600.knt,SIT0089701270026.UD,1997-01-27, 00:26:00,35.753,140.08,77,4.2,SIT008,35.9745,139.7526,5.0,1997-01-27, 00:27:04,100Hz,59,U-D,0.0002384185791015625,2.309,38.43252163395384,422,421.0,29.071051188379688,2.859721051264259,2.1665592570514014,2.2035661959917956,2.8444702666006303,3.4282827746258375,0.010325758539331884,0.006454667475695092,0.006454667475695092,0.006454667475695092,0.006454667475695092,1.183828805851289,1.183828805851289,1.183828805851289,0.9215554151551364,0.9215554151551364,E-W,0.0002384185791015625,5.721,N-S,0.0002384185791015625,5.771
19970127002600.knt,SIT0109701270026.UD,1997-01-27, 00:26:00,35.753,140.08,77,4.2,SIT010,35.9065,139.6481,13.0,1997-01-27, 00:27:05,100Hz,59,U-D,0.0002384185791015625,2.476,42.5135527818976,351,356.0,29.2492286724652,1.169545676571548,1.1958056340808783,1.4418749576866106,1.3961702795326807,1.9010288822534651,0.0035856651791594863,0.003217991912313696,0.003217991912313696,0.002813742190288932,0.002813742190288932,1.3839305917593903,1.3839305917593903,1.230440819433339,1.2074219030362432,0.9467426317469586,E-W,0.0002384185791015625,3.236,N-S,0.0002384185791015625,7.092
19970127002600.knt,SIT0119701270026.UD,1997-01-27, 00:26:00,35.753,140.08,77,4.2,SIT011,35.8098,139.7212,2.0,1997-01-27, 00:27:05,100Hz,59,U-D,0.0002384185791015625,1.705,32.97682790419262,295,295.0,27.183406066222492,3.937878552827742,4.387519365215777,3.1433271887664795,0.9306330000371259,0.8573383079818064,0.008177768305466872,0.008177768305466872,0.007162669744017691,0.002353990785499401,0.001255514102842302,1.1029024615198808,1.1029024615198808,1.0848034177204846,1.0848034177204846,0.6833220202488758,E-W,0.0002384185791015625,5.682,N-S,0.0002384185791015625,5.329
19970127002600.knt,SZO0019701270026.UD,1997-01-27, 00:26:00,35.753,140.08,77,4.2,SZO001,35.1424,139.0795,76.0,1997-01-27, 00:27:13,100Hz,59,U-D,0.0002384185791015625,2.37,113.23998355602218,110,122.0,26.196681260625425,7.127491972976706,8.038052877142349,7.942921987311654,6.818432326367679,5.966026881433831,0.010088712028593738,0.010088712028593738,0.010088712028593738,0.010088712028593738,0.008550193910041564,2.2457423423541285,2.2457423423541285,2.2457423423541285,2.2457423423541285,2.049083155701264,E-W,0.0002384185791015625,10.518,N-S,0.0002384185791015625,8.128
19970127002600.knt,SZO0039701270026.UD,1997-01-27, 00:26:00,35.753,140.08,77,4.2,SZO003,34.8158,139.0546,149.0,1997-01-27, 00:27:18,100Hz,59,U-D,0.0002384185791015625,4.872,139.72188749722787,0,-100.0,,0.0,0.0,0.0,0.0,0.0,0.0,0.0,0.0,0.0,0.0,0.0,0.0,0.0,0.0,0.0,E-W,0.0002384185791015625,5.362,N-S,0.0002384185791015625,10.16
19970127002600.knt,SZO0079701270026.UD,1997-01-27, 00:26:00,35.753,140.08,77,4.2,SZO007,34.9771,138.9466,49.0,1997-01-27, 00:27:18,100Hz,59,U-D,0.0002384185791015625,0.779,134.18452739756154,0,-100.0,,0.0,0.0,0.0,0.0,0.0,0.0,0.0,0.0,0.0,0.0,0.0,0.0,0.0,0.0,0.0,E-W,0.0002384185791015625,4.001,N-S,0.0002384185791015625,2.2
19970127002600.knt,TCG0039701270026.UD,1997-01-27, 00:26:00,35.753,140.08,77,4.2,TCG003,36.8144,139.7153,398.0,1997-01-27, 00:27:16,100Hz,59,U-D,0.0002384185791015625,0.604,122.46543302253937,0,3.0,5.47256290911922,0.0,0.0,0.0,0.0,0.0,0.0,0.0,0.0,0.0,0.0,0.0,0.0,0.0,0.0,0.0,E-W,0.0002384185791015625,5.691,N-S,0.0002384185791015625,4.013
19970127002600.knt,TCG0079701270026.UD,1997-01-27, 00:26:00,35.753,140.08,77,4.2,TCG007,36.5692,139.8861,138.0,1997-01-27, 00:27:10,100Hz,59,U-D,0.0002384185791015625,1.148,92.41150834770384,207,206.99999999999997,20.598367065070306,0.5401625858227084,0.6043314750871589,0.5368439972457989,0.5238480766269874,0.5975956885526081,0.0006556071991352777,0.0006556071991352777,0.000535096071537442,0.00042120138741188334,0.00042120138741188334,0.6826597677892771,0.497749111052606,0.497749111052606,0.4675787803980661,0.4306672506833402,E-W,0.0002384185791015625,2.087,N-S,0.0002384185791015625,2.739
19970127002600.knt,TCG0089701270026.UD,1997-01-27, 00:26:00,35.753,140.08,77,4.2,TCG008,36.56,139.7675,153.0,1997-01-27, 00:27:10,100Hz,59,U-D,0.0002384185791015625,3.009,94.01786781321327,217,236.0,25.838460719924655,1.235740248518582,1.2958696162006478,1.3537384235568783,1.403710662094169,0.989044459622866,0.0023328283904608883,0.0023328283904608883,0.0023328283904608883,0.0022817313510436507,0.0016165514385049174,1.5985935633437758,1.062341345225341,1.062341345225341,0.8761568238609665,0.5149233582104144,E-W,0.0002384185791015625,5.196,N-S,0.0002384185791015625,4.303
19970127002600.knt,TCG0109701270026.UD,1997-01-27, 00:26:00,35.753,140.08,77,4.2,TCG010,36.6347,139.4376,640.0,1997-01-27, 00:27:15,100Hz,59,U-D,0.0002384185791015625,1.695,113.73191096690502,0,-100.0,,0.0,0.0,0.0,0.0,0.0,0.0,0.0,0.0,0.0,0.0,0.0,0.0,0.0,0.0,0.0,E-W,0.0002384185791015625,3.387,N-S,0.0002384185791015625,3.325
19970127002600.knt,TCG0119701270026.UD,1997-01-27, 00:26:00,35.753,140.08,77,4.2,TCG011,36.3867,139.6145,93.0,1997-01-27, 00:27:09,100Hz,59,U-D,0.0002384185791015625,1.496,81.9489220725591,222,222.00000000000003,26.38862853360825,3.6087666436499903,4.050276226993044,4.722550116840335,5.899958318569433,7.331591857443216,0.002611403936121773,0.002611403936121773,0.002611403936121773,0.002611403936121773,0.002611403936121773,0.6260995522823813,0.5219908539638587,0.5219908539638587,0.5219908539638587,0.5151075495953946,E-W,0.0002384185791015625,3.338,N-S,0.0002384185791015625,2.614
19970127002600.knt,TCG0129701270026.UD,1997-01-27, 00:26:00,35.753,140.08,77,4.2,TCG012,36.2859,139.8047,33.0,1997-01-27, 00:27:07,100Hz,59,U-D,0.0002384185791015625,2.289,64.22046012234242,220,253.00000000000003,24.800784235614273,5.664552899084062,6.516622500148287,8.753097617278028,12.126374992391126,14.929735124622654,0.008206932269146693,0.008206932269146693,0.008206932269146693,0.008206932269146693,0.008206932269146693,1.375190805207635,1.375190805207635,1.375190805207635,1.1154003115021998,0.7168386105450618,E-W,0.0002384185791015625,2.813,N-S,0.0002384185791015625,3.391
19970127002600.knt,TCG0139701270026.UD,1997-01-27, 00:26:00,35.753,140.08,77,4.2,TCG013,36.4368,140.0225,67.0,1997-01-27, 00:27:07,100Hz,59,U-D,0.0002384185791015625,2.684,76.21040460400401,314,324.0,30.51898882328928,4.288522097265307,4.338521581636853,4.720904462682798,6.447255269860908,11.105455981904601,0.010376514137039853,0.010376514137039853,0.010376514137039853,0.010376514137039853,0.010376514137039853,2.681031779637134,2.681031779637134,2.681031779637134,2.412645822963501,0.9086761159814488,E-W,0.0002384185791015625,6.506,N-S,0.0002384185791015625,7.039
