earthquake name,records name,earthquake date,earthquake time,lat,long,depth,mag,stn_code,stn_lat,stn_long,stn_height,rcd_date,rcd_time,frequency,rcd_duration,direction,scale_factor,max_pga,epi_dist,pick_index_manually,pick_index_kalkan,snr_db_kalkan,tc_5sec,tc_4sec,tc_3sec,tc_2sec,tc_1sec,Pd_5sec,Pd_4sec,Pd_3sec,Pd_2sec,Pd_1sec,Pga_5sec,Pga_4sec,Pga_3sec,Pga_2sec,Pga_1sec,Channel,Scale_factor,PGA_ew,Channel.1,Scale_factor.1,PGA_ns
19980103032000.knt,HKD0699801030320.UD,1998-01-03, 03:20:00,42.936,145.413,50,4.8,HKD069,43.3941,145.1168,25,1998-01-03, 03:20:09,100Hz,119,U-D,0.0002384185791015625,18.897,56.31885622500517,1398,1402.0,40.81785566987773,0.657465770058062,0.6698625145556939,0.6849951200672247,0.7592762298107024,0.6029566568042501,0.023182890177201577,0.023182890177201577,0.023182890177201577,0.023182890177201577,0.023182890177201577,14.142652442236221,14.130863784804346,14.130863784804346,14.130863784804346,14.130863784804346,E-W,0.0002384185791015625,66.161,N-S,0.0002384185791015625,61.743
19980103032000.knt,HKD0709801030320.UD,1998-01-03, 03:20:00,42.936,145.413,50,4.8,HKD070,43.3852,145.284,6,1998-01-03, 03:20:08,100Hz,119,U-D,0.0002384185791015625,12.846,51.03288002974539,1414,1419.0,45.33207624648271,0.8197942114879021,1.0195533238377321,1.0693822538404987,1.2882875544509995,0.9209827869025454,0.010098885546226212,0.010098885546226212,0.010098885546226212,0.010098885546226212,0.010098885546226212,8.324534639583803,5.566735994305827,5.566735994305827,2.975014106004118,2.975014106004118,E-W,0.0002384185791015625,31.105,N-S,0.0002384185791015625,27.936
19980103032000.knt,HKD0719801030320.UD,1998-01-03, 03:20:00,42.936,145.413,50,4.8,HKD071,43.2326,145.2604,38,1998-01-03, 03:20:06,100Hz,119,U-D,0.0002384185791015625,49.451,35.23192520490419,1444,1447.0,40.19392842782216,0.3856186815386055,0.38417834115531113,0.37655981889663576,0.40886678385291164,0.41570985381626285,0.026205838475507576,0.026205838475507576,0.026205838475507576,0.026205838475507576,0.026205838475507576,28.8142140839909,28.8142140839909,28.8142140839909,24.022610934986606,24.022610934986606,E-W,0.0002384185791015625,249.06,N-S,0.0002384185791015625,102.504
19980103032000.knt,HKD0729801030320.UD,1998-01-03, 03:20:00,42.936,145.413,50,4.8,HKD072,43.1948,145.5209,46,1998-01-03, 03:20:06,100Hz,119,U-D,0.0002384185791015625,15.258,30.082577464116913,1401,1410.0,40.398479715113076,1.8665751413225458,1.9438329042378784,1.9640220905612915,2.0428490719990404,2.341445735457334,0.018273653999477554,0.018273653999477554,0.018273653999477554,0.017805974681444608,0.017805974681444608,6.187610046717273,6.187610046717273,5.170189199291128,3.2292498156457263,2.340388929683725,E-W,0.0002384185791015625,68.234,N-S,0.0002384185791015625,43.468
19980103032000.knt,HKD0739801030320.UD,1998-01-03, 03:20:00,42.936,145.413,50,4.8,HKD073,43.3327,145.6003,36,1998-01-03, 03:20:08,100Hz,119,U-D,0.0002384185791015625,42.631,46.65588021494651,1327,1360.0,26.955057435132908,0.46160915054270485,0.4740518823502679,0.40061560438820026,0.33986868556134925,0.3634800686824464,0.0089233668715293,0.0089233668715293,0.0089233668715293,0.004085080934866799,0.0035534474930906555,11.883356526200986,11.883356526200986,11.883356526200986,6.133777417305131,4.960881141449685,E-W,0.0002384185791015625,50.699,N-S,0.0002384185791015625,137.427
19980103032000.knt,HKD0749801030320.UD,1998-01-03, 03:20:00,42.936,145.413,50,4.8,HKD074,43.3687,145.8028,16,1998-01-03, 03:20:10,100Hz,119,U-D,0.0002384185791015625,27.846,57.574516493297395,1257,1273.0,28.228297206464102,0.25346312318814485,0.25915929101908425,0.3073116154683412,0.3730909001046153,0.4047010669118304,0.0072620116600275566,0.0072620116600275566,0.0072620116600275566,0.0072620116600275566,0.0072620116600275566,9.175496854626378,9.175496854626378,7.249185598648139,4.7572271280379645,4.7572271280379645,E-W,0.0002384185791015625,67.363,N-S,0.0002384185791015625,54.017
19980103032000.knt,HKD0759801030320.UD,1998-01-03, 03:20:00,42.936,145.413,50,4.8,HKD075,43.0767,145.1296,11,1998-01-03, 03:20:06,100Hz,119,U-D,0.0002384185791015625,38.275,27.853504991442662,1430,1437.0,43.76237134947586,0.5798667765798012,0.608183725079875,0.5997960313100006,0.6185525159093976,0.5273268034262417,0.028563525042045363,0.028563525042045363,0.028563525042045363,0.028563525042045363,0.028563525042045363,16.07233005438996,16.07233005438996,16.07233005438996,16.07233005438996,16.07233005438996,E-W,0.0002384185791015625,81.732,N-S,0.0002384185791015625,124.606
19980103032000.knt,HKD0769801030320.UD,1998-01-03, 03:20:00,42.936,145.413,50,4.8,HKD076,43.0509,144.8498,2,1998-01-03, 03:20:08,100Hz,119,U-D,0.0002384185791015625,8.961,47.55421545790035,1392,1398.0,37.66043754963551,0.5995507388223836,0.6052936045282394,0.6103865346415813,0.6025217224735013,0.5913366062923154,0.029830488553320756,0.029830488553320756,0.029830488553320756,0.029830488553320756,0.029830488553320756,8.893121409066527,8.893121409066527,8.893121409066527,8.893121409066527,8.893121409066527,E-W,0.0002384185791015625,16.93,N-S,0.0002384185791015625,10.658
19980103032000.knt,HKD0779801030320.UD,1998-01-03, 03:20:00,42.936,145.413,50,4.8,HKD077,42.9845,144.3824,3,1998-01-03, 03:20:12,100Hz,119,U-D,0.0002384185791015625,33.725,84.03818554529707,1413,1413.0,32.11857502037858,0.2996103451750032,0.2952439378878822,0.2878653725882504,0.2748950702202845,0.2824517429982892,0.014914314572651334,0.014914314572651334,0.014914314572651334,0.014914314572651334,0.014914314572651334,16.925271660616378,16.925271660616378,16.925271660616378,16.925271660616378,16.925271660616378,E-W,0.0002384185791015625,61.584,N-S,0.0002384185791015625,53.272
19980103032000.knt,HKD0789801030320.UD,1998-01-03, 03:20:00,42.936,145.413,50,4.8,HKD078,43.1486,144.4976,21,1998-01-03, 03:20:11,100Hz,119,U-D,0.0002384185791015625,43.016,78.05696534099124,1442,1446.0,42.695341985331666,0.4105850468947181,0.3805203883345813,0.3083419168421312,0.2451245566186609,0.2111355255817512,0.037354942422905844,0.037354942422905844,0.037354942422905844,0.037354942422905844,0.037354942422905844,43.04819421840194,43.04819421840194,43.04819421840194,43.04819421840194,43.04819421840194,E-W,0.0002384185791015625,116.857,N-S,0.0002384185791015625,84.8
19980103032000.knt,HKD0799801030320.UD,1998-01-03, 03:20:00,42.936,145.413,50,4.8,HKD079,43.3033,144.5996,32,1998-01-03, 03:20:11,100Hz,119,U-D,0.0002384185791015625,11.38,77.6304305934294,1469,1456.0,41.199316922934,0.6358472732771433,0.6460500079371381,0.6845077528628498,0.7152822549934289,0.6626014724513936,0.021348399060295002,0.021348399060295002,0.021348399060295002,0.021348399060295002,0.021348399060295002,6.733634884323581,6.733634884323581,6.733634884323581,6.733634884323581,6.733634884323581,E-W,0.0002384185791015625,10.815,N-S,0.0002384185791015625,9.921
19980103032000.knt,HKD0809801030320.UD,1998-01-03, 03:20:00,42.936,145.413,50,4.8,HKD080,43.5077,144.4485,140,1998-01-03, 03:20:14,100Hz,119,U-D,0.0002384185791015625,16.527,100.74053434836246,1403,1401.0,44.894270144579316,0.46970413006420814,0.4450003147684484,0.42718014239713664,0.41470743014217243,0.38092818847124993,0.014610148393867994,0.014610148393867994,0.014610148393867994,0.014610148393867994,0.014610148393867994,16.49901378484428,16.49901378484428,16.49901378484428,16.49901378484428,16.49901378484428,E-W,0.0002384185791015625,20.354,N-S,0.0002384185791015625,20.404
19980103032000.knt,HKD0819801030320.UD,1998-01-03, 03:20:00,42.936,145.413,50,4.8,HKD081,43.6427,144.3901,130,1998-01-03, 03:20:17,100Hz,119,U-D,0.0002384185791015625,6.868,114.14555572147326,1285,1301.0,25.302518295395085,0.5872323082258295,0.6013267560943597,0.5299899890309533,0.5138908334328094,0.5995043968767955,0.006385613292100905,0.006385613292100905,0.0045009328188630295,0.004034456765585256,0.004034456765585256,2.721330534923267,2.721330534923267,2.721330534923267,2.544142122837811,1.4528164969650927,E-W,0.0002384185791015625,7.766,N-S,0.0002384185791015625,8.839
19980103032000.knt,HKD0839801030320.UD,1998-01-03, 03:20:00,42.936,145.413,50,4.8,HKD083,43.233,144.3248,38,1998-01-03, 03:20:13,100Hz,119,U-D,0.0002384185791015625,13.691,94.34182584118813,1475,1469.0,46.08741630591207,0.7625586120530486,0.6483812509047244,0.49583250934763534,0.486604383561474,0.4804857177525257,0.02117827763795227,0.02117827763795227,0.02117827763795227,0.02117827763795227,0.017791025127493594,11.664900906614424,11.664900906614424,11.664900906614424,11.664900906614424,7.662953816252992,E-W,0.0002384185791015625,20.339,N-S,0.0002384185791015625,21.498
19980103032000.knt,HKD0849801030320.UD,1998-01-03, 03:20:00,42.936,145.413,50,4.8,HKD084,43.1141,144.123,30,1998-01-03, 03:20:28,100Hz,119,U-D,0.0002384185791015625,4.01,106.71611806752674,106,104.0,32.4380434653535,3.463950036323416,3.7602218904179523,3.6001170259428052,3.20530071809442,2.0917063861888012,0.01639299397488669,0.01639299397488669,0.01639299397488669,0.01639299397488669,0.012688893495002514,2.3024455211696697,2.3024455211696697,2.3024455211696697,2.3024455211696697,1.2069739129067938,E-W,0.0002384185791015625,8.652,N-S,0.0002384185791015625,8.738
19980103032000.knt,HKD0859801030320.UD,1998-01-03, 03:20:00,42.936,145.413,50,4.8,HKD085,42.9581,144.0697,5,1998-01-03, 03:20:15,100Hz,119,U-D,0.0002384185791015625,7.167,109.36148954412624,1438,1426.0,41.46413058503459,0.5685698452885816,0.5558860509876083,0.5491770227920082,0.5579367996154098,0.5455974538775871,0.008562596954776904,0.008562596954776904,0.008562596954776904,0.008562596954776904,0.008562596954776904,4.749762783966076,4.749762783966076,4.749762783966076,4.749762783966076,4.749762783966076,E-W,0.0002384185791015625,21.985,N-S,0.0002384185791015625,29.307
19980103032000.knt,HKD0879801030320.UD,1998-01-03, 03:20:00,42.936,145.413,50,4.8,HKD087,43.1502,143.8916,170,1998-01-03, 03:20:31,100Hz,119,U-D,0.0002384185791015625,2.483,125.90908164862508,35,35.0,19.67887747339851,5.2937013036413285,5.39792110274851,4.94379603733578,3.4421621488358105,1.5519033488254268,0.02042804423603254,0.02042804423603254,0.02042804423603254,0.019561964543201398,0.012795374871681912,2.467693198520813,2.467693198520813,2.467693198520813,2.467693198520813,2.467693198520813,E-W,0.0002384185791015625,13.036,N-S,0.0002384185791015625,11.762
19980103032000.knt,HKD0889801030320.UD,1998-01-03, 03:20:00,42.936,145.413,50,4.8,HKD088,43.4716,143.7483,215,1998-01-03, 03:20:37,100Hz,119,U-D,0.0002384185791015625,0.822,147.48374178591803,0,-100.0,,0.0,0.0,0.0,0.0,0.0,0.0,0.0,0.0,0.0,0.0,0.0,0.0,0.0,0.0,0.0,E-W,0.0002384185791015625,5.493,N-S,0.0002384185791015625,3.408
19980103032000.knt,HKD0899801030320.UD,1998-01-03, 03:20:00,42.936,145.413,50,4.8,HKD089,43.2436,143.5544,90,1998-01-03, 03:20:22,100Hz,119,U-D,0.0002384185791015625,4.415,154.74902457860318,1362,1355.0,33.0491226090964,0.6567624016590289,0.6547867020053375,0.666646566594359,0.6345151630324826,0.6043679677818875,0.0068545950296541956,0.0068545950296541956,0.0068545950296541956,0.0068545950296541956,0.0068545950296541956,4.438999289961808,4.438999289961808,4.438999289961808,4.438999289961808,4.438999289961808,E-W,0.0002384185791015625,11.99,N-S,0.0002384185791015625,7.164
19980103032000.knt,HKD0909801030320.UD,1998-01-03, 03:20:00,42.936,145.413,50,4.8,HKD090,43.1213,143.6183,65,1998-01-03, 03:20:37,100Hz,119,U-D,0.0002384185791015625,2.743,147.32691851519502,0,-100.0,,0.0,0.0,0.0,0.0,0.0,0.0,0.0,0.0,0.0,0.0,0.0,0.0,0.0,0.0,0.0,E-W,0.0002384185791015625,9.914,N-S,0.0002384185791015625,7.429
19980103032000.knt,HKD0919801030320.UD,1998-01-03, 03:20:00,42.936,145.413,50,4.8,HKD091,42.8087,143.6588,17,1998-01-03, 03:20:36,100Hz,119,U-D,0.0002384185791015625,8.487,143.64894747191119,2,30.0,14.616549270649555,9.190418300845918,11.33513390602875,10.341213239267267,6.513293354325942,2.91990773728924,0.06393019372517458,0.06393019372517458,0.06393019372517458,0.05396915464920604,0.02459346919875456,3.5742833874228896,1.3064798532215836,1.3064798532215836,1.3064798532215836,0.6579161287904692,E-W,0.0002384185791015625,7.078,N-S,0.0002384185791015625,6.922
19980103032000.knt,HKD0929801030320.UD,1998-01-03, 03:20:00,42.936,145.413,50,4.8,HKD092,42.9283,143.4483,17,1998-01-03, 03:20:39,100Hz,89,U-D,0.0002384185791015625,3.725,159.94992788898412,0,-100.0,,0.0,0.0,0.0,0.0,0.0,0.0,0.0,0.0,0.0,0.0,0.0,0.0,0.0,0.0,0.0,E-W,0.0002384185791015625,16.292,N-S,0.0002384185791015625,10.752
19980103032000.knt,HKD0959801030320.UD,1998-01-03, 03:20:00,42.936,145.413,50,4.8,HKD095,42.9311,143.2137,35,1998-01-03, 03:20:45,100Hz,119,U-D,0.0002384185791015625,1.553,179.04231948612787,0,2.0,2.5586926388238003,0.0,0.0,0.0,0.0,0.0,0.0,0.0,0.0,0.0,0.0,0.0,0.0,0.0,0.0,0.0,E-W,0.0002384185791015625,3.063,N-S,0.0002384185791015625,4.072
19980103032000.knt,HKD0969801030320.UD,1998-01-03, 03:20:00,42.936,145.413,50,4.8,HKD096,42.6975,143.1356,192,1998-01-03, 03:20:46,100Hz,119,U-D,0.0002384185791015625,1.399,187.63349802095502,0,-100.0,,0.0,0.0,0.0,0.0,0.0,0.0,0.0,0.0,0.0,0.0,0.0,0.0,0.0,0.0,0.0,E-W,0.0002384185791015625,4.419,N-S,0.0002384185791015625,3.162
19980103032000.knt,HKD0979801030320.UD,1998-01-03, 03:20:00,42.936,145.413,50,4.8,HKD097,42.6181,143.4209,33,1998-01-03, 03:20:41,100Hz,119,U-D,0.0002384185791015625,1.854,166.38364919609614,0,-100.0,,0.0,0.0,0.0,0.0,0.0,0.0,0.0,0.0,0.0,0.0,0.0,0.0,0.0,0.0,0.0,E-W,0.0002384185791015625,9.783,N-S,0.0002384185791015625,8.762
19980103032000.knt,HKD0989801030320.UD,1998-01-03, 03:20:00,42.936,145.413,50,4.8,HKD098,42.4984,143.2787,83,1998-01-03, 03:20:46,100Hz,119,U-D,0.0002384185791015625,1.947,181.02035663363222,0,-100.0,,0.0,0.0,0.0,0.0,0.0,0.0,0.0,0.0,0.0,0.0,0.0,0.0,0.0,0.0,0.0,E-W,0.0002384185791015625,4.058,N-S,0.0002384185791015625,3.031
19980103081300.knt,HYG0069801030813.UD,1998-01-03, 08:13:00,35.036,134.447,12,3.6,HYG006,35.3326,134.6652,150,1998-01-03, 08:13:31,100Hz,119,U-D,0.0002384185791015625,0.795,38.48290981492486,953,957.0,17.29617590670676,2.6503729046251827,3.7728625472127932,2.683489806124204,1.164499020866812,0.8996669780622573,0.0009740279835552715,0.0009740279835552715,0.0008519932541688251,0.0003873872196524305,0.0002732570923559809,0.7889317759131989,0.3387603005730271,0.3387603005730271,0.3387603005730271,0.3387603005730271,E-W,0.0002384185791015625,5.638,N-S,0.0002384185791015625,5.203
19980103081300.knt,HYG0079801030813.UD,1998-01-03, 08:13:00,35.036,134.447,12,3.6,HYG007,35.1637,134.5459,254,1998-01-03, 08:13:25,100Hz,119,U-D,0.0002384185791015625,2.181,16.81013744210281,1204,1209.0,20.044173444077064,5.3213599813413905,3.498658713728852,2.3205428133567354,3.0930469285244437,1.3530439138423958,0.007518543387332104,0.006936140147719805,0.002775496325299177,0.002775496325299177,0.0017559651094121945,2.1866919307068473,2.1866919307068473,2.1866919307068473,1.6664333645350484,1.6664333645350484,E-W,0.0002384185791015625,10.449,N-S,0.0002384185791015625,8.608
19980103081300.knt,HYG0119801030813.UD,1998-01-03, 08:13:00,35.036,134.447,12,3.6,HYG011,34.9848,134.3228,75,1998-01-03, 08:13:22,100Hz,119,U-D,0.0002384185791015625,19.716,12.663323036680039,1446,1445.0,31.535909472336723,1.905789081810407,1.8130437101469987,1.1401474742728963,0.244791221654853,0.19440583050408067,0.010399191212575735,0.010399191212575735,0.010399191212575735,0.0017909088135684714,0.0017909088135684714,19.743260019088286,19.743260019088286,19.743260019088286,19.743260019088286,19.743260019088286,E-W,0.0002384185791015625,41.023,N-S,0.0002384185791015625,48.236
19980103081300.knt,HYG0129801030813.UD,1998-01-03, 08:13:00,35.036,134.447,12,3.6,HYG012,34.9959,134.552,85,1998-01-03, 08:13:24,100Hz,119,U-D,0.0002384185791015625,2.052,10.550640992233898,1236,198.0,10.915729610065892,5.974193139119482,5.262792142142862,3.0402938284402676,2.65732862643753,1.7171006251785665,0.017362475147080322,0.017362475147080322,0.01301311617327994,0.003790693537793198,0.0027695886050592288,2.032661651315588,2.032661651315588,2.032661651315588,1.2739492635431433,0.8580734649141862,E-W,0.0002384185791015625,4.321,N-S,0.0002384185791015625,5.662
19980103081300.knt,HYG0169801030813.UD,1998-01-03, 08:13:00,35.036,134.447,12,3.6,HYG016,34.7551,134.39,5,1998-01-03, 08:13:29,100Hz,119,U-D,0.0002384185791015625,0.968,31.664299832873667,1054,227.0,14.124046404573532,2.2309533518029054,2.731367811977473,3.268384251756596,3.8762879460172543,3.5811070455555565,0.0030769457280699743,0.001811116555280425,0.0011884064540813814,0.0010368037155625458,0.0009469844027962265,0.9405787793821442,0.8572335994242453,0.5169053881710917,0.5169053881710917,0.5169053881710917,E-W,0.0002384185791015625,2.963,N-S,0.0002384185791015625,2.279
19980103081300.knt,HYG0179801030813.UD,1998-01-03, 08:13:00,35.036,134.447,12,3.6,HYG017,34.8593,134.5445,24,1998-01-03, 08:13:26,100Hz,119,U-D,0.0002384185791015625,1.909,21.56431329165478,1188,1188.0,22.387918632770027,2.32891202361448,2.4007528429789073,3.1313355796190177,2.3697797766424515,1.0380163391130068,0.0037570861836606615,0.0037570861836606615,0.003682572535854823,0.002328272100167724,0.0010603443032649882,1.9044203555189079,1.9044203555189079,1.4773425344192441,1.4773425344192441,1.4773425344192441,E-W,0.0002384185791015625,4.141,N-S,0.0002384185791015625,3.281
19980103081300.knt,OKY0019801030813.UD,1998-01-03, 08:13:00,35.036,134.447,12,3.6,OKY001,35.1945,133.7314,334,1998-01-03, 08:13:39,100Hz,119,U-D,0.0002384185791015625,0.451,67.43261255294124,0,1.0,-1.4827904399154703,0.0,0.0,0.0,0.0,0.0,0.0,0.0,0.0,0.0,0.0,0.0,0.0,0.0,0.0,0.0,E-W,0.0002384185791015625,2.549,N-S,0.0002384185791015625,3.866
19980103081300.knt,OKY0039801030813.UD,1998-01-03, 08:13:00,35.036,134.447,12,3.6,OKY003,35.1737,134.3386,323,1998-01-03, 08:13:25,100Hz,119,U-D,0.0002384185791015625,2.601,18.21215537386211,1233,1241.0,26.59967685205355,1.071144876299762,0.7552159500891648,0.7754673227167326,1.1501183260126944,1.7842411463601757,0.0021764114161693113,0.0018473178050301166,0.001593025406661759,0.0009264683358683835,0.0009264683358683835,2.5917199657359506,2.5917199657359506,2.5917199657359506,0.9346105280408865,0.8956751605026468,E-W,0.0002384185791015625,5.279,N-S,0.0002384185791015625,9.859
19980103081300.knt,OKY0099801030813.UD,1998-01-03, 08:13:00,35.036,134.447,12,3.6,OKY009,34.9176,134.0923,48,1998-01-03, 08:13:30,100Hz,119,U-D,0.0002384185791015625,3.657,34.89597995385271,989,989.0,8.2194426641893,6.646905464864387,9.879871104100157,10.008274236351884,7.317961132315921,3.3692712071469426,0.0124285965336211,0.0124285965336211,0.0124285965336211,0.012342435023263489,0.006632285944271096,3.657199110278944,2.2159962273466363,2.2159962273466363,2.2159962273466363,2.2159962273466363,E-W,0.0002384185791015625,5.396,N-S,0.0002384185791015625,7.81
19980103081300.knt,TTR0039801030813.UD,1998-01-03, 08:13:00,35.036,134.447,12,3.6,TTR003,35.3432,134.2075,85,1998-01-03, 08:13:31,100Hz,119,U-D,0.0002384185791015625,2.235,40.5034016461187,982,987.0000000000001,15.938981158583456,7.184160414937815,8.006116105143077,5.6786660457971925,3.197217189951938,0.9689704847150776,0.0037966333949226035,0.0032063537782156325,0.002868733285167297,0.0017465924784504636,0.0004245795727730846,0.7968718539202783,0.4373809283466451,0.4373809283466451,0.4303037762218545,0.35430270358695976,E-W,0.0002384185791015625,3.355,N-S,0.0002384185791015625,4.104
19980105030700.knt,KGS0059801050307.UD,1998-01-05, 03:07:00,31.853,130.281,6,3.3,KGS005,31.9006,130.4513,42,1998-01-05, 03:07:49,100Hz,119,U-D,0.0002384185791015625,2.633,16.929269326110436,1141,1141.0,22.7395800904673,1.7213745951096686,1.6464226232498858,1.894989211043182,2.0312662440153466,1.9049656416682825,0.006185335417554126,0.006185335417554126,0.006185335417554126,0.006185335417554126,0.006185335417554126,2.6302760742890587,2.6302760742890587,2.6302760742890587,2.6302760742890587,2.6302760742890587,E-W,0.0002384185791015625,5.457,N-S,0.0002384185791015625,6.233
