earthquake name,records name,earthquake date,earthquake time,lat,long,depth,mag,stn_code,stn_lat,stn_long,stn_height,rcd_date,rcd_time,frequency,rcd_duration,direction,scale_factor,max_pga,epi_dist,pick_index_manually,pick_index_kalkan,snr_db_kalkan,tc_5sec,tc_4sec,tc_3sec,tc_2sec,tc_1sec,Pd_5sec,Pd_4sec,Pd_3sec,Pd_2sec,Pd_1sec,Pga_5sec,Pga_4sec,Pga_3sec,Pga_2sec,Pga_1sec,Channel,Scale_factor,PGA_ew,Channel.1,Scale_factor.1,PGA_ns
19960526045100.knt,FKS0119605260451.UD,1996-05-26, 04:51:00,36.72,141.297,41,4.2,FKS011,37.0911,140.9035,165,1996-05-26, 04:52:11,100Hz,59,U-D,0.0002384185791015625,3.318,54.10072166232408,1369,1369.0,34.79917433648679,6.0509121038273825,5.938730678617289,4.772036180491079,2.964164083760053,1.2741876806514802,0.015842718791264213,0.015842718791264213,0.015472345557772773,0.012794753893315412,0.007147105877549407,3.295376294483881,3.295376294483881,3.295376294483881,3.295376294483881,3.295376294483881,E-W,0.0002384185791015625,3.855,N-S,0.0002384185791015625,4.338
19960526045100.knt,FKS0129605260451.UD,1996-05-26, 04:51:00,36.72,141.297,41,4.2,FKS012,36.9069,140.7929,2,1996-05-26, 04:52:10,100Hz,59,U-D,0.0002384185791015625,6.286,49.45435780997396,1429,1444.0,17.080962245172444,2.3254471097734024,2.2136486242101543,1.7285911987174307,0.9839440882471957,0.4630568948909854,0.011776917249128268,0.011776917249128268,0.01109361978813627,0.00946577231808048,0.005567389734199046,6.302363957038644,6.302363957038644,6.302363957038644,6.302363957038644,6.302363957038644,E-W,0.0002384185791015625,5.728,N-S,0.0002384185791015625,5.72
19960526045100.knt,FKS0179605260451.UD,1996-05-26, 04:51:00,36.72,141.297,41,4.2,FKS017,37.2842,140.3689,263,1996-05-26, 04:52:30,100Hz,59,U-D,0.0002384185791015625,1.795,103.57689917741449,131,127.0,28.843867225575963,4.227759384756486,3.797215864181161,2.786453105501758,1.5174081560025947,0.5786618459625309,0.008934866156724232,0.008934866156724232,0.008934866156724232,0.005837208643534196,0.0032351043944209646,1.8054792181549575,1.8054792181549575,1.8054792181549575,1.8054792181549575,1.8054792181549575,E-W,0.0002384185791015625,3.026,N-S,0.0002384185791015625,2.753
19960526045100.knt,FKS0249605260451.UD,1996-05-26, 04:51:00,36.72,141.297,41,4.2,FKS024,37.3957,140.1325,527,1996-05-26, 04:52:36,100Hz,59,U-D,0.0002384185791015625,1.438,127.75985449909119,0,1.0,6.6066524362498384,0.0,0.0,0.0,0.0,0.0,0.0,0.0,0.0,0.0,0.0,0.0,0.0,0.0,0.0,0.0,E-W,0.0002384185791015625,3.397,N-S,0.0002384185791015625,4.655
19960526045100.knt,IBR0019605260451.UD,1996-05-26, 04:51:00,36.72,141.297,41,4.2,IBR001,36.7761,140.3569,105,1996-05-26, 04:52:28,100Hz,59,U-D,0.0002384185791015625,1.638,83.99229733721602,0,-100.0,,0.0,0.0,0.0,0.0,0.0,0.0,0.0,0.0,0.0,0.0,0.0,0.0,0.0,0.0,0.0,E-W,0.0002384185791015625,2.273,N-S,0.0002384185791015625,3.154
19960526045100.knt,IBR0039605260451.UD,1996-05-26, 04:51:00,36.72,141.297,41,4.2,IBR003,36.5915,140.6453,58,1996-05-26, 04:52:11,100Hz,59,U-D,0.0002384185791015625,3.365,59.86474742778526,1425,1439.0,29.279974508039327,0.6373848541459227,0.5222427026692772,0.35848764469739974,0.23923796197345631,0.19798023820367097,0.0030614350157769643,0.0029975026546029825,0.002833011018323063,0.002447040986824581,0.002447040986824581,3.269665762706779,3.269665762706779,3.269665762706779,3.269665762706779,3.269665762706779,E-W,0.0002384185791015625,7.587,N-S,0.0002384185791015625,7.992
19960526045100.knt,IBR0059605260451.UD,1996-05-26, 04:51:00,36.72,141.297,41,4.2,IBR005,36.3851,140.2372,63,1996-05-26, 04:52:30,100Hz,59,U-D,0.0002384185791015625,2.388,101.72605577618828,0,-100.0,,0.0,0.0,0.0,0.0,0.0,0.0,0.0,0.0,0.0,0.0,0.0,0.0,0.0,0.0,0.0,E-W,0.0002384185791015625,5.849,N-S,0.0002384185791015625,5.084
19960526134300.knt,KGS0109605261343.UD,1996-05-26, 13:43:00,30.521,130.631,62,4.2,KGS010,31.7123,130.2735,16,1996-05-26, 13:43:24,100Hz,59,U-D,0.0002384185791015625,1.028,136.76805908071495,0,-100.0,,0.0,0.0,0.0,0.0,0.0,0.0,0.0,0.0,0.0,0.0,0.0,0.0,0.0,0.0,0.0,E-W,0.0002384185791015625,2.216,N-S,0.0002384185791015625,2.552
19960526134300.knt,KGS0189605261343.UD,1996-05-26, 13:43:00,30.521,130.631,62,4.2,KGS018,31.3757,130.5449,51,1996-05-26, 13:43:02,100Hz,59,U-D,0.0002384185791015625,6.487,95.3923206081363,1398,1203.0,23.73343950860167,0.807497247984225,0.6784451019085558,0.4685251578505668,0.30199718493331473,0.251358089493436,0.007960154896501552,0.007960154896501552,0.007380190567184658,0.0051519337698285594,0.0051519337698285594,6.480615667418375,6.480615667418375,6.480615667418375,6.480615667418375,6.480615667418375,E-W,0.0002384185791015625,6.757,N-S,0.0002384185791015625,7.705
19960526134300.knt,KGS0199605261343.UD,1996-05-26, 13:43:00,30.521,130.631,62,4.2,KGS019,31.2776,130.3008,10,1996-05-26, 13:43:12,100Hz,299,U-D,0.0002384185791015625,2.313,89.8355822445415,300,309.0,19.46563238242998,4.060560276937435,3.7556283511252437,3.815026848980043,4.7443217647773075,6.763787959243315,0.009287476141398965,0.009287476141398965,0.009287476141398965,0.009287476141398965,0.009287476141398965,2.2859725590503692,2.2859725590503692,2.2859725590503692,2.2859725590503692,2.2859725590503692,E-W,0.0002384185791015625,8.474,N-S,0.0002384185791015625,8.32
19960526134300.knt,KGS0209605261343.UD,1996-05-26, 13:43:00,30.521,130.631,62,4.2,KGS020,31.2396,130.4915,21,1996-05-26, 13:43:00,100Hz,59,U-D,0.0002384185791015625,2.648,81.0060625047999,1424,295.0,24.333101314790998,1.730271051822947,1.5894079957142695,1.2927921045591089,0.9327604804136331,0.7318012794406141,0.007353372160980639,0.007353372160980639,0.006481518476263092,0.004293988469061958,0.003938432258872798,2.6304302173692555,2.6304302173692555,2.6304302173692555,2.6304302173692555,2.6304302173692555,E-W,0.0002384185791015625,10.482,N-S,0.0002384185791015625,12.027
19960526134300.knt,KGS0229605261343.UD,1996-05-26, 13:43:00,30.521,130.631,62,4.2,KGS022,31.2804,131.0504,12,1996-05-26, 13:43:01,100Hz,59,U-D,0.0002384185791015625,3.046,93.44281655250875,1428,1443.0,28.405825984239897,0.44663974220276215,0.41447910657360365,0.36626830136640104,0.38106451580237455,0.37293708114446583,0.0026305659085954043,0.0026305659085954043,0.0026305659085954043,0.0026305659085954043,0.0026305659085954043,3.059322598985323,3.059322598985323,3.059322598985323,3.059322598985323,3.059322598985323,E-W,0.0002384185791015625,3.772,N-S,0.0002384185791015625,3.078
19960526134300.knt,KGS0239605261343.UD,1996-05-26, 13:43:00,30.521,130.631,62,4.2,KGS023,31.199,130.849,179,1996-05-26, 13:43:00,100Hz,59,U-D,0.0002384185791015625,3.741,78.20910186122407,1358,1368.0,36.504471496205895,9.208910762648086,8.050638986734981,5.516175730731738,2.843639732113618,0.8062559676496672,0.04528058976167351,0.044726576501569526,0.036522412461216784,0.02271845730018504,0.003497701762993287,2.4603605759096325,2.4603605759096325,2.4603605759096325,2.4603605759096325,2.4603605759096325,E-W,0.0002384185791015625,6.224,N-S,0.0002384185791015625,5.267
19960526134300.knt,KGS0269605261343.UD,1996-05-26, 13:43:00,30.521,130.631,62,4.2,KGS026,30.5202,130.9543,115,1996-05-26, 13:43:55,100Hz,59,U-D,0.0002384185791015625,10.159,30.96853738273376,1428,1443.0,27.777457989585237,0.4851241949106917,0.45444729579604926,0.4747150998488021,0.5058242451740633,0.3910606718152793,0.00963709433497339,0.00963709433497339,0.00963709433497339,0.00963709433497339,0.00963709433497339,10.161941842004643,10.161941842004643,10.161941842004643,10.161941842004643,10.161941842004643,E-W,0.0002384185791015625,7.317,N-S,0.0002384185791015625,10.369
19960526134300.knt,KGS0289605261343.UD,1996-05-26, 13:43:00,30.521,130.631,62,4.2,KGS028,30.4208,130.5769,4,1996-05-26, 13:43:54,100Hz,299,U-D,0.0002384185791015625,16.031,12.289034908074688,1441,1450.0,28.100143578941395,0.9596937763014869,0.7220732535906601,0.34296369548778094,0.2468372424469397,0.3327242530023009,0.014132903106728939,0.01370599345176345,0.005827373163938836,0.0034105122589555507,0.0034105122589555507,13.640080286001696,13.640080286001696,13.640080286001696,13.640080286001696,9.263724850281516,E-W,0.0002384185791015625,52.041,N-S,0.0002384185791015625,47.729
19960527053800.knt,AIC0029605270538.UD,1996-05-27, 05:38:00,34.903,138.197,30,4.7,AIC002,35.2979,136.9153,20,1996-05-27, 05:38:52,100Hz,59,U-D,0.0002384185791015625,0.587,124.5937559245452,0,-100.0,,0.0,0.0,0.0,0.0,0.0,0.0,0.0,0.0,0.0,0.0,0.0,0.0,0.0,0.0,0.0,E-W,0.0002384185791015625,2.183,N-S,0.0002384185791015625,1.528
19960527053800.knt,AIC0049605270538.UD,1996-05-27, 05:38:00,34.903,138.197,30,4.7,AIC004,35.0634,136.9736,30,1996-05-27, 05:38:51,100Hz,59,U-D,0.0002384185791015625,2.402,112.8741987492572,0,3.0,-5.920280063805348,0.0,0.0,0.0,0.0,0.0,0.0,0.0,0.0,0.0,0.0,0.0,0.0,0.0,0.0,0.0,E-W,0.0002384185791015625,2.803,N-S,0.0002384185791015625,2.803
19960527053800.knt,AIC0059605270538.UD,1996-05-27, 05:38:00,34.903,138.197,30,4.7,AIC005,35.1979,137.2056,150,1996-05-27, 05:38:44,100Hz,59,U-D,0.0002384185791015625,0.983,96.01872226585573,298,313.0,18.728321058715146,2.8057803384108038,2.675173704427891,2.4792694370573196,2.068216037662817,2.112516398001226,0.0021746868493057498,0.0021746868493057498,0.0021746868493057498,0.0021746868493057498,0.0012983020884995392,0.5550545602129447,0.5550545602129447,0.5550545602129447,0.5506047442027175,0.4004675659579947,E-W,0.0002384185791015625,3.425,N-S,0.0002384185791015625,3.077
19960527053800.knt,AIC0069605270538.UD,1996-05-27, 05:38:00,34.903,138.197,30,4.7,AIC006,35.2159,137.5086,510,1996-05-27, 05:38:37,100Hz,59,U-D,0.0002384185791015625,2.724,71.66933417892753,630,630.0,31.63877028934424,10.465131955906129,10.251374175133517,8.865105787005954,6.773426008734261,4.205036155278523,0.012874535310156313,0.012874535310156313,0.012874535310156313,0.011362721588374052,0.007568641330300091,1.3390351970147618,1.3390351970147618,1.3390351970147618,1.3390351970147618,1.3390351970147618,E-W,0.0002384185791015625,11.376,N-S,0.0002384185791015625,14.023
19960527053800.knt,AIC0089605270538.UD,1996-05-27, 05:38:00,34.903,138.197,30,4.7,AIC008,35.0977,137.5697,465,1996-05-27, 05:38:35,100Hz,59,U-D,0.0002384185791015625,1.434,61.1016221515432,672,663.0,23.251501646842122,5.32534213147657,5.241162736533331,4.94521430280856,4.107742272404373,3.0031283491203657,0.00567262882195862,0.00567262882195862,0.00567262882195862,0.00567262882195862,0.0035682069115575907,1.4308776564984405,1.4308776564984405,1.4308776564984405,1.3467663503520129,1.3467663503520129,E-W,0.0002384185791015625,3.368,N-S,0.0002384185791015625,5.536
19960527053800.knt,AIC0109605270538.UD,1996-05-27, 05:38:00,34.903,138.197,30,4.7,AIC010,34.976,137.4236,525,1996-05-27, 05:38:38,100Hz,59,U-D,0.0002384185791015625,4.676,70.96320318503324,0,-100.0,,0.0,0.0,0.0,0.0,0.0,0.0,0.0,0.0,0.0,0.0,0.0,0.0,0.0,0.0,0.0,E-W,0.0002384185791015625,7.717,N-S,0.0002384185791015625,8.893
19960527053800.knt,AIC0129605270538.UD,1996-05-27, 05:38:00,34.903,138.197,30,4.7,AIC012,34.9119,137.0447,6,1996-05-27, 05:38:50,100Hz,59,U-D,0.0002384185791015625,0.746,105.0805363117663,0,-100.0,,0.0,0.0,0.0,0.0,0.0,0.0,0.0,0.0,0.0,0.0,0.0,0.0,0.0,0.0,0.0,E-W,0.0002384185791015625,2.36,N-S,0.0002384185791015625,1.957
19960527053800.knt,AIC0139605270538.UD,1996-05-27, 05:38:00,34.903,138.197,30,4.7,AIC013,34.9335,137.5761,80,1996-05-27, 05:38:27,100Hz,59,U-D,0.0002384185791015625,8.39,56.712866326529884,1446,1445.0,35.57606376121592,0.7635178386692323,0.6060131963093198,0.4555361087625585,0.42270940692976483,0.4166546024396989,0.007931948881794314,0.007931948881794314,0.007931948881794314,0.007931948881794314,0.007931948881794314,8.358433927743395,8.358433927743395,8.358433927743395,8.358433927743395,8.358433927743395,E-W,0.0002384185791015625,6.652,N-S,0.0002384185791015625,5.718
19960527053800.knt,AIC0159605270538.UD,1996-05-27, 05:38:00,34.903,138.197,30,4.7,AIC015,34.7549,137.4047,8,1996-05-27, 05:38:40,100Hz,59,U-D,0.0002384185791015625,1.483,74.16870990790082,438,43.0,18.583684926014264,3.614792639983555,3.2446649493259505,2.851702959602507,2.9390612869138253,3.4017029161300387,0.009611474278864093,0.009611474278864093,0.009611474278864093,0.009611474278864093,0.009611474278864093,0.8767099401460388,0.8767099401460388,0.8767099401460388,0.8767099401460388,0.7819527728898193,E-W,0.0002384185791015625,4.0,N-S,0.0002384185791015625,3.24
19960527053800.knt,GIF0079605270538.UD,1996-05-27, 05:38:00,34.903,138.197,30,4.7,GIF007,36.0378,137.4861,995,1996-05-27, 05:38:57,100Hz,59,U-D,0.0002384185791015625,1.117,141.65665414254127,0,-100.0,,0.0,0.0,0.0,0.0,0.0,0.0,0.0,0.0,0.0,0.0,0.0,0.0,0.0,0.0,0.0,E-W,0.0002384185791015625,2.661,N-S,0.0002384185791015625,2.655
19960527053800.knt,GIF0239605270538.UD,1996-05-27, 05:38:00,34.903,138.197,30,4.7,GIF023,35.3882,137.2158,275,1996-05-27, 05:38:46,100Hz,59,U-D,0.0002384185791015625,1.121,104.25794258377131,219,218.00000000000003,10.521954942784246,3.9810795705782023,3.892843450374097,3.712237074191594,3.9838294407673573,9.117905670726145,0.0036217204230942837,0.0036217204230942837,0.003539743970514248,0.003539743970514248,0.0031732463069294135,0.7852598484303568,0.7852598484303568,0.7852598484303568,0.7852598484303568,0.35457235218210487,E-W,0.0002384185791015625,3.374,N-S,0.0002384185791015625,4.963
19960527053800.knt,SZO0019605270538.UD,1996-05-27, 05:38:00,34.903,138.197,30,4.7,SZO001,35.1424,139.0795,76,1996-05-27, 05:38:42,100Hz,59,U-D,0.0002384185791015625,0.675,84.65461382552986,0,-100.0,,0.0,0.0,0.0,0.0,0.0,0.0,0.0,0.0,0.0,0.0,0.0,0.0,0.0,0.0,0.0,E-W,0.0002384185791015625,4.14,N-S,0.0002384185791015625,1.828
19960527053800.knt,SZO0039605270538.UD,1996-05-27, 05:38:00,34.903,138.197,30,4.7,SZO003,34.8158,139.0546,149,1996-05-27, 05:38:33,100Hz,59,U-D,0.0002384185791015625,2.692,78.84716264221017,1162,1179.0,27.103642972610626,0.33521326114230826,0.340808349836017,0.3116973180816884,0.2914475479852499,0.30796553962754764,0.0034766847603665786,0.0034766847603665786,0.0034766847603665786,0.0034766847603665786,0.0034766847603665786,2.6916351468512003,2.6916351468512003,2.6916351468512003,2.6916351468512003,2.6916351468512003,E-W,0.0002384185791015625,5.038,N-S,0.0002384185791015625,5.486
19960527053800.knt,SZO0049605270538.UD,1996-05-27, 05:38:00,34.903,138.197,30,4.7,SZO004,34.6469,138.8194,50,1996-05-27, 05:38:37,100Hz,59,U-D,0.0002384185791015625,1.093,63.58076249512629,547,552.0,23.917067977683466,2.671238705257459,2.7650622153083035,2.1438785912293206,1.1069857887912276,0.49662493692677895,0.002982248393933913,0.002982248393933913,0.0028227643374139693,0.0015397693865795915,0.0008513785854131088,0.9428351250803353,0.9428351250803353,0.9428351250803353,0.9428351250803353,0.9428351250803353,E-W,0.0002384185791015625,5.247,N-S,0.0002384185791015625,3.958
19960527053800.knt,SZO0059605270538.UD,1996-05-27, 05:38:00,34.903,138.197,30,4.7,SZO005,34.7549,138.7841,8,1996-05-27, 05:38:35,100Hz,59,U-D,0.0002384185791015625,1.891,56.06105812376511,631,626.0,10.667421619300669,5.161951241057345,4.176998750553292,2.8636030692292866,1.5490519154132794,0.936518078965483,0.010259314578082794,0.009951064386192253,0.007848898352023442,0.0049485207903424795,0.004472125631506031,1.331002182525196,1.331002182525196,1.331002182525196,1.331002182525196,1.331002182525196,E-W,0.0002384185791015625,8.703,N-S,0.0002384185791015625,6.479
19960527053800.knt,SZO0149605270538.UD,1996-05-27, 05:38:00,34.903,138.197,30,4.7,SZO014,34.9649,138.3735,18,1996-05-27, 05:38:22,100Hz,59,U-D,0.0002384185791015625,4.121,17.4999779180957,1403,1390.0,32.1850156550841,0.904437411057613,0.5935399450141798,0.5001347508187735,0.49075786359581214,0.4986716388029901,0.01048825253534475,0.006850513171935951,0.006850513171935951,0.006850513171935951,0.006850513171935951,4.153724632547471,4.153724632547471,4.153724632547471,4.153724632547471,4.153724632547471,E-W,0.0002384185791015625,8.845,N-S,0.0002384185791015625,13.052
19960527053800.knt,SZO0169605270538.UD,1996-05-27, 05:38:00,34.903,138.197,30,4.7,SZO016,34.8566,138.3113,3,1996-05-27, 05:38:21,100Hz,59,U-D,0.0002384185791015625,14.903,11.633081968343353,1489,1487.0,35.92931379850525,0.5737283718758587,0.5143115453672678,0.4543561241879683,0.4124128291398483,0.4131018717836414,0.023080257923249154,0.023080257923249154,0.023080257923249154,0.023080257923249154,0.023080257923249154,14.76565453409248,14.76565453409248,14.76565453409248,14.76565453409248,14.76565453409248,E-W,0.0002384185791015625,5.853,N-S,0.0002384185791015625,11.922
19960527053800.knt,SZO0179605270538.UD,1996-05-27, 05:38:00,34.903,138.197,30,4.7,SZO017,34.6374,138.1281,8,1996-05-27, 05:38:31,100Hz,59,U-D,0.0002384185791015625,3.137,30.196463485382296,827,53.0,21.479050338064717,9.947619332826772,11.476486002410894,17.30639237857158,23.94180521887249,25.05148681447845,0.04498479684685345,0.04498479684685345,0.04498479684685345,0.04498479684685345,0.04498479684685345,0.6366461482099038,0.6366461482099038,0.6366461482099038,0.6366461482099038,0.4745584075735972,E-W,0.0002384185791015625,5.444,N-S,0.0002384185791015625,4.239
19960527053800.knt,SZO0189605270538.UD,1996-05-27, 05:38:00,34.903,138.197,30,4.7,SZO018,34.7402,138.2241,4,1996-05-27, 05:38:28,100Hz,59,U-D,0.0002384185791015625,4.428,18.270778773396213,932,932.0,35.40537805755805,2.1619205560438672,2.331869103177766,2.539045643390478,2.739865263412751,2.5186601221927893,0.021290451265024348,0.021290451265024348,0.021290451265024348,0.021290451265024348,0.021290451265024348,3.47248712279713,3.47248712279713,3.47248712279713,3.47248712279713,3.47248712279713,E-W,0.0002384185791015625,15.265,N-S,0.0002384185791015625,26.269
19960527053800.knt,SZO0199605270538.UD,1996-05-27, 05:38:00,34.903,138.197,30,4.7,SZO019,34.7699,137.9981,37,1996-05-27, 05:38:23,100Hz,59,U-D,0.0002384185791015625,4.363,23.42166076976688,1454,1453.0,37.03423339090588,0.6110669882056013,0.5601181602360704,0.5287238129536537,0.5605927116287359,0.587977080389127,0.004446612495033046,0.003550379017887251,0.003550379017887251,0.003550379017887251,0.003550379017887251,2.509497715452042,2.509497715452042,2.509497715452042,2.509497715452042,2.509497715452042,E-W,0.0002384185791015625,11.578,N-S,0.0002384185791015625,16.825
19960527053800.knt,SZO0209605270538.UD,1996-05-27, 05:38:00,34.903,138.197,30,4.7,SZO020,34.9394,138.076,142,1996-05-27, 05:38:21,100Hz,59,U-D,0.0002384185791015625,10.981,11.751009482215993,1454,1457.0,26.667867546885418,0.4797399996119793,0.43448569480204685,0.42011934381553495,0.3659869174226193,0.24214315416788837,0.01171904098856016,0.01171904098856016,0.007607946605339288,0.007607946605339288,0.007607946605339288,10.937687124163103,10.937687124163103,10.937687124163103,10.937687124163103,10.937687124163103,E-W,0.0002384185791015625,39.263,N-S,0.0002384185791015625,67.144
19960527053800.knt,SZO0219605270538.UD,1996-05-27, 05:38:00,34.903,138.197,30,4.7,SZO021,35.0969,138.1332,441,1996-05-27, 05:38:22,100Hz,59,U-D,0.0002384185791015625,2.742,22.330121049547742,1420,1419.0,32.86285201032678,1.2177219089135545,1.063152726309751,1.0583005241827912,0.545564647035447,0.3859202527837615,0.004788030303430602,0.004379378571658414,0.0031447122582210865,0.002032853059835527,0.001613679103613088,2.7562728042368048,2.7562728042368048,2.7562728042368048,2.7562728042368048,2.7562728042368048,E-W,0.0002384185791015625,10.685,N-S,0.0002384185791015625,8.322
19960527053800.knt,SZO0229605270538.UD,1996-05-27, 05:38:00,34.903,138.197,30,4.7,SZO022,35.0916,137.8136,136,1996-05-27, 05:38:30,100Hz,59,U-D,0.0002384185791015625,4.056,40.73615617042349,0,-100.0,,0.0,0.0,0.0,0.0,0.0,0.0,0.0,0.0,0.0,0.0,0.0,0.0,0.0,0.0,0.0,E-W,0.0002384185791015625,8.838,N-S,0.0002384185791015625,6.713
