earthquake name,records name,earthquake date,earthquake time,lat,long,depth,mag,stn_code,stn_lat,stn_long,stn_height,rcd_date,rcd_time,frequency,rcd_duration,direction,scale_factor,max_pga,epi_dist,pick_index_manually,pick_index_kalkan,snr_db_kalkan,tc_5sec,tc_4sec,tc_3sec,tc_2sec,tc_1sec,Pd_5sec,Pd_4sec,Pd_3sec,Pd_2sec,Pd_1sec,Pga_5sec,Pga_4sec,Pga_3sec,Pga_2sec,Pga_1sec,Channel,Scale_factor,PGA_ew,Channel.1,Scale_factor.1,PGA_ns
19970106082100.knt,SIT0049701060821.UD,1997-01-06, 08:21:00,36.203,140.114,53,3.9,SIT004,36.1179,139.1045,140.0,1997-01-06, 08:22:22,100Hz,59,U-D,0.0002384185791015625,2.087,91.12031200346507,338,356.0,17.47294506915204,7.343620352814744,6.664539439690046,4.801622045771211,4.246694378451442,6.475093037317966,0.008812910764354285,0.008812910764354285,0.007825150212310847,0.006536071363352274,0.006536071363352274,0.9528858888026982,0.9528858888026982,0.9528858888026982,0.7557779052757064,0.7546828243580878,E-W,0.0002384185791015625,4.8,N-S,0.0002384185791015625,5.847
19970106082100.knt,SIT0079701060821.UD,1997-01-06, 08:21:00,36.203,140.114,53,3.9,SIT007,36.054,139.3912,25.0,1997-01-06, 08:22:17,100Hz,59,U-D,0.0002384185791015625,3.36,66.99668105764869,556,691.0,13.977661353089047,1.876273340742353,2.1771797830759327,2.371746253741498,1.9223093740678776,1.6683041259286233,0.0008341780804827423,0.0008341780804827423,0.0008341780804827423,0.0007187020497021947,0.000540249260545092,0.410753771517846,0.410753771517846,0.410753771517846,0.410753771517846,0.28337111707408924,E-W,0.0002384185791015625,8.443,N-S,0.0002384185791015625,10.49
19970106082100.knt,SIT0099701060821.UD,1997-01-06, 08:21:00,36.203,140.114,53,3.9,SIT009,35.9032,139.4837,22.0,1997-01-06, 08:22:18,100Hz,59,U-D,0.0002384185791015625,2.509,65.74142863792129,478,28.999999999999996,16.888194442999488,3.4004569925947234,3.6680337838673283,2.972134846716727,1.9244838551260042,0.6758929976784868,0.0034309750416155254,0.0034309750416155254,0.0034309750416155254,0.002703001545557792,0.0009581189442274918,1.023863129674878,1.023863129674878,1.023863129674878,1.023863129674878,1.023863129674878,E-W,0.0002384185791015625,4.323,N-S,0.0002384185791015625,5.385
19970106082100.knt,TCG0039701060821.UD,1997-01-06, 08:21:00,36.203,140.114,53,3.9,TCG003,36.8144,139.7153,398.0,1997-01-06, 08:22:10,100Hz,59,U-D,0.0002384185791015625,1.552,76.7569605108086,1403,1410.0,22.773774509228076,3.316271145472788,3.35755887965962,2.861549643861271,1.5142144808684772,1.4385645671390832,0.004844444210129714,0.004844444210129714,0.004844444210129714,0.002814359568085032,0.002683996988645679,1.5568203304539838,1.5568203304539838,1.5568203304539838,1.5568203304539838,1.5568203304539838,E-W,0.0002384185791015625,8.119,N-S,0.0002384185791015625,7.067
19970106082100.knt,TCG0049701060821.UD,1997-01-06, 08:21:00,36.203,140.114,53,3.9,TCG004,36.8061,139.4204,1490.0,1997-01-06, 08:22:23,100Hz,59,U-D,0.0002384185791015625,1.839,91.32562295403054,298,298.0,17.045459467297693,1.393689997074956,1.3400583552316143,1.3638904509166028,1.436164129572144,1.4087717024120363,0.0026816423432026114,0.0026816423432026114,0.0026816423432026114,0.0026816423432026114,0.0026816423432026114,1.845576285171385,1.845576285171385,1.845576285171385,1.845576285171385,1.845576285171385,E-W,0.0002384185791015625,2.875,N-S,0.0002384185791015625,2.083
19970106082100.knt,TCG0079701060821.UD,1997-01-06, 08:21:00,36.203,140.114,53,3.9,TCG007,36.5692,139.8861,138.0,1997-01-06, 08:22:14,100Hz,59,U-D,0.0002384185791015625,2.554,45.54415339251785,646,644.0,28.933436626825824,2.24517368081623,1.8500469895642782,1.3155516890268473,0.9084068357217098,1.0116889475205877,0.001902324103431751,0.0018201464341989217,0.0012864328198304207,0.0011988295427901629,0.0011988295427901629,0.94812736374815,0.8763302737963862,0.8763302737963862,0.8763302737963862,0.8763302737963862,E-W,0.0002384185791015625,5.288,N-S,0.0002384185791015625,4.683
19970106082100.knt,TCG0099701060821.UD,1997-01-06, 08:21:00,36.203,140.114,53,3.9,TCG009,36.7258,139.7155,361.0,1997-01-06, 08:22:18,100Hz,59,U-D,0.0002384185791015625,6.338,68.18596945676211,0,13.0,8.80186832478868,0.0,0.0,0.0,0.0,0.0,0.0,0.0,0.0,0.0,0.0,0.0,0.0,0.0,0.0,0.0,E-W,0.0002384185791015625,8.338,N-S,0.0002384185791015625,7.775
19970106082100.knt,TCG0109701060821.UD,1997-01-06, 08:21:00,36.203,140.114,53,3.9,TCG010,36.6347,139.4376,640.0,1997-01-06, 08:22:10,100Hz,59,U-D,0.0002384185791015625,4.513,77.24809970605756,1408,1417.0,30.11880222534384,0.32544081152977505,0.21959414075699946,0.20515549154201443,0.20389051393093086,0.2215117720360626,0.0010819420449286851,0.0010819420449286851,0.0010819420449286851,0.0010819420449286851,0.0010819420449286851,2.652042074860726,2.652042074860726,2.652042074860726,2.652042074860726,2.652042074860726,E-W,0.0002384185791015625,7.501,N-S,0.0002384185791015625,10.275
19970106082100.knt,TCG0119701060821.UD,1997-01-06, 08:21:00,36.203,140.114,53,3.9,TCG011,36.3867,139.6145,93.0,1997-01-06, 08:22:14,100Hz,59,U-D,0.0002384185791015625,3.428,49.205717232981485,698,703.0,24.602767784406684,5.021323597592172,4.446473563539838,4.033595318893529,3.1030090309864957,2.394393021587184,0.004310768961719976,0.0033667012981441796,0.002723149818416423,0.0025224469138766404,0.001864515550582174,1.069906430535479,1.060439164207593,1.060439164207593,1.060439164207593,0.9167273126916633,E-W,0.0002384185791015625,3.979,N-S,0.0002384185791015625,5.305
19970106082100.knt,TCG0129701060821.UD,1997-01-06, 08:21:00,36.203,140.114,53,3.9,TCG012,36.2859,139.8047,33.0,1997-01-06, 08:22:08,100Hz,59,U-D,0.0002384185791015625,10.109,29.22928345715649,1162,1168.0,30.72544009161397,0.3837324388780617,0.4127821014970987,0.5904936144633306,0.4191484193490304,0.2256702903999174,0.0020435411226357903,0.0020435411226357903,0.0020435411226357903,0.0014009557445565516,0.0005405858363996144,3.495048288497669,3.495048288497669,2.3240543092185035,2.1849961344628204,2.1849961344628204,E-W,0.0002384185791015625,9.126,N-S,0.0002384185791015625,14.508
19970106082100.knt,TCG0139701060821.UD,1997-01-06, 08:21:00,36.203,140.114,53,3.9,TCG013,36.4368,140.0225,67.0,1997-01-06, 08:22:11,100Hz,59,U-D,0.0002384185791015625,7.126,27.259225208815028,829,832.0,32.062599997817244,5.410782708135082,5.948986079930433,6.505967393336888,6.420312227046417,5.440026810854147,0.00819571892373054,0.00819571892373054,0.00819571892373054,0.007966068831305035,0.00745703697930188,2.38670389697422,2.38670389697422,1.8901681333986864,1.8901681333986864,1.8901681333986864,E-W,0.0002384185791015625,29.743,N-S,0.0002384185791015625,27.784
19970106082100.knt,TCG0149701060821.UD,1997-01-06, 08:21:00,36.203,140.114,53,3.9,TCG014,36.545,140.1742,130.0,1997-01-06, 08:22:13,100Hz,59,U-D,0.0002384185791015625,18.372,38.40869803322392,704,714.0,24.418628810737374,1.1196889144512676,1.2270506233266836,0.9362183199503806,0.5766028105614308,0.7142088499771909,0.004231147175638762,0.004231147175638762,0.0035357026235652033,0.0020540204993435723,0.0020540204993435723,3.0657842939010562,1.9291365622819,1.9291365622819,1.9291365622819,1.4781604341892591,E-W,0.0002384185791015625,29.608,N-S,0.0002384185791015625,14.711
19970107180200.knt,AOM0079701071802.UD,1997-01-07, 18:02:00,42.27,142.979,65,4.6,AOM007,41.2256,141.3958,10.0,1997-01-07, 18:03:44,100Hz,59,U-D,0.0002384185791015625,1.157,175.31568424590188,0,-100.0,,0.0,0.0,0.0,0.0,0.0,0.0,0.0,0.0,0.0,0.0,0.0,0.0,0.0,0.0,0.0,E-W,0.0002384185791015625,2.308,N-S,0.0002384185791015625,2.179
19970107180200.knt,HKD0669701071802.UD,1997-01-07, 18:02:00,42.27,142.979,65,4.6,HKD066,43.6619,145.1307,2.0,1997-01-07, 18:03:57,100Hz,59,U-D,0.0002384185791015625,0.8,233.66660126104517,0,-100.0,,0.0,0.0,0.0,0.0,0.0,0.0,0.0,0.0,0.0,0.0,0.0,0.0,0.0,0.0,0.0,E-W,0.0002384185791015625,2.87,N-S,0.0002384185791015625,3.796
19970107180200.knt,HKD0699701071802.UD,1997-01-07, 18:02:00,42.27,142.979,65,4.6,HKD069,43.3941,145.1168,25.0,1997-01-07, 18:03:52,100Hz,59,U-D,0.0002384185791015625,0.924,214.49505683954024,0,-100.0,,0.0,0.0,0.0,0.0,0.0,0.0,0.0,0.0,0.0,0.0,0.0,0.0,0.0,0.0,0.0,E-W,0.0002384185791015625,2.292,N-S,0.0002384185791015625,2.307
19970107180200.knt,HKD0709701071802.UD,1997-01-07, 18:02:00,42.27,142.979,65,4.6,HKD070,43.3852,145.284,6.0,1997-01-07, 18:03:54,100Hz,59,U-D,0.0002384185791015625,1.1,225.17825982483538,0,1.0,3.5999800240898336,0.0,0.0,0.0,0.0,0.0,0.0,0.0,0.0,0.0,0.0,0.0,0.0,0.0,0.0,0.0,E-W,0.0002384185791015625,3.575,N-S,0.0002384185791015625,3.14
19970107180200.knt,HKD0789701071802.UD,1997-01-07, 18:02:00,42.27,142.979,65,4.6,HKD078,43.1486,144.4976,21.0,1997-01-07, 18:03:40,100Hz,59,U-D,0.0002384185791015625,3.66,157.92000105214643,0,-100.0,,0.0,0.0,0.0,0.0,0.0,0.0,0.0,0.0,0.0,0.0,0.0,0.0,0.0,0.0,0.0,E-W,0.0002384185791015625,2.937,N-S,0.0002384185791015625,3.016
19970107180200.knt,HKD0809701071802.UD,1997-01-07, 18:02:00,42.27,142.979,65,4.6,HKD080,43.5077,144.4485,140.0,1997-01-07, 18:03:44,100Hz,59,U-D,0.0002384185791015625,1.211,182.40444714649203,0,-100.0,,0.0,0.0,0.0,0.0,0.0,0.0,0.0,0.0,0.0,0.0,0.0,0.0,0.0,0.0,0.0,E-W,0.0002384185791015625,2.286,N-S,0.0002384185791015625,3.112
19970107180200.knt,HKD0849701071802.UD,1997-01-07, 18:02:00,42.27,142.979,65,4.6,HKD084,43.1141,144.123,30.0,1997-01-07, 18:03:34,100Hz,59,U-D,0.0002384185791015625,1.8,132.47965284844176,0,-100.0,,0.0,0.0,0.0,0.0,0.0,0.0,0.0,0.0,0.0,0.0,0.0,0.0,0.0,0.0,0.0,E-W,0.0002384185791015625,6.358,N-S,0.0002384185791015625,4.897
19970107180200.knt,HKD0859701071802.UD,1997-01-07, 18:02:00,42.27,142.979,65,4.6,HKD085,42.9581,144.0697,5.0,1997-01-07, 18:03:31,100Hz,59,U-D,0.0002384185791015625,2.598,117.55888803008806,0,-100.0,,0.0,0.0,0.0,0.0,0.0,0.0,0.0,0.0,0.0,0.0,0.0,0.0,0.0,0.0,0.0,E-W,0.0002384185791015625,4.652,N-S,0.0002384185791015625,6.011
19970107180200.knt,HKD0869701071802.UD,1997-01-07, 18:02:00,42.27,142.979,65,4.6,HKD086,42.8526,143.8636,32.0,1997-01-07, 18:03:27,100Hz,59,U-D,0.0002384185791015625,4.933,97.18785856483747,0,-100.0,,0.0,0.0,0.0,0.0,0.0,0.0,0.0,0.0,0.0,0.0,0.0,0.0,0.0,0.0,0.0,E-W,0.0002384185791015625,18.375,N-S,0.0002384185791015625,17.438
19970107180200.knt,HKD0879701071802.UD,1997-01-07, 18:02:00,42.27,142.979,65,4.6,HKD087,43.1502,143.8916,170.0,1997-01-07, 18:03:32,100Hz,59,U-D,0.0002384185791015625,0.74,123.03936652941236,0,-100.0,,0.0,0.0,0.0,0.0,0.0,0.0,0.0,0.0,0.0,0.0,0.0,0.0,0.0,0.0,0.0,E-W,0.0002384185791015625,2.506,N-S,0.0002384185791015625,2.508
19970107180200.knt,HKD0899701071802.UD,1997-01-07, 18:02:00,42.27,142.979,65,4.6,HKD089,43.2436,143.5544,90.0,1997-01-07, 18:03:29,100Hz,59,U-D,0.0002384185791015625,1.906,118.01196123688142,0,1.0,9.40217366602207,0.0,0.0,0.0,0.0,0.0,0.0,0.0,0.0,0.0,0.0,0.0,0.0,0.0,0.0,0.0,E-W,0.0002384185791015625,5.334,N-S,0.0002384185791015625,4.201
19970107180200.knt,HKD0909701071802.UD,1997-01-07, 18:02:00,42.27,142.979,65,4.6,HKD090,43.1213,143.6183,65.0,1997-01-07, 18:03:27,100Hz,59,U-D,0.0002384185791015625,2.347,108.12059764285027,87,125.0,19.998231276587276,1.940443141298025,1.9067958951103146,1.9970318198760344,2.9521436330436863,2.139103924156181,0.0034264310103948497,0.0034264310103948497,0.0034264310103948497,0.002275169381324875,0.0015775092740266939,2.057350028144504,2.057350028144504,1.7389174995582877,0.8237607445482473,0.5138303127149255,E-W,0.0002384185791015625,5.29,N-S,0.0002384185791015625,5.094
19970107180200.knt,HKD0919701071802.UD,1997-01-07, 18:02:00,42.27,142.979,65,4.6,HKD091,42.8087,143.6588,17.0,1997-01-07, 18:03:23,100Hz,59,U-D,0.0002384185791015625,10.988,81.79263362486232,0,-100.0,,0.0,0.0,0.0,0.0,0.0,0.0,0.0,0.0,0.0,0.0,0.0,0.0,0.0,0.0,0.0,E-W,0.0002384185791015625,12.228,N-S,0.0002384185791015625,19.255
19970107180200.knt,HKD0929701071802.UD,1997-01-07, 18:02:00,42.27,142.979,65,4.6,HKD092,42.9283,143.4483,17.0,1997-01-07, 18:03:22,100Hz,59,U-D,0.0002384185791015625,3.669,82.66601717238406,279,281.0,19.256077421515837,10.226009607233149,10.82240266374372,13.310946721784092,20.10328705874886,32.70672326703924,0.04706620282931675,0.04706620282931675,0.04706620282931675,0.04706620282931675,0.04706620282931675,2.009276783720014,1.9779960987948764,1.2564519611583123,0.882724699025239,0.6554888474593585,E-W,0.0002384185791015625,10.024,N-S,0.0002384185791015625,8.762
19970107180200.knt,HKD0939701071802.UD,1997-01-07, 18:02:00,42.27,142.979,65,4.6,HKD093,43.3191,143.3049,364.0,1997-01-07, 18:03:29,100Hz,59,U-D,0.0002384185791015625,1.539,119.64670757077002,38,47.0,22.8010629265663,1.1350478051211856,1.1187237967667314,1.2669365302044042,1.658987135920462,1.3759906595257974,0.0011680876370245828,0.0011680876370245828,0.0011680876370245828,0.0011680876370245828,0.0006128330214354913,0.691028713180224,0.691028713180224,0.4984445278993589,0.3342832799777219,0.22155886745402226,E-W,0.0002384185791015625,2.895,N-S,0.0002384185791015625,3.086
19970107180200.knt,HKD0949701071802.UD,1997-01-07, 18:02:00,42.27,142.979,65,4.6,HKD094,43.1694,143.2408,205.0,1997-01-07, 18:03:26,100Hz,59,U-D,0.0002384185791015625,1.501,102.26984610820176,126,124.0,29.180832365190614,2.5660709649751494,2.8004446463209725,3.5099534012426328,3.3775792433560263,3.331739390424004,0.004111177863119042,0.004111177863119042,0.0035407819576197,0.0031167513998547045,0.0022649438444911213,1.1643835719076734,1.1643835719076734,1.1643835719076734,0.7739404100916094,0.3376120323395861,E-W,0.0002384185791015625,3.427,N-S,0.0002384185791015625,3.352
19970107180200.knt,HKD0959701071802.UD,1997-01-07, 18:02:00,42.27,142.979,65,4.6,HKD095,42.9311,143.2137,35.0,1997-01-07, 18:03:21,100Hz,59,U-D,0.0002384185791015625,3.095,75.97943696874121,355,353.0,22.543825484345934,8.639128959545403,7.783106228040097,8.223409260242697,10.519372214173007,14.12283319977896,0.05452119126254127,0.05452119126254127,0.05452119126254127,0.05452119126254127,0.05452119126254127,1.5388747430339542,1.5388747430339542,1.5388747430339542,1.5388747430339542,1.5388747430339542,E-W,0.0002384185791015625,6.361,N-S,0.0002384185791015625,12.592
19970107180200.knt,HKD0969701071802.UD,1997-01-07, 18:02:00,42.27,142.979,65,4.6,HKD096,42.6975,143.1356,192.0,1997-01-07, 18:03:15,100Hz,59,U-D,0.0002384185791015625,5.566,49.2398232335864,623,631.0,25.651417471523,8.678518297396508,7.875196707250254,6.658564929581879,5.46391630692222,2.808220216252411,0.03431290978952472,0.03431290978952472,0.03359904981876478,0.029103922729455382,0.015922960611603088,3.548407991729249,3.548407991729249,3.548407991729249,3.478807835863315,3.307619309353171,E-W,0.0002384185791015625,7.047,N-S,0.0002384185791015625,6.475
19970107180200.knt,HKD0979701071802.UD,1997-01-07, 18:02:00,42.27,142.979,65,4.6,HKD097,42.6181,143.4209,33.0,1997-01-07, 18:03:08,100Hz,59,U-D,0.0002384185791015625,6.437,53.037726862895575,1376,1384.0,35.5777381026238,2.143137207855222,1.767675735268034,1.2486054967224485,0.5701309526105404,0.526762235310342,0.015910614609392693,0.015910614609392693,0.012229477099788435,0.008440125400080425,0.008440125400080425,3.978030795887861,3.978030795887861,3.978030795887861,3.978030795887861,3.978030795887861,E-W,0.0002384185791015625,23.463,N-S,0.0002384185791015625,15.838
19970107180200.knt,HKD0989701071802.UD,1997-01-07, 18:02:00,42.27,142.979,65,4.6,HKD098,42.4984,143.2787,83.0,1997-01-07, 18:03:07,100Hz,59,U-D,0.0002384185791015625,9.061,35.368256589220046,1359,1394.0,33.422112592002065,0.6359524944426461,0.6434130861298338,0.5960995037680132,0.607459558110594,0.5961108672887538,0.021382852076565092,0.021382852076565092,0.021382852076565092,0.021382852076565092,0.021382852076565092,9.101537022534536,9.101537022534536,9.101537022534536,9.101537022534536,9.101537022534536,E-W,0.0002384185791015625,18.296,N-S,0.0002384185791015625,17.854
19970107180200.knt,HKD1009701071802.UD,1997-01-07, 18:02:00,42.27,142.979,65,4.6,HKD100,42.2864,143.312,36.0,1997-01-07, 18:03:06,100Hz,59,U-D,0.0002384185791015625,17.48,27.45708115769423,1369,1396.0,22.668345168816998,1.098853695446429,0.9814095429599123,0.8107315881426602,0.5031514384231732,0.2981620644526305,0.02478609868441923,0.02478609868441923,0.02337052164318195,0.01592298945051559,0.01592298945051559,17.481802012170924,17.481802012170924,17.481802012170924,17.481802012170924,17.481802012170924,E-W,0.0002384185791015625,31.55,N-S,0.0002384185791015625,35.294
19970107180200.knt,HKD1089701071802.UD,1997-01-07, 18:02:00,42.27,142.979,65,4.6,HKD108,42.2528,142.5643,42.0,1997-01-07, 18:03:15,100Hz,59,U-D,0.0002384185791015625,2.561,34.180681030002205,549,569.0,30.318122831415245,1.642199228158637,1.4506090056710548,1.137085974281144,0.7758896180212455,0.9431650359627578,0.005001367482844427,0.005001367482844427,0.004244565489519521,0.0020887996811837658,0.0020887996811837658,0.869707031481259,0.869707031481259,0.869707031481259,0.8473805683330307,0.5067616670999613,E-W,0.0002384185791015625,6.43,N-S,0.0002384185791015625,6.347
19970107180200.knt,HKD1099701071802.UD,1997-01-07, 18:02:00,42.27,142.979,65,4.6,HKD109,42.1678,142.7673,4.0,1997-01-07, 18:03:06,100Hz,59,U-D,0.0002384185791015625,6.387,20.810158672209067,1378,1379.0,23.08746167401356,0.787123117142953,0.8124868259943661,0.7485199604598206,0.7452810218353783,0.5134950198142905,0.007225904356348538,0.007225904356348538,0.007225904356348538,0.007225904356348538,0.007225904356348538,5.883441000140191,5.883441000140191,5.883441000140191,5.883441000140191,4.342764595954502,E-W,0.0002384185791015625,43.333,N-S,0.0002384185791015625,21.763
19970107180200.knt,HKD1109701071802.UD,1997-01-07, 18:02:00,42.27,142.979,65,4.6,HKD110,42.1306,142.9353,5.0,1997-01-07, 18:03:05,100Hz,59,U-D,0.0002384185791015625,8.234,15.913066200178806,1446,1465.0,28.977756698848317,0.6496467319414955,0.6168727653843911,0.6277618172894052,0.6726812954187907,0.6447546558521636,0.014575632579901167,0.014575632579901167,0.014575632579901167,0.014575632579901167,0.014575632579901167,8.242048805454694,8.242048805454694,8.242048805454694,8.242048805454694,8.242048805454694,E-W,0.0002384185791015625,10.207,N-S,0.0002384185791015625,20.056
19970107180200.knt,HKD1119701071802.UD,1997-01-07, 18:02:00,42.27,142.979,65,4.6,HKD111,42.017,143.1487,22.0,1997-01-07, 18:03:07,100Hz,59,U-D,0.0002384185791015625,3.817,31.419466256248853,1362,1392.0,29.651282858862672,1.813240814168779,1.5651418295683466,0.9677960428533987,0.8639422539189372,0.8717910253829708,0.012880667105241729,0.012880667105241729,0.009311872897582977,0.008979521097732519,0.008979521097732519,3.8246716993868475,3.8246716993868475,3.8246716993868475,3.8246716993868475,2.0130277927480957,E-W,0.0002384185791015625,4.871,N-S,0.0002384185791015625,4.754
19970107180200.knt,HKD1129701071802.UD,1997-01-07, 18:02:00,42.27,142.979,65,4.6,HKD112,41.937,143.2403,15.0,1997-01-07, 18:03:09,100Hz,59,U-D,0.0002384185791015625,5.351,42.8458807843859,1255,1262.0,35.357239995604594,0.6850569498431096,0.6684079870825554,0.5753158489295382,0.5351994608150381,1.046238203107075,0.0066940273689685545,0.0066940273689685545,0.0066940273689685545,0.0066940273689685545,0.004242605078485356,5.399421456914403,5.399421456914403,5.399421456914403,5.399421456914403,3.6673702868330884,E-W,0.0002384185791015625,9.473,N-S,0.0002384185791015625,5.748
19970107180200.knt,HKD1139701071802.UD,1997-01-07, 18:02:00,42.27,142.979,65,4.6,HKD113,42.1287,143.3153,15.0,1997-01-07, 18:03:06,100Hz,59,U-D,0.0002384185791015625,12.849,31.847947428336823,1424,1466.0,27.117735116328685,0.4935035475082558,0.49607091315398727,0.5009788333904276,0.5013239615600702,0.5620782066379428,0.01796991273129247,0.01796991273129247,0.01796991273129247,0.01796991273129247,0.01796991273129247,12.819214042157245,12.819214042157245,12.819214042157245,12.819214042157245,11.740568266790929,E-W,0.0002384185791015625,16.102,N-S,0.0002384185791015625,14.538
