earthquake name,records name,earthquake date,earthquake time,lat,long,depth,mag,stn_code,stn_lat,stn_long,stn_height,rcd_date,rcd_time,frequency,rcd_duration,direction,scale_factor,max_pga,epi_dist,pick_index_manually,pick_index_kalkan,snr_db_kalkan,tc_5sec,tc_4sec,tc_3sec,tc_2sec,tc_1sec,Pd_5sec,Pd_4sec,Pd_3sec,Pd_2sec,Pd_1sec,Pga_5sec,Pga_4sec,Pga_3sec,Pga_2sec,Pga_1sec,Channel,Scale_factor,PGA_ew,Channel.1,Scale_factor.1,PGA_ns
19960605093700.knt,IWT0159606050937.UD,1996-06-05, 09:37:00,39.486,141.696,12,4.4,IWT015,39.318,140.7792,247,1996-06-05, 09:38:15,100Hz,59,U-D,0.0002384185791015625,0.798,80.95724412574414,0,-100.0,,0.0,0.0,0.0,0.0,0.0,0.0,0.0,0.0,0.0,0.0,0.0,0.0,0.0,0.0,0.0,E-W,0.0002384185791015625,4.127,N-S,0.0002384185791015625,1.919
19960605093700.knt,IWT0179606050937.UD,1996-06-05, 09:37:00,39.486,141.696,12,4.4,IWT017,39.6336,141.4376,630,1996-06-05, 09:38:59,100Hz,299,U-D,0.0002384185791015625,4.731,27.56933187676648,1114,1138.0,24.696610618612187,2.0602575005133423,2.472216366869728,3.7542008297083362,4.26485371801767,7.236738808416794,0.011175086414460548,0.011175086414460548,0.008189155030041414,0.00511561649523944,0.00511561649523944,4.690034933583518,4.028958248520738,2.6822372207861442,1.9859442000529461,0.7938757110334341,E-W,0.0002384185791015625,10.245,N-S,0.0002384185791015625,11.875
19960605093700.knt,IWT0189606050937.UD,1996-06-05, 09:37:00,39.486,141.696,12,4.4,IWT018,39.6953,141.1478,125,1996-06-05, 09:38:06,100Hz,59,U-D,0.0002384185791015625,2.664,52.42358409329005,815,821.0000000000001,24.278095649870135,10.92864860501736,11.828920421116123,12.82150335754085,12.803310204157542,13.363643430688446,0.008969166759211365,0.008969166759211365,0.008969166759211365,0.008969166759211365,0.008644657105736286,1.2783715124062842,1.2783715124062842,1.2783715124062842,1.2783715124062842,0.7890330969243793,E-W,0.0002384185791015625,7.327,N-S,0.0002384185791015625,4.585
19960605093700.knt,IWT0199606050937.UD,1996-06-05, 09:37:00,39.486,141.696,12,4.4,IWT019,39.8428,141.7952,103,1996-06-05, 09:38:03,100Hz,299,U-D,0.0002384185791015625,6.941,40.57283471690896,944,969.0,26.558281409297425,3.9167620613227685,4.146361985042316,5.1945841361021206,6.68538261674761,9.262247450204287,0.011646177216213157,0.011646177216213157,0.011646177216213157,0.011646177216213157,0.011646177216213157,3.3432649425744203,3.3432649425744203,3.0306307283663814,2.471168881563452,1.6865905859832684,E-W,0.0002384185791015625,13.764,N-S,0.0002384185791015625,16.891
19960605093700.knt,IWT0209606050937.UD,1996-06-05, 09:37:00,39.486,141.696,12,4.4,IWT020,39.7841,141.3295,690,1996-06-05, 09:38:05,100Hz,59,U-D,0.0002384185791015625,3.002,45.6479336548538,812,795.0,19.141997454231905,21.295080527207507,23.617074420419417,27.610853987348126,37.79194824233956,35.175618600559325,0.06772251084391377,0.06772251084391377,0.06772251084391377,0.06772251084391377,0.06772251084391377,1.2438598525838578,1.2438598525838578,1.2438598525838578,1.1249867428386902,0.6932225903931141,E-W,0.0002384185791015625,6.359,N-S,0.0002384185791015625,4.116
19960605093700.knt,IWT0219606050937.UD,1996-06-05, 09:37:00,39.486,141.696,12,4.4,IWT021,39.9203,141.082,282,1996-06-05, 09:38:12,100Hz,59,U-D,0.0002384185791015625,1.2,71.35253150103088,543,565.0,24.17455970290767,5.571227039994354,5.473684753194204,4.823873452837987,3.843796726564346,1.6157239668607746,0.00689356081480201,0.00689356081480201,0.006668434554507148,0.0055430590317437104,0.0022299560634107137,0.6568182943178771,0.5037506978501198,0.4354702668090796,0.4354702668090796,0.2520201634500707,E-W,0.0002384185791015625,4.151,N-S,0.0002384185791015625,5.486
19960605093700.knt,MYG0019606050937.UD,1996-06-05, 09:37:00,39.486,141.696,12,4.4,MYG001,38.9015,141.5684,48,1996-06-05, 09:38:10,100Hz,59,U-D,0.0002384185791015625,4.597,65.91707705780605,0,-100.0,,0.0,0.0,0.0,0.0,0.0,0.0,0.0,0.0,0.0,0.0,0.0,0.0,0.0,0.0,0.0,E-W,0.0002384185791015625,7.628,N-S,0.0002384185791015625,7.282
19960605093700.knt,MYG0039606050937.UD,1996-06-05, 09:37:00,39.486,141.696,12,4.4,MYG003,38.7348,141.3106,28,1996-06-05, 09:38:17,100Hz,59,U-D,0.0002384185791015625,2.449,89.90471831641432,289,319.0,27.70454573802691,7.715379893950096,8.931914270892893,10.471991808347767,11.625525468402014,9.427980055797827,0.0053264316791329334,0.0053264316791329334,0.0053264316791329334,0.0053264316791329334,0.004983442209737875,0.677356774597273,0.6518965846888295,0.6518965846888295,0.505957613345002,0.505957613345002,E-W,0.0002384185791015625,4.929,N-S,0.0002384185791015625,4.336
19960605093700.knt,MYG0049606050937.UD,1996-06-05, 09:37:00,39.486,141.696,12,4.4,MYG004,38.7292,141.0217,40,1996-06-05, 09:38:22,100Hz,59,U-D,0.0002384185791015625,0.734,102.30564751432138,1,79.0,21.037866601192043,4.572105984556945,5.827407136118724,4.811804283236851,3.1215434217773,1.4200608213423858,0.0044529155424799655,0.0044529155424799655,0.003772139542018038,0.002684682372964129,0.0012692349281531355,0.33796022030795786,0.28472215764133246,0.28472215764133246,0.2792290225157766,0.2792290225157766,E-W,0.0002384185791015625,2.259,N-S,0.0002384185791015625,2.79
19960605093700.knt,MYG0109606050937.UD,1996-06-05, 09:37:00,39.486,141.696,12,4.4,MYG010,38.4282,141.2809,2,1996-06-05, 09:38:29,100Hz,59,U-D,0.0002384185791015625,1.159,122.97598381843642,0,-100.0,,0.0,0.0,0.0,0.0,0.0,0.0,0.0,0.0,0.0,0.0,0.0,0.0,0.0,0.0,0.0,E-W,0.0002384185791015625,2.145,N-S,0.0002384185791015625,2.623
19960605093700.knt,MYG0119606050937.UD,1996-06-05, 09:37:00,39.486,141.696,12,4.4,MYG011,38.2972,141.5043,30,1996-06-05, 09:38:29,100Hz,59,U-D,0.0002384185791015625,2.114,133.22552566488798,0,-100.0,,0.0,0.0,0.0,0.0,0.0,0.0,0.0,0.0,0.0,0.0,0.0,0.0,0.0,0.0,0.0,E-W,0.0002384185791015625,7.958,N-S,0.0002384185791015625,5.842
19960605125100.knt,HKD0789606051251.UD,1996-06-05, 12:51:00,42.986,143.846,85,3.8,HKD078,43.1486,144.4976,21,1996-06-05, 12:52:15,100Hz,59,U-D,0.0002384185791015625,2.974,55.93441905663759,273,332.0,24.51569376596631,1.5561256921201703,1.4073949047210088,1.414648564028983,2.048469868275577,4.355740143721887,0.0016969695810098453,0.0016969695810098453,0.0016969695810098453,0.0016969695810098453,0.0016969695810098453,0.8449595383343453,0.8449595383343453,0.8449595383343453,0.5306952244343086,0.42894157476173295,E-W,0.0002384185791015625,3.99,N-S,0.0002384185791015625,2.867
19960605125100.knt,HKD0809606051251.UD,1996-06-05, 12:51:00,42.986,143.846,85,3.8,HKD080,43.5077,144.4485,140,1996-06-05, 12:52:18,100Hz,59,U-D,0.0002384185791015625,1.307,75.80597320936295,0,1.0,-4.927261785180721,0.0,0.0,0.0,0.0,0.0,0.0,0.0,0.0,0.0,0.0,0.0,0.0,0.0,0.0,0.0,E-W,0.0002384185791015625,3.163,N-S,0.0002384185791015625,2.819
19960605125100.knt,HKD0849606051251.UD,1996-06-05, 12:51:00,42.986,143.846,85,3.8,HKD084,43.1141,144.123,30,1996-06-05, 12:52:12,100Hz,59,U-D,0.0002384185791015625,1.23,26.6365391311831,412,415.00000000000006,20.728333276713048,5.360063333699147,4.422556597086019,4.074887418309091,4.4234546844723255,6.922787128956416,0.006156279548318669,0.006156279548318669,0.006156279548318669,0.006156279548318669,0.006156279548318669,0.5365039365001268,0.5365039365001268,0.5365039365001268,0.5365039365001268,0.5365039365001268,E-W,0.0002384185791015625,4.316,N-S,0.0002384185791015625,3.548
19960605125100.knt,HKD0859606051251.UD,1996-06-05, 12:51:00,42.986,143.846,85,3.8,HKD085,42.9581,144.0697,5,1996-06-05, 12:52:11,100Hz,59,U-D,0.0002384185791015625,2.314,18.462695995637386,476,477.00000000000006,21.836665414739038,6.356998613200864,5.042345094465081,3.6956633657611384,3.2367332114017118,4.23100395515519,0.011014159832422897,0.010293619546305737,0.00987452642554111,0.00987452642554111,0.00987452642554111,2.307257105364881,2.307257105364881,2.307257105364881,2.307257105364881,2.307257105364881,E-W,0.0002384185791015625,6.849,N-S,0.0002384185791015625,5.368
19960605125100.knt,HKD0869606051251.UD,1996-06-05, 12:51:00,42.986,143.846,85,3.8,HKD086,42.8526,143.8636,32,1996-06-05, 12:52:12,100Hz,59,U-D,0.0002384185791015625,8.127,14.90247615365358,0,-100.0,,0.0,0.0,0.0,0.0,0.0,0.0,0.0,0.0,0.0,0.0,0.0,0.0,0.0,0.0,0.0,E-W,0.0002384185791015625,13.354,N-S,0.0002384185791015625,22.05
19960605125100.knt,HKD0879606051251.UD,1996-06-05, 12:51:00,42.986,143.846,85,3.8,HKD087,43.1502,143.8916,170,1996-06-05, 12:52:10,100Hz,59,U-D,0.0002384185791015625,0.881,18.630170232091146,553,555.0,23.84419312587022,2.4305739213009403,2.4695746979631417,2.374579863574455,1.8493617931545843,1.0057642143613814,0.0021192651382600956,0.0021192651382600956,0.0021192651382600956,0.0021192651382600956,0.0012105044953155573,0.8833450369194319,0.8833450369194319,0.8833450369194319,0.8833450369194319,0.8833450369194319,E-W,0.0002384185791015625,2.943,N-S,0.0002384185791015625,4.998
19960605125100.knt,HKD0899606051251.UD,1996-06-05, 12:51:00,42.986,143.846,85,3.8,HKD089,43.2436,143.5544,90,1996-06-05, 12:52:13,100Hz,299,U-D,0.0002384185791015625,1.187,37.157819897195346,0,-100.0,,0.0,0.0,0.0,0.0,0.0,0.0,0.0,0.0,0.0,0.0,0.0,0.0,0.0,0.0,0.0,E-W,0.0002384185791015625,2.562,N-S,0.0002384185791015625,4.023
19960605125100.knt,HKD0909606051251.UD,1996-06-05, 12:51:00,42.986,143.846,85,3.8,HKD090,43.1213,143.6183,65,1996-06-05, 12:52:11,100Hz,59,U-D,0.0002384185791015625,3.329,23.845953705278426,468,490.00000000000006,27.968328854074457,3.3909947697628775,2.764673496039904,1.786337882066837,1.0681103335995472,1.2613417248541647,0.00498231252444412,0.004813454699049189,0.0038555970976338247,0.00253183331229867,0.00253183331229867,1.2229793254649322,1.2229793254649322,1.2229793254649322,1.2229793254649322,0.892897687798847,E-W,0.0002384185791015625,6.493,N-S,0.0002384185791015625,5.394
19960605125100.knt,HKD0929606051251.UD,1996-06-05, 12:51:00,42.986,143.846,85,3.8,HKD092,42.9283,143.4483,17,1996-06-05, 12:52:12,100Hz,59,U-D,0.0002384185791015625,2.445,32.99441679558015,2,226.00000000000003,9.897767906861146,13.548566809442255,14.086269847763557,11.21563144495122,6.670535024797131,2.885470438726365,0.14295858896339717,0.14295858896339717,0.1429461290403957,0.11724919253175327,0.04992728535487366,0.7559337216699429,0.25014663919716484,0.25014663919716484,0.2184514443681988,0.2184514443681988,E-W,0.0002384185791015625,4.809,N-S,0.0002384185791015625,3.758
19960605125100.knt,HKD0979606051251.UD,1996-06-05, 12:51:00,42.986,143.846,85,3.8,HKD097,42.6181,143.4209,33,1996-06-05, 12:52:15,100Hz,59,U-D,0.0002384185791015625,1.207,53.63118358821933,251,262.0,20.124239742188934,5.481316204825913,5.603458398591161,5.963499626115259,6.21189810975533,6.20918305488727,0.006005061000417208,0.006005061000417208,0.006005061000417208,0.006005061000417208,0.006005061000417208,0.6282485719310251,0.6282485719310251,0.6282485719310251,0.6282485719310251,0.6070479814487845,E-W,0.0002384185791015625,3.037,N-S,0.0002384185791015625,4.284
19960605212600.knt,AOM0129606052126.UD,1996-06-05, 21:26:00,39.803,141.729,4,3.6,AOM012,40.5138,141.4805,15,1996-06-05, 21:27:12,100Hz,59,U-D,0.0002384185791015625,1.809,81.80989926398043,255,256.0,21.94725443265355,7.610853099895544,8.24259688000874,9.74999232269575,10.991457843453691,13.878065577424275,0.010203958428127855,0.010203958428127855,0.010203958428127855,0.010203958428127855,0.010203958428127855,0.9780175821946597,0.9780175821946597,0.9780175821946597,0.9780175821946597,0.9162981378089424,E-W,0.0002384185791015625,4.426,N-S,0.0002384185791015625,3.938
19960605212600.knt,IWT0019606052126.UD,1996-06-05, 21:26:00,39.803,141.729,4,3.6,IWT001,40.4099,141.7191,15,1996-06-05, 21:27:59,100Hz,59,U-D,0.0002384185791015625,4.535,67.48945304328403,1423,1434.0,28.72868386183861,0.9077971131123489,0.7247955309778802,0.36395444952118156,0.20316158236762802,0.2162780250979208,0.0034038113192827475,0.0034038113192827475,0.0022996315212914877,0.001518921408798331,0.001518921408798331,4.175957454173152,4.175957454173152,4.175957454173152,4.175957454173152,4.175957454173152,E-W,0.0002384185791015625,9.499,N-S,0.0002384185791015625,8.256
19960605212600.knt,IWT0039606052126.UD,1996-06-05, 21:26:00,39.803,141.729,4,3.6,IWT003,40.0083,141.8861,9,1996-06-05, 21:27:05,100Hz,59,U-D,0.0002384185791015625,3.229,26.47072470199428,548,566.0,23.56625154093333,10.844085378229314,9.076048680188983,6.433513802171842,3.6796962666589694,1.9118934416581284,0.026652764478437965,0.026652764478437965,0.02404385130899256,0.016723375668149416,0.009807354184056698,1.7030230866178138,1.7030230866178138,1.7030230866178138,1.7030230866178138,1.6968271559051904,E-W,0.0002384185791015625,3.788,N-S,0.0002384185791015625,2.845
19960605212600.knt,IWT0049606052126.UD,1996-06-05, 21:26:00,39.803,141.729,4,3.6,IWT004,39.7369,141.9697,8,1996-06-05, 21:27:04,100Hz,299,U-D,0.0002384185791015625,7.311,21.845382992725717,619,624.0,17.169975459355697,13.614635845988253,12.262608371074727,9.590681316678118,6.082170247580315,2.845691451832883,0.02560426320994791,0.02560426320994791,0.02560426320994791,0.021246087952239773,0.010744921805579486,2.7606943131565247,2.7606943131565247,2.7606943131565247,2.7606943131565247,2.7606943131565247,E-W,0.0002384185791015625,14.148,N-S,0.0002384185791015625,7.63
19960605212600.knt,IWT0069606052126.UD,1996-06-05, 21:26:00,39.803,141.729,4,3.6,IWT006,39.4806,141.9652,4,1996-06-05, 21:27:06,100Hz,59,U-D,0.0002384185791015625,8.221,41.16071382975235,521,86.0,-1.244101661707885,11.634656145679942,9.25950140655364,6.337884589856345,3.6741189367943057,3.2129093485352387,0.5638405366765463,0.5617971635155804,0.4922398412191567,0.3222305272765736,0.3222305272765736,2.9498987992659575,2.9498987992659575,2.9498987992659575,2.9498987992659575,2.9498987992659575,E-W,0.0002384185791015625,12.175,N-S,0.0002384185791015625,14.75
19960605212600.knt,IWT0079606052126.UD,1996-06-05, 21:26:00,39.803,141.729,4,3.6,IWT007,39.2701,141.8561,11,1996-06-05, 21:27:08,100Hz,59,U-D,0.0002384185791015625,4.502,60.24984912433992,479,483.0,28.71739615636752,8.90041660612515,7.137122668344719,5.032271313450535,3.558796378515027,4.196310034059021,0.018551485348731075,0.018390118557641444,0.014825168218429776,0.014610333910404892,0.014610333910404892,2.4742340513248404,2.4742340513248404,2.4742340513248404,2.4742340513248404,2.4742340513248404,E-W,0.0002384185791015625,11.25,N-S,0.0002384185791015625,8.104
19960605212600.knt,IWT0089606052126.UD,1996-06-05, 21:26:00,39.803,141.729,4,3.6,IWT008,39.0815,141.7083,50,1996-06-05, 21:27:12,100Hz,59,U-D,0.0002384185791015625,1.073,80.24682848563491,289,293.0,22.388503410879828,3.8386824813717353,3.5931600783036957,3.588568337437171,3.8285168943479504,3.823324398064486,0.0019713619891758676,0.0019713619891758676,0.0019713619891758676,0.0019713619891758676,0.0019713619891758676,0.7093570417367228,0.7093570417367228,0.7093570417367228,0.7093570417367228,0.7093570417367228,E-W,0.0002384185791015625,3.093,N-S,0.0002384185791015625,2.561
19960605212600.knt,IWT0099606052126.UD,1996-06-05, 21:26:00,39.803,141.729,4,3.6,IWT009,39.0187,141.4031,150,1996-06-05, 21:27:14,100Hz,59,U-D,0.0002384185791015625,1.833,91.59411642781511,212,212.0,24.854321061762853,9.111332503199511,13.29028041177756,22.121691099698168,30.476334222641846,26.797088410655945,0.018100763094807994,0.018100763094807994,0.018100763094807994,0.018100763094807994,0.018100763094807994,0.9824212511619407,0.9824212511619407,0.9824212511619407,0.9824212511619407,0.9824212511619407,E-W,0.0002384185791015625,5.289,N-S,0.0002384185791015625,10.429
19960605212600.knt,IWT0119606052126.UD,1996-06-05, 21:26:00,39.803,141.729,4,3.6,IWT011,39.1454,141.152,45,1996-06-05, 21:27:15,100Hz,59,U-D,0.0002384185791015625,1.143,88.31460935151391,75,80.0,16.731029779717183,5.758638709640185,5.7546447144991735,4.93953390578134,2.9111714057301237,1.2726645372900607,0.0032861064303245837,0.0032861064303245837,0.0032861064303245837,0.0026196996900604516,0.0011747266736846216,0.8139281827987428,0.8139281827987428,0.8139281827987428,0.8139281827987428,0.8139281827987428,E-W,0.0002384185791015625,2.576,N-S,0.0002384185791015625,1.464
19960605212600.knt,IWT0129606052126.UD,1996-06-05, 21:26:00,39.803,141.729,4,3.6,IWT012,39.3209,141.1378,64,1996-06-05, 21:27:00,100Hz,59,U-D,0.0002384185791015625,3.459,73.77086930092035,1406,1397.0,34.35960707670369,0.7553852019795926,0.7506628186051726,0.7551565791166478,0.7800239352492314,0.6389816523488626,0.0012303881726773538,0.0012303881726773538,0.0012303881726773538,0.0012303881726773538,0.0012303881726773538,1.4398909007278107,1.4398909007278107,1.4398909007278107,1.4398909007278107,1.4398909007278107,E-W,0.0002384185791015625,16.174,N-S,0.0002384185791015625,8.859
19960605212600.knt,IWT0139606052126.UD,1996-06-05, 21:26:00,39.803,141.729,4,3.6,IWT013,39.3367,141.5378,272,1996-06-05, 21:27:08,100Hz,299,U-D,0.0002384185791015625,9.647,54.378528155006364,445,83.0,6.1435481201533895,9.371635057802902,7.365655144255981,5.717549011424998,5.608150856143626,7.554590828800289,0.09887099730773256,0.09887099730773256,0.09887099730773256,0.09887099730773256,0.09887099730773256,6.218509039445069,6.218509039445069,6.218509039445069,6.218509039445069,6.218509039445069,E-W,0.0002384185791015625,16.045,N-S,0.0002384185791015625,11.488
19960605212600.knt,IWT0149606052126.UD,1996-06-05, 21:26:00,39.803,141.729,4,3.6,IWT014,39.4844,141.147,86,1996-06-05, 21:27:59,100Hz,59,U-D,0.0002384185791015625,3.87,61.1417555800922,1374,1379.0,28.551056580414258,1.2394064673941592,1.2558121693251985,1.2458374980667888,1.1249776239194644,0.8782851420850831,0.0033490279529675713,0.0033490279529675713,0.0033490279529675713,0.0033490279529675713,0.0033490279529675713,3.8803734238290635,3.8803734238290635,3.8803734238290635,3.8803734238290635,3.8803734238290635,E-W,0.0002384185791015625,2.79,N-S,0.0002384185791015625,2.626
19960605212600.knt,IWT0159606052126.UD,1996-06-05, 21:26:00,39.803,141.729,4,3.6,IWT015,39.318,140.7792,247,1996-06-05, 21:27:16,100Hz,59,U-D,0.0002384185791015625,0.701,97.6618990085621,0,-100.0,,0.0,0.0,0.0,0.0,0.0,0.0,0.0,0.0,0.0,0.0,0.0,0.0,0.0,0.0,0.0,E-W,0.0002384185791015625,1.504,N-S,0.0002384185791015625,2.1
19960605212600.knt,IWT0199606052126.UD,1996-06-05, 21:26:00,39.803,141.729,4,3.6,IWT019,39.8428,141.7952,103,1996-06-05, 21:27:02,100Hz,299,U-D,0.0002384185791015625,8.599,7.179691863541199,0,-100.0,,0.0,0.0,0.0,0.0,0.0,0.0,0.0,0.0,0.0,0.0,0.0,0.0,0.0,0.0,0.0,E-W,0.0002384185791015625,22.171,N-S,0.0002384185791015625,15.14
19960605212600.knt,IWT0209606052126.UD,1996-06-05, 21:26:00,39.803,141.729,4,3.6,IWT020,39.7841,141.3295,690,1996-06-05, 21:27:57,100Hz,59,U-D,0.0002384185791015625,3.024,34.1967875899758,1405,1396.0,36.22787233494711,0.3960814523162546,0.3554539602196802,0.238611605727759,0.16406077031826824,0.1617131856618474,0.0016970874673872536,0.0016970874673872536,0.0016970874673872536,0.0016970874673872536,0.0016970874673872536,3.0267556490835337,3.0267556490835337,3.0267556490835337,3.0267556490835337,3.0267556490835337,E-W,0.0002384185791015625,5.979,N-S,0.0002384185791015625,4.231
19960605212600.knt,IWT0219606052126.UD,1996-06-05, 21:26:00,39.803,141.729,4,3.6,IWT021,39.9203,141.082,282,1996-06-05, 21:27:59,100Hz,59,U-D,0.0002384185791015625,1.818,56.742413451035326,1356,1370.0,27.939782347226796,1.3737759246429377,1.4180210738817622,1.4589675803575985,1.6276054831577111,1.3013597448989542,0.0021644430103941927,0.0021644430103941927,0.0021644430103941927,0.0021644430103941927,0.0021644430103941927,1.052263449187363,1.052263449187363,1.052263449187363,1.052263449187363,1.052263449187363,E-W,0.0002384185791015625,6.728,N-S,0.0002384185791015625,7.164
