earthquake name,records name,earthquake date,earthquake time,lat,long,depth,mag,stn_code,stn_lat,stn_long,stn_height,rcd_date,rcd_time,frequency,rcd_duration,direction,scale_factor,max_pga,epi_dist,pick_index_manually,pick_index_kalkan,snr_db_kalkan,tc_5sec,tc_4sec,tc_3sec,tc_2sec,tc_1sec,Pd_5sec,Pd_4sec,Pd_3sec,Pd_2sec,Pd_1sec,Pga_5sec,Pga_4sec,Pga_3sec,Pga_2sec,Pga_1sec,Channel,Scale_factor,PGA_ew,Channel.1,Scale_factor.1,PGA_ns
19990128102500.knt,GIF0149901281025.UD,1999-01-28, 10:25:00,36.37,137.997,9,4.7,GIF014,35.6576,137.4258,463,1999-01-28, 10:26:14,100Hz,120,U-D,0.0002384185791015625,0.993,94.4160447828767,320,312.0,8.25538415280906,1.0562083654725203,0.7285006425341973,0.6796292752348705,0.6943224022314719,0.593503508800778,0.0035881458852908376,0.0025806682888824283,0.0025806682888824283,0.0025806682888824283,0.001716119106628486,0.5824515342992813,0.5824515342992813,0.5824515342992813,0.5769935137437506,0.4078879765855097,E-W,0.0002384185791015625,3.334,N-S,0.0002384185791015625,2.519
19990128102500.knt,GIF0189901281025.UD,1999-01-28, 10:25:00,36.37,137.997,9,4.7,GIF018,35.4887,137.5,320,1999-01-28, 10:26:18,100Hz,119,U-D,0.0002384185791015625,2.945,107.72947395674402,105,106.0,25.789424031650885,1.8918316047276647,1.9195310313149943,1.8636539378789392,1.5052541912652542,1.3494631949296418,0.006642587821623265,0.006642587821623265,0.006642587821623265,0.006642587821623265,0.005257229389749585,1.586861929389073,1.586861929389073,1.586861929389073,1.586861929389073,1.586861929389073,E-W,0.0002384185791015625,6.774,N-S,0.0002384185791015625,5.294
19990128102500.knt,GIF0199901281025.UD,1999-01-28, 10:25:00,36.37,137.997,9,4.7,GIF019,35.4495,137.4039,275,1999-01-28, 10:26:20,100Hz,119,U-D,0.0002384185791015625,2.002,115.4537710259812,0,-100.0,,0.0,0.0,0.0,0.0,0.0,0.0,0.0,0.0,0.0,0.0,0.0,0.0,0.0,0.0,0.0,E-W,0.0002384185791015625,5.214,N-S,0.0002384185791015625,4.413
19990128102500.knt,GIF0239901281025.UD,1999-01-28, 10:25:00,36.37,137.997,9,4.7,GIF023,35.3882,137.2158,275,1999-01-28, 10:26:24,100Hz,119,U-D,0.0002384185791015625,1.896,129.8915214083972,0,1.0,5.5211641950485575,0.0,0.0,0.0,0.0,0.0,0.0,0.0,0.0,0.0,0.0,0.0,0.0,0.0,0.0,0.0,E-W,0.0002384185791015625,4.001,N-S,0.0002384185791015625,4.254
19990128102500.knt,GIF0249901281025.UD,1999-01-28, 10:25:00,36.37,137.997,9,4.7,GIF024,35.3009,137.387,432,1999-01-28, 10:26:25,100Hz,119,U-D,0.0002384185791015625,1.36,130.97959161443404,0,-100.0,,0.0,0.0,0.0,0.0,0.0,0.0,0.0,0.0,0.0,0.0,0.0,0.0,0.0,0.0,0.0,E-W,0.0002384185791015625,3.922,N-S,0.0002384185791015625,3.351
19990128102500.knt,GNM0039901281025.UD,1999-01-28, 10:25:00,36.37,137.997,9,4.7,GNM003,36.6578,139.0784,462,1999-01-28, 10:26:17,100Hz,119,U-D,0.0002384185791015625,1.284,101.80330552571006,153,181.0,14.98065546669745,1.244091848967736,1.311458493159384,1.3819635864798308,1.2749244454156998,1.262844362865835,0.004155185706231652,0.004155185706231652,0.004155185706231652,0.004155185706231652,0.004155185706231652,0.6430734483940503,0.6430734483940503,0.6430734483940503,0.5564422950478712,0.5564422950478712,E-W,0.0002384185791015625,4.741,N-S,0.0002384185791015625,5.084
19990128102500.knt,GNM0049901281025.UD,1999-01-28, 10:25:00,36.37,137.997,9,4.7,GNM004,36.6172,138.5918,1222,1999-01-28, 10:26:05,100Hz,119,U-D,0.0002384185791015625,1.4,59.855119426241025,0,-100.0,,0.0,0.0,0.0,0.0,0.0,0.0,0.0,0.0,0.0,0.0,0.0,0.0,0.0,0.0,0.0,E-W,0.0002384185791015625,3.397,N-S,0.0002384185791015625,3.799
19990128102500.knt,GNM0059901281025.UD,1999-01-28, 10:25:00,36.37,137.997,9,4.7,GNM005,36.5133,138.5177,900,1999-01-28, 10:26:02,100Hz,119,U-D,0.0002384185791015625,2.475,49.22778951155126,822,841.0,26.472039953486743,2.456167274369483,2.7948831186478853,2.9599385540289607,3.086414146144174,4.037272493227184,0.00832332972612138,0.00832332972612138,0.005555677146577112,0.005542482322902398,0.005542482322902398,0.7223767772259471,0.7223767772259471,0.7223767772259471,0.7223767772259471,0.6892048951251941,E-W,0.0002384185791015625,4.393,N-S,0.0002384185791015625,3.473
19990128102500.knt,GNM0149901281025.UD,1999-01-28, 10:25:00,36.37,137.997,9,4.7,GNM014,36.35,138.7179,465,1999-01-28, 10:26:06,100Hz,119,U-D,0.0002384185791015625,2.041,64.59196564776529,648,648.0,22.787631137216632,6.807821837414009,6.406567567220232,5.560820673009185,4.260552754557952,2.298499286006676,0.03202889679991393,0.03202889679991393,0.03202889679991393,0.02764968145600826,0.020245463721110055,2.065227373976546,2.065227373976546,2.065227373976546,2.065227373976546,2.065227373976546,E-W,0.0002384185791015625,3.351,N-S,0.0002384185791015625,3.905
19990128102500.knt,KNG0119901281025.UD,1999-01-28, 10:25:00,36.37,137.997,9,4.7,KNG011,35.6154,139.1548,214,1999-01-28, 10:26:26,100Hz,119,U-D,0.0002384185791015625,1.186,133.75366377776234,0,-100.0,,0.0,0.0,0.0,0.0,0.0,0.0,0.0,0.0,0.0,0.0,0.0,0.0,0.0,0.0,0.0,E-W,0.0002384185791015625,1.928,N-S,0.0002384185791015625,2.412
19990128102500.knt,MIE0079901281025.UD,1999-01-28, 10:25:00,36.37,137.997,9,4.7,MIE007,34.651,136.3404,82,1999-01-28, 10:26:56,100Hz,119,U-D,0.0002384185791015625,0.649,242.92953591622032,0,-100.0,,0.0,0.0,0.0,0.0,0.0,0.0,0.0,0.0,0.0,0.0,0.0,0.0,0.0,0.0,0.0,E-W,0.0002384185791015625,2.629,N-S,0.0002384185791015625,2.371
19990128102500.knt,NGN0019901281025.UD,1999-01-28, 10:25:00,36.37,137.997,9,4.7,NGN001,36.8514,138.366,315,1999-01-28, 10:26:06,100Hz,119,U-D,0.0002384185791015625,1.31,62.85003101159841,608,117.0,16.163773919493018,2.130371129603374,2.083577451305795,1.4435840657531311,1.0915501090787505,1.0383143624895743,0.0037123177685394674,0.0037123177685394674,0.003010233885794313,0.003010233885794313,0.003010233885794313,0.7143499668040711,0.7143499668040711,0.7143499668040711,0.7143499668040711,0.49431873296546375,E-W,0.0002384185791015625,2.942,N-S,0.0002384185791015625,3.01
19990128102500.knt,NGN0029901281025.UD,1999-01-28, 10:25:00,36.37,137.997,9,4.7,NGN002,36.8069,138.2069,686,1999-01-28, 10:26:04,100Hz,119,U-D,0.0002384185791015625,3.251,52.070320464494635,0,-100.0,,0.0,0.0,0.0,0.0,0.0,0.0,0.0,0.0,0.0,0.0,0.0,0.0,0.0,0.0,0.0,E-W,0.0002384185791015625,7.402,N-S,0.0002384185791015625,9.73
19990128102500.knt,NGN0039901281025.UD,1999-01-28, 10:25:00,36.37,137.997,9,4.7,NGN003,36.7403,138.4129,581,1999-01-28, 10:26:03,100Hz,120,U-D,0.0002384185791015625,6.857,55.456534506290296,739,742.0,26.52117587000971,2.3857233073347213,2.454572942185625,2.22125685341686,1.8256038215301527,1.121109278506013,0.005589079975567329,0.005589079975567329,0.005589079975567329,0.005589079975567329,0.004743326454201575,2.1190427133452916,2.1190427133452916,2.1190427133452916,2.1190427133452916,2.1190427133452916,E-W,0.0002384185791015625,16.662,N-S,0.0002384185791015625,14.898
19990128102500.knt,NGN0049901281025.UD,1999-01-28, 10:25:00,36.37,137.997,9,4.7,NGN004,36.6486,138.1938,360,1999-01-28, 10:26:53,100Hz,119,U-D,0.0002384185791015625,6.851,35.62383190304555,1450,1447.0,22.803262068678556,1.3723766150749979,1.57565536057764,1.3545117906458144,1.1926627235357685,1.3078164677829494,0.01895617548304719,0.01895617548304719,0.01895617548304719,0.01895617548304719,0.01895617548304719,6.810613657361363,4.649678443257937,4.649678443257937,4.649678443257937,4.649678443257937,E-W,0.0002384185791015625,9.628,N-S,0.0002384185791015625,10.123
19990128102500.knt,NGN0059901281025.UD,1999-01-28, 10:25:00,36.37,137.997,9,4.7,NGN005,36.6981,137.8544,700,1999-01-28, 10:26:00,100Hz,120,U-D,0.0002384185791015625,2.158,38.64371480232434,0,-100.0,,0.0,0.0,0.0,0.0,0.0,0.0,0.0,0.0,0.0,0.0,0.0,0.0,0.0,0.0,0.0,E-W,0.0002384185791015625,4.722,N-S,0.0002384185791015625,3.766
19990128102500.knt,NGN0079901281025.UD,1999-01-28, 10:25:00,36.37,137.997,9,4.7,NGN007,36.5339,138.1191,361,1999-01-28, 10:26:51,100Hz,123,U-D,0.0002384185791015625,16.411,21.246306590396575,1409,1416.0,24.368219777774037,0.6979125971522545,0.7292766565674433,0.7173008440769477,0.5588151477688654,0.555954272887622,0.05338465219825992,0.05338465219825992,0.05338465219825992,0.03042400534995579,0.03042400534995579,16.46490409083101,16.46490409083101,16.46490409083101,16.46490409083101,16.46490409083101,E-W,0.0002384185791015625,28.434,N-S,0.0002384185791015625,17.651
19990128102500.knt,NGN0089901281025.UD,1999-01-28, 10:25:00,36.37,137.997,9,4.7,NGN008,36.4022,138.2491,482,1999-01-28, 10:26:54,100Hz,121,U-D,0.0002384185791015625,11.005,22.849278187949725,0,-100.0,,0.0,0.0,0.0,0.0,0.0,0.0,0.0,0.0,0.0,0.0,0.0,0.0,0.0,0.0,0.0,E-W,0.0002384185791015625,24.978,N-S,0.0002384185791015625,19.993
19990128102500.knt,NGN0099901281025.UD,1999-01-28, 10:25:00,36.37,137.997,9,4.7,NGN009,36.3378,137.8694,567,1999-01-28, 10:26:49,100Hz,124,U-D,0.0002384185791015625,28.273,11.974796754489148,1489,1501.0,21.09817648183808,0.6931372851800183,0.5600488069957221,0.5237269057490518,0.5499058486429491,0.5844165837566571,0.0574314191875727,0.0574314191875727,0.0574314191875727,0.0574314191875727,0.0574314191875727,27.90578435428875,27.90578435428875,27.90578435428875,27.90578435428875,27.90578435428875,E-W,0.0002384185791015625,97.47,N-S,0.0002384185791015625,117.739
19990128102500.knt,NGN0109901281025.UD,1999-01-28, 10:25:00,36.37,137.997,9,4.7,NGN010,36.3281,138.4357,740,1999-01-28, 10:26:00,100Hz,119,U-D,0.0002384185791015625,4.524,39.56466645373552,902,900.0,33.916074251095345,0.9291472030022667,0.9859431814424263,0.9966997288390316,1.0065033302228084,1.0972608419030154,0.01579415076790179,0.01579415076790179,0.01579415076790179,0.01579415076790179,0.01579415076790179,1.4207198717102758,1.4207198717102758,1.4207198717102758,1.4207198717102758,1.4207198717102758,E-W,0.0002384185791015625,8.416,N-S,0.0002384185791015625,7.666
19990128102500.knt,NGN0119901281025.UD,1999-01-28, 10:25:00,36.37,137.997,9,4.7,NGN011,36.2564,138.2669,678,1999-01-28, 10:26:52,100Hz,123,U-D,0.0002384185791015625,7.632,27.283311240842277,1403,1399.0,37.57735305830912,1.0956885301092785,1.2731836532493215,0.7538807159449079,0.7665950983333529,0.8503369176685175,0.043401063179912304,0.043401063179912304,0.012981455553520638,0.012981455553520638,0.012981455553520638,5.504547416035347,5.504547416035347,3.1191444668138386,3.1191444668138386,3.1191444668138386,E-W,0.0002384185791015625,30.832,N-S,0.0002384185791015625,50.337
19990128102500.knt,NGN0129901281025.UD,1999-01-28, 10:25:00,36.37,137.997,9,4.7,NGN012,36.2564,137.9785,641,1999-01-28, 10:26:50,100Hz,123,U-D,0.0002384185791015625,25.7,12.74003852003689,1418,1429.0,34.39454894832954,0.6152483192679343,0.5483598737522903,0.39609124869063006,0.40032627939584514,0.43203998936864463,0.04783748145565638,0.04783748145565638,0.03735013178937667,0.014255836191622363,0.014255836191622363,25.742569092943555,25.742569092943555,25.742569092943555,19.440498625740453,14.974695677651306,E-W,0.0002384185791015625,135.193,N-S,0.0002384185791015625,76.265
19990128102500.knt,NGN0139901281025.UD,1999-01-28, 10:25:00,36.37,137.997,9,4.7,NGN013,36.1833,137.7852,730,1999-01-28, 10:26:52,100Hz,124,U-D,0.0002384185791015625,14.873,28.132809807308647,1428,1423.0,39.36941949658874,0.5234243441941298,0.6959890201400803,0.9121282286572954,0.6540026041158207,0.42943817202917595,0.034654882585900035,0.034654882585900035,0.012181489327305811,0.011833311913183082,0.011833311913183082,14.847439411708182,11.87341311048578,5.139591886144663,5.139591886144663,5.139591886144663,E-W,0.0002384185791015625,54.481,N-S,0.0002384185791015625,48.166
19990128102500.knt,NGN0149901281025.UD,1999-01-28, 10:25:00,36.37,137.997,9,4.7,NGN014,36.0932,138.483,856,1999-01-28, 10:26:57,100Hz,119,U-D,0.0002384185791015625,7.23,53.362006838329656,1341,1341.0,16.88967377923573,3.635178148014075,3.5334944395589374,3.6650282118922535,3.7619735807288173,3.6905190368336442,0.022420773820503868,0.022420773820503868,0.022420773820503868,0.022420773820503868,0.022420773820503868,2.508825838474584,2.508825838474584,2.508825838474584,2.508825838474584,2.508825838474584,E-W,0.0002384185791015625,23.726,N-S,0.0002384185791015625,19.245
19990128102500.knt,NGN0159901281025.UD,1999-01-28, 10:25:00,36.37,137.997,9,4.7,NGN015,36.0454,138.1116,761,1999-01-28, 10:26:56,100Hz,119,U-D,0.0002384185791015625,7.857,37.52981693262984,1207,1226.0,25.33081763962647,0.5980348020204739,0.6213996912099979,0.62997781932416,0.6169349992132149,0.887141320409611,0.012473106160333468,0.012473106160333468,0.011739259916817622,0.007374881473530426,0.007374881473530426,3.031164219427294,3.031164219427294,2.598166226046389,1.6413705664074654,1.4420900559017207,E-W,0.0002384185791015625,17.834,N-S,0.0002384185791015625,14.32
19990128102500.knt,NGN0169901281025.UD,1999-01-28, 10:25:00,36.37,137.997,9,4.7,NGN016,35.9151,138.2421,970,1999-01-28, 10:26:57,100Hz,119,U-D,0.0002384185791015625,5.695,55.16323523316486,1401,1402.0,29.235806020476318,0.46921281728080627,0.4801542122031666,0.4346751305048365,0.40341288136147807,0.35324058664110236,0.0030543624937701425,0.0030543624937701425,0.0030543624937701425,0.0030543624937701425,0.0030543624937701425,4.461100713294531,4.461100713294531,4.461100713294531,4.461100713294531,4.461100713294531,E-W,0.0002384185791015625,13.205,N-S,0.0002384185791015625,12.345
19990128102500.knt,NGN0179901281025.UD,1999-01-28, 10:25:00,36.37,137.997,9,4.7,NGN017,35.9748,137.8255,927,1999-01-28, 10:26:55,100Hz,119,U-D,0.0002384185791015625,8.667,46.562555821179174,1435,1429.0,11.463079532271403,2.7774067638114346,2.8163368218981413,2.9986123751275358,3.286827175454033,3.6773840004111427,0.03942047777422948,0.03942047777422948,0.03942047777422948,0.03942047777422948,0.03942047777422948,3.217732242115928,3.217732242115928,3.217732242115928,3.217732242115928,3.217732242115928,E-W,0.0002384185791015625,25.849,N-S,0.0002384185791015625,32.107
19990128102500.knt,NGN0189901281025.UD,1999-01-28, 10:25:00,36.37,137.997,9,4.7,NGN018,35.8132,137.5295,1050,1999-01-28, 10:26:08,100Hz,119,U-D,0.0002384185791015625,5.134,74.81836329323085,0,-100.0,,0.0,0.0,0.0,0.0,0.0,0.0,0.0,0.0,0.0,0.0,0.0,0.0,0.0,0.0,0.0,E-W,0.0002384185791015625,9.529,N-S,0.0002384185791015625,8.33
19990128102500.knt,NGN0199901281025.UD,1999-01-28, 10:25:00,36.37,137.997,9,4.7,NGN019,35.8562,137.7078,788,1999-01-28, 10:26:05,100Hz,119,U-D,0.0002384185791015625,17.373,62.76096448509419,0,-100.0,,0.0,0.0,0.0,0.0,0.0,0.0,0.0,0.0,0.0,0.0,0.0,0.0,0.0,0.0,0.0,E-W,0.0002384185791015625,33.701,N-S,0.0002384185791015625,30.258
19990128102500.knt,NGN0209901281025.UD,1999-01-28, 10:25:00,36.37,137.997,9,4.7,NGN020,35.8282,137.9532,636,1999-01-28, 10:26:58,100Hz,119,U-D,0.0002384185791015625,4.737,60.373796492309,1385,1387.0,25.41327554680787,3.911885616486952,3.635390987974426,2.7154761372369225,1.4404640707063072,0.5514683310844661,0.019720717665249528,0.019720717665249528,0.018987200084674687,0.01523936510324198,0.00509006177244425,3.1689527699324795,3.1689527699324795,3.1689527699324795,3.1689527699324795,3.1689527699324795,E-W,0.0002384185791015625,12.805,N-S,0.0002384185791015625,8.783
19990128102500.knt,NGN0219901281025.UD,1999-01-28, 10:25:00,36.37,137.997,9,4.7,NGN021,35.7304,137.9341,679,1999-01-28, 10:26:08,100Hz,119,U-D,0.0002384185791015625,2.362,71.34472178824916,557,562.0,25.097727822082383,2.5853374926833363,2.3757173800813742,1.8088176765986237,1.2382719109341294,0.7300186302140959,0.009046784765923941,0.009046784765923941,0.007610079858170967,0.006543210238208123,0.003825888659184958,1.174836143884516,1.174836143884516,1.174836143884516,0.9175954934866644,0.9175954934866644,E-W,0.0002384185791015625,9.099,N-S,0.0002384185791015625,8.676
19990128102500.knt,NGN0229901281025.UD,1999-01-28, 10:25:00,36.37,137.997,9,4.7,NGN022,35.6079,137.6125,451,1999-01-28, 10:26:13,100Hz,119,U-D,0.0002384185791015625,2.89,91.53054235221433,350,347.0,30.622837358966443,1.8979577438925739,1.7807527870657864,1.73700105568149,1.8710936371927467,2.68051590492575,0.006889677678614117,0.006889677678614117,0.006889677678614117,0.006889677678614117,0.006889677678614117,2.0098641623502633,2.0098641623502633,1.775816908502518,1.775816908502518,1.775816908502518,E-W,0.0002384185791015625,6.029,N-S,0.0002384185791015625,6.872
19990128102500.knt,NGN0249901281025.UD,1999-01-28, 10:25:00,36.37,137.997,9,4.7,NGN024,35.5232,137.8374,538,1999-01-28, 10:26:04,100Hz,119,U-D,0.0002384185791015625,6.657,95.24958776990984,1338,1340.0,28.83848018572589,0.8813251130784446,0.8175963872313283,0.8256119019291336,0.5555858887563239,0.43891024493829695,0.009842121106782465,0.009842121106782465,0.006011464415819229,0.0054825267560119325,0.0052497910358998735,3.2248525776176735,3.2248525776176735,3.0980908639951736,3.0980908639951736,2.25168902376469,E-W,0.0002384185791015625,15.894,N-S,0.0002384185791015625,12.303
19990128102500.knt,NGN0259901281025.UD,1999-01-28, 10:25:00,36.37,137.997,9,4.7,NGN025,35.2807,137.8567,400,1999-01-28, 10:26:22,100Hz,119,U-D,0.0002384185791015625,2.182,121.78326555582332,0,1.0,20.521943285718656,0.0,0.0,0.0,0.0,0.0,0.0,0.0,0.0,0.0,0.0,0.0,0.0,0.0,0.0,0.0,E-W,0.0002384185791015625,6.375,N-S,0.0002384185791015625,9.594
19990128102500.knt,NIG0279901281025.UD,1999-01-28, 10:25:00,36.37,137.997,9,4.7,NIG027,37.0235,137.8624,106,1999-01-28, 10:26:09,100Hz,119,U-D,0.0002384185791015625,2.041,73.6501178600084,480,492.0,21.799613758443655,0.687413616277558,0.551417164389044,0.4298853877984229,0.3299375975650042,0.364031124085177,0.0029849162129169608,0.0029849162129169608,0.0029849162129169608,0.0029849162129169608,0.0029849162129169608,1.5855176173790657,1.5855176173790657,1.5855176173790657,1.5855176173790657,1.5855176173790657,E-W,0.0002384185791015625,4.552,N-S,0.0002384185791015625,7.101
19990128102500.knt,SIT0049901281025.UD,1999-01-28, 10:25:00,36.37,137.997,9,4.7,SIT004,36.1179,139.1045,140,1999-01-28, 10:26:17,100Hz,119,U-D,0.0002384185791015625,1.132,103.19945341129119,94,99.0,8.349728297403956,2.547689856917961,2.723676053713154,2.807570125764096,2.5808832947094613,1.8560837636242213,0.003466059941730655,0.003466059941730655,0.003466059941730655,0.003466059941730655,0.002977928271728151,0.45757593481849945,0.45757593481849945,0.4563438658786782,0.4563438658786782,0.2675417034043722,E-W,0.0002384185791015625,5.661,N-S,0.0002384185791015625,3.194
19990128102500.knt,SIT0069901281025.UD,1999-01-28, 10:25:00,36.37,137.997,9,4.7,SIT006,35.9954,139.0709,207,1999-01-28, 10:26:18,100Hz,119,U-D,0.0002384185791015625,1.243,104.99702736122771,47,46.0,22.702123498763427,1.8014532247628763,1.8411625865132486,1.7680954980218375,1.211231356046938,0.9736022730561927,0.004831326700187609,0.004831326700187609,0.004831326700187609,0.004687310075275631,0.0016788953609850879,0.5386858455532094,0.5386858455532094,0.5386858455532094,0.5386858455532094,0.21578116985931783,E-W,0.0002384185791015625,7.073,N-S,0.0002384185791015625,6.832
19990128102500.knt,SIT0149901281025.UD,1999-01-28, 10:25:00,36.37,137.997,9,4.7,SIT014,35.9954,138.801,748,1999-01-28, 10:26:02,100Hz,119,U-D,0.0002384185791015625,4.475,83.31767200881117,1299,1328.0,27.581397406702614,0.6646827335497528,0.6763952432460928,0.6780027448002833,0.7291852810454758,0.6438967593197071,0.002153853304783519,0.002153853304783519,0.002153853304783519,0.002153853304783519,0.002153853304783519,2.5713442667576447,2.5713442667576447,2.5713442667576447,2.5713442667576447,2.5713442667576447,E-W,0.0002384185791015625,8.281,N-S,0.0002384185791015625,8.273
19990128102500.knt,SZO0119901281025.UD,1999-01-28, 10:25:00,36.37,137.997,9,4.7,SZO011,35.2216,138.6221,121,1999-01-28, 10:26:30,100Hz,119,U-D,0.0002384185791015625,0.62,139.58714048800516,0,-100.0,,0.0,0.0,0.0,0.0,0.0,0.0,0.0,0.0,0.0,0.0,0.0,0.0,0.0,0.0,0.0,E-W,0.0002384185791015625,1.507,N-S,0.0002384185791015625,2.506
19990128102500.knt,SZO0129901281025.UD,1999-01-28, 10:25:00,36.37,137.997,9,4.7,SZO012,35.1271,138.6213,10,1999-01-28, 10:26:33,100Hz,119,U-D,0.0002384185791015625,0.471,149.24551599562125,0,-100.0,,0.0,0.0,0.0,0.0,0.0,0.0,0.0,0.0,0.0,0.0,0.0,0.0,0.0,0.0,0.0,E-W,0.0002384185791015625,2.841,N-S,0.0002384185791015625,1.083
