earthquake name,records name,earthquake date,earthquake time,lat,long,depth,mag,stn_code,stn_lat,stn_long,stn_height,rcd_date,rcd_time,frequency,rcd_duration,direction,scale_factor,max_pga,epi_dist,pick_index_manually,pick_index_kalkan,snr_db_kalkan,tc_5sec,tc_4sec,tc_3sec,tc_2sec,tc_1sec,Pd_5sec,Pd_4sec,Pd_3sec,Pd_2sec,Pd_1sec,Pga_5sec,Pga_4sec,Pga_3sec,Pga_2sec,Pga_1sec,Channel,Scale_factor,PGA_ew,Channel.1,Scale_factor.1,PGA_ns
19990111091000.knt,ISK0129901110910.UD,1999-01-11, 09:10:00,36.053,136.747,9,4.3,ISK012,36.3575,136.6045,177,1999-01-11, 09:10:52,100Hz,119,U-D,0.0002384185791015625,3.342,36.192456967755504,0,-100.0,,0.0,0.0,0.0,0.0,0.0,0.0,0.0,0.0,0.0,0.0,0.0,0.0,0.0,0.0,0.0,E-W,0.0002384185791015625,21.54,N-S,0.0002384185791015625,19.821
19990111091000.knt,ISK0139901110910.UD,1999-01-11, 09:10:00,36.053,136.747,9,4.3,ISK013,36.1769,136.6245,494,1999-01-11, 09:10:46,100Hz,119,U-D,0.0002384185791015625,8.92,17.632116607853817,1202,1217.0,21.993851676571808,1.202707145335628,0.6089811211868227,0.3832112412726552,0.5860009369137112,0.5057077623904953,0.020476931266931744,0.011887464623963765,0.008830229682190912,0.0037874676350344544,0.0037874676350344544,8.919228906944667,8.919228906944667,8.919228906944667,3.082458338315736,3.082458338315736,E-W,0.0002384185791015625,32.377,N-S,0.0002384185791015625,26.877
19990111091000.knt,ISK0149901110910.UD,1999-01-11, 09:10:00,36.053,136.747,9,4.3,ISK014,36.3028,136.3154,4,1999-01-11, 09:10:55,100Hz,119,U-D,0.0002384185791015625,6.438,47.66743932849684,828,821.0000000000001,22.602151075709042,1.212230318890402,1.1736242472378446,1.267501290124141,1.0270381688137953,0.8490470326765471,0.004648413831848416,0.004648413831848416,0.004648413831848416,0.004473338867461393,0.002630325035060082,1.0527309938319065,1.0527309938319065,1.0527309938319065,0.8083811085498953,0.8083811085498953,E-W,0.0002384185791015625,18.883,N-S,0.0002384185791015625,18.59
19990111091000.knt,NGN0189901110910.UD,1999-01-11, 09:10:00,36.053,136.747,9,4.3,NGN018,35.8132,137.5295,1050,1999-01-11, 09:10:02,100Hz,119,U-D,0.0002384185791015625,1.755,75.3291028952849,0,-100.0,,0.0,0.0,0.0,0.0,0.0,0.0,0.0,0.0,0.0,0.0,0.0,0.0,0.0,0.0,0.0,E-W,0.0002384185791015625,4.376,N-S,0.0002384185791015625,4.278
19990111091000.knt,NGN0229901110910.UD,1999-01-11, 09:10:00,36.053,136.747,9,4.3,NGN022,35.6079,137.6125,451,1999-01-11, 09:10:08,100Hz,119,U-D,0.0002384185791015625,0.868,92.3986729778493,270,260.0,18.464780327163332,2.9460781526653674,2.5463003195507397,2.278456653392578,3.014819963655833,6.714360324086871,0.002149537405876889,0.0017535553983345172,0.0015796833609098729,0.0015796833609098729,0.0015796833609098729,0.7215959000219934,0.7215959000219934,0.7215959000219934,0.4770540104915088,0.1893717933362183,E-W,0.0002384185791015625,2.212,N-S,0.0002384185791015625,2.771
19990111091000.knt,NGN0249901110910.UD,1999-01-11, 09:10:00,36.053,136.747,9,4.3,NGN024,35.5232,137.8374,538,1999-01-11, 09:10:14,100Hz,119,U-D,0.0002384185791015625,1.764,114.64596190496502,106,111.00000000000001,13.675069862988398,3.120668832358673,2.680322708139374,1.7361903454268308,0.9364968845124071,0.49766882240527616,0.004583112361477015,0.004583112361477015,0.003949409851965442,0.002310493204520211,0.000711026305126584,0.8119460697189138,0.8119460697189138,0.8119460697189138,0.8119460697189138,0.5951532233186315,E-W,0.0002384185791015625,3.589,N-S,0.0002384185791015625,5.336
19990111091000.knt,NGN0259901110910.UD,1999-01-11, 09:10:00,36.053,136.747,9,4.3,NGN025,35.2807,137.8567,400,1999-01-11, 09:10:20,100Hz,119,U-D,0.0002384185791015625,1.205,131.9986441511531,0,-100.0,,0.0,0.0,0.0,0.0,0.0,0.0,0.0,0.0,0.0,0.0,0.0,0.0,0.0,0.0,0.0,E-W,0.0002384185791015625,1.716,N-S,0.0002384185791015625,2.684
19990111091000.knt,SIG0099901110910.UD,1999-01-11, 09:10:00,36.053,136.747,9,4.3,SIG009,35.0051,136.0854,136,1999-01-11, 09:10:21,100Hz,119,U-D,0.0002384185791015625,0.832,131.00127426604982,0,-100.0,,0.0,0.0,0.0,0.0,0.0,0.0,0.0,0.0,0.0,0.0,0.0,0.0,0.0,0.0,0.0,E-W,0.0002384185791015625,1.9,N-S,0.0002384185791015625,2.335
19990111091000.knt,SIG0119901110910.UD,1999-01-11, 09:10:00,36.053,136.747,9,4.3,SIG011,34.8779,136.0587,283,1999-01-11, 09:10:24,100Hz,119,U-D,0.0002384185791015625,1.362,144.7713335097102,0,-100.0,,0.0,0.0,0.0,0.0,0.0,0.0,0.0,0.0,0.0,0.0,0.0,0.0,0.0,0.0,0.0,E-W,0.0002384185791015625,1.995,N-S,0.0002384185791015625,2.708
19990111091000.knt,TYM0129901110910.UD,1999-01-11, 09:10:00,36.053,136.747,9,4.3,TYM012,36.4411,137.0353,681,1999-01-11, 09:10:56,100Hz,119,U-D,0.0002384185791015625,0.878,50.30638664553871,769,39.0,14.13570053441244,4.073852203481822,3.1534231819126153,2.448920172344992,2.489167107228687,3.0009826797086014,0.0035044720634457706,0.003437933527503137,0.0020592251688849573,0.0020592251688849573,0.001979063189443176,0.49081597213516387,0.49081597213516387,0.49081597213516387,0.49081597213516387,0.26561318518417626,E-W,0.0002384185791015625,3.593,N-S,0.0002384185791015625,2.716
19990112004500.knt,KGS0029901120045.UD,1999-01-12, 00:45:00,31.853,130.298,9,3.6,KGS002,32.0909,130.3532,12,1999-01-12, 00:45:38,100Hz,119,U-D,0.0002384185791015625,2.05,26.960844534059458,1094,1094.0,19.163729438965664,1.16028896435729,1.1118529280794236,1.6804895775714535,1.9734194137562038,2.239973220980603,0.0027546549829415043,0.0020171598018149644,0.001686835450526623,0.001686835450526623,0.001686835450526623,2.046417589694484,2.046417589694484,1.157950366184892,1.157950366184892,1.157950366184892,E-W,0.0002384185791015625,7.271,N-S,0.0002384185791015625,5.062
19990112004500.knt,KGS0049901120045.UD,1999-01-12, 00:45:00,31.853,130.298,9,3.6,KGS004,32.0145,130.1927,3,1999-01-12, 00:45:34,100Hz,119,U-D,0.0002384185791015625,3.483,20.523869413796426,1404,1404.0,14.990248486294359,0.8565543143957774,0.8753144708956906,0.8093427370558876,0.45788680703921597,0.34815007712354246,0.004652420233299996,0.004061481708637674,0.0032255353053769267,0.002312329506179097,0.0016831866044440492,3.4725477847046027,3.4725477847046027,3.4725477847046027,3.4725477847046027,3.4725477847046027,E-W,0.0002384185791015625,1.618,N-S,0.0002384185791015625,3.101
19990112004500.knt,KGS0059901120045.UD,1999-01-12, 00:45:00,31.853,130.298,9,3.6,KGS005,31.9006,130.4513,42,1999-01-12, 00:45:33,100Hz,119,U-D,0.0002384185791015625,6.984,15.412686557727692,1396,1401.0,20.417352358201644,4.799595680261867,4.345553145595345,3.4843143352816583,2.814271473471063,0.8883653349084245,0.0333425783671883,0.0333425783671883,0.028708977949915372,0.020838170724058833,0.008851239480136018,6.997562271761381,6.997562271761381,6.997562271761381,6.19767652857389,6.19767652857389,E-W,0.0002384185791015625,26.05,N-S,0.0002384185791015625,36.484
19990112004500.knt,KGS0069901120045.UD,1999-01-12, 00:45:00,31.853,130.298,9,3.6,KGS006,31.906,130.7021,188,1999-01-12, 00:45:42,100Hz,119,U-D,0.0002384185791015625,3.89,38.60849161044766,897,905.0000000000001,27.90425038691875,0.7886858454109578,0.8792848455557972,0.8599797165972589,0.8882266696126454,0.9844428888373,0.0014120044841478233,0.0014120044841478233,0.0014120044841478233,0.0014120044841478233,0.0014120044841478233,1.4667775061934663,1.4667775061934663,1.4667775061934663,1.4667775061934663,1.4667775061934663,E-W,0.0002384185791015625,5.85,N-S,0.0002384185791015625,6.1
19990112004500.knt,KGS0079901120045.UD,1999-01-12, 00:45:00,31.853,130.298,9,3.6,KGS007,31.8143,130.3032,4,1999-01-12, 00:45:31,100Hz,119,U-D,0.0002384185791015625,21.143,4.331191892553266,1456,1462.0,19.880785195216852,0.39216899147179457,0.3737112248423222,0.3099880848124576,0.24653347942387868,0.24704095901336565,0.017225785794522875,0.017225785794522875,0.017225785794522875,0.007855985099701502,0.0026120429237789754,21.092876977718984,21.092876977718984,21.092876977718984,21.092876977718984,11.06976863434985,E-W,0.0002384185791015625,24.47,N-S,0.0002384185791015625,29.432
19990112004500.knt,KGS0089901120045.UD,1999-01-12, 00:45:00,31.853,130.298,9,3.6,KGS008,31.7621,130.5699,15,1999-01-12, 00:45:39,100Hz,119,U-D,0.0002384185791015625,1.269,27.610103157419996,1021,877.0,17.77858177816755,1.477781075917002,2.1179981007830015,2.3094423487492812,2.2024383388634408,1.875342691975074,0.002343091045805819,0.002343091045805819,0.002343091045805819,0.0019820758277135165,0.001827514817209616,1.2743392053022033,0.8507053708554687,0.8507053708554687,0.8507053708554687,0.8507053708554687,E-W,0.0002384185791015625,4.504,N-S,0.0002384185791015625,3.263
19990112004500.knt,KGS0109901120045.UD,1999-01-12, 00:45:00,31.853,130.298,9,3.6,KGS010,31.7123,130.2735,16,1999-01-12, 00:45:36,100Hz,119,U-D,0.0002384185791015625,2.863,15.815586890145099,1140,1142.0,5.990051206838142,13.156808714312653,13.948684053667652,15.805252459599417,17.83238984353943,20.56231750635766,0.22684113354881613,0.22684113354881613,0.22684113354881613,0.22684113354881613,0.22684113354881613,2.84098209986729,2.84098209986729,2.84098209986729,2.6474723574083443,2.6474723574083443,E-W,0.0002384185791015625,5.599,N-S,0.0002384185791015625,4.146
19990112004500.knt,KGS0119901120045.UD,1999-01-12, 00:45:00,31.853,130.298,9,3.6,KGS011,31.5896,130.349,18,1999-01-12, 00:45:39,100Hz,119,U-D,0.0002384185791015625,1.813,29.683318280416945,1045,1041.0,26.524166981245912,2.0383892040240057,2.774407362163965,2.502830509607804,1.7903884666726557,0.7563379507475452,0.0038472822680633927,0.003416592443552573,0.003416592443552573,0.0034020871240938947,0.001793463528283994,1.8166694575415552,1.8166694575415552,1.8166694575415552,1.8166694575415552,1.8166694575415552,E-W,0.0002384185791015625,4.322,N-S,0.0002384185791015625,7.148
19990112004500.knt,KMM0159901120045.UD,1999-01-12, 00:45:00,31.853,130.298,9,3.6,KMM015,32.2161,130.4046,5,1999-01-12, 00:45:43,100Hz,119,U-D,0.0002384185791015625,1.137,41.6065053647122,854,854.0000000000001,18.606694633328267,3.2984823339962803,3.836895886848553,4.339877985812806,4.6224123960271815,4.545143572395501,0.0015295989341031838,0.0015295989341031838,0.0015295989341031838,0.0015219339470628624,0.0015219339470628624,0.6019876615673306,0.6019876615673306,0.6019876615673306,0.6019876615673306,0.6019876615673306,E-W,0.0002384185791015625,2.169,N-S,0.0002384185791015625,2.811
19990116154100.knt,FKS0019901161541.UD,1999-01-16, 15:41:00,36.67,141.43,41,4.4,FKS001,37.7949,140.9196,9,1999-01-16, 15:42:20,100Hz,119,U-D,0.0002384185791015625,1.092,132.99419777932349,0,1.0,-1.0528643467423722,0.0,0.0,0.0,0.0,0.0,0.0,0.0,0.0,0.0,0.0,0.0,0.0,0.0,0.0,0.0,E-W,0.0002384185791015625,1.726,N-S,0.0002384185791015625,2.139
19990116154100.knt,FKS0049901161541.UD,1999-01-16, 15:41:00,36.67,141.43,41,4.4,FKS004,37.6799,140.7346,488,1999-01-16, 15:42:17,100Hz,119,U-D,0.0002384185791015625,1.685,128.0862966493595,0,-100.0,,0.0,0.0,0.0,0.0,0.0,0.0,0.0,0.0,0.0,0.0,0.0,0.0,0.0,0.0,0.0,E-W,0.0002384185791015625,3.898,N-S,0.0002384185791015625,4.143
19990116154100.knt,FKS0059901161541.UD,1999-01-16, 15:41:00,36.67,141.43,41,4.4,FKS005,37.6385,140.9849,16,1999-01-16, 15:42:14,100Hz,119,U-D,0.0002384185791015625,1.403,114.68890686501888,1,46.0,12.082088164238499,4.310033317607455,4.211020263490669,3.478360702510723,2.471357373071505,1.1320074066591403,0.005326032742343606,0.005326032742343606,0.005326032742343606,0.004092110515417577,0.002117749416663968,1.4018761972622784,1.4018761972622784,1.4018761972622784,1.4018761972622784,0.8917963295426908,E-W,0.0002384185791015625,2.506,N-S,0.0002384185791015625,2.195
19990116154100.knt,FKS0079901161541.UD,1999-01-16, 15:41:00,36.67,141.43,41,4.4,FKS007,37.4061,140.9632,70,1999-01-16, 15:42:11,100Hz,119,U-D,0.0002384185791015625,1.46,91.73957136756074,60,60.0,18.159709746930403,3.650154365068566,3.485867188468324,2.453352043818153,0.8903968266078411,0.6474733401361654,0.005421243741729466,0.005421243741729466,0.005037108324704719,0.001677012011729993,0.0005794074816443472,1.0756565283452886,1.0756565283452886,1.0756565283452886,1.0756565283452886,0.7090305543383395,E-W,0.0002384185791015625,2.722,N-S,0.0002384185791015625,3.546
19990116154100.knt,FKS0089901161541.UD,1999-01-16, 15:41:00,36.67,141.43,41,4.4,FKS008,37.4363,140.5668,430,1999-01-16, 15:42:13,100Hz,119,U-D,0.0002384185791015625,1.387,114.57807313974205,173,182.0,23.50999973262898,1.53129782100502,1.662585185171196,1.9664874058687933,2.26203843597479,3.3558660257232678,0.0012151839787353342,0.0012151839787353342,0.0012151839787353342,0.0012151839787353342,0.0012151839787353342,0.8238199251999434,0.8238199251999434,0.8238199251999434,0.8238199251999434,0.5525192650031052,E-W,0.0002384185791015625,5.72,N-S,0.0002384185791015625,4.733
19990116154100.knt,FKS0099901161541.UD,1999-01-16, 15:41:00,36.67,141.43,41,4.4,FKS009,37.2778,140.6349,440,1999-01-16, 15:42:10,100Hz,119,U-D,0.0002384185791015625,1.122,97.75696374628839,244,245.00000000000003,24.08654418784421,4.165096565032443,3.9729777311545353,4.536117554555386,5.410506442404721,8.357313957317793,0.0023634433308222782,0.0023634433308222782,0.0023634433308222782,0.0023634433308222782,0.0023634433308222782,0.6007843578853906,0.5113537571865547,0.5113537571865547,0.47215369328138596,0.39022388037317357,E-W,0.0002384185791015625,2.634,N-S,0.0002384185791015625,2.839
19990116154100.knt,FKS0119901161541.UD,1999-01-16, 15:41:00,36.67,141.43,41,4.4,FKS011,37.0911,140.9035,165,1999-01-16, 15:42:03,100Hz,119,U-D,0.0002384185791015625,1.832,66.22239744184085,536,557.0,26.581377232298887,7.123251421565275,7.299739269708128,5.733808163300093,3.510191577641282,1.2504787926078225,0.0089261448697756,0.0089261448697756,0.008494058491052094,0.00581114586157941,0.0017459286410559896,1.2324683721126386,1.2324683721126386,1.2324683721126386,1.2324683721126386,0.7502332280254195,E-W,0.0002384185791015625,2.163,N-S,0.0002384185791015625,2.615
19990116154100.knt,FKS0129901161541.UD,1999-01-16, 15:41:00,36.67,141.43,41,4.4,FKS012,36.9069,140.7929,2,1999-01-16, 15:42:02,100Hz,119,U-D,0.0002384185791015625,1.956,62.55117788751536,0,13.0,12.55451402990192,0.0,0.0,0.0,0.0,0.0,0.0,0.0,0.0,0.0,0.0,0.0,0.0,0.0,0.0,0.0,E-W,0.0002384185791015625,4.491,N-S,0.0002384185791015625,4.627
19990116154100.knt,FKS0139901161541.UD,1999-01-16, 15:41:00,36.67,141.43,41,4.4,FKS013,37.09,140.5563,320,1999-01-16, 15:42:08,100Hz,119,U-D,0.0002384185791015625,1.297,90.66353032316843,359,358.0,20.824222135540822,1.814693346016876,1.9750929468361498,2.024996703343437,1.272564234473482,1.2719925453100014,0.0010176183633513827,0.0010176183633513827,0.0010176183633513827,0.0007414587900120241,0.0004616526889040177,0.4897923757218024,0.47708615873492644,0.47708615873492644,0.41999036989782523,0.3242903496801229,E-W,0.0002384185791015625,2.978,N-S,0.0002384185791015625,2.366
19990116154100.knt,FKS0169901161541.UD,1999-01-16, 15:41:00,36.67,141.43,41,4.4,FKS016,37.1228,140.1914,375,1999-01-16, 15:42:16,100Hz,119,U-D,0.0002384185791015625,2.862,121.10358745944964,107,45.0,15.282001439136844,9.332420783353006,10.419305407553113,11.667086687152365,9.89154060958964,6.876094570744802,0.018398973684435445,0.018398973684435445,0.018398973684435445,0.01798280272002549,0.015253826302942976,1.2811553755650957,1.2811553755650957,1.0851642735888405,1.0851642735888405,1.0851642735888405,E-W,0.0002384185791015625,7.484,N-S,0.0002384185791015625,5.39
19990116154100.knt,FKS0249901161541.UD,1999-01-16, 15:41:00,36.67,141.43,41,4.4,FKS024,37.3957,140.1325,527,1999-01-16, 15:42:21,100Hz,119,U-D,0.0002384185791015625,1.149,140.62658315651723,0,1.0,2.801529035027051,0.0,0.0,0.0,0.0,0.0,0.0,0.0,0.0,0.0,0.0,0.0,0.0,0.0,0.0,0.0,E-W,0.0002384185791015625,2.737,N-S,0.0002384185791015625,2.34
19990116154100.knt,FKS0319901161541.UD,1999-01-16, 15:41:00,36.67,141.43,41,4.4,FKS031,37.3364,140.8132,399,1999-01-16, 15:42:08,100Hz,119,U-D,0.0002384185791015625,1.633,92.14520733700942,0,-100.0,,0.0,0.0,0.0,0.0,0.0,0.0,0.0,0.0,0.0,0.0,0.0,0.0,0.0,0.0,0.0,E-W,0.0002384185791015625,4.04,N-S,0.0002384185791015625,3.312
19990116154100.knt,IBR0019901161541.UD,1999-01-16, 15:41:00,36.67,141.43,41,4.4,IBR001,36.7761,140.3569,105,1999-01-16, 15:42:09,100Hz,119,U-D,0.0002384185791015625,2.158,96.36617176367271,353,368.0,19.19747465714583,4.606000697150957,4.9668364909364735,6.029946505034461,7.714356522092769,9.105053953945605,0.0037735859518833728,0.0037735859518833728,0.0037735859518833728,0.0037735859518833728,0.0037735859518833728,0.586958732590536,0.586958732590536,0.586958732590536,0.5666261813242394,0.5666261813242394,E-W,0.0002384185791015625,3.676,N-S,0.0002384185791015625,3.601
19990116154100.knt,IBR0029901161541.UD,1999-01-16, 15:41:00,36.67,141.43,41,4.4,IBR002,36.7061,140.7068,9,1999-01-16, 15:42:02,100Hz,119,U-D,0.0002384185791015625,5.419,64.6104100459356,603,637.0,19.50193309607738,2.347677520226806,1.714356670048532,1.1718256525241053,0.9586716393483142,0.8844530521432584,0.004742398935728053,0.0029695446535089928,0.0020576395082028036,0.0015425138621095657,0.0015425138621095657,0.9354825999344921,0.9354825999344921,0.8955447420348268,0.8955447420348268,0.8955447420348268,E-W,0.0002384185791015625,8.6,N-S,0.0002384185791015625,13.179
19990116154100.knt,IBR0039901161541.UD,1999-01-16, 15:41:00,36.67,141.43,41,4.4,IBR003,36.5915,140.6453,58,1999-01-16, 15:42:00,100Hz,119,U-D,0.0002384185791015625,10.436,70.56338965508357,870,898.0,26.52687539245062,2.5869221020064095,2.7598875086504204,2.868447256258308,3.1895198412167933,3.0355917489146242,0.010264606711806073,0.010264606711806073,0.010264606711806073,0.010264606711806073,0.010264606711806073,2.4054411907984354,2.4054411907984354,2.4054411907984354,2.4054411907984354,2.4054411907984354,E-W,0.0002384185791015625,25.363,N-S,0.0002384185791015625,17.399
19990116154100.knt,IBR0069901161541.UD,1999-01-16, 15:41:00,36.67,141.43,41,4.4,IBR006,36.369,140.4528,20,1999-01-16, 15:42:09,100Hz,119,U-D,0.0002384185791015625,2.761,93.51862318167149,302,306.0,21.097807822503576,1.1656282061681313,1.27402344388766,1.444435683774963,1.7432680392116298,2.2183871261106214,0.0024039487793759994,0.0024039487793759994,0.0024039487793759994,0.0024039487793759994,0.0024039487793759994,1.963084388265237,1.963084388265237,1.963084388265237,1.6350361809753995,1.6350361809753995,E-W,0.0002384185791015625,5.698,N-S,0.0002384185791015625,5.069
19990116154100.knt,IBR0079901161541.UD,1999-01-16, 15:41:00,36.67,141.43,41,4.4,IBR007,36.3523,140.5955,24,1999-01-16, 15:42:07,100Hz,119,U-D,0.0002384185791015625,3.945,82.52396846003182,331,359.0,22.912219615926045,1.251380432351239,1.3649497264573636,1.3986103905087064,1.3513185002004808,1.3236583218379834,0.002094223505606912,0.002094223505606912,0.002094223505606912,0.002094223505606912,0.002094223505606912,1.2637945112437754,1.2637945112437754,1.2637945112437754,1.2637945112437754,1.2637945112437754,E-W,0.0002384185791015625,13.779,N-S,0.0002384185791015625,11.681
19990116154100.knt,IBR0119901161541.UD,1999-01-16, 15:41:00,36.67,141.43,41,4.4,IBR011,36.1251,140.0903,26,1999-01-16, 15:42:22,100Hz,119,U-D,0.0002384185791015625,1.12,134.34415707647992,0,1.0,7.662829019995499,0.0,0.0,0.0,0.0,0.0,0.0,0.0,0.0,0.0,0.0,0.0,0.0,0.0,0.0,0.0,E-W,0.0002384185791015625,2.827,N-S,0.0002384185791015625,2.668
19990116154100.knt,IBR0129901161541.UD,1999-01-16, 15:41:00,36.67,141.43,41,4.4,IBR012,36.1901,140.2869,24,1999-01-16, 15:42:15,100Hz,119,U-D,0.0002384185791015625,1.488,115.3516824156018,0,-100.0,,0.0,0.0,0.0,0.0,0.0,0.0,0.0,0.0,0.0,0.0,0.0,0.0,0.0,0.0,0.0,E-W,0.0002384185791015625,2.501,N-S,0.0002384185791015625,2.129
