earthquake name,records name,earthquake date,earthquake time,lat,long,depth,mag,stn_code,stn_lat,stn_long,stn_height,rcd_date,rcd_time,frequency,rcd_duration,direction,scale_factor,max_pga,epi_dist,pick_index_manually,pick_index_kalkan,snr_db_kalkan,tc_5sec,tc_4sec,tc_3sec,tc_2sec,tc_1sec,Pd_5sec,Pd_4sec,Pd_3sec,Pd_2sec,Pd_1sec,Pga_5sec,Pga_4sec,Pga_3sec,Pga_2sec,Pga_1sec,Channel,Scale_factor,PGA_ew,Channel.1,Scale_factor.1,PGA_ns
19990101233000.knt,FKO0089901012330.UD,1999-01-01, 23:30:00,33.32,131.348,9,3.7,FKO008,33.5716,130.8539,91,1999-01-01, 23:30:21,100Hz,119,U-D,0.0002384185791015625,1.643,53.705773854902226,0,-100.0,,0.0,0.0,0.0,0.0,0.0,0.0,0.0,0.0,0.0,0.0,0.0,0.0,0.0,0.0,0.0,E-W,0.0002384185791015625,2.31,N-S,0.0002384185791015625,3.905
19990101233000.knt,OIT0029901012330.UD,1999-01-01, 23:30:00,33.32,131.348,9,3.7,OIT002,33.5685,131.2678,9,1999-01-01, 23:30:11,100Hz,119,U-D,0.0002384185791015625,4.057,28.61635761161313,1387,1401.0,29.957554767757124,0.7021452817687489,0.5292215228576256,0.460174057998705,0.43863778671521847,0.4536173154791638,0.005349376135149835,0.003715864725885636,0.003715864725885636,0.003715864725885636,0.003715864725885636,4.043327538029686,3.5687531431672923,3.5687531431672923,3.5687531431672923,3.5687531431672923,E-W,0.0002384185791015625,5.967,N-S,0.0002384185791015625,8.662
19990101233000.knt,OIT0039901012330.UD,1999-01-01, 23:30:00,33.32,131.348,9,3.7,OIT003,33.5583,131.4489,6,1999-01-01, 23:30:14,100Hz,119,U-D,0.0002384185791015625,3.036,28.10311786690285,0,-100.0,,0.0,0.0,0.0,0.0,0.0,0.0,0.0,0.0,0.0,0.0,0.0,0.0,0.0,0.0,0.0,E-W,0.0002384185791015625,12.194,N-S,0.0002384185791015625,7.858
19990101233000.knt,OIT0049901012330.UD,1999-01-01, 23:30:00,33.32,131.348,9,3.7,OIT004,33.5666,131.7378,7,1999-01-01, 23:30:19,100Hz,119,U-D,0.0002384185791015625,1.367,45.38688486580483,844,822.0000000000001,18.777714758308502,1.2226565576703106,1.0649300275540179,0.8919464232295129,1.0364988530220491,1.1546811205464176,0.001007937992766104,0.0010042708877146028,0.0010042708877146028,0.0010042708877146028,0.0010042708877146028,0.8229958432048257,0.8229958432048257,0.8229958432048257,0.8229958432048257,0.8229958432048257,E-W,0.0002384185791015625,3.548,N-S,0.0002384185791015625,3.793
19990101233000.knt,OIT0059901012330.UD,1999-01-01, 23:30:00,33.32,131.348,9,3.7,OIT005,33.4549,131.1142,113,1999-01-01, 23:30:11,100Hz,119,U-D,0.0002384185791015625,3.707,26.38557214079701,1354,1353.0,23.33115546029419,3.561825529332629,4.34537866908533,3.9040227379512467,2.33230461465083,0.8664877422422891,0.012797557740103062,0.012282633248398,0.012282633248398,0.007951306238846195,0.003293858279834824,3.69925311296314,2.3660592220767143,1.4690748071511444,1.4690748071511444,1.4690748071511444,E-W,0.0002384185791015625,19.163,N-S,0.0002384185791015625,15.509
19990101233000.knt,OIT0069901012330.UD,1999-01-01, 23:30:00,33.32,131.348,9,3.7,OIT006,33.4211,131.3172,88,1999-01-01, 23:30:10,100Hz,119,U-D,0.0002384185791015625,7.649,11.599945241400421,1210,1218.0,30.73134573294492,1.2914714651592134,1.2646284498496776,0.8547163188886864,0.70579544578174,0.6760378035898156,0.014971887423513403,0.014971887423513403,0.012105276925974772,0.012105276925974772,0.012105276925974772,7.581527482035909,7.581527482035909,7.581527482035909,7.581527482035909,7.581527482035909,E-W,0.0002384185791015625,16.331,N-S,0.0002384185791015625,23.651
19990101233000.knt,OIT0079901012330.UD,1999-01-01, 23:30:00,33.32,131.348,9,3.7,OIT007,33.4152,131.6148,24,1999-01-01, 23:30:14,100Hz,119,U-D,0.0002384185791015625,1.462,26.94313625048333,1063,1061.0,20.59303545413008,1.3033414798218361,1.6055025626594182,1.89645909721838,2.2815597401475927,1.9342581799975895,0.004232436163580485,0.004232436163580485,0.004232436163580485,0.003381257700973218,0.003381257700973218,1.4641373661003334,1.4641373661003334,1.125719610117584,1.125719610117584,1.125719610117584,E-W,0.0002384185791015625,2.495,N-S,0.0002384185791015625,3.199
19990101233000.knt,OIT0099901012330.UD,1999-01-01, 23:30:00,33.32,131.348,9,3.7,OIT009,33.2569,131.3439,458,1999-01-01, 23:30:07,100Hz,119,U-D,0.0002384185791015625,18.182,7.0267417792399876,1429,1449.0,20.372213861508804,0.7188767794333017,0.696082232398599,0.6987879759235315,0.8045452939459423,0.47668903471039936,0.04944382175610824,0.038907121516912606,0.038907121516912606,0.02992352893329,0.013223929441113873,18.187788443732323,18.187788443732323,18.187788443732323,18.187788443732323,13.045496424891606,E-W,0.0002384185791015625,29.011,N-S,0.0002384185791015625,24.873
19990102012000.knt,CHB0109901020120.UD,1999-01-02, 01:20:00,36.22,141.697,52,5.0,CHB010,35.7077,140.568,8,1999-01-02, 01:20:08,100Hz,119,U-D,0.0002384185791015625,0.956,116.48727052669445,0,1.0,3.9165417953524355,0.0,0.0,0.0,0.0,0.0,0.0,0.0,0.0,0.0,0.0,0.0,0.0,0.0,0.0,0.0,E-W,0.0002384185791015625,2.314,N-S,0.0002384185791015625,1.998
19990102012000.knt,FKS0089901020120.UD,1999-01-02, 01:20:00,36.22,141.697,52,5.0,FKS008,37.4363,140.5668,430,1999-01-02, 01:20:23,100Hz,119,U-D,0.0002384185791015625,0.491,168.55083526914274,0,-100.0,,0.0,0.0,0.0,0.0,0.0,0.0,0.0,0.0,0.0,0.0,0.0,0.0,0.0,0.0,0.0,E-W,0.0002384185791015625,2.281,N-S,0.0002384185791015625,2.285
19990102012000.knt,FKS0139901020120.UD,1999-01-02, 01:20:00,36.22,141.697,52,5.0,FKS013,37.09,140.5563,320,1999-01-02, 01:20:20,100Hz,119,U-D,0.0002384185791015625,0.696,140.40062757022037,0,2.0,2.202635742882901,0.0,0.0,0.0,0.0,0.0,0.0,0.0,0.0,0.0,0.0,0.0,0.0,0.0,0.0,0.0,E-W,0.0002384185791015625,2.004,N-S,0.0002384185791015625,2.256
19990102012000.knt,FKS0169901020120.UD,1999-01-02, 01:20:00,36.22,141.697,52,5.0,FKS016,37.1228,140.1914,375,1999-01-02, 01:20:20,100Hz,119,U-D,0.0002384185791015625,1.042,167.65160787813295,0,1.0,-5.33124066004929,0.0,0.0,0.0,0.0,0.0,0.0,0.0,0.0,0.0,0.0,0.0,0.0,0.0,0.0,0.0,E-W,0.0002384185791015625,3.07,N-S,0.0002384185791015625,4.114
19990102012000.knt,FKS0179901020120.UD,1999-01-02, 01:20:00,36.22,141.697,52,5.0,FKS017,37.2842,140.3689,263,1999-01-02, 01:20:25,100Hz,119,U-D,0.0002384185791015625,0.88,167.3385548528722,0,-100.0,,0.0,0.0,0.0,0.0,0.0,0.0,0.0,0.0,0.0,0.0,0.0,0.0,0.0,0.0,0.0,E-W,0.0002384185791015625,1.551,N-S,0.0002384185791015625,2.516
19990102012000.knt,FKS0239901020120.UD,1999-01-02, 01:20:00,36.22,141.697,52,5.0,FKS023,37.4774,139.9294,219,1999-01-02, 01:20:32,100Hz,119,U-D,0.0002384185791015625,0.579,210.43515477770652,0,-100.0,,0.0,0.0,0.0,0.0,0.0,0.0,0.0,0.0,0.0,0.0,0.0,0.0,0.0,0.0,0.0,E-W,0.0002384185791015625,3.627,N-S,0.0002384185791015625,2.621
19990102012000.knt,FKS0249901020120.UD,1999-01-02, 01:20:00,36.22,141.697,52,5.0,FKS024,37.3957,140.1325,527,1999-01-02, 01:20:26,100Hz,119,U-D,0.0002384185791015625,2.111,191.0202732225978,0,1.0,-1.3863086516036838,0.0,0.0,0.0,0.0,0.0,0.0,0.0,0.0,0.0,0.0,0.0,0.0,0.0,0.0,0.0,E-W,0.0002384185791015625,3.591,N-S,0.0002384185791015625,4.284
19990102012000.knt,IBR0019901020120.UD,1999-01-02, 01:20:00,36.22,141.697,52,5.0,IBR001,36.7761,140.3569,105,1999-01-02, 01:20:12,100Hz,119,U-D,0.0002384185791015625,1.183,134.80418139815325,0,1.0,-13.26088027725772,0.0,0.0,0.0,0.0,0.0,0.0,0.0,0.0,0.0,0.0,0.0,0.0,0.0,0.0,0.0,E-W,0.0002384185791015625,2.885,N-S,0.0002384185791015625,2.944
19990102012000.knt,IBR0029901020120.UD,1999-01-02, 01:20:00,36.22,141.697,52,5.0,IBR002,36.7061,140.7068,9,1999-01-02, 01:20:02,100Hz,119,U-D,0.0002384185791015625,1.463,103.74342688877384,127,176.0,21.89913517418258,3.9482507105757314,4.567125969463657,5.144158759906474,5.724351668720763,4.86228825123667,0.004412474783303647,0.004412474783303647,0.004412474783303647,0.0036104482039346006,0.0035897883589490615,0.589163045504348,0.589163045504348,0.589163045504348,0.2506363163634343,0.14917751860579898,E-W,0.0002384185791015625,2.693,N-S,0.0002384185791015625,3.153
19990102012000.knt,IBR0039901020120.UD,1999-01-02, 01:20:00,36.22,141.697,52,5.0,IBR003,36.5915,140.6453,58,1999-01-02, 01:20:59,100Hz,119,U-D,0.0002384185791015625,2.256,102.78563899085655,393,447.0,23.968538074198054,0.9128026202298497,0.9910349043758644,0.9749985033320009,1.5174368098885902,3.6866926508037747,0.0018665384442131093,0.0018665384442131093,0.0018665384442131093,0.0018665384442131093,0.0018665384442131093,1.2792088505474388,1.2792088505474388,1.1490713833007489,0.9397082571652934,0.2728958566485402,E-W,0.0002384185791015625,3.458,N-S,0.0002384185791015625,3.693
19990102012000.knt,IBR0059901020120.UD,1999-01-02, 01:20:00,36.22,141.697,52,5.0,IBR005,36.3851,140.2372,63,1999-01-02, 01:20:09,100Hz,119,U-D,0.0002384185791015625,1.91,132.09644360725073,0,-100.0,,0.0,0.0,0.0,0.0,0.0,0.0,0.0,0.0,0.0,0.0,0.0,0.0,0.0,0.0,0.0,E-W,0.0002384185791015625,3.699,N-S,0.0002384185791015625,3.735
19990102012000.knt,IBR0109901020120.UD,1999-01-02, 01:20:00,36.22,141.697,52,5.0,IBR010,36.1843,139.9653,23,1999-01-02, 01:20:18,100Hz,119,U-D,0.0002384185791015625,0.955,155.42961847002687,0,1.0,9.009254748917,0.0,0.0,0.0,0.0,0.0,0.0,0.0,0.0,0.0,0.0,0.0,0.0,0.0,0.0,0.0,E-W,0.0002384185791015625,2.186,N-S,0.0002384185791015625,1.767
19990102012000.knt,IBR0129901020120.UD,1999-01-02, 01:20:00,36.22,141.697,52,5.0,IBR012,36.1901,140.2869,24,1999-01-02, 01:20:13,100Hz,119,U-D,0.0002384185791015625,1.089,126.56251824473094,0,-100.0,,0.0,0.0,0.0,0.0,0.0,0.0,0.0,0.0,0.0,0.0,0.0,0.0,0.0,0.0,0.0,E-W,0.0002384185791015625,2.623,N-S,0.0002384185791015625,2.314
19990102012000.knt,IBR0139901020120.UD,1999-01-02, 01:20:00,36.22,141.697,52,5.0,IBR013,36.1587,140.4892,28,1999-01-02, 01:20:09,100Hz,119,U-D,0.0002384185791015625,2.493,108.60390637539064,0,1.0,-1.7369931546383743,0.0,0.0,0.0,0.0,0.0,0.0,0.0,0.0,0.0,0.0,0.0,0.0,0.0,0.0,0.0,E-W,0.0002384185791015625,6.837,N-S,0.0002384185791015625,6.724
19990102012000.knt,IBR0179901020120.UD,1999-01-02, 01:20:00,36.22,141.697,52,5.0,IBR017,35.9537,140.3194,17,1999-01-02, 01:20:13,100Hz,119,U-D,0.0002384185791015625,1.142,127.28134254179453,0,-100.0,,0.0,0.0,0.0,0.0,0.0,0.0,0.0,0.0,0.0,0.0,0.0,0.0,0.0,0.0,0.0,E-W,0.0002384185791015625,2.265,N-S,0.0002384185791015625,1.911
19990102012000.knt,TCG0129901020120.UD,1999-01-02, 01:20:00,36.22,141.697,52,5.0,TCG012,36.2859,139.8047,33,1999-01-02, 01:20:26,100Hz,119,U-D,0.0002384185791015625,0.519,169.83639083692302,0,1.0,-0.18293747900579022,0.0,0.0,0.0,0.0,0.0,0.0,0.0,0.0,0.0,0.0,0.0,0.0,0.0,0.0,0.0,E-W,0.0002384185791015625,2.61,N-S,0.0002384185791015625,2.15
19990102012000.knt,TCG0149901020120.UD,1999-01-02, 01:20:00,36.22,141.697,52,5.0,TCG014,36.545,140.1742,130,1999-01-02, 01:20:58,100Hz,119,U-D,0.0002384185791015625,2.281,141.02837081935826,1017,1078.0,22.991526324380487,0.39371605552750977,0.3818532140298748,0.3625853988643857,0.37852856829571996,0.8530446863014106,0.002292047715921239,0.002292047715921239,0.002292047715921239,0.002292047715921239,0.0015688924793686749,2.29355870066436,2.29355870066436,2.29355870066436,2.29355870066436,1.042214865812045,E-W,0.0002384185791015625,6.458,N-S,0.0002384185791015625,8.222
19990104055000.knt,EHM0029901040550.UD,1999-01-04, 05:50:00,33.403,133.264,40,4.0,EHM002,33.9216,133.3074,19,1999-01-04, 05:51:44,100Hz,119,U-D,0.0002384185791015625,4.314,57.805405827474544,698,708.0,26.63908526908535,10.86386595468465,11.094007267414796,11.432318530808757,9.7168528143589,5.865337965439675,0.009658693104861511,0.009658693104861511,0.009658693104861511,0.009658693104861511,0.008723814726286626,1.9506029295401066,1.9506029295401066,1.9506029295401066,1.9506029295401066,1.9506029295401066,E-W,0.0002384185791015625,12.278,N-S,0.0002384185791015625,7.412
19990104055000.knt,EHM0069901040550.UD,1999-01-04, 05:50:00,33.403,133.264,40,4.0,EHM006,33.641,133.0082,552,1999-01-04, 05:51:40,100Hz,119,U-D,0.0002384185791015625,1.891,35.53386843198927,851,852.9999999999999,18.28122343294141,8.146842426181545,8.711584812566837,7.7036983692325265,5.545399620275275,3.3095715105499126,0.005838595051415116,0.005838595051415116,0.005838595051415116,0.005462113196433251,0.0038249509523153582,1.8160151838930856,1.8160151838930856,1.8160151838930856,1.8160151838930856,1.8160151838930856,E-W,0.0002384185791015625,11.474,N-S,0.0002384185791015625,4.308
19990104055000.knt,EHM0119901040550.UD,1999-01-04, 05:50:00,33.403,133.264,40,4.0,EHM011,33.4496,132.4336,10,1999-01-04, 05:51:50,100Hz,119,U-D,0.0002384185791015625,0.879,77.23719605023005,0,-100.0,,0.0,0.0,0.0,0.0,0.0,0.0,0.0,0.0,0.0,0.0,0.0,0.0,0.0,0.0,0.0,E-W,0.0002384185791015625,2.633,N-S,0.0002384185791015625,1.512
19990104055000.knt,EHM0129901040550.UD,1999-01-04, 05:50:00,33.403,133.264,40,4.0,EHM012,33.2217,132.5727,37,1999-01-04, 05:51:47,100Hz,119,U-D,0.0002384185791015625,1.912,67.32747312683595,0,-100.0,,0.0,0.0,0.0,0.0,0.0,0.0,0.0,0.0,0.0,0.0,0.0,0.0,0.0,0.0,0.0,E-W,0.0002384185791015625,2.85,N-S,0.0002384185791015625,3.32
19990104055000.knt,EHM0149901040550.UD,1999-01-04, 05:50:00,33.403,133.264,40,4.0,EHM014,32.9453,132.5047,1,1999-01-04, 05:51:52,100Hz,119,U-D,0.0002384185791015625,1.411,87.08750085002862,288,321.0,14.160181820522679,10.635707753806031,10.74268587600967,11.84670080608366,15.050427915185262,20.82374573556935,0.019221552173708228,0.019221552173708228,0.019221552173708228,0.019221552173708228,0.019221552173708228,1.416922812936263,1.416922812936263,1.416922812936263,1.416922812936263,1.416922812936263,E-W,0.0002384185791015625,2.072,N-S,0.0002384185791015625,3.365
19990104055000.knt,EHM0169901040550.UD,1999-01-04, 05:50:00,33.403,133.264,40,4.0,EHM016,33.7658,132.7088,2,1999-01-04, 05:51:47,100Hz,119,U-D,0.0002384185791015625,1.78,65.36406416019067,534,531.0,15.2287669444429,0.5336630807218992,0.6535643487590399,0.6998127326134477,0.7123904906065454,0.7848367760430208,0.0005851942234090048,0.0005851942234090048,0.0005851942234090048,0.0005851942234090048,0.0005851942234090048,0.5614938415846074,0.34573341443013716,0.34573341443013716,0.34573341443013716,0.34573341443013716,E-W,0.0002384185791015625,3.82,N-S,0.0002384185791015625,6.837
19990104055000.knt,KGW0039901040550.UD,1999-01-04, 05:50:00,33.403,133.264,40,4.0,KGW003,34.2652,133.7896,12,1999-01-04, 05:51:57,100Hz,119,U-D,0.0002384185791015625,0.69,107.46240262981227,104,123.0,13.014231216490245,9.482979547835633,11.776514333271246,12.401246945478254,13.53855848347957,10.276894425101748,0.002024656165591345,0.002024656165591345,0.002024656165591345,0.002024656165591345,0.002001264199773756,0.13707938377309867,0.11484681998967285,0.10842452582461566,0.10842452582461566,0.10842452582461566,E-W,0.0002384185791015625,1.864,N-S,0.0002384185791015625,2.434
19990104055000.knt,KGW0059901040550.UD,1999-01-04, 05:50:00,33.403,133.264,40,4.0,KGW005,34.1138,133.6354,2,1999-01-04, 05:51:52,100Hz,119,U-D,0.0002384185791015625,1.348,86.17264303922144,327,331.0,19.347609766811523,4.269233062292155,3.1150350195494303,1.9677503005730543,1.2980761253986501,1.3208518017597055,0.0020540263783767826,0.001781538179799648,0.00105255438956297,0.000556884204935578,0.000556884204935578,0.33346906230302936,0.33346906230302936,0.33346906230302936,0.33346906230302936,0.33346906230302936,E-W,0.0002384185791015625,4.062,N-S,0.0002384185791015625,3.622
19990104055000.knt,KOC0059901040550.UD,1999-01-04, 05:50:00,33.403,133.264,40,4.0,KOC005,33.5934,133.6921,26,1999-01-04, 05:51:35,100Hz,119,U-D,0.0002384185791015625,5.644,44.98881097103155,1490,1492.0,23.898797173526013,1.6263214377748336,1.5986684712127965,1.6129709917974633,1.4307915444932453,0.9437744656636036,0.003717844232681162,0.003717844232681162,0.003717844232681162,0.003717844232681162,0.003717844232681162,5.6487519998791855,5.6487519998791855,5.6487519998791855,5.6487519998791855,5.6487519998791855,E-W,0.0002384185791015625,2.769,N-S,0.0002384185791015625,3.012
19990104055000.knt,KOC0079901040550.UD,1999-01-04, 05:50:00,33.403,133.264,40,4.0,KOC007,33.5611,133.5271,2,1999-01-04, 05:51:34,100Hz,119,U-D,0.0002384185791015625,7.725,30.074023555190834,1409,1413.0,27.169997579780887,1.2413615643598301,1.2281430101181052,1.193828496122345,0.9518971419401712,0.569061327843057,0.0028938997761904315,0.0028938997761904315,0.0028938997761904315,0.0027225099492277933,0.002368974252684062,7.707674817198433,7.707674817198433,7.707674817198433,7.707674817198433,7.707674817198433,E-W,0.0002384185791015625,4.343,N-S,0.0002384185791015625,3.845
19990104055000.knt,KOC0089901040550.UD,1999-01-04, 05:50:00,33.403,133.264,40,4.0,KOC008,33.7758,133.3465,560,1999-01-04, 05:51:41,100Hz,119,U-D,0.0002384185791015625,1.642,42.151949424060135,831,831.0,24.07808074715043,8.29682994390909,8.658239955311283,8.54670440572159,6.090450350052731,2.908242334657253,0.006002731277832765,0.006002731277832765,0.006002731277832765,0.005500124300980491,0.0031797866341292448,1.1239487458166844,1.1239487458166844,1.1239487458166844,1.1239487458166844,1.1239487458166844,E-W,0.0002384185791015625,17.666,N-S,0.0002384185791015625,16.559
19990104055000.knt,KOC0099901040550.UD,1999-01-04, 05:50:00,33.403,133.264,40,4.0,KOC009,33.5742,133.1718,105,1999-01-04, 05:51:37,100Hz,119,U-D,0.0002384185791015625,2.254,20.868588440831775,994,995.0000000000001,22.953546351479737,3.3813723073667328,3.3905804959227197,2.32295393680127,1.1606004750441405,0.3990413994118463,0.004243406635672594,0.004014432101555162,0.0033734891677672145,0.0021876875143980626,0.0013810090615551816,2.2637837475039033,2.2637837475039033,2.2637837475039033,2.2637837475039033,2.2637837475039033,E-W,0.0002384185791015625,3.133,N-S,0.0002384185791015625,2.713
19990104055000.knt,KOC0109901040550.UD,1999-01-04, 05:50:00,33.403,133.264,40,4.0,KOC010,33.3925,133.2896,4,1999-01-04, 05:51:35,100Hz,119,U-D,0.0002384185791015625,7.949,2.647841746275337,1090,1168.0,11.15455193319339,0.3468056789432366,0.5438351197988807,0.8327662884868734,0.7563286905634834,0.708474622277838,0.0026624473299947664,0.00248543325489463,0.000953637022345713,0.0006916739797470171,0.0006329724408112535,7.942613836201865,6.797006725571153,1.3410139939216301,1.3410139939216301,0.977309404395741,E-W,0.0002384185791015625,12.487,N-S,0.0002384185791015625,17.519
19990104055000.knt,KOC0129901040550.UD,1999-01-04, 05:50:00,33.403,133.264,40,4.0,KOC012,33.1967,132.9758,150,1999-01-04, 05:51:39,100Hz,119,U-D,0.0002384185791015625,1.248,35.26522684637006,917,917.0,15.649445170625695,6.381458456433218,5.8913372914264786,4.515410647157807,2.8262706313676147,1.9665599520715096,0.003217039520093579,0.0031303100828514105,0.0030512474310502124,0.0020058704060254675,0.0010126696218419797,0.9043918457927055,0.9043918457927055,0.9043918457927055,0.7891801758454686,0.7891801758454686,E-W,0.0002384185791015625,5.211,N-S,0.0002384185791015625,5.568
19990104055000.knt,KOC0159901040550.UD,1999-01-04, 05:50:00,33.403,133.264,40,4.0,KOC015,32.937,132.7252,2,1999-01-04, 05:51:48,100Hz,119,U-D,0.0002384185791015625,2.384,72.11029336145918,508,508.0,25.55595502362607,2.3424885837073615,2.0484961999433233,2.362154118149944,2.110053532864003,1.5494957920891426,0.0012473094772400203,0.0011098815899091019,0.0010716279738427934,0.0010716279738427934,0.0008973668607979945,0.37616787582409683,0.37616787582409683,0.3668797618094167,0.3668797618094167,0.3668797618094167,E-W,0.0002384185791015625,3.261,N-S,0.0002384185791015625,1.828
19990104055000.knt,OKY0149901040550.UD,1999-01-04, 05:50:00,33.403,133.264,40,4.0,OKY014,34.4462,133.7876,49,1999-01-04, 05:51:02,100Hz,119,U-D,0.0002384185791015625,0.917,125.65601647524517,0,4.0,9.548667308640336,0.0,0.0,0.0,0.0,0.0,0.0,0.0,0.0,0.0,0.0,0.0,0.0,0.0,0.0,0.0,E-W,0.0002384185791015625,2.396,N-S,0.0002384185791015625,3.306
