earthquake name,records name,earthquake date,earthquake time,lat,long,depth,mag,stn_code,stn_lat,stn_long,stn_height,rcd_date,rcd_time,frequency,rcd_duration,direction,scale_factor,max_pga,epi_dist,pick_index_manually,pick_index_kalkan,snr_db_kalkan,tc_5sec,tc_4sec,tc_3sec,tc_2sec,tc_1sec,Pd_5sec,Pd_4sec,Pd_3sec,Pd_2sec,Pd_1sec,Pga_5sec,Pga_4sec,Pga_3sec,Pga_2sec,Pga_1sec,Channel,Scale_factor,PGA_ew,Channel.1,Scale_factor.1,PGA_ns
19960605212600.knt,IWT0249606052126.UD,1996-06-05, 21:26:00,39.803,141.729,4,3.6,IWT024,40.2632,141.2901,94,1996-06-05, 21:27:09,100Hz,59,U-D,0.0002384185791015625,1.501,63.362975107379505,424,430.0,21.76912640999245,3.2004163121552653,2.7618672480788673,2.298233289383039,2.0764613266823644,2.2675275185269204,0.0037385534015078187,0.0037385534015078187,0.0037385534015078187,0.0037385534015078187,0.0037385534015078187,0.9981476731162862,0.9981476731162862,0.9981476731162862,0.9981476731162862,0.9981476731162862,E-W,0.0002384185791015625,4.82,N-S,0.0002384185791015625,2.236
19960606082500.knt,KGS0209606060825.UD,1996-06-06, 08:25:00,30.487,130.965,20,4.2,KGS020,31.2396,130.4915,21,1996-06-06, 08:25:46,100Hz,59,U-D,0.0002384185791015625,1.64,95.10922117339459,205,218.00000000000003,11.588831215916864,9.29649175183024,10.3395417642143,12.533038433872926,13.531843646279846,12.773466470124028,0.037057811519200595,0.037057811519200595,0.037057811519200595,0.037057811519200595,0.037057811519200595,1.6598979342078135,1.6598979342078135,1.6598979342078135,1.6598979342078135,1.6598979342078135,E-W,0.0002384185791015625,3.696,N-S,0.0002384185791015625,4.298
19960606082500.knt,KGS0239606060825.UD,1996-06-06, 08:25:00,30.487,130.965,20,4.2,KGS023,31.199,130.849,179,1996-06-06, 08:25:42,100Hz,299,U-D,0.0002384185791015625,2.336,79.94156216771424,326,332.0,15.876293675620365,11.148856182363655,8.921403121790577,5.7919781237092485,4.067829475828662,9.158938360685939,0.10700378187737813,0.10668626715918438,0.08530858512814214,0.046167516284414296,0.046167516284414296,1.6454005917058012,1.6454005917058012,1.6454005917058012,1.6454005917058012,1.3181313659508398,E-W,0.0002384185791015625,3.045,N-S,0.0002384185791015625,3.768
19960606082500.knt,KGS0269606060825.UD,1996-06-06, 08:25:00,30.487,130.965,20,4.2,KGS026,30.5202,130.9543,115,1996-06-06, 08:25:19,100Hz,59,U-D,0.0002384185791015625,74.159,3.831357716577162,1401,1411.0,36.09419165587525,0.3689887094337107,0.3045148259857167,0.217642558848742,0.1876080555420192,0.17525642616702924,0.05228569409085435,0.05228569409085435,0.040762892496819504,0.029076350038804682,0.025505630708003307,74.28822832528967,74.28822832528967,74.28822832528967,74.28822832528967,74.28822832528967,E-W,0.0002384185791015625,79.544,N-S,0.0002384185791015625,153.617
19960606082500.knt,KGS0279606060825.UD,1996-06-06, 08:25:00,30.487,130.965,20,4.2,KGS027,30.3488,130.8829,15,1996-06-06, 08:25:20,100Hz,59,U-D,0.0002384185791015625,36.747,17.26631597834037,1436,1452.0,32.86342196042305,0.5551684649930365,0.4630944845129565,0.47192100956424415,0.46433881641973707,0.44161938957283625,0.026141293973053564,0.026141293973053564,0.026141293973053564,0.026141293973053564,0.026141293973053564,36.74024904719365,36.74024904719365,36.74024904719365,36.74024904719365,36.74024904719365,E-W,0.0002384185791015625,32.118,N-S,0.0002384185791015625,33.872
19960606082500.knt,KGS0289606060825.UD,1996-06-06, 08:25:00,30.487,130.965,20,4.2,KGS028,30.4208,130.5769,4,1996-06-06, 08:25:24,100Hz,299,U-D,0.0002384185791015625,37.364,37.92227291383276,1408,1415.0,32.46033046863886,0.6036797337112925,0.5422537444052433,0.38376771350793887,0.281078374780423,0.26628424384590954,0.012198165255028417,0.012198165255028417,0.011165495395321122,0.011165495395321122,0.011165495395321122,37.32647500243195,37.32647500243195,37.32647500243195,37.32647500243195,37.32647500243195,E-W,0.0002384185791015625,37.362,N-S,0.0002384185791015625,41.504
19960608161500.knt,CHB0019606081615.UD,1996-06-08, 16:15:00,36.47,140.597,54,4.1,CHB001,35.9595,139.8733,13,1996-06-08, 16:15:25,100Hz,59,U-D,0.0002384185791015625,5.585,86.24074918637386,247,80.0,16.298132978982856,10.537749160861688,11.109002386647973,13.942209482596637,20.674715928029475,31.620695446547654,0.03419485519442922,0.03419485519442922,0.03419485519442922,0.03419485519442922,0.03419485519442922,1.743798001660689,1.743798001660689,1.743798001660689,1.5331709179367883,1.3128053370124058,E-W,0.0002384185791015625,10.703,N-S,0.0002384185791015625,11.475
19960608161500.knt,CHB0029606081615.UD,1996-06-08, 16:15:00,36.47,140.597,54,4.1,CHB002,35.7868,139.9031,14,1996-06-08, 16:15:26,100Hz,59,U-D,0.0002384185791015625,3.895,98.25934472031271,315,315.0,20.069597349487683,5.733036865153822,6.1817771173688,6.644647368359668,6.922931512223304,6.916411729243118,0.00744445646403898,0.00744445646403898,0.00744445646403898,0.00744445646403898,0.00744445646403898,1.391561755662774,1.391561755662774,1.391561755662774,1.391561755662774,1.1569439883272432,E-W,0.0002384185791015625,4.589,N-S,0.0002384185791015625,4.077
19960608161500.knt,CHB0079606081615.UD,1996-06-08, 16:15:00,36.47,140.597,54,4.1,CHB007,35.7234,140.2267,24,1996-06-08, 16:15:26,100Hz,59,U-D,0.0002384185791015625,2.77,89.43663908047007,227,236.0,22.869030606139056,7.133662892039091,8.006198020772567,9.740805907806164,15.697734025615924,19.371180268449223,0.006940798762163848,0.006940798762163848,0.006940798762163848,0.006940798762163848,0.006860841612504006,0.7385709148127959,0.6362995001435962,0.6362995001435962,0.3615114597583433,0.29128025474239794,E-W,0.0002384185791015625,3.982,N-S,0.0002384185791015625,4.474
19960608161500.knt,FKS0049606081615.UD,1996-06-08, 16:15:00,36.47,140.597,54,4.1,FKS004,37.6799,140.7346,488,1996-06-08, 16:15:35,100Hz,59,U-D,0.0002384185791015625,1.262,135.0873880651217,0,2.0,7.11194958509613,0.0,0.0,0.0,0.0,0.0,0.0,0.0,0.0,0.0,0.0,0.0,0.0,0.0,0.0,0.0,E-W,0.0002384185791015625,3.262,N-S,0.0002384185791015625,3.239
19960608161500.knt,FKS0069606081615.UD,1996-06-08, 16:15:00,36.47,140.597,54,4.1,FKS006,37.5031,140.7588,472,1996-06-08, 16:15:30,100Hz,59,U-D,0.0002384185791015625,3.245,115.77084223456514,148,111.00000000000001,18.603687076596195,6.562609485075969,6.203982309862474,7.169763877178204,9.505180753663282,12.287545322575678,0.005771803567827218,0.005771803567827218,0.005771803567827218,0.005771803567827218,0.005771803567827218,0.765921919016585,0.765921919016585,0.765921919016585,0.765921919016585,0.5446413789528036,E-W,0.0002384185791015625,8.251,N-S,0.0002384185791015625,5.371
19960608161500.knt,FKS0089606081615.UD,1996-06-08, 16:15:00,36.47,140.597,54,4.1,FKS008,37.4363,140.5668,430,1996-06-08, 16:15:28,100Hz,59,U-D,0.0002384185791015625,1.682,107.48116136366319,188,203.00000000000003,23.46697776755065,3.1199223860750958,3.472329308085103,4.259498069253528,5.738628052460859,4.876706807932835,0.0017535103744656644,0.0017535103744656644,0.0017535103744656644,0.0017535103744656644,0.001556513575319695,0.964615113415903,0.8660376979966826,0.8660376979966826,0.44899800724283084,0.44899800724283084,E-W,0.0002384185791015625,8.161,N-S,0.0002384185791015625,5.673
19960608161500.knt,FKS0099606081615.UD,1996-06-08, 16:15:00,36.47,140.597,54,4.1,FKS009,37.2778,140.6349,440,1996-06-08, 16:15:25,100Hz,59,U-D,0.0002384185791015625,1.405,89.88650173656453,282,290.0,28.06101655833214,4.0485905582595425,4.372044551564333,4.33914148164762,4.0411337702352705,2.674726303457632,0.002346639244803312,0.002346639244803312,0.002346639244803312,0.002289429494337638,0.001843321795258477,0.7102156065603633,0.7102156065603633,0.7102156065603633,0.7102156065603633,0.49583883256269307,E-W,0.0002384185791015625,3.05,N-S,0.0002384185791015625,4.312
19960608161500.knt,FKS0129606081615.UD,1996-06-08, 16:15:00,36.47,140.597,54,4.1,FKS012,36.9069,140.7929,2,1996-06-08, 16:15:18,100Hz,59,U-D,0.0002384185791015625,1.857,51.62595017799968,0,-100.0,,0.0,0.0,0.0,0.0,0.0,0.0,0.0,0.0,0.0,0.0,0.0,0.0,0.0,0.0,0.0,E-W,0.0002384185791015625,6.098,N-S,0.0002384185791015625,4.405
19960608161500.knt,FKS0149606081615.UD,1996-06-08, 16:15:00,36.47,140.597,54,4.1,FKS014,36.8683,140.43,178,1996-06-08, 16:15:16,100Hz,59,U-D,0.0002384185791015625,4.158,46.72640012160587,730,725.0,34.047231678003534,1.4900607161743735,1.5027007250365565,1.35151738006363,1.1072911790845879,1.2874177972542196,0.0019374099997438014,0.0019374099997438014,0.0019374099997438014,0.0019374099997438014,0.0019374099997438014,1.6736662595934553,1.6736662595934553,1.6736662595934553,1.6736662595934553,1.2922061702334804,E-W,0.0002384185791015625,13.414,N-S,0.0002384185791015625,5.384
19960608161500.knt,FKS0159606081615.UD,1996-06-08, 16:15:00,36.47,140.597,54,4.1,FKS015,37.0217,140.3775,315,1996-06-08, 16:15:20,100Hz,59,U-D,0.0002384185791015625,1.533,64.38826444760798,508,508.0,27.917656741392086,3.5220949213080277,3.735340644125793,3.5546765497037693,2.990859370778145,2.0245650750241233,0.003191605578753397,0.003191605578753397,0.003191605578753397,0.003167458326829112,0.002745557432450345,0.43186569313786677,0.43186569313786677,0.43186569313786677,0.43186569313786677,0.43186569313786677,E-W,0.0002384185791015625,4.684,N-S,0.0002384185791015625,4.343
19960608161500.knt,FKS0169606081615.UD,1996-06-08, 16:15:00,36.47,140.597,54,4.1,FKS016,37.1228,140.1914,375,1996-06-08, 16:15:24,100Hz,299,U-D,0.0002384185791015625,7.453,81.07585064556656,299,310.0,15.66546410121118,7.030586553728524,6.825188946338992,7.43209076072221,8.652287104977884,9.401513863920147,0.025896490382712245,0.025896490382712245,0.025896490382712245,0.025896490382712245,0.025896490382712245,2.7010525618516597,2.7010525618516597,2.7010525618516597,2.7010525618516597,2.7010525618516597,E-W,0.0002384185791015625,14.611,N-S,0.0002384185791015625,11.179
19960608161500.knt,FKS0179606081615.UD,1996-06-08, 16:15:00,36.47,140.597,54,4.1,FKS017,37.2842,140.3689,263,1996-06-08, 16:15:26,100Hz,59,U-D,0.0002384185791015625,2.567,92.78034245178844,234,242.0,23.04251125145932,7.181965825286063,7.557229544896671,8.602819864276222,9.699936368045691,8.51852296934751,0.01163314294342518,0.01163314294342518,0.01163314294342518,0.01163314294342518,0.01163314294342518,1.0760847971930454,1.0279904265670783,1.0279904265670783,1.0279904265670783,0.9498201301351632,E-W,0.0002384185791015625,3.602,N-S,0.0002384185791015625,3.427
19960608161500.knt,FKS0249606081615.UD,1996-06-08, 16:15:00,36.47,140.597,54,4.1,FKS024,37.3957,140.1325,527,1996-06-08, 16:15:30,100Hz,59,U-D,0.0002384185791015625,1.7,110.9038288710392,30,25.0,24.43191549602567,0.4734360952970524,0.46743070537246156,0.4812354003721095,0.48360925478262323,0.21558356043684454,0.001122211414074432,0.001122211414074432,0.001122211414074432,0.001122211414074432,0.0005439330464580282,1.0608248817797212,1.0608248817797212,1.0608248817797212,1.0608248817797212,1.0608248817797212,E-W,0.0002384185791015625,3.006,N-S,0.0002384185791015625,3.372
19960608161500.knt,GNM0019606081615.UD,1996-06-08, 16:15:00,36.47,140.597,54,4.1,GNM001,36.7722,139.2248,810,1996-06-08, 16:15:20,100Hz,59,U-D,0.0002384185791015625,3.989,126.98699142529769,1289,1207.0,23.474769778962216,2.8013172755984486,2.464702917781201,1.7660433482895999,0.8494961282713478,0.24172716119584567,0.007100040363847253,0.007100040363847253,0.006950692098046823,0.004162255238534827,0.0010251753735844294,3.5525985813122336,3.5525985813122336,3.5525985813122336,3.5525985813122336,2.0247094404177792,E-W,0.0002384185791015625,8.747,N-S,0.0002384185791015625,8.227
19960608161500.knt,GNM0039606081615.UD,1996-06-08, 16:15:00,36.47,140.597,54,4.1,GNM003,36.6578,139.0784,462,1996-06-08, 16:15:38,100Hz,59,U-D,0.0002384185791015625,1.707,137.22431035853018,0,-100.0,,0.0,0.0,0.0,0.0,0.0,0.0,0.0,0.0,0.0,0.0,0.0,0.0,0.0,0.0,0.0,E-W,0.0002384185791015625,2.448,N-S,0.0002384185791015625,2.762
19960608161500.knt,GNM0099606081615.UD,1996-06-08, 16:15:00,36.47,140.597,54,4.1,GNM009,36.4106,139.3251,114,1996-06-08, 16:15:30,100Hz,59,U-D,0.0002384185791015625,4.392,113.96684634962563,104,103.0,18.300441285239565,10.890186260860787,12.309532719351338,12.685386413335372,10.537586950283563,6.758782909978136,0.04155735503776063,0.04155735503776063,0.04155735503776063,0.04143185655551519,0.03469793869041635,4.213556146073496,4.213556146073496,4.213556146073496,4.213556146073496,4.213556146073496,E-W,0.0002384185791015625,13.319,N-S,0.0002384185791015625,11.747
19960608161500.knt,GNM0109606081615.UD,1996-06-08, 16:15:00,36.47,140.597,54,4.1,GNM010,36.2343,139.5331,22,1996-06-08, 16:15:27,100Hz,59,U-D,0.0002384185791015625,3.112,98.81608703240393,0,-100.0,,0.0,0.0,0.0,0.0,0.0,0.0,0.0,0.0,0.0,0.0,0.0,0.0,0.0,0.0,0.0,E-W,0.0002384185791015625,4.473,N-S,0.0002384185791015625,2.866
19960608161500.knt,IBR0019606081615.UD,1996-06-08, 16:15:00,36.47,140.597,54,4.1,IBR001,36.7761,140.3569,105,1996-06-08, 16:15:10,100Hz,59,U-D,0.0002384185791015625,14.232,40.2196538570329,1277,1272.0,30.439736572192743,0.6513129962732872,0.7206738623706418,0.7883513656892095,0.6822116885437363,0.702247553148947,0.0033141830774143398,0.0033141830774143398,0.0033141830774143398,0.0033141830774143398,0.0033141830774143398,3.6703588389254866,3.4174639825800788,3.4174639825800788,3.4174639825800788,2.4889194919697437,E-W,0.0002384185791015625,23.102,N-S,0.0002384185791015625,17.32
19960608161500.knt,IBR0039606081615.UD,1996-06-08, 16:15:00,36.47,140.597,54,4.1,IBR003,36.5915,140.6453,58,1996-06-08, 16:15:07,100Hz,59,U-D,0.0002384185791015625,10.44,14.182707573063876,1400,911.0,28.936333451653702,2.1039986081060515,2.2442054703985117,2.3507047732708406,2.160175068279238,1.5685633889195532,0.00960472519780095,0.00960472519780095,0.00960472519780095,0.00960472519780095,0.009086748428450591,5.066896900033816,3.972266279411359,3.972266279411359,3.972266279411359,3.972266279411359,E-W,0.0002384185791015625,18.033,N-S,0.0002384185791015625,22.797
19960608161500.knt,IBR0049606081615.UD,1996-06-08, 16:15:00,36.47,140.597,54,4.1,IBR004,36.5273,140.4094,51,1996-06-08, 16:15:12,100Hz,59,U-D,0.0002384185791015625,14.513,17.938530148220757,956,960.0,35.97708983247323,3.9283498243891595,5.047834603002875,6.072110246663571,6.591165507762104,6.400601066661492,0.020719817414450885,0.020719817414450885,0.020719817414450885,0.020719817414450885,0.020719817414450885,6.265963318822856,5.056027436747335,4.342635298842624,3.564470595381824,3.564470595381824,E-W,0.0002384185791015625,95.914,N-S,0.0002384185791015625,79.997
19960608161500.knt,IBR0059606081615.UD,1996-06-08, 16:15:00,36.47,140.597,54,4.1,IBR005,36.3851,140.2372,63,1996-06-08, 16:15:11,100Hz,59,U-D,0.0002384185791015625,27.921,33.546427002386885,0,-100.0,,0.0,0.0,0.0,0.0,0.0,0.0,0.0,0.0,0.0,0.0,0.0,0.0,0.0,0.0,0.0,E-W,0.0002384185791015625,63.58,N-S,0.0002384185791015625,42.043
19960608161500.knt,IBR0069606081615.UD,1996-06-08, 16:15:00,36.47,140.597,54,4.1,IBR006,36.369,140.4528,20,1996-06-08, 16:15:11,100Hz,59,U-D,0.0002384185791015625,9.995,17.105766715953457,1056,1062.0,28.86565836769563,1.3517041255389042,1.5974576551271487,1.93687293456745,2.871664953675266,2.843032684237721,0.007505074672934061,0.007505074672934061,0.007505074672934061,0.007505074672934061,0.007505074672934061,5.803510662364743,5.033889193689315,4.877658880532401,3.1350526473215283,2.5775462668175955,E-W,0.0002384185791015625,16.207,N-S,0.0002384185791015625,23.946
19960608161500.knt,IBR0079606081615.UD,1996-06-08, 16:15:00,36.47,140.597,54,4.1,IBR007,36.3523,140.5955,24,1996-06-08, 16:15:13,100Hz,299,U-D,0.0002384185791015625,5.303,13.088331204234324,804,806.0,20.2153415495215,4.927541484371042,5.080493259182119,4.941623898573175,4.539866592467374,3.467820407188389,0.013432143498989177,0.013432143498989177,0.013432143498989177,0.013432143498989177,0.013432143498989177,2.555562015136762,2.555562015136762,2.555562015136762,2.555562015136762,2.555562015136762,E-W,0.0002384185791015625,8.608,N-S,0.0002384185791015625,8.912
19960608161500.knt,IBR0089606081615.UD,1996-06-08, 16:15:00,36.47,140.597,54,4.1,IBR008,36.3062,139.9828,20,1996-06-08, 16:15:19,100Hz,59,U-D,0.0002384185791015625,8.465,57.9176721687927,564,34.0,14.072564805949085,7.592973398179292,6.992110987644413,5.716191060503124,3.612981731448323,1.3324198328558534,0.019160641350436124,0.019160641350436124,0.01824261477921086,0.015503836089994222,0.006814901662812046,4.158118319004289,2.94946618297835,2.94946618297835,2.94946618297835,1.8317004845058116,E-W,0.0002384185791015625,15.412,N-S,0.0002384185791015625,18.161
19960608161500.knt,IBR0099606081615.UD,1996-06-08, 16:15:00,36.47,140.597,54,4.1,IBR009,36.1848,139.7037,17,1996-06-08, 16:15:25,100Hz,59,U-D,0.0002384185791015625,1.584,86.07922473281681,238,244.0,22.867471594196168,9.75358201070234,10.872500195898436,13.064082929214509,13.917982579344294,13.645632488612572,0.01115665233550517,0.01115665233550517,0.01115665233550517,0.01115665233550517,0.011103460800804066,1.079318758943938,1.079318758943938,1.079318758943938,1.079318758943938,0.8868998405700518,E-W,0.0002384185791015625,5.42,N-S,0.0002384185791015625,3.293
19960608161500.knt,IBR0109606081615.UD,1996-06-08, 16:15:00,36.47,140.597,54,4.1,IBR010,36.1843,139.9653,23,1996-06-08, 16:15:20,100Hz,59,U-D,0.0002384185791015625,4.873,64.89722049838188,514,513.0,27.982734833510325,7.385677395162171,5.785079135080963,3.944294442327199,2.5706653723003487,2.631053298811209,0.018853723980973063,0.017917059718402132,0.014037556572058471,0.01216235183626953,0.01216235183626953,2.304870035986369,2.304870035986369,2.304870035986369,2.304870035986369,2.304870035986369,E-W,0.0002384185791015625,10.18,N-S,0.0002384185791015625,9.102
19960608161500.knt,IBR0119606081615.UD,1996-06-08, 16:15:00,36.47,140.597,54,4.1,IBR011,36.1251,140.0903,26,1996-06-08, 16:15:19,100Hz,59,U-D,0.0002384185791015625,2.154,59.437389035587124,554,547.0,32.70165020323365,2.9623319147325904,2.88049367916208,2.574041372802852,2.7378445252916648,3.0379635471274993,0.003676665915432155,0.0036137986776450556,0.0036137986776450556,0.0036137986776450556,0.0036137986776450556,1.178736468685583,0.7888981078259809,0.7888981078259809,0.7888981078259809,0.7888981078259809,E-W,0.0002384185791015625,7.702,N-S,0.0002384185791015625,10.571
19960608161500.knt,IBR0139606081615.UD,1996-06-08, 16:15:00,36.47,140.597,54,4.1,IBR013,36.1587,140.4892,28,1996-06-08, 16:15:14,100Hz,59,U-D,0.0002384185791015625,8.827,35.937270613403086,0,-100.0,,0.0,0.0,0.0,0.0,0.0,0.0,0.0,0.0,0.0,0.0,0.0,0.0,0.0,0.0,0.0,E-W,0.0002384185791015625,15.383,N-S,0.0002384185791015625,18.36
19960608161500.knt,IBR0149606081615.UD,1996-06-08, 16:15:00,36.47,140.597,54,4.1,IBR014,36.0729,140.1947,11,1996-06-08, 16:15:18,100Hz,59,U-D,0.0002384185791015625,3.529,57.01230950291752,630,630.0,29.250175393939767,10.708147777305122,10.183858616932875,8.407101167159732,5.991513719993093,3.7581890235537254,0.0236810943684218,0.0236810943684218,0.022656358209856443,0.020069284216442763,0.013508502922243305,2.1678624632917898,2.1678624632917898,2.1678624632917898,2.1678624632917898,2.1678624632917898,E-W,0.0002384185791015625,7.705,N-S,0.0002384185791015625,16.896
19960608161500.knt,IBR0159606081615.UD,1996-06-08, 16:15:00,36.47,140.597,54,4.1,IBR015,36.0693,139.908,14,1996-06-08, 16:15:23,100Hz,59,U-D,0.0002384185791015625,4.889,76.16136474775529,345,343.0,22.754650438711025,7.826572668188398,6.4126451196345435,6.0677786837630725,7.774465932549255,11.221707124030754,0.013170615461657337,0.012482383558405872,0.012482383558405872,0.012482383558405872,0.012482383558405872,1.3298825821801414,1.3298825821801414,1.3298825821801414,1.3298825821801414,1.3298825821801414,E-W,0.0002384185791015625,9.867,N-S,0.0002384185791015625,16.704
